{"type":"FeatureCollection","features":[{"type":"Feature","id":167582935,"properties":{"kind":"run","name":"Burnt Hut Spur","subtype":"easy","pisteType":"downhill"},"geometry":{"type":"LineString","coordinates":[[146.4399969,-37.1421536],[146.4401216,-37.1419684],[146.4401787,-37.1417286],[146.4402601,-37.1413103],[146.4403451,-37.140877],[146.440436,-37.1403652],[146.4405046,-37.1400388],[146.4405478,-37.1398333],[146.440623,-37.1394654],[146.4407075,-37.1389194],[146.4407659,-37.1385527],[146.440821,-37.1381645],[146.4408684,-37.137803],[146.4408845,-37.1374938],[146.4408786,-37.1374248],[146.4408218,-37.1373442],[146.4407408,-37.1372773],[146.4406579,-37.1372387],[146.4404822,-37.137223],[146.440143,-37.1372214],[146.4398153,-37.1372489],[146.4394315,-37.1373469],[146.439034,-37.1374505],[146.4387755,-37.1375267],[146.4384003,-37.1377043],[146.4382812,-37.1377806],[146.4382186,-37.1378803],[146.4381518,-37.1380368]]}},{"type":"Feature","id":167582938,"properties":{"kind":"run","name":"Cattleman's Trail","subtype":"advanced","pisteType":"downhill"},"geometry":{"type":"LineString","coordinates":[[146.4408786,-37.1374248],[146.4409265,-37.1373743],[146.440991,-37.1373306],[146.4410634,-37.1373169],[146.4412084,-37.1373145],[146.4414368,-37.1373126],[146.4415887,-37.1373038],[146.4417766,-37.1372894],[146.4419376,-37.1372788],[146.4421357,-37.1372833],[146.4422463,-37.1372932],[146.4423363,-37.1373146],[146.4424759,-37.1373689],[146.4425645,-37.1374174],[146.4427019,-37.1374883],[146.4427583,-37.137527],[146.4428317,-37.1375987],[146.4429393,-37.1378643],[146.4432623,-37.1386193],[146.4435387,-37.139071],[146.4436825,-37.139434],[146.4437572,-37.1396846],[146.4438937,-37.1397548],[146.4440439,-37.1397896],[146.4444458,-37.1398593],[146.4447629,-37.1399443]]}},{"type":"Feature","id":167582945,"properties":{"kind":"run","name":"Wattle Wiggle","subtype":"advanced","pisteType":"downhill"},"geometry":{"type":"LineString","coordinates":[[146.4459896,-37.1426031],[146.4460046,-37.1424222],[146.4460361,-37.1422967],[146.4460951,-37.1421367],[146.4461856,-37.1420174],[146.4462978,-37.1419186],[146.4463884,-37.1418307],[146.4464572,-37.1416958],[146.4464887,-37.1415687],[146.4465279,-37.1414468]]}},{"type":"Feature","id":167582949,"properties":{"kind":"run","name":"Cow Camp","subtype":"advanced","pisteType":"downhill"},"geometry":{"type":"LineString","coordinates":[[146.4459896,-37.1426031],[146.4463449,-37.1424922],[146.4468449,-37.1424515],[146.4473015,-37.1423887],[146.4477935,-37.1422632],[146.4482029,-37.1421439],[146.448628,-37.142009],[146.4490611,-37.1418678],[146.4494468,-37.1417768],[146.4498444,-37.1417266],[146.4499054,-37.1417173],[146.4501947,-37.1416733],[146.4504427,-37.1415854],[146.4505766,-37.1414505],[146.450671,-37.141303],[146.4507576,-37.1411618],[146.4508954,-37.141052],[146.4509197,-37.1410169],[146.4509497,-37.1409545],[146.4509703,-37.140916],[146.4510097,-37.1408549],[146.451055,-37.140796],[146.451115,-37.1407584],[146.451177,-37.140734],[146.4512299,-37.1407253]]}},{"type":"Feature","id":167582955,"properties":{"kind":"run","name":"Dam Run","subtype":"advanced","pisteType":"downhill"},"geometry":{"type":"LineString","coordinates":[[146.4399969,-37.1421536],[146.4402072,-37.1421162],[146.440323,-37.1420622],[146.4404711,-37.1419919],[146.4406787,-37.1417915],[146.4409154,-37.1415645],[146.4411325,-37.1413248],[146.4414276,-37.1411163],[146.4417393,-37.1409698],[146.4418425,-37.1409343],[146.4419722,-37.1408994],[146.4421729,-37.1408473],[146.4423203,-37.1408158],[146.4427056,-37.1407567],[146.4429439,-37.1407041],[146.4431777,-37.1406403],[146.4435987,-37.1404906],[146.4439383,-37.1403308],[146.444378,-37.1401134],[146.4446659,-37.1399756],[146.4447629,-37.1399443],[146.4448622,-37.1399355],[146.4449526,-37.1399428],[146.4451579,-37.1399379],[146.4452993,-37.1399381],[146.4454103,-37.1399355],[146.4455702,-37.1399598],[146.4456991,-37.1399967],[146.4458221,-37.1400461],[146.4458959,-37.1400799],[146.4459757,-37.1401128],[146.4460377,-37.1401371],[146.446054,-37.1401397],[146.4460977,-37.1401465],[146.4461833,-37.1401473],[146.446293,-37.1401386],[146.4464822,-37.140103],[146.4466154,-37.1400344],[146.4470033,-37.1398788],[146.4470915,-37.1398468],[146.4471806,-37.1398275],[146.447264,-37.1398162],[146.4473604,-37.1398151],[146.448005,-37.1398331],[146.4483476,-37.1398221],[146.448782,-37.1397963],[146.4489547,-37.1398047],[146.4492167,-37.1398247],[146.4493878,-37.1398582],[146.4497901,-37.1399743],[146.4500166,-37.1400427],[146.450162,-37.1400954],[146.4503899,-37.1401779],[146.4505141,-37.1402463]]}},{"type":"Feature","id":167582958,"properties":{"kind":"run","name":"Hogg's Back","subtype":"advanced","pisteType":"downhill"},"geometry":{"type":"LineString","coordinates":[[146.4386279,-37.1477737],[146.439154,-37.148064],[146.4398744,-37.1483509],[146.4402065,-37.148479],[146.4405133,-37.1485973],[146.440955,-37.1489098],[146.4413662,-37.1494437],[146.4418846,-37.1500188],[146.4426796,-37.1507503],[146.4428205,-37.1508804],[146.4428966,-37.1511348]]}},{"type":"Feature","id":167582971,"properties":{"kind":"run","name":"Men's Downhill","subtype":"advanced","pisteType":"downhill"},"geometry":{"type":"LineString","coordinates":[[146.4344665,-37.1476659],[146.4352633,-37.1483033],[146.4358524,-37.1487473],[146.4363723,-37.1490738],[146.4369666,-37.1493637],[146.4373141,-37.1494746],[146.4375878,-37.1494908],[146.4379721,-37.1495099],[146.4382352,-37.14958],[146.4384155,-37.1497754],[146.4386847,-37.150148],[146.438937,-37.1504542],[146.4392657,-37.1509546],[146.4395354,-37.1513923],[146.4397538,-37.1517249],[146.4397621,-37.1518062],[146.4397427,-37.1518844],[146.4396627,-37.1519178],[146.4395892,-37.1519347]]}},{"type":"Feature","id":167582985,"properties":{"kind":"run","name":"Skyline","subtype":"intermediate","pisteType":"downhill"},"geometry":{"type":"LineString","coordinates":[[146.4372116,-37.1474167],[146.4373953,-37.1474208],[146.4375323,-37.1474082],[146.4379968,-37.147405],[146.4384475,-37.147427],[146.4389612,-37.1474709],[146.4394611,-37.1475007],[146.4401403,-37.1475052],[146.4407193,-37.1475096],[146.4412481,-37.1475584],[146.4417714,-37.1476028],[146.4422335,-37.1476605],[146.4424861,-37.1477015],[146.4428108,-37.1477833],[146.4428331,-37.1478031],[146.4428473,-37.1478266],[146.4428087,-37.1479081]]}},{"type":"Feature","id":167582991,"properties":{"kind":"run","name":"Sun Valley","subtype":"advanced","pisteType":"downhill"},"geometry":{"type":"LineString","coordinates":[[146.4383451,-37.1489349],[146.4397197,-37.1493616],[146.4399031,-37.1495015],[146.4399483,-37.1495969],[146.4399824,-37.1496679],[146.4400903,-37.149725],[146.440194,-37.1497522],[146.440457,-37.149882],[146.4407844,-37.1499913],[146.4410277,-37.1501354],[146.4414663,-37.1504821],[146.4419791,-37.1507095],[146.4424472,-37.150861],[146.442632,-37.1509336],[146.4427707,-37.151039],[146.4428966,-37.1511348],[146.4430958,-37.151306],[146.4433445,-37.1515943],[146.4434632,-37.151791],[146.443547,-37.1520922],[146.4435195,-37.1521389],[146.4434302,-37.1521871]]}},{"type":"Feature","id":167582997,"properties":{"kind":"run","name":"Waler","subtype":"intermediate","pisteType":"downhill"},"geometry":{"type":"LineString","coordinates":[[146.4396613,-37.1389468],[146.4397169,-37.1388032],[146.4398145,-37.1386979],[146.4399121,-37.1385697],[146.4399581,-37.1384393],[146.4399897,-37.1382882],[146.4400184,-37.1381303],[146.4400959,-37.1379655],[146.4401849,-37.1378281],[146.4402136,-37.1377366],[146.440205,-37.1376107],[146.440166,-37.1374527]]}},{"type":"Feature","id":167583000,"properties":{"kind":"run","name":"Waler","subtype":"intermediate","pisteType":"downhill"},"geometry":{"type":"LineString","coordinates":[[146.440436,-37.1403652],[146.4402515,-37.1399681],[146.4401618,-37.1397881],[146.4400349,-37.1396816],[146.4399131,-37.1395262],[146.4397628,-37.1393061],[146.4397182,-37.139099],[146.43971,-37.1390019],[146.4396613,-37.1389468],[146.4395801,-37.138908],[146.4394096,-37.1388433],[146.4393324,-37.1387753],[146.4392837,-37.1386717],[146.4392472,-37.1385358],[146.4392228,-37.1383836],[146.4392228,-37.1382606]]}},{"type":"Feature","id":167583005,"properties":{"kind":"run","name":"Tirol","subtype":"intermediate","pisteType":"downhill"},"geometry":{"type":"LineString","coordinates":[[146.4396592,-37.1445289],[146.4399131,-37.1445055],[146.4404986,-37.144375],[146.4410646,-37.1442009],[146.4414215,-37.1440814],[146.4420394,-37.143863],[146.4426396,-37.1436589],[146.4439564,-37.1432029],[146.4445923,-37.1429976],[146.4449131,-37.1428765],[146.4451965,-37.1427729],[146.4455547,-37.1426505],[146.4457859,-37.1426049],[146.4459896,-37.1426031]]}},{"type":"Feature","id":167583013,"properties":{"kind":"run","name":"Women's Downhill","subtype":"advanced","pisteType":"downhill"},"geometry":{"type":"LineString","coordinates":[[146.4370465,-37.1476698],[146.4373007,-37.1478507],[146.4376694,-37.1481143],[146.438064,-37.1485735],[146.4383451,-37.1489349],[146.4386462,-37.1492258],[146.4390058,-37.1495187],[146.439238,-37.1496927],[146.4393564,-37.1498718],[146.4394165,-37.1500392],[146.4395,-37.150239]]}},{"type":"Feature","id":167583017,"properties":{"kind":"run","name":"Yurredla","subtype":"advanced","pisteType":"downhill"},"geometry":{"type":"LineString","coordinates":[[146.4343505,-37.1478642],[146.4346987,-37.1481894],[146.4350837,-37.148555],[146.435441,-37.1488213],[146.4358373,-37.1492036],[146.4360736,-37.1494993],[146.4361869,-37.1497834],[146.4363432,-37.1499351],[146.4364859,-37.1500451],[146.4366849,-37.1501444],[146.4368008,-37.1502516],[146.436827,-37.1503727],[146.4367831,-37.1507548],[146.4368075,-37.1508853],[146.436888,-37.1510118],[146.4369035,-37.1511576],[146.4368608,-37.1513407],[146.4369667,-37.1514429],[146.4377591,-37.1516906],[146.4384573,-37.1516379],[146.4386264,-37.1516589],[146.4386942,-37.1516794],[146.4387772,-37.1517044],[146.4389896,-37.1517915],[146.4390441,-37.1518219],[146.4392191,-37.1519195],[146.4395892,-37.1519347]]}},{"type":"Feature","id":212935106,"properties":{"kind":"run","name":"Boulders","subtype":"advanced","pisteType":"downhill"},"geometry":{"type":"LineString","coordinates":[[146.4386961,-37.1521849],[146.439092,-37.1524834],[146.4392459,-37.1526207],[146.4394926,-37.1528601],[146.4395785,-37.1531166],[146.4395677,-37.1533903],[146.4394926,-37.1537922],[146.4393639,-37.1541684],[146.4392934,-37.1543776]]}},{"type":"Feature","id":212935108,"properties":{"kind":"run","name":"Rough Cut","subtype":"advanced","pisteType":"downhill"},"geometry":{"type":"LineString","coordinates":[[146.4386942,-37.1516794],[146.4386978,-37.1519801],[146.4386961,-37.1521849],[146.4386343,-37.1529884],[146.4384841,-37.1534501],[146.4382803,-37.1537665],[146.4381092,-37.1543534]]}},{"type":"Feature","id":212937499,"properties":{"kind":"run","name":"Fall Line","subtype":"advanced","pisteType":"downhill"},"geometry":{"type":"LineString","coordinates":[[146.4456635,-37.1501689],[146.4453747,-37.1505555],[146.4450824,-37.1508249],[146.4448571,-37.1511071],[146.4446854,-37.1513294],[146.4445081,-37.1516135],[146.4443707,-37.1519792],[146.4441968,-37.1520836],[146.4439556,-37.152168],[146.4436043,-37.1522189]]}},{"type":"Feature","id":212937949,"properties":{"kind":"run","name":"Funnel","subtype":"advanced","pisteType":"downhill"},"geometry":{"type":"LineString","coordinates":[[146.4429682,-37.1478189],[146.4429883,-37.1480824],[146.4430053,-37.148371],[146.4429351,-37.1486889],[146.4428913,-37.1491102],[146.4429621,-37.1495118],[146.4430019,-37.1499673],[146.4428954,-37.1506534],[146.4428966,-37.1511348]]}},{"type":"Feature","id":212937951,"properties":{"kind":"run","name":"Wood Run","subtype":"advanced","pisteType":"downhill"},"geometry":{"type":"LineString","coordinates":[[146.443374,-37.148061],[146.443331,-37.14845],[146.4434082,-37.1487284],[146.443716,-37.1492308],[146.4438691,-37.1496234],[146.4439091,-37.1498281],[146.4438652,-37.1503102],[146.4436778,-37.1507971],[146.4437091,-37.1517057],[146.4436599,-37.1518687],[146.443547,-37.1520922]]}},{"type":"Feature","id":212938226,"properties":{"kind":"run","name":"Plug Hole","subtype":"expert","pisteType":"downhill"},"geometry":{"type":"LineString","coordinates":[[146.4402065,-37.148479],[146.4409583,-37.1484036],[146.441524,-37.148415],[146.4417155,-37.1485563],[146.4418676,-37.1489797],[146.4420241,-37.1493108],[146.4422172,-37.1497148],[146.4424149,-37.1500906],[146.4428954,-37.1506534]]}},{"type":"Feature","id":212938653,"properties":{"kind":"run","name":"Lydia\u2019s Access","subtype":"intermediate","pisteType":"downhill"},"geometry":{"type":"LineString","coordinates":[[146.4467362,-37.1531826],[146.4468395,-37.1534651],[146.4469822,-37.1535486],[146.4470826,-37.1535737],[146.4471915,-37.1535666],[146.4472561,-37.1535487],[146.4473428,-37.1534681],[146.4474282,-37.1533132],[146.4476838,-37.1526634],[146.4478111,-37.1520388],[146.447921,-37.1517382],[146.4480832,-37.1515119],[146.4483778,-37.1512599],[146.4485572,-37.1510991],[146.4486514,-37.1509429],[146.4486737,-37.150906]]}},{"type":"Feature","id":212938655,"properties":{"kind":"run","name":"Cut 73","subtype":"advanced","pisteType":"downhill"},"geometry":{"type":"LineString","coordinates":[[146.4455922,-37.1506786],[146.4459139,-37.1509218],[146.4462733,-37.1512183],[146.4465871,-37.1514192],[146.4467695,-37.1514919],[146.4470753,-37.1514919],[146.4473891,-37.1514064],[146.4475446,-37.1514192],[146.4477887,-37.151509],[146.4479416,-37.1515218],[146.4480832,-37.1515119]]}},{"type":"Feature","id":212940128,"properties":{"kind":"run","name":"Chamois Lower","subtype":"advanced","pisteType":"downhill"},"geometry":{"type":"LineString","coordinates":[[146.4500847,-37.14864],[146.4499533,-37.1486445],[146.4497601,-37.1486659],[146.4494973,-37.148683],[146.4493364,-37.1487214],[146.4491969,-37.1488326],[146.4491593,-37.1489951],[146.4493578,-37.1493329],[146.449449,-37.149508],[146.4495724,-37.149679],[146.4495617,-37.1499398],[146.4494973,-37.1500937],[146.4493203,-37.1502434],[146.4491531,-37.1504127],[146.4490628,-37.1505042]]}},{"type":"Feature","id":212940129,"properties":{"kind":"run","name":"Elephant Run","subtype":"advanced","pisteType":"downhill"},"geometry":{"type":"LineString","coordinates":[[146.4509886,-37.1481399],[146.4509993,-37.1483494],[146.451053,-37.1484521],[146.4511388,-37.1486145],[146.451289,-37.1488112],[146.4514553,-37.149055],[146.4515089,-37.1492687],[146.4515465,-37.1494567],[146.4514714,-37.1496747],[146.4513748,-37.1497773],[146.4511066,-37.1499826],[146.4505487,-37.1501921],[146.4501866,-37.1502605],[146.4497387,-37.1503118],[146.4493364,-37.1504144],[146.4490628,-37.1505042],[146.4488857,-37.1506282]]}},{"type":"Feature","id":212940130,"properties":{"kind":"run","name":"Chamois Upper","subtype":"intermediate","pisteType":"downhill"},"geometry":{"type":"LineString","coordinates":[[146.4514982,-37.1468614],[146.4514982,-37.1469427],[146.4514607,-37.1470752],[146.4514231,-37.1472035],[146.4512944,-37.1475242],[146.4511978,-37.1477337],[146.4510744,-37.1480031],[146.4509886,-37.1481399],[146.4508679,-37.1483278],[146.4507231,-37.1484989],[146.4505541,-37.1486017],[146.4504361,-37.1486316],[146.4503261,-37.1486314],[146.4500847,-37.14864]]}},{"type":"Feature","id":212943905,"properties":{"kind":"run","name":"Baldy","subtype":"novice","pisteType":"downhill"},"geometry":{"type":"LineString","coordinates":[[146.4349007,-37.1464896],[146.4350616,-37.1466094],[146.4353942,-37.146712],[146.4362525,-37.1468317],[146.4372289,-37.1468574],[146.4382374,-37.1468488],[146.4391279,-37.1467975],[146.4409518,-37.1468574],[146.4418877,-37.1468557],[146.4427787,-37.1468214]]}},{"type":"Feature","id":212943912,"properties":{"kind":"run","name":"Shakey Knees","subtype":"intermediate","pisteType":"downhill"},"geometry":{"type":"LineString","coordinates":[[146.4396117,-37.1452732],[146.4397979,-37.1455147],[146.4401277,-37.145871],[146.4403695,-37.1460024],[146.4407469,-37.1461572],[146.4411096,-37.1462215],[146.441542,-37.1462127],[146.4422339,-37.146123],[146.4427683,-37.1459011],[146.4429337,-37.1457736],[146.4431023,-37.1456437],[146.443288,-37.145397],[146.4433361,-37.1453331],[146.443492,-37.145058],[146.4437592,-37.1446586],[146.4440598,-37.1443746],[146.4444495,-37.1440906],[146.4448264,-37.1439067],[146.4449951,-37.1438244],[146.4453898,-37.1436286],[146.4454961,-37.1435759],[146.4458874,-37.1433464],[146.4460684,-37.1431706],[146.446223,-37.14294],[146.4462741,-37.142769],[146.4462574,-37.1426662],[146.4461787,-37.1426207],[146.4460794,-37.1426024],[146.4459896,-37.1426031]]}},{"type":"Feature","id":212944268,"properties":{"kind":"run","name":"Summit Slide","subtype":"intermediate","pisteType":"downhill"},"geometry":{"type":"LineString","coordinates":[[146.4285069,-37.1441806],[146.4287858,-37.1441041],[146.4294081,-37.1439843],[146.4300089,-37.1437791],[146.4312964,-37.1433938],[146.4320946,-37.143163],[146.4322727,-37.1431116],[146.4329486,-37.1427524],[146.4335494,-37.1423248],[146.4338927,-37.142034],[146.4341068,-37.141786],[146.4341953,-37.1415845],[146.4341309,-37.1414563]]}},{"type":"Feature","id":212945265,"properties":{"kind":"run","name":"Ridge Run","subtype":"advanced","pisteType":"downhill"},"geometry":{"type":"LineString","coordinates":[[146.4280992,-37.1439668],[146.4288377,-37.1430901],[146.4294487,-37.1422343],[146.4298337,-37.1418038],[146.4299904,-37.1414325],[146.4302297,-37.141144],[146.4306734,-37.140467],[146.4309211,-37.1400946],[146.4310181,-37.1399799],[146.4312234,-37.1398826],[146.4314036,-37.1399215],[146.4316397,-37.1401781],[146.4318221,-37.1404774],[146.4320796,-37.1409735],[146.432337,-37.1413156],[146.4324336,-37.1413925],[146.432661,-37.1415165]]}},{"type":"Feature","id":212945269,"properties":{"kind":"run","name":"SCV Hut Run","subtype":"advanced","pisteType":"downhill"},"geometry":{"type":"LineString","coordinates":[[146.4282601,-37.1439753],[146.4284425,-37.1438043],[146.4287214,-37.1435905],[146.4305024,-37.1424188],[146.4316075,-37.1417774],[146.432101,-37.1415636],[146.4325087,-37.1415123],[146.432661,-37.1415165],[146.4328198,-37.1415208],[146.4332275,-37.1415465],[146.4333992,-37.1415465],[146.4336352,-37.141461],[146.4338069,-37.1413583]]}},{"type":"Feature","id":212945999,"properties":{"kind":"run","name":"Boggy 3","subtype":"intermediate","pisteType":"downhill"},"geometry":{"type":"LineString","coordinates":[[146.43452,-37.1460937],[146.4352576,-37.145605],[146.4356534,-37.1453573],[146.4361995,-37.145018],[146.4365341,-37.1446934],[146.4365507,-37.1441915],[146.4364381,-37.1435139],[146.4362323,-37.1431216],[146.4358644,-37.1427394],[146.4356651,-37.1426023],[146.4352947,-37.1424079],[146.4347612,-37.142128],[146.434375,-37.1420511]]}},{"type":"Feature","id":212946000,"properties":{"kind":"run","name":"Vista","subtype":"intermediate","pisteType":"downhill"},"geometry":{"type":"LineString","coordinates":[[146.43452,-37.1460937],[146.4345745,-37.145339],[146.4347257,-37.1448984],[146.4348927,-37.1447061],[146.4351823,-37.1443213],[146.4352467,-37.1439364],[146.4352333,-37.1435221],[146.4352789,-37.1432095],[146.4354076,-37.142876],[146.4353835,-37.142607],[146.4352947,-37.1424079]]}},{"type":"Feature","id":212946003,"properties":{"kind":"run","name":"Laycocks Lane","subtype":"intermediate","pisteType":"downhill"},"geometry":{"type":"LineString","coordinates":[[146.43452,-37.1460937],[146.4338535,-37.1451235],[146.4339271,-37.1446548],[146.4341068,-37.1442661],[146.4344509,-37.1435317],[146.4346499,-37.1429711],[146.4346432,-37.1424616],[146.4345467,-37.1422392],[146.4343562,-37.1421319]]}},{"type":"Feature","id":212946839,"properties":{"kind":"run","name":"Boggy Creek","subtype":"intermediate","pisteType":"downhill"},"geometry":{"type":"LineString","coordinates":[[146.4294565,-37.1458585],[146.4298478,-37.1458636],[146.4305396,-37.1457552],[146.4317304,-37.1456783],[146.432269,-37.1455563],[146.4329838,-37.1449553],[146.4331516,-37.1446435],[146.4332741,-37.1443363],[146.4336278,-37.1430757],[146.4340666,-37.1420132]]}},{"type":"Feature","id":212947986,"properties":{"kind":"run","name":"Home Trail","subtype":"intermediate","pisteType":"downhill"},"geometry":{"type":"LineString","coordinates":[[146.4454961,-37.1435759],[146.4456762,-37.1435699],[146.445895,-37.1436298],[146.4460796,-37.1437388],[146.4463484,-37.1438556],[146.4467883,-37.1439497],[146.4472603,-37.1439924],[146.4475869,-37.1441299],[146.447829,-37.1442319],[146.4480102,-37.1442597],[146.4483869,-37.1443174],[146.4484383,-37.1443075],[146.4486202,-37.1443079],[146.4490199,-37.1443345],[146.4492344,-37.1443174],[146.4494426,-37.1442475],[146.4497526,-37.1442211],[146.4499047,-37.1442038],[146.4501003,-37.1441429],[146.4502098,-37.1441398],[146.4503726,-37.1441462],[146.4506035,-37.1441278],[146.4508615,-37.1441008],[146.4509118,-37.1440946],[146.4512913,-37.1440479],[146.4513447,-37.144044],[146.4515867,-37.1440293],[146.4518438,-37.1439931],[146.4521363,-37.1439652],[146.4524476,-37.1439642],[146.4525991,-37.1439262],[146.4526599,-37.1438783],[146.4526875,-37.1438165],[146.4527002,-37.1436847],[146.452695,-37.1435679],[146.4526536,-37.1433662],[146.4526916,-37.1430196],[146.4527572,-37.1428295],[146.4528258,-37.1427353],[146.4531293,-37.1425079],[146.4535664,-37.1422464],[146.4539208,-37.142004],[146.4542413,-37.141821],[146.4545651,-37.1417556],[146.4547217,-37.1416817],[146.4547747,-37.1415263],[146.4546826,-37.1413331],[146.4543416,-37.1410005],[146.4537544,-37.1406801],[146.4534869,-37.1406207],[146.4531387,-37.1403759],[146.4528012,-37.1401056],[146.4525459,-37.1397178],[146.4523072,-37.1391709],[146.4522425,-37.138722],[146.4521892,-37.1384826],[146.4521657,-37.1384571],[146.4521603,-37.1384599],[146.4521404,-37.1385108],[146.4521301,-37.1385848],[146.4521306,-37.1387995],[146.4521453,-37.139113],[146.4521147,-37.1396772],[146.4521167,-37.1399691],[146.4521616,-37.1401572],[146.4522623,-37.1403609],[146.4526423,-37.140798],[146.4527135,-37.1409171],[146.4527512,-37.1410202],[146.4527081,-37.1411116],[146.4525919,-37.1411766],[146.4524557,-37.1412142],[146.4523031,-37.1412321],[146.4521676,-37.1412179],[146.4520785,-37.1411854],[146.4519993,-37.1411565],[146.451904,-37.1411091],[146.4517807,-37.1410164],[146.4517367,-37.1409939],[146.4516911,-37.1409808],[146.4516445,-37.1409744],[146.451547,-37.140968],[146.4513799,-37.1409804],[146.4512869,-37.1409719],[146.451273,-37.1409706],[146.4511817,-37.1409553],[146.4510875,-37.1409329],[146.4510144,-37.1409075],[146.4509725,-37.1408854],[146.450921,-37.1408342],[146.4508743,-37.140772],[146.4508347,-37.140718],[146.450798,-37.140553],[146.4507905,-37.1405069],[146.4507797,-37.14047],[146.4507549,-37.1404219],[146.4507205,-37.1403769],[146.4506711,-37.1403394],[146.4506017,-37.1402967],[146.4505141,-37.1402463]]}},{"type":"Feature","id":231539936,"properties":{"kind":"run","name":"Summit Nature Walk","subtype":"easy","pisteType":"downhill"},"geometry":{"type":"LineString","coordinates":[[146.4379731,-37.1441994],[146.4381409,-37.1440659],[146.438324,-37.1439438],[146.4384766,-37.1438026],[146.4386444,-37.1436768],[146.438797,-37.1435394],[146.4390106,-37.1434823],[146.4392395,-37.1434097],[146.4394531,-37.1433258],[146.4396515,-37.1432152],[146.4398498,-37.1431389],[146.4400482,-37.1430244],[146.4402008,-37.1428795],[146.4404531,-37.1427673],[146.4405367,-37.1427628],[146.4406128,-37.1427841],[146.4407288,-37.1428874]]}},{"type":"Feature","id":231539945,"properties":{"kind":"run","name":"Mapped ski run","subtype":"easy","pisteType":"downhill"},"geometry":{"type":"LineString","coordinates":[[146.4371159,-37.1462594],[146.4371638,-37.1461664],[146.437142,-37.1456832],[146.4370591,-37.1453912],[146.4371463,-37.1449671],[146.4372859,-37.1447446],[146.4376174,-37.1445117],[146.4379731,-37.1441994]]}},{"type":"Feature","id":261988798,"properties":{"kind":"run","name":"Lois Run","subtype":"advanced","pisteType":"downhill"},"geometry":{"type":"LineString","coordinates":[[146.4483501,-37.1478104],[146.4484949,-37.1479216],[146.44857,-37.1480969],[146.4487256,-37.1482124],[146.4490206,-37.1484433],[146.4491969,-37.1488326]]}},{"type":"Feature","id":261990027,"properties":{"kind":"run","name":"Village 2","subtype":"advanced","pisteType":"downhill"},"geometry":{"type":"LineString","coordinates":[[146.4509118,-37.1440946],[146.4511706,-37.1438427],[146.4513157,-37.1436733],[146.4515126,-37.1434172],[146.4516007,-37.1432809],[146.4516007,-37.1430992],[146.4515391,-37.1429593],[146.4513173,-37.1424976],[146.4511201,-37.1419769],[146.4511201,-37.1416448],[146.4511201,-37.1415545],[146.4512633,-37.1413661],[146.4514441,-37.14114],[146.451547,-37.140968]]}},{"type":"Feature","id":397959598,"properties":{"kind":"run","name":"Lower Men\u2019s","subtype":"advanced","pisteType":"downhill"},"geometry":{"type":"LineString","coordinates":[[146.4395892,-37.1519347],[146.4395988,-37.1520813],[146.4399946,-37.1524656],[146.4404774,-37.1530028],[146.4408457,-37.1534112],[146.44128,-37.1537736],[146.4413584,-37.1539083],[146.4412785,-37.1541411],[146.4410773,-37.1543326],[146.4408344,-37.1544648],[146.4406394,-37.154508],[146.4398899,-37.1544144],[146.4392934,-37.1543776],[146.438709,-37.1542637],[146.4381092,-37.1543534],[146.4379798,-37.1544226],[146.4379223,-37.1543637]]}},{"type":"Feature","id":397959599,"properties":{"kind":"run","name":"Poma Line","subtype":"advanced","pisteType":"downhill"},"geometry":{"type":"LineString","coordinates":[[146.4395,-37.150239],[146.4399093,-37.1504348],[146.4403329,-37.1507248],[146.4407305,-37.1511052],[146.4410642,-37.1513744],[146.4415383,-37.1517237],[146.4420573,-37.1520869],[146.4424428,-37.1525032]]}},{"type":"Feature","id":397959600,"properties":{"kind":"run","name":"Shakey Knees Access","subtype":"intermediate","pisteType":"downhill"},"geometry":{"type":"LineString","coordinates":[[146.4461206,-37.1458317],[146.4461274,-37.1455919],[146.4460659,-37.1454011],[146.4459428,-37.1451123],[146.4458403,-37.144927],[146.445642,-37.1446653],[146.4454642,-37.1444528],[146.445348,-37.1442893],[146.4452796,-37.1440985],[146.445274,-37.1439477],[146.4453206,-37.1437661],[146.4453898,-37.1436286]]}},{"type":"Feature","id":397959603,"properties":{"kind":"run","name":"Village 3","subtype":"advanced","pisteType":"downhill"},"geometry":{"type":"LineString","coordinates":[[146.4527572,-37.1428295],[146.4526214,-37.1427068],[146.4524815,-37.1424755],[146.4524608,-37.1423516],[146.4524038,-37.1421244],[146.4522743,-37.1419344],[146.4521447,-37.1416783],[146.4519737,-37.1414635],[146.4518338,-37.1413148],[146.4517354,-37.1411041],[146.4516445,-37.1409744]]}},{"type":"Feature","id":397959605,"properties":{"kind":"run","name":"Chalet Creek","subtype":"advanced","pisteType":"downhill"},"geometry":{"type":"LineString","coordinates":[[146.4404216,-37.1425739],[146.4410097,-37.1424359],[146.4413318,-37.1423596],[146.4415838,-37.1422656],[146.4417497,-37.1422274],[146.4420304,-37.1421664],[146.4422792,-37.1421588],[146.4425439,-37.1421181],[146.4427736,-37.1420545],[146.4430415,-37.141963],[146.4432808,-37.1419223],[146.4436316,-37.1418943],[146.4438485,-37.1418384],[146.4441834,-37.1417392],[146.4444354,-37.1416782],[146.4452265,-37.1416146],[146.4455199,-37.1416096],[146.445756,-37.1415994],[146.4461228,-37.1415536],[146.4463429,-37.1415129],[146.4465279,-37.1414468],[146.4466757,-37.1412807],[146.446889,-37.1411072],[146.447057,-37.1410201],[146.4472643,-37.1409503],[146.4473803,-37.1409207],[146.4477622,-37.1408611],[146.4480528,-37.1408252],[146.448247,-37.1407812],[146.4485251,-37.1406617],[146.4487564,-37.1405692],[146.4492003,-37.1404104],[146.4494199,-37.1403677],[146.4496432,-37.1403242],[146.4500908,-37.1402279],[146.4503899,-37.1401779]]}},{"type":"Feature","id":397959609,"properties":{"kind":"run","name":"Brumby","subtype":"intermediate","pisteType":"downhill"},"geometry":{"type":"LineString","coordinates":[[146.4392053,-37.1419885],[146.4389768,-37.1416898],[146.4388668,-37.141576],[146.438662,-37.141376],[146.438378,-37.1409969],[146.4383054,-37.1407548],[146.4383516,-37.140481],[146.4383975,-37.1402177],[146.4384837,-37.1397545],[146.4385498,-37.1393491],[146.4388974,-37.1388022],[146.4390691,-37.1384769],[146.4392228,-37.1382606]]}},{"type":"Feature","id":397959610,"properties":{"kind":"run","name":"Colt","subtype":"intermediate","pisteType":"downhill"},"geometry":{"type":"LineString","coordinates":[[146.4397395,-37.1420633],[146.4396459,-37.1420043],[146.4395775,-37.1419361],[146.4395174,-37.1418132],[146.4395338,-37.1415339],[146.439429,-37.1411136],[146.4392148,-37.1408939],[146.4391291,-37.1407098],[146.4390145,-37.1405586],[146.4386655,-37.140436],[146.4385037,-37.1403598],[146.4383975,-37.1402177]]}},{"type":"Feature","id":397959611,"properties":{"kind":"run","name":"Gliders","subtype":"easy","pisteType":"downhill"},"geometry":{"type":"LineString","coordinates":[[146.4398442,-37.1437082],[146.4398442,-37.1435818],[146.4399433,-37.1433292],[146.440148,-37.1430765],[146.4404782,-37.1428343]]}},{"type":"Feature","id":397959612,"properties":{"kind":"run","name":"Village Access","subtype":"novice","pisteType":"downhill"},"geometry":{"type":"LineString","coordinates":[[146.4399367,-37.1438188],[146.4402735,-37.1439662],[146.4406566,-37.1441662],[146.4410594,-37.1444189],[146.4415415,-37.1448243],[146.4420171,-37.1452717],[146.4425058,-37.1457561],[146.4429351,-37.146193],[146.4433776,-37.1465141],[146.4435796,-37.1466902]]}},{"type":"Feature","id":715026890,"properties":{"kind":"run","name":"Upper Boggy Creek Trail","subtype":"intermediate","pisteType":"downhill"},"geometry":{"type":"LineString","coordinates":[[146.4397395,-37.1420633],[146.439506,-37.1420088],[146.4393743,-37.1419863],[146.4392053,-37.1419885],[146.438634,-37.1420526],[146.4376684,-37.1421275],[146.4371293,-37.1421403],[146.4367297,-37.1422237],[146.4358955,-37.1424674],[146.435697,-37.1424995],[146.4355093,-37.1424952],[146.4352947,-37.1424079]]}},{"type":"Feature","id":969703748,"properties":{"kind":"run","name":"Lower Men\u2019s Traverse","subtype":"advanced","pisteType":"downhill"},"geometry":{"type":"LineString","coordinates":[[146.44128,-37.1537736],[146.4414505,-37.1537131],[146.4416598,-37.153555],[146.4418076,-37.1533682],[146.4420728,-37.1529471],[146.4423405,-37.1525426]]}},{"type":"Feature","id":969703749,"properties":{"kind":"run","name":"Canyon Trail","subtype":"intermediate","pisteType":"downhill"},"geometry":{"type":"LineString","coordinates":[[146.4514982,-37.1468614],[146.4512173,-37.1473109],[146.4509306,-37.1474287],[146.4503964,-37.1473977],[146.4500355,-37.147349],[146.4496574,-37.147349],[146.4494368,-37.1473808],[146.4492968,-37.147401],[146.4490534,-37.1474875],[146.448758,-37.1476399],[146.4485128,-37.1477016]]}},{"type":"Feature","id":969703750,"properties":{"kind":"run","name":"Canyon Trail","subtype":"intermediate","pisteType":"downhill"},"geometry":{"type":"LineString","coordinates":[[146.447676,-37.1480308],[146.4474761,-37.1481179],[146.4471583,-37.148127]]}},{"type":"Feature","id":969703751,"properties":{"kind":"run","name":"Canyon Trail","subtype":"intermediate","pisteType":"downhill"},"geometry":{"type":"LineString","coordinates":[[146.4462732,-37.1486829],[146.4464577,-37.1487257],[146.4465871,-37.1488434],[146.4466435,-37.1489631],[146.4466622,-37.1490978],[146.4466649,-37.1492303],[146.4463185,-37.1494849],[146.4461054,-37.1496814],[146.4460414,-37.1497498],[146.4458597,-37.1498946],[146.4458046,-37.1499444],[146.4456512,-37.1500111],[146.4454634,-37.1500109],[146.4451499,-37.1499296],[146.4448977,-37.1498642],[146.4447792,-37.1499125],[146.4447988,-37.1500293],[146.4450449,-37.1503056],[146.4452813,-37.1505834],[146.4456309,-37.1509817]]}},{"type":"Feature","id":969703752,"properties":{"kind":"run","name":"Windless Marissa","subtype":"intermediate","pisteType":"downhill"},"geometry":{"type":"LineString","coordinates":[[146.443288,-37.145397],[146.4432654,-37.1449266],[146.4433172,-37.1444516],[146.4439564,-37.1432029]]}},{"type":"Feature","id":969703753,"properties":{"kind":"run","name":"Village 1","subtype":"advanced","pisteType":"downhill"},"geometry":{"type":"LineString","coordinates":[[146.4486202,-37.1443079],[146.4488181,-37.1440516],[146.4490601,-37.1437453],[146.4491572,-37.1436234],[146.4494179,-37.1435353],[146.4497451,-37.1435111],[146.4499062,-37.1433691],[146.4500047,-37.143153],[146.4502008,-37.1425119],[146.4502894,-37.1421951],[146.4506218,-37.1419208],[146.4511201,-37.1416448]]}},{"type":"Feature","id":969703754,"properties":{"kind":"run","name":"Lower Boggy Creek Trail","subtype":"intermediate","pisteType":"downhill"},"geometry":{"type":"LineString","coordinates":[[146.4341309,-37.1414563],[146.4345473,-37.1416243],[146.4349345,-37.14183],[146.4352125,-37.1418815],[146.4354855,-37.1418736],[146.4357287,-37.1417628],[146.4361059,-37.1416243],[146.4363442,-37.1415293],[146.4365626,-37.1413157],[146.4368306,-37.1410426],[146.437059,-37.1407854],[146.437193,-37.1406232],[146.4374164,-37.140552],[146.4377142,-37.1404214],[146.4378482,-37.1402592],[146.437873,-37.1401157],[146.4378532,-37.1397556],[146.4378035,-37.1394272],[146.4377787,-37.1390275],[146.4377986,-37.138711],[146.4379375,-37.138434],[146.4381569,-37.1380901]]}},{"type":"Feature","id":973496213,"properties":{"kind":"run","name":"Standard","subtype":"intermediate","pisteType":"downhill"},"geometry":{"type":"LineString","coordinates":[[146.4425836,-37.1471917],[146.4426638,-37.1475725],[146.4428336,-37.1477259],[146.4429682,-37.1478189],[146.4431033,-37.1478541],[146.4431757,-37.147884],[146.443239,-37.1479284],[146.4433044,-37.1479888],[146.443374,-37.148061],[146.4435417,-37.1482335],[146.4437463,-37.1484342],[146.4439843,-37.1487038],[146.4442111,-37.1488868],[146.444399,-37.1489978],[146.4446078,-37.1491253],[146.4448624,-37.1492618],[146.4450893,-37.1493794],[146.445337,-37.1495291],[146.4455653,-37.1496667],[146.4457211,-37.1497843],[146.4457838,-37.1498634],[146.4458046,-37.1499444],[146.4457188,-37.1500624],[146.4456635,-37.1501689],[146.4455951,-37.1504517],[146.4455922,-37.1506786],[146.4456252,-37.1509306],[146.4456309,-37.1509817],[146.4456539,-37.1511861],[146.4457628,-37.151476],[146.4459484,-37.1518847],[146.4462896,-37.1524686],[146.4465567,-37.152875],[146.4467235,-37.1531321],[146.4467362,-37.1531826],[146.4467072,-37.1532235],[146.4466626,-37.1532558],[146.446581,-37.1532933],[146.4463417,-37.1533229],[146.4457769,-37.1531753],[146.4453488,-37.1530113],[146.444612,-37.1526828],[146.4440833,-37.1524199],[146.4436043,-37.1522189],[146.4434302,-37.1521871],[146.4433358,-37.1521699]]}},{"type":"Feature","id":1240391798,"properties":{"kind":"run","name":"Mapped ski run","subtype":"unknown","pisteType":"sled"},"geometry":{"type":"LineString","coordinates":[[146.4493158,-37.1452616],[146.449238,-37.1452894],[146.4492165,-37.1453514],[146.4492487,-37.1455053],[146.4493694,-37.1455759],[146.4494096,-37.1456721],[146.4495116,-37.1457341],[146.4495679,-37.1457341],[146.4496323,-37.1457085],[146.4498817,-37.1455353],[146.4498388,-37.14533],[146.4497664,-37.1453086],[146.4493158,-37.1452616]]}},{"type":"Feature","id":1265991613,"properties":{"kind":"run","name":"Canyons","subtype":"expert","pisteType":"downhill"},"geometry":{"type":"LineString","coordinates":[[146.4474761,-37.1481179],[146.4479183,-37.1487342],[146.448593,-37.1495047],[146.4491531,-37.1504127]]}},{"type":"Feature","id":1332530760,"properties":{"kind":"run","name":"St Christopher's","subtype":"unknown","pisteType":"downhill"},"geometry":{"type":"LineString","coordinates":[[146.4448264,-37.1439067],[146.4456908,-37.1440845],[146.4460215,-37.1441843],[146.4465152,-37.1443017],[146.4468866,-37.1442027],[146.4472603,-37.1439924],[146.4473523,-37.1439141],[146.4476584,-37.1434096],[146.4478715,-37.1433276],[146.4479883,-37.1433231],[146.4481968,-37.1431441],[146.4486755,-37.1427721],[146.4490176,-37.1423621],[146.4495028,-37.1421503],[146.4499054,-37.1417173]]}},{"type":"Feature","id":1332530766,"properties":{"kind":"run","name":"Hangmans Drop","subtype":"advanced","pisteType":"downhill"},"geometry":{"type":"LineString","coordinates":[[146.4463643,-37.1494538],[146.4466804,-37.1498797],[146.4469701,-37.1501959],[146.4477137,-37.150423],[146.4484303,-37.1506073],[146.4485578,-37.150722],[146.4486514,-37.1509429]]}},{"type":"Feature","id":1363964667,"properties":{"kind":"run","name":"Little Downhill","subtype":"intermediate","pisteType":"downhill"},"geometry":{"type":"LineString","coordinates":[[146.4405046,-37.1400388],[146.4407162,-37.1399258],[146.4410308,-37.1398773],[146.4413037,-37.1399257],[146.4416726,-37.1400868],[146.4417953,-37.1401271],[146.4419943,-37.1401393]]}},{"type":"Feature","id":1364720049,"properties":{"kind":"run","name":"The Village Circuit","subtype":"easy","pisteType":"nordic"},"geometry":{"type":"LineString","coordinates":[[146.4453332,-37.1492453],[146.4454457,-37.149477],[146.4456391,-37.1496644],[146.4458,-37.1497508],[146.4459399,-37.1497713],[146.4460701,-37.1497377],[146.4463486,-37.1494845],[146.4466645,-37.149249],[146.4466993,-37.1491458],[146.4466735,-37.1489893],[146.4466222,-37.1488669],[146.4465496,-37.1487738],[146.4463318,-37.1485838],[146.446267,-37.1484459],[146.4462836,-37.1483165],[146.446486,-37.1480158],[146.446663,-37.147879],[146.446788,-37.1478391],[146.4470991,-37.1478184],[146.447242,-37.1478409],[146.4473163,-37.1478926],[146.447481,-37.1478982],[146.4477145,-37.1478652],[146.4479409,-37.1478007],[146.4481873,-37.1476429],[146.4486626,-37.1473313],[146.4488342,-37.147265],[146.4492476,-37.1472086],[146.4494483,-37.1472558],[146.4496816,-37.1472751],[146.4501028,-37.1473295],[146.4504227,-37.1473991],[146.450865,-37.147379],[146.4510841,-37.1473748],[146.4512328,-37.1473896],[146.4513807,-37.1474465],[146.4515101,-37.147562],[146.4515739,-37.1477096],[146.451701,-37.1478408],[146.4519101,-37.1479664],[146.4522076,-37.1481194],[146.4524856,-37.1482203],[146.452693,-37.1483282],[146.4529202,-37.1484107],[146.4532283,-37.1484622],[146.453661,-37.1485036],[146.4539886,-37.1485409],[146.4543924,-37.1485557],[146.4545811,-37.1485437],[146.4548635,-37.148583],[146.4551105,-37.1486783],[146.4553132,-37.1487865],[146.4555287,-37.1489309],[146.4558592,-37.1492257],[146.4561193,-37.1493935],[146.4563504,-37.1494484],[146.4566576,-37.1495174],[146.456826,-37.1495258],[146.4570484,-37.1494875],[146.4572373,-37.1493754],[146.4574392,-37.1491973],[146.4575623,-37.149108],[146.4576782,-37.1490605],[146.4579413,-37.1489526],[146.4580631,-37.1488582],[146.4580857,-37.1488097],[146.4581101,-37.1487572],[146.4581064,-37.1486187],[146.4580478,-37.148448],[146.4579861,-37.1483328],[146.4577956,-37.1482467],[146.4575628,-37.1481604],[146.4573352,-37.1479554],[146.4570868,-37.1476764],[146.4566524,-37.1471244],[146.4562269,-37.1465195],[146.4560822,-37.1463982],[146.4557926,-37.1461836],[146.4556349,-37.1461118],[146.4555489,-37.1459848],[146.45544,-37.1457122],[146.4553263,-37.1454968],[146.4552464,-37.1453849],[146.4551604,-37.1453271],[146.4550201,-37.1453024],[146.4549165,-37.1452835],[146.4547967,-37.1452116],[146.4547433,-37.1451853],[146.4546724,-37.1451895],[146.4544563,-37.1453441],[146.454146,-37.1455103],[146.4538526,-37.1455727],[146.4534157,-37.1456304],[146.4531901,-37.1456143],[146.4529144,-37.1455673],[146.4523989,-37.1454122],[146.4520307,-37.1452976],[146.4518487,-37.1452833],[146.4515913,-37.1453038],[146.4512886,-37.1453144],[146.4509934,-37.1453563],[146.4508803,-37.1453881]]}},{"type":"Feature","id":1364720050,"properties":{"kind":"run","name":"Corn Hill Track","subtype":"advanced","pisteType":"nordic"},"geometry":{"type":"LineString","coordinates":[[146.4674348,-37.1511906],[146.4676629,-37.1511136],[146.4680353,-37.1510479],[146.4684931,-37.1508807],[146.4689707,-37.150663],[146.4692565,-37.1505335],[146.4694286,-37.1505417],[146.4697756,-37.1505898],[146.4702741,-37.1505946],[146.4705595,-37.1506304],[146.4715063,-37.150507],[146.4717699,-37.1504328],[146.47222,-37.1501364],[146.4726513,-37.1499938],[146.4732369,-37.1498843],[146.4737898,-37.1497482],[146.4743324,-37.1495025],[146.4749682,-37.1491446],[146.4753096,-37.1488878],[146.4754468,-37.1487846],[146.4760942,-37.1482287],[146.4765688,-37.147948],[146.4770447,-37.147743],[146.4774933,-37.1476154],[146.477852,-37.1474954],[146.4781455,-37.1473712],[146.4785635,-37.1472706],[146.4789517,-37.147236],[146.4792738,-37.1471561],[146.4797129,-37.1472493],[146.479938,-37.1472703],[146.480442,-37.1474273],[146.480794,-37.147497],[146.4812014,-37.1474979],[146.4814505,-37.1474384],[146.4817326,-37.1473],[146.4819832,-37.1472552],[146.4823082,-37.1472829],[146.4825928,-37.1472327],[146.4830248,-37.14702],[146.4834909,-37.1468798],[146.4837757,-37.1468009],[146.4839824,-37.1467026],[146.4840879,-37.1465231],[146.4841945,-37.1462471],[146.4843385,-37.1460952],[146.4846528,-37.1459617],[146.485072,-37.1456741],[146.4853071,-37.1454949],[146.485713,-37.1453422],[146.4861183,-37.1452745],[146.4864951,-37.1452257],[146.486983,-37.1452253],[146.4874853,-37.1451943],[146.4878546,-37.1451723],[146.4882519,-37.1451578],[146.4885634,-37.1451187],[146.4893526,-37.1448927],[146.4895921,-37.1446962]]}},{"type":"Feature","id":1364720051,"properties":{"kind":"run","name":"Corn Hill Trail","subtype":"easy","pisteType":"nordic"},"geometry":{"type":"LineString","coordinates":[[146.4559005,-37.1417833],[146.4562908,-37.1420372],[146.4569308,-37.1422745],[146.4572865,-37.1426072],[146.4573943,-37.142908],[146.4572672,-37.1444001],[146.4573679,-37.1450051],[146.4575873,-37.1454027],[146.4576701,-37.145795],[146.4577954,-37.1461715],[146.4579446,-37.146378],[146.4580838,-37.1464782],[146.4582559,-37.1464813],[146.4584784,-37.1463979],[146.4587348,-37.1462291],[146.4589255,-37.1462077],[146.4591602,-37.1462989],[146.4594553,-37.1465201],[146.459515,-37.1467853],[146.4595214,-37.1474763],[146.4595664,-37.1477106],[146.4596904,-37.1478051],[146.4599331,-37.1479141],[146.4602785,-37.1480471],[146.4603835,-37.1481844],[146.4604838,-37.1484723],[146.4606796,-37.1487076],[146.4612542,-37.149226],[146.4621574,-37.150144],[146.4626296,-37.1505305],[146.4628017,-37.1506237],[146.4631284,-37.1507128],[146.4644769,-37.1509906],[146.4648108,-37.1510675],[146.4654501,-37.1510746],[146.4665086,-37.1510864],[146.4672699,-37.1511249],[146.4674348,-37.1511906],[146.4675396,-37.1512324],[146.4677991,-37.1514089],[146.4681524,-37.1516933],[146.4685696,-37.152034],[146.4693021,-37.152766],[146.4693192,-37.152816],[146.4693771,-37.1529852],[146.4693989,-37.1533077],[146.4695611,-37.1536085],[146.470044,-37.1542743],[146.4702096,-37.1549011],[146.4708384,-37.1556106],[146.470935,-37.1558912],[146.4709383,-37.1559424],[146.4709788,-37.156567],[146.4712063,-37.1571199],[146.4712278,-37.1573489],[146.4712238,-37.1573639],[146.471098,-37.1578339],[146.4711158,-37.1582376],[146.471151,-37.1583114],[146.4712127,-37.1584405],[146.4712463,-37.1584552],[146.4714242,-37.1585332],[146.4714594,-37.158534],[146.471672,-37.1585386],[146.4720719,-37.1585473],[146.4722452,-37.1585707],[146.4724876,-37.1586034],[146.4730644,-37.1586984],[146.4731416,-37.1587111],[146.4739557,-37.1588873],[146.474414,-37.1590706],[146.4744542,-37.1590783],[146.4746686,-37.1591193],[146.4746857,-37.1591153],[146.4751717,-37.1590011],[146.4752529,-37.1590084],[146.4757141,-37.1590496],[146.4759338,-37.1591017],[146.477021,-37.1593597]]}},{"type":"Feature","id":1364720052,"properties":{"kind":"run","name":"Sewerage Treatment Plant","subtype":"advanced","pisteType":"nordic"},"geometry":{"type":"LineString","coordinates":[[146.4580857,-37.1488097],[146.4582965,-37.1488769],[146.4583609,-37.1489852],[146.458418,-37.149093],[146.4586533,-37.1491804],[146.4588487,-37.1492101],[146.4592148,-37.1492434],[146.4594848,-37.1492519],[146.4599525,-37.1492231],[146.4601525,-37.1492368],[146.4604689,-37.1493065],[146.4607091,-37.1493926],[146.4608704,-37.1495198],[146.4611846,-37.149632],[146.4613789,-37.1497159],[146.4618836,-37.1500157],[146.4621574,-37.150144]]}},{"type":"Feature","id":1364720053,"properties":{"kind":"run","name":"Quarry Track","subtype":"advanced","pisteType":"nordic"},"geometry":{"type":"LineString","coordinates":[[146.4753096,-37.1488878],[146.4753667,-37.1490259],[146.4753366,-37.1493732],[146.4751235,-37.149627],[146.4747345,-37.1499268],[146.4743399,-37.1501034],[146.4739543,-37.1503603],[146.4737104,-37.1505078],[146.4737009,-37.1505499],[146.474059,-37.1507305],[146.4740749,-37.1507735],[146.4740522,-37.1508009],[146.4738302,-37.1510398],[146.473443,-37.1513905],[146.4732982,-37.1514989],[146.473198,-37.1515737],[146.4731514,-37.1518721],[146.4731666,-37.152288],[146.4732168,-37.1530694],[146.4731747,-37.153288],[146.4730118,-37.1536479],[146.4729283,-37.1537419],[146.4726953,-37.1538152],[146.4726446,-37.1538942],[146.4726326,-37.1540682],[146.4726862,-37.1542431],[146.4729038,-37.1544344],[146.4731057,-37.1547133],[146.4733178,-37.1549263],[146.4734039,-37.1552571],[146.4735903,-37.1555132],[146.473676,-37.1558714],[146.4738515,-37.1562183],[146.4739943,-37.1563428],[146.4742644,-37.1564752],[146.4744747,-37.1566372],[146.4749488,-37.156736],[146.4751222,-37.1568539],[146.475257,-37.1570691],[146.4754273,-37.1572323],[146.4757463,-37.1573617],[146.4759052,-37.157547],[146.4761098,-37.1578233],[146.4763048,-37.158124],[146.4763587,-37.1582858],[146.4764207,-37.1585017],[146.4765766,-37.1587667],[146.4768243,-37.1589942],[146.476911,-37.1591077],[146.477021,-37.1593597]]}},{"type":"Feature","id":1364720054,"properties":{"kind":"run","name":"Corn Hill Trail","subtype":"intermediate","pisteType":"nordic"},"geometry":{"type":"LineString","coordinates":[[146.477021,-37.1593597],[146.4772648,-37.1593129],[146.477455,-37.1591924],[146.4774608,-37.1589621],[146.4774612,-37.158605],[146.4776792,-37.157907],[146.4780188,-37.1573657],[146.4780225,-37.1571185],[146.477872,-37.1568397],[146.4774622,-37.1563722],[146.4774965,-37.1560692],[146.4776251,-37.1560181],[146.4780663,-37.1558556],[146.4783581,-37.1556227],[146.4789999,-37.1552357],[146.4792223,-37.1550833],[146.4791968,-37.1548917],[146.4789898,-37.1544265],[146.4788469,-37.1538033],[146.478694,-37.1530929],[146.4785347,-37.1528554],[146.4780213,-37.1523874],[146.4780705,-37.1519504],[146.4778405,-37.1515404],[146.4778513,-37.151435],[146.4779996,-37.1513738],[146.4785921,-37.1513026],[146.4791178,-37.1511201],[146.4792614,-37.1509289],[146.4793275,-37.1504115],[146.4794551,-37.1503305],[146.4795653,-37.1501638],[146.4798868,-37.1500863],[146.4803659,-37.1499275],[146.4808582,-37.1501108],[146.4810546,-37.1501425],[146.4815346,-37.150093],[146.4825595,-37.1504104],[146.4830503,-37.1503767],[146.4833781,-37.1504276],[146.484021,-37.1506738],[146.4849057,-37.1511086],[146.4852676,-37.1512023],[146.4857454,-37.1513101],[146.4861444,-37.1512788],[146.4866149,-37.1510083],[146.4868769,-37.150617],[146.4870109,-37.1502632],[146.4871808,-37.1501722],[146.4874916,-37.1500819],[146.4876315,-37.1499508],[146.4876639,-37.1497153],[146.4877445,-37.1487509],[146.4877003,-37.14852],[146.4874882,-37.148121],[146.4875203,-37.1480217],[146.4878359,-37.1478023],[146.4883099,-37.1474687],[146.4884314,-37.147222],[146.4883572,-37.1469913],[146.4881477,-37.1467403],[146.4882094,-37.1466169],[146.4886404,-37.1464056],[146.4888626,-37.146051],[146.4891773,-37.1457209],[146.4895861,-37.1450528],[146.4895921,-37.1446962]]}},{"type":"Feature","id":1364939880,"properties":{"kind":"run","name":"Circuit Road Ski Trail","subtype":"easy","pisteType":"nordic"},"geometry":{"type":"LineString","coordinates":[[146.4895921,-37.1446962],[146.4897212,-37.1444826],[146.4899891,-37.1443187],[146.490069,-37.1442944],[146.4902967,-37.1442254],[146.4912511,-37.144115],[146.4922548,-37.1440776],[146.4925268,-37.1440009],[146.4927901,-37.1437587],[146.4928203,-37.1436342],[146.4926179,-37.1432525],[146.492452,-37.1428745],[146.4922876,-37.1427609],[146.4921212,-37.1427513],[146.4915666,-37.1427331],[146.4914307,-37.142674],[146.4912956,-37.1424959],[146.4910743,-37.1421662],[146.4909394,-37.1421061],[146.4905651,-37.1420569],[146.4901583,-37.1420591],[146.4892701,-37.1421407],[146.4889444,-37.1421234],[146.488502,-37.1419601],[146.4880678,-37.1417407],[146.4876679,-37.1416421],[146.4873593,-37.1415614],[146.4868634,-37.1412908],[146.4863445,-37.1408784],[146.4848553,-37.1396458],[146.4846248,-37.1395586],[146.484261,-37.1395443],[146.4840034,-37.1395544],[146.4835789,-37.1396674],[146.4831358,-37.1397546],[146.4828798,-37.1397385],[146.4825824,-37.1396147],[146.4823164,-37.1393805],[146.4821648,-37.1390225],[146.482282,-37.1388819],[146.4823294,-37.1384929],[146.48221,-37.1383657],[146.4818481,-37.138357],[146.481483,-37.1383828],[146.481085,-37.1383914],[146.480795,-37.1383071],[146.4804809,-37.1380446],[146.4799385,-37.1374169],[146.4795116,-37.1371431],[146.4792857,-37.1368853],[146.4792527,-37.1365765],[146.4792697,-37.1362757],[146.4792303,-37.1361693],[146.4790902,-37.1361354],[146.4788584,-37.1361939],[146.478037,-37.1362573],[146.4777529,-37.1362261],[146.4775123,-37.1361495],[146.4771992,-37.1358645],[146.476938,-37.1356907],[146.4768005,-37.1356719],[146.476293,-37.1356689],[146.4761084,-37.1356136],[146.4752387,-37.1351204],[146.4748155,-37.1347541],[146.474319,-37.1344799],[146.4735137,-37.1338446],[146.4734174,-37.1336564],[146.4732838,-37.1332331],[146.4731361,-37.1330522],[146.4727012,-37.1325831],[146.4723357,-37.1321763],[146.4722167,-37.1319501],[146.472187,-37.1316184],[146.4722144,-37.131141],[146.472137,-37.1308427],[146.4720202,-37.1306958],[146.4718846,-37.130609],[146.4715558,-37.1304847],[146.4714332,-37.1303732],[146.4712642,-37.1298801],[146.4711653,-37.1292662],[146.4709402,-37.1290144],[146.4707386,-37.1286084],[146.4703084,-37.1280952],[146.4700216,-37.1276019],[146.4699219,-37.1272447],[146.4699227,-37.1272061],[146.4699529,-37.1270756],[146.4701989,-37.1268664],[146.4707621,-37.1267657],[146.4712629,-37.1267471],[146.4717871,-37.1268299],[146.4724102,-37.1269576],[146.4731742,-37.127126],[146.4735377,-37.1273811],[146.4738884,-37.1276441],[146.4740166,-37.1276693],[146.47428,-37.1276858],[146.4745888,-37.127542],[146.4748881,-37.1273884],[146.4751715,-37.1273929],[146.4755253,-37.1275272],[146.4758717,-37.1277151],[146.476155,-37.1277777],[146.4764975,-37.1277075],[146.4768634,-37.1277745],[146.4771876,-37.1279208],[146.4775774,-37.1282886],[146.4778956,-37.1284828],[146.4781989,-37.1285151],[146.4784405,-37.1284357],[146.4785083,-37.1282816],[146.478521,-37.1278903],[146.4783653,-37.1273533],[146.4780122,-37.1267487],[146.4776845,-37.1261957],[146.4775996,-37.1260529],[146.4768407,-37.1258865],[146.4763606,-37.1255911],[146.4760868,-37.1253351],[146.4758745,-37.1252397],[146.4746401,-37.1247152],[146.4741739,-37.1244275],[146.4739781,-37.1241759],[146.473889,-37.1238937],[146.4738022,-37.1234618],[146.4737116,-37.1233586],[146.4732971,-37.1232587],[146.473005,-37.1231567],[146.4725327,-37.1229282],[146.4720982,-37.1228212],[146.4715532,-37.1226221],[146.4713357,-37.1224272],[146.4708294,-37.1219616],[146.470516,-37.121761],[146.4700947,-37.1215426],[146.4693571,-37.1211829],[146.4684393,-37.1208643],[146.4679053,-37.1207485],[146.4673723,-37.1207928],[146.4671345,-37.120758],[146.466939,-37.120653],[146.4666799,-37.1204161],[146.4665,-37.1203221],[146.4663092,-37.1202984],[146.4661011,-37.1202905],[146.4658434,-37.1202539],[146.4648102,-37.1200341],[146.4640306,-37.119769],[146.4636801,-37.1195104],[146.4635369,-37.1192821],[146.4634795,-37.1189797],[146.46341,-37.1181862],[146.4634769,-37.1179018],[146.463767,-37.1176537],[146.4643079,-37.1173594],[146.4646675,-37.1173091],[146.4650983,-37.117282],[146.4654804,-37.1171671],[146.4660133,-37.1167767],[146.4663513,-37.1162352],[146.4664116,-37.1160189],[146.4665593,-37.1154889],[146.4665672,-37.1151197],[146.4664081,-37.1148143],[146.466023,-37.114489],[146.4651395,-37.114097],[146.4645395,-37.1136915],[146.4640331,-37.1132853],[146.4648905,-37.1134473],[146.4649505,-37.1134536],[146.4651646,-37.1134485],[146.4653606,-37.1133784],[146.4655004,-37.1133012],[146.4661724,-37.1129712],[146.4664543,-37.1126337],[146.4665416,-37.1119427],[146.4667316,-37.1117575],[146.4672258,-37.111447],[146.4676545,-37.1109541],[146.4675392,-37.1108283],[146.4674108,-37.1104101],[146.467451,-37.1101171],[146.4675751,-37.1092316],[146.4675515,-37.1090171],[146.4673916,-37.108833],[146.4672425,-37.1084069],[146.4672674,-37.1079453],[146.4676195,-37.1074857],[146.4678626,-37.1073546],[146.4681406,-37.1073103],[146.4683856,-37.1074706],[146.4685878,-37.1077283],[146.4688831,-37.1079093],[146.4691738,-37.1079216],[146.4694432,-37.1078824],[146.4695698,-37.107736],[146.4695206,-37.1075212],[146.4693626,-37.1071059],[146.4693496,-37.1066551],[146.4694034,-37.1064109],[146.4695951,-37.1062946],[146.4702023,-37.1061376],[146.4711514,-37.1059493],[146.4715798,-37.1059567],[146.4719344,-37.1060698],[146.4723771,-37.1063533],[146.4729584,-37.1066735],[146.4732317,-37.1067035],[146.4735195,-37.1066271],[146.4737649,-37.1064231],[146.4738538,-37.106154],[146.4738786,-37.105949],[146.4739403,-37.105795],[146.4741747,-37.1056469],[146.4744392,-37.1055406],[146.4747298,-37.1055175],[146.4750731,-37.1053564],[146.4752618,-37.1051418],[146.4756105,-37.1045489],[146.4758057,-37.1043871],[146.4763935,-37.1040109],[146.4765206,-37.1038205],[146.4765549,-37.1037326],[146.4765358,-37.1033466],[146.4762907,-37.1030288],[146.4759075,-37.1025992],[146.4752818,-37.1021129],[146.4747448,-37.1014261],[146.4744726,-37.101246],[146.4740606,-37.1011267],[146.4733486,-37.101101],[146.4728024,-37.1008609],[146.4724397,-37.1008171],[146.4721917,-37.1008382],[146.4718375,-37.1009115],[146.4716655,-37.101059],[146.4715382,-37.101393],[146.4713905,-37.1015767],[146.4711118,-37.1017037],[146.4707371,-37.1017747],[146.470351,-37.1017278],[146.4690041,-37.1010421],[146.4685073,-37.1005465],[146.467886,-37.1002855],[146.4673733,-37.0999574],[146.4665437,-37.0997258],[146.466175,-37.0996783],[146.4658268,-37.0996771],[146.4656427,-37.0997285]]}},{"type":"Feature","id":1364939881,"properties":{"kind":"run","name":"River Spur Trail","subtype":"intermediate","pisteType":"nordic"},"geometry":{"type":"LineString","coordinates":[[146.4964452,-37.1312057],[146.4963951,-37.1312358],[146.4963516,-37.1312678],[146.4963381,-37.1313376],[146.4963557,-37.1314415],[146.4963659,-37.131626],[146.496355,-37.1316796],[146.4963068,-37.1316861],[146.4962552,-37.131685],[146.4961351,-37.1316499],[146.4959939,-37.1316504],[146.4958698,-37.1316235]]}},{"type":"Feature","id":1364939882,"properties":{"kind":"run","name":"East Summit Trail","subtype":"intermediate","pisteType":"nordic"},"geometry":{"type":"LineString","coordinates":[[146.4994339,-37.1378332],[146.4996794,-37.1378104],[146.5000857,-37.1376321],[146.5002117,-37.1374973],[146.5003724,-37.137201],[146.5005593,-37.1368009],[146.500574,-37.1364853],[146.5005876,-37.1360417],[146.5005866,-37.1358827],[146.5006328,-37.1357923],[146.5007577,-37.1357713],[146.5010696,-37.1358048],[146.5014223,-37.1358584],[146.5018119,-37.1356726],[146.5019756,-37.1355949],[146.5021878,-37.1356148]]}},{"type":"Feature","id":1364939883,"properties":{"kind":"run","name":"Howqua Gap Trail","subtype":"intermediate","pisteType":"nordic"},"geometry":{"type":"LineString","coordinates":[[146.5005761,-37.1447623],[146.5005671,-37.1446537],[146.5004425,-37.1443193],[146.5004173,-37.1438239],[146.5005197,-37.1435482],[146.5004977,-37.1433977],[146.5004116,-37.1432993],[146.5000578,-37.1429549],[146.4999656,-37.142638],[146.4999459,-37.14245],[146.5000128,-37.1423715],[146.5001713,-37.142274],[146.5002641,-37.142149],[146.5002954,-37.1419332],[146.5003851,-37.1416893],[146.500248,-37.1411546],[146.5000576,-37.1405659],[146.4999489,-37.1402256],[146.5000386,-37.1399817],[146.5000919,-37.1397593],[146.5001629,-37.1395921],[146.5001726,-37.1392039],[146.500098,-37.139004],[146.4999848,-37.1387122],[146.499807,-37.1383624],[146.4996908,-37.1381909],[146.4994991,-37.1379917],[146.4994339,-37.1378332],[146.499388,-37.1373794],[146.4994416,-37.1372653],[146.4995525,-37.1371292],[146.4995619,-37.1370156],[146.4995124,-37.1369277],[146.4994087,-37.1367615],[146.4993266,-37.1364796],[146.4990498,-37.1361547],[146.4990001,-37.1359147],[146.4989468,-37.1358481],[146.4987712,-37.1357249],[146.4985356,-37.1354527],[146.4982435,-37.1352217],[146.4981807,-37.1351234],[146.4981998,-37.1350735],[146.4982671,-37.1350816],[146.498436,-37.1351366],[146.4986597,-37.1351127],[146.4987303,-37.1350577],[146.498729,-37.1350052],[146.4986455,-37.1348563],[146.4986453,-37.1347223],[146.4987308,-37.1344705],[146.4987233,-37.1340326],[146.4986384,-37.1338559],[146.4984107,-37.1334695],[146.4983974,-37.1332571],[146.4983821,-37.132899],[146.4983315,-37.1327627],[146.4982388,-37.1326605],[146.4981318,-37.1325998],[146.4978739,-37.1325722],[146.4975585,-37.132437],[146.4974942,-37.1322885],[146.4974068,-37.1320145],[146.4973107,-37.1318923],[146.4971488,-37.1316754],[146.4968972,-37.1315716],[146.4965973,-37.131338],[146.4964452,-37.1312057],[146.4964365,-37.1310649],[146.4965718,-37.1309071],[146.4966833,-37.1307595],[146.496686,-37.1306234],[146.4966236,-37.1305198],[146.4965056,-37.1303363],[146.496443,-37.130046],[146.496335,-37.1294525],[146.4962818,-37.1292054],[146.4961498,-37.1288495],[146.4960609,-37.1285543],[146.4959261,-37.1283091],[146.495766,-37.1279487],[146.4955484,-37.1276692],[146.4953736,-37.1275366],[146.4952593,-37.1273774],[146.4949646,-37.1271341],[146.4948378,-37.1269843],[146.4946815,-37.1268841],[146.4946279,-37.1267551],[146.4945689,-37.1267063],[146.4944804,-37.1267045],[146.4940718,-37.1268092]]}},{"type":"Feature","id":1364939884,"properties":{"kind":"run","name":"River Spur Trail","subtype":"intermediate","pisteType":"nordic"},"geometry":{"type":"LineString","coordinates":[[146.4958698,-37.1316235],[146.4953587,-37.1316626],[146.4949937,-37.131577],[146.4947446,-37.1314723],[146.4946492,-37.1314643],[146.4945348,-37.1314974],[146.494353,-37.1316235],[146.494243,-37.1317738],[146.4941241,-37.1318239],[146.4939894,-37.1318311],[146.493793,-37.1317452],[146.4936269,-37.1317389],[146.4934799,-37.1318302],[146.4934496,-37.1318865],[146.4934553,-37.1321111],[146.4934463,-37.1322372],[146.4934956,-37.1323625],[146.4936247,-37.1325155],[146.4936617,-37.1326559],[146.493692,-37.1329834],[146.4936347,-37.1331461],[146.4934775,-37.1333554],[146.4932318,-37.1335379],[146.4929232,-37.1336774],[146.4926584,-37.1337472],[146.492545,-37.1338197],[146.4923329,-37.1340639],[146.4919233,-37.134352],[146.4918583,-37.1344987],[146.4916013,-37.1346141],[146.491452,-37.1347608],[146.4912377,-37.1348189],[146.490717,-37.1347563],[146.4905711,-37.1347018],[146.4904028,-37.1346168],[146.4901492,-37.1345479],[146.489918,-37.1344951],[146.4894961,-37.1344531],[146.4890416,-37.1344754],[146.4887802,-37.1344271],[146.4882023,-37.1342044],[146.4878836,-37.1340648],[146.4874987,-37.1340353],[146.486859,-37.1339852],[146.4867143,-37.1339234],[146.4864584,-37.1336542],[146.4862407,-37.1334958],[146.4861038,-37.1334681],[146.4857964,-37.1334645],[146.4855832,-37.133562],[146.485407,-37.1337275],[146.4852701,-37.1337937],[146.4850513,-37.1338197],[146.484691,-37.1337964],[146.4845216,-37.1338546],[146.4843005,-37.1340049],[146.4840278,-37.1342052],[146.4838831,-37.1342634],[146.4836014,-37.1343081],[146.4833366,-37.1342679],[146.4830572,-37.1341641],[146.4827172,-37.1339217],[146.4824052,-37.1337884],[146.4821718,-37.1336568],[146.4817948,-37.1335236],[146.4812034,-37.1333267],[146.4809812,-37.1331049],[146.480767,-37.1329288],[146.4804988,-37.1328608],[146.480271,-37.1327856],[146.4798805,-37.1326291],[146.4797312,-37.1325995],[146.4795001,-37.1325718],[146.4791634,-37.1324684],[146.4788211,-37.1323287],[146.4785607,-37.1321668],[146.4784371,-37.1321581],[146.4781854,-37.1322541],[146.4780002,-37.1322667],[146.4776909,-37.1321589],[146.4772882,-37.1318456],[146.4768376,-37.1311381],[146.4766457,-37.1309243],[146.4762272,-37.1306998],[146.4756773,-37.1304994],[146.4749423,-37.1302551],[146.4746259,-37.1299849],[146.4741933,-37.1296371],[146.4738016,-37.1294358],[146.4733707,-37.1292309],[146.4732069,-37.1292291],[146.4731205,-37.1293061],[146.4730576,-37.1293302],[146.4728972,-37.1292846],[146.4725493,-37.1286198],[146.4723338,-37.1283711],[146.4716228,-37.1280412],[146.471285,-37.1277674],[146.4708745,-37.1274605],[146.4706927,-37.1272413],[146.4705255,-37.1272162],[146.4702337,-37.1272171],[146.4699227,-37.1272061]]}},{"type":"Feature","id":1364939885,"properties":{"kind":"run","name":"South Summit Trail","subtype":"intermediate","pisteType":"nordic"},"geometry":{"type":"LineString","coordinates":[[146.4958698,-37.1316235],[146.495702,-37.1314626],[146.4953865,-37.1309881],[146.4953481,-37.1307447],[146.4954249,-37.1303567],[146.4954892,-37.1299862],[146.4954729,-37.129886],[146.4952953,-37.1294979],[146.4951847,-37.1292328],[146.4951082,-37.1290434],[146.4950573,-37.1289822],[146.4949028,-37.1288873],[146.4946474,-37.1286125],[146.4945946,-37.1284862],[146.4945264,-37.1282015],[146.4944112,-37.1278945],[146.4942864,-37.1275738],[146.4941683,-37.1272646],[146.4940397,-37.1270572],[146.4939419,-37.1269911],[146.4938108,-37.1269285]]}},{"type":"Feature","id":1364939886,"properties":{"kind":"run","name":"Howqua Gap Trail","subtype":"advanced","pisteType":"nordic"},"geometry":{"type":"LineString","coordinates":[[146.490069,-37.1442944],[146.4898737,-37.1445364],[146.4898972,-37.1446168],[146.489957,-37.1446754],[146.4900607,-37.1446989],[146.4902457,-37.1446506],[146.4904086,-37.14462],[146.4906857,-37.1446601],[146.4909772,-37.1447809],[146.4912856,-37.1447693],[146.4915433,-37.1447776],[146.4918935,-37.1447675],[146.4921532,-37.1448671],[146.4924036,-37.1449764],[146.4925879,-37.1451325],[146.4927539,-37.1453038],[146.4929697,-37.145489],[146.4934695,-37.14567],[146.493616,-37.1458141],[146.4936774,-37.1459719],[146.4937297,-37.1462142],[146.4937635,-37.1462561],[146.4938604,-37.1462226],[146.4938761,-37.1459414],[146.4940019,-37.1456077],[146.4940877,-37.1453209],[146.4942064,-37.1452367],[146.4943461,-37.1452218],[146.4945178,-37.1452871],[146.4946391,-37.1454339],[146.4948036,-37.1457896],[146.4948264,-37.1459534],[146.4949022,-37.1460438],[146.4949934,-37.1460787],[146.4951172,-37.1460418],[146.4952477,-37.1459342],[146.495497,-37.1459108],[146.4957349,-37.145966],[146.4958448,-37.1459494],[146.4959227,-37.1458829],[146.4960069,-37.1456983],[146.4961143,-37.1456375],[146.4962543,-37.1456383],[146.4963418,-37.1456655],[146.4963734,-37.1457065],[146.4963837,-37.1458416],[146.4964303,-37.145957],[146.4965128,-37.146043],[146.4966596,-37.1460471],[146.4969054,-37.1459774],[146.4973476,-37.1459125],[146.4975218,-37.1459108],[146.4977021,-37.1458047],[146.4979168,-37.1454907],[146.4982453,-37.1451765],[146.4983932,-37.1447739],[146.4984224,-37.1445202],[146.4984869,-37.1444324],[146.4985517,-37.1444274],[146.4986196,-37.1444705],[146.4987784,-37.1446204],[146.4989671,-37.1448006],[146.4992143,-37.1449163],[146.4995478,-37.145008],[146.4997539,-37.1450334],[146.5000707,-37.1449888],[146.5003998,-37.1449143],[146.5005004,-37.1448128],[146.5005761,-37.1447623]]}},{"type":"Feature","id":1364945018,"properties":{"kind":"run","name":"Bluff Spur Trail","subtype":"intermediate","pisteType":"nordic"},"geometry":{"type":"LineString","coordinates":[[146.4938108,-37.1269285],[146.4935957,-37.1269381],[146.4933778,-37.1269174],[146.4932073,-37.1269451],[146.4930905,-37.1270121],[146.4930164,-37.127072],[146.4928274,-37.1271065],[146.4927588,-37.1271534],[146.4925299,-37.1274988],[146.4924004,-37.1275466],[146.4923179,-37.1275575],[146.4921487,-37.1274972],[146.4919939,-37.1273243],[146.4919006,-37.1269357],[146.4918601,-37.1265128],[146.4919395,-37.125932],[146.4918909,-37.1257711],[146.4917827,-37.1256604],[146.4916985,-37.1256156],[146.4915997,-37.1255907],[146.4912052,-37.1255573],[146.4907544,-37.125398],[146.4903197,-37.1251525],[146.4899981,-37.1248585],[146.4896251,-37.1245091],[146.4894111,-37.1243429],[146.4891571,-37.1242479],[146.4887485,-37.1241603],[146.4885109,-37.124088],[146.4882206,-37.1240387],[146.4879242,-37.1239136],[146.4874297,-37.1237107],[146.487183,-37.123659],[146.4867028,-37.1235647],[146.4864476,-37.1235616],[146.4862831,-37.1235998],[146.4859521,-37.1236871],[146.4856744,-37.1236733],[146.4854241,-37.1236949],[146.4851512,-37.1237039],[146.4849943,-37.123736],[146.4848521,-37.1239134],[146.4847203,-37.1241672],[146.4844879,-37.1244582],[146.4842754,-37.1246816],[146.4841341,-37.1247092],[146.4840352,-37.1246792],[146.4839122,-37.1244827],[146.4838973,-37.1242992],[146.483899,-37.1240924],[146.4838507,-37.1239867],[146.4837179,-37.1238287],[146.4835073,-37.123488],[146.4833797,-37.1230431],[146.4833347,-37.1228013],[146.4832626,-37.1227274],[146.4831889,-37.122726],[146.4831148,-37.1227526],[146.4829804,-37.1229409],[146.4827058,-37.1234376],[146.4824094,-37.1238222],[146.4823068,-37.1238637],[146.4821923,-37.1238475],[146.4821235,-37.1237822],[146.4819222,-37.1236115],[146.4816984,-37.1235323],[146.481452,-37.1232585],[146.481257,-37.1231762],[146.480889,-37.1230914],[146.4805997,-37.1229476],[146.4802572,-37.1229049],[146.4799605,-37.1227646],[146.4796587,-37.1227264],[146.4793134,-37.1225639],[146.4789529,-37.1224781],[146.4785283,-37.1224383],[146.4782203,-37.1224105],[146.4778984,-37.1222892],[146.4776444,-37.122007],[146.4773626,-37.1216784],[146.4772039,-37.1215991],[146.4769993,-37.1216123],[146.4767424,-37.1216245],[146.4765165,-37.121547],[146.4763092,-37.12135],[146.4761133,-37.1211836],[146.4759941,-37.1211513],[146.475741,-37.1211439],[146.475192,-37.1212157],[146.4749134,-37.1212139],[146.4747559,-37.1211881],[146.4745473,-37.1210711],[146.4741849,-37.1208126],[146.4740508,-37.1207372],[146.4738671,-37.1206845],[146.4735131,-37.1206489],[146.4733144,-37.1206415],[146.473118,-37.1205457],[146.4729751,-37.1205061],[146.4728945,-37.1205277],[146.4728863,-37.1205857],[146.4729891,-37.1210675],[146.4729476,-37.1211651],[146.4728259,-37.1212111],[146.4726568,-37.1211872],[146.472177,-37.1210683],[146.4713573,-37.1206454],[146.4708272,-37.1203783],[146.4704351,-37.120036],[146.4702535,-37.1199799],[146.4699366,-37.1198884],[146.4696089,-37.1197009],[146.4688983,-37.1194262],[146.468401,-37.1193364],[146.4679657,-37.1193385],[146.467619,-37.1193002],[146.4673527,-37.1191816],[146.4671167,-37.1189901],[146.4670637,-37.1188173],[146.4671359,-37.1186622],[146.4673314,-37.1184849],[146.4675586,-37.1180629],[146.4675312,-37.1177076],[146.4676197,-37.1174238],[146.467837,-37.1172683],[146.4681662,-37.117152],[146.4684965,-37.1169881],[146.4687681,-37.116825],[146.4689832,-37.1168023],[146.4691537,-37.1168406],[146.4693665,-37.1170001],[146.4695106,-37.1170465],[146.4696472,-37.1169985],[146.4696893,-37.1169144]]}},{"type":"Feature","id":1364945019,"properties":{"kind":"run","name":"Baldy Loop","subtype":"easy","pisteType":"nordic"},"geometry":{"type":"LineString","coordinates":[[146.4653606,-37.1133784],[146.4654923,-37.1134734],[146.4657591,-37.1137253],[146.4659782,-37.1138181],[146.4662147,-37.1138564],[146.4664796,-37.1139686],[146.4667078,-37.1141052],[146.4667558,-37.1143197],[146.4666912,-37.1145804],[146.4668318,-37.1146821],[146.4670698,-37.1149584],[146.4674308,-37.1150686],[146.4675951,-37.1150931],[146.4680963,-37.1149369],[146.4684075,-37.1149062],[146.4686931,-37.1149425],[146.4688627,-37.114971],[146.4692559,-37.1147576],[146.4693666,-37.1147029],[146.4695093,-37.1146943],[146.4696374,-37.1147507],[146.4696831,-37.1148378],[146.4699045,-37.1151244],[146.4702948,-37.1156884],[146.4709611,-37.1161395],[146.4721769,-37.1168328],[146.4723277,-37.1170092],[146.4723988,-37.1174063],[146.4725261,-37.1176403],[146.4728349,-37.117788],[146.473349,-37.1179147],[146.4736949,-37.1178924],[146.4741248,-37.1178631],[146.4746755,-37.1178915],[146.47546,-37.1179054],[146.4759234,-37.1179917],[146.4762289,-37.1181471],[146.4765628,-37.1185483],[146.4767299,-37.1188722],[146.4769568,-37.1190224],[146.4774943,-37.1192479],[146.4776123,-37.1193473],[146.4775481,-37.1193545],[146.4774544,-37.119351],[146.4773149,-37.1193257],[146.4759857,-37.1188665],[146.4757448,-37.1188117],[146.4748486,-37.1187136],[146.4737439,-37.1186413],[146.472509,-37.1185275],[146.4718787,-37.1183741],[146.4711694,-37.1180518],[146.4705915,-37.1176111],[146.4698783,-37.117038],[146.4696893,-37.1169144],[146.4692246,-37.1166374],[146.468955,-37.1165068],[146.4688787,-37.116508],[146.4686752,-37.1165792],[146.468377,-37.1166239],[146.4679597,-37.1166017],[146.4676865,-37.1166456],[146.4675398,-37.1166636],[146.4673131,-37.1166315],[146.4668166,-37.116325],[146.4664116,-37.1160189]]}},{"type":"Feature","id":1413438886,"properties":{"kind":"run","name":"Rossignol Racecourse","subtype":"intermediate","pisteType":"downhill"},"geometry":{"type":"LineString","coordinates":[[146.437137,-37.1474478],[146.4371992,-37.1475044],[146.4373191,-37.1475717],[146.4386279,-37.1477737],[146.4387072,-37.1477863],[146.4403187,-37.1478958],[146.4414488,-37.1479583],[146.4426061,-37.1480258]]}},{"type":"Feature","id":1413438888,"properties":{"kind":"run","name":"Women's Downhill","subtype":"advanced","pisteType":"downhill"},"geometry":{"type":"LineString","coordinates":[[146.4395,-37.150239],[146.4396392,-37.1505994],[146.4397705,-37.1508159],[146.4402157,-37.1514039],[146.4405793,-37.1517442],[146.4413187,-37.1522135],[146.4418928,-37.1524878],[146.4421566,-37.1525195],[146.4423405,-37.1525426],[146.4424428,-37.1525032],[146.4427053,-37.1523184],[146.442929,-37.1521975],[146.4431042,-37.1521558],[146.4433358,-37.1521699]]}},{"type":"Feature","id":1415621947,"properties":{"kind":"run","name":"Colt","subtype":"intermediate","pisteType":"downhill"},"geometry":{"type":"LineString","coordinates":[[146.4392228,-37.1382606],[146.4392472,-37.1381732],[146.4392959,-37.1380535],[146.439369,-37.1379661],[146.4394827,-37.137856],[146.4396248,-37.1377557],[146.4397831,-37.1376683],[146.4399496,-37.1375809],[146.4401019,-37.1375007],[146.440166,-37.1374527],[146.4401478,-37.1374036],[146.4401084,-37.1373339],[146.4400608,-37.1372881],[146.4399971,-37.1372636],[146.4398153,-37.1372489]]}},{"type":"Feature","id":1415621948,"properties":{"kind":"run","name":"Wattle Wiggle","subtype":"advanced","pisteType":"downhill"},"geometry":{"type":"LineString","coordinates":[[146.447057,-37.1410201],[146.447249,-37.1408753],[146.4473556,-37.1407084],[146.4475672,-37.1402592],[146.448005,-37.1398331]]}},{"type":"Feature","id":1415621949,"properties":{"kind":"run","name":"Bourke Street","subtype":"easy","pisteType":"downhill"},"geometry":{"type":"LineString","coordinates":[[146.4466103,-37.1464961],[146.4470187,-37.1464264],[146.4477436,-37.1463153],[146.4480757,-37.1462844],[146.448502,-37.1462376],[146.4486353,-37.1462272],[146.4487564,-37.1462259],[146.44885,-37.1462341],[146.4489089,-37.1462528],[146.4489349,-37.1462892],[146.4489271,-37.1463245],[146.4488718,-37.1463401],[146.4487464,-37.1463445]]}},{"type":"Feature","id":1415621951,"properties":{"kind":"run","name":"Bourke Street","subtype":"easy","pisteType":"downhill"},"geometry":{"type":"LineString","coordinates":[[146.4427787,-37.1468214],[146.4435796,-37.1466902],[146.4441337,-37.1466681],[146.4452364,-37.1466685],[146.4462697,-37.1465542],[146.4466103,-37.1464961]]}},{"type":"Feature","id":1415621953,"properties":{"kind":"run","name":"Little Downhill","subtype":"intermediate","pisteType":"downhill"},"geometry":{"type":"LineString","coordinates":[[146.4421729,-37.1408473],[146.4421256,-37.1407013],[146.4420568,-37.1404607],[146.4419943,-37.1401393],[146.4419886,-37.1399321],[146.4420042,-37.139627],[146.4420115,-37.1392132],[146.4420008,-37.1390509],[146.4420799,-37.1387352],[146.442093,-37.1386079],[146.4420826,-37.1384103],[146.4420646,-37.1381135],[146.4419753,-37.1378946],[146.4418872,-37.1377866],[146.4416305,-37.1376489],[146.441293,-37.1375267],[146.4410184,-37.137419],[146.4408786,-37.1374248]]}},{"type":"Feature","id":1426131135,"properties":{"kind":"run","name":"Mapped ski run","subtype":"unknown","pisteType":"sled"},"geometry":{"type":"LineString","coordinates":[[146.4561734,-37.141407],[146.4561492,-37.1410831],[146.4565167,-37.1411066],[146.4565824,-37.1416871],[146.4562793,-37.1416892],[146.4561734,-37.141407]]}},{"type":"Feature","id":1432405047,"properties":{"kind":"run","name":"Village 1","subtype":"advanced","pisteType":"downhill"},"geometry":{"type":"LineString","coordinates":[[146.4475869,-37.1441299],[146.4480202,-37.1439286],[146.4485577,-37.1436454],[146.4502894,-37.1421951]]}}]}