{"type":"FeatureCollection","features":[{"type":"Feature","id":"building-167288203","properties":{"kind":"building","name":"Geelong Grammar School Hut","height":7.2},"geometry":{"type":"Polygon","coordinates":[[[146.5010133,-37.1241271],[146.5009188,-37.1240753],[146.5009817,-37.1240023],[146.5010761,-37.124054],[146.5010133,-37.1241271]]]}},{"type":"Feature","id":"building-167288221","properties":{"kind":"building","name":"Bluffs Spur Memorial Hut","height":7.2},"geometry":{"type":"Polygon","coordinates":[[[146.4930943,-37.1269417],[146.4930063,-37.1269596],[146.4929857,-37.1268953],[146.4930737,-37.1268774],[146.4930943,-37.1269417]]]}},{"type":"Feature","id":"building-1530502874","properties":{"kind":"building","name":"King Spur Hut","height":7.2},"geometry":{"type":"Polygon","coordinates":[[[146.4976192,-37.1175452],[146.497712,-37.1175234],[146.4977386,-37.1175953],[146.4976458,-37.1176171],[146.4976192,-37.1175452]]]}},{"type":"Feature","id":"marker-mount-stirling-summit zone \u00b7 1749 m","properties":{"kind":"marker","name":"Summit zone \u00b7 1749 m","height":26},"geometry":{"type":"Polygon","coordinates":[[[146.49207886313582,-37.1219],[146.49206380161712,-37.12186303901575],[146.4920243700492,-37.12184019587123],[146.4919756299508,-37.12184019587123],[146.49193619838286,-37.12186303901575],[146.49192113686416,-37.1219],[146.49193619838286,-37.12193696098424],[146.4919756299508,-37.121959804128764],[146.4920243700492,-37.121959804128764],[146.49206380161712,-37.12193696098424],[146.49207886313582,-37.1219]]]}},{"type":"Feature","id":"marker-mount-stirling-resort base \u00b7 1230 m","properties":{"kind":"marker","name":"Resort base \u00b7 1230 m","height":18},"geometry":{"type":"Polygon","coordinates":[[[146.4980788693876,-37.1279],[146.4980638066749,-37.12786303901575],[146.4980243719811,-37.12784019587123],[146.49797562801888,-37.12784019587123],[146.49793619332507,-37.12786303901575],[146.49792113061238,-37.1279],[146.49793619332507,-37.12793696098424],[146.49797562801888,-37.127959804128764],[146.4980243719811,-37.127959804128764],[146.4980638066749,-37.12793696098424],[146.4980788693876,-37.1279]]]}}]}