{"type":"FeatureCollection","features":[{"type":"Feature","id":"marker-kangaamiut-heliski-summit","properties":{"kind":"marker","markerType":"summit","name":"Upper mountain · 2000 m","height":26},"geometry":{"type":"Polygon","coordinates":[[[-52.90384627856426,65.854],[-52.903875636746086,65.85403696098425],[-52.903952497463955,65.85405980412877],[-52.90404750253604,65.85405980412877],[-52.904124363253906,65.85403696098425],[-52.90415372143573,65.854],[-52.904124363253906,65.85396303901575],[-52.90404750253604,65.85394019587123],[-52.903952497463955,65.85394019587123],[-52.903875636746086,65.85396303901575],[-52.90384627856426,65.854]]]}},{"type":"Feature","id":"marker-kangaamiut-heliski-base","properties":{"kind":"marker","markerType":"base","name":"Base · 0 m","height":18},"geometry":{"type":"Polygon","coordinates":[[[-52.899846302499775,65.85],[-52.899875656110325,65.85003696098424],[-52.89995250486044,65.85005980412876],[-52.90004749513956,65.85005980412876],[-52.90012434388967,65.85003696098424],[-52.90015369750022,65.85],[-52.90012434388967,65.84996303901575],[-52.90004749513956,65.84994019587123],[-52.89995250486044,65.84994019587123],[-52.899875656110325,65.84996303901575],[-52.899846302499775,65.85]]]}},{"type":"Feature","id":"marker-kangaamiut-heliski-featured-run","properties":{"kind":"marker","markerType":"featured-run","name":"Powder · Revelation","height":20},"geometry":{"type":"Polygon","coordinates":[[[-52.89684632044602,65.847],[-52.89687567062914,65.84703696098424],[-52.89695251040613,65.84705980412876],[-52.89704748959387,65.84705980412876],[-52.897124329370854,65.84703696098424],[-52.89715367955397,65.847],[-52.897124329370854,65.84696303901575],[-52.89704748959387,65.84694019587123],[-52.89695251040613,65.84694019587123],[-52.89687567062914,65.84696303901575],[-52.89684632044602,65.847]]]}}]}