{"type":"FeatureCollection","features":[{"type":"Feature","id":26477604,"properties":{"kind":"run","name":"Perisher Valley to Charlotte Pass trail","subtype":"intermediate","pisteType":"nordic"},"geometry":{"type":"LineString","coordinates":[[148.3989749,-36.4293558],[148.398187,-36.429693],[148.397948,-36.42989],[148.397458,-36.430543],[148.397128,-36.43086],[148.396437,-36.431337],[148.395945,-36.431763],[148.395513,-36.432238],[148.395355,-36.432507],[148.395192,-36.432577],[148.394945,-36.432557],[148.394907,-36.43257],[148.394808,-36.432718],[148.393657,-36.433047],[148.393182,-36.433263],[148.393047,-36.433443],[148.39292,-36.433897],[148.392727,-36.434153],[148.392245,-36.434418],[148.39175,-36.434787],[148.391493,-36.43506],[148.390477,-36.435697],[148.390032,-36.436117],[148.389723,-36.436217],[148.388715,-36.436727],[148.388087,-36.43694],[148.38787,-36.436965],[148.387453,-36.436918],[148.387083,-36.436962],[148.386688,-36.436913],[148.386308,-36.437082],[148.386222,-36.43717],[148.38628,-36.43726],[148.386217,-36.437363],[148.386102,-36.437427],[148.386108,-36.437492],[148.385913,-36.437785],[148.385703,-36.437993],[148.385542,-36.438395],[148.3853649,-36.4385051],[148.385357,-36.43851],[148.384595,-36.438628],[148.384005,-36.438885],[148.383457,-36.43906],[148.383298,-36.439087],[148.383213,-36.43914],[148.3825972,-36.4393826],[148.38218,-36.439547],[148.38188,-36.439573],[148.381463,-36.439518],[148.381272,-36.439562],[148.380612,-36.439922],[148.380432,-36.440073],[148.380422,-36.440083],[148.379972,-36.440332],[148.379453,-36.44048],[148.378543,-36.440497],[148.377052,-36.440383],[148.37564,-36.440495],[148.375182,-36.440622],[148.374753,-36.440682],[148.3744621,-36.4406639],[148.374367,-36.440658],[148.374125,-36.440723],[148.373942,-36.440705],[148.373532,-36.440745],[148.373745,-36.440808],[148.373618,-36.440847],[148.372928,-36.440917],[148.372735,-36.440883],[148.371512,-36.441273],[148.37107,-36.441337],[148.370308,-36.441262],[148.369448,-36.440948],[148.367618,-36.440435],[148.366848,-36.439947],[148.366812,-36.439725],[148.366723,-36.439627],[148.36626,-36.439277],[148.3661596,-36.4391805],[148.365602,-36.438645],[148.365217,-36.438392],[148.364765,-36.438132],[148.364495,-36.43804],[148.363963,-36.437748],[148.363107,-36.437368],[148.362187,-36.436863],[148.361857,-36.436733],[148.361367,-36.436732],[148.361123,-36.436843],[148.360508,-36.437245],[148.359752,-36.43756],[148.3589051,-36.4376128],[148.358678,-36.437627],[148.358287,-36.437598],[148.35748,-36.437342],[148.355717,-36.436638],[148.355405,-36.436595],[148.354817,-36.436602],[148.3523077,-36.4373459],[148.35168,-36.437532],[148.351268,-36.437315],[148.350027,-36.436507],[148.349317,-36.436177],[148.34856,-36.435597],[148.348102,-36.435323],[148.34711,-36.435042],[148.346307,-36.43493],[148.345958,-36.43475],[148.345413,-36.43458],[148.3448371,-36.434587],[148.342547,-36.434615],[148.3425228,-36.4346119],[148.342312,-36.434585],[148.3421409,-36.4345359],[148.341592,-36.43437],[148.3407245,-36.4343758],[148.339808,-36.434382],[148.338887,-36.434218],[148.338415,-36.434317],[148.3376,-36.43433],[148.337027,-36.4345],[148.336375,-36.434613],[148.335797,-36.434615],[148.334727,-36.434703],[148.333712,-36.43486],[148.333621,-36.4348194],[148.3335755,-36.4347611]]}},{"type":"Feature","id":289721909,"properties":{"kind":"lift","name":"Kosciuszko Triple Chair","subtype":"chair_lift","status":"active"},"geometry":{"type":"LineString","coordinates":[[148.3312669,-36.4356066],[148.3306373,-36.435814],[148.3297153,-36.4361177],[148.3291903,-36.4362907],[148.3282971,-36.4365569],[148.327404,-36.436823],[148.3263218,-36.4371455],[148.3246269,-36.4376506]]}},{"type":"Feature","id":289721911,"properties":{"kind":"lift","name":"Basin Poma","subtype":"platter","status":"active"},"geometry":{"type":"LineString","coordinates":[[148.3312627,-36.4351808],[148.3301325,-36.4354283],[148.3296904,-36.4354964],[148.3289188,-36.4356153]]}},{"type":"Feature","id":289721912,"properties":{"kind":"lift","name":"Kosi Carpet","subtype":"magic_carpet","status":"active"},"geometry":{"type":"LineString","coordinates":[[148.3315892,-36.4354231],[148.3310131,-36.43556]]}},{"type":"Feature","id":289721914,"properties":{"kind":"lift","name":"Pulpit T-Bar","subtype":"t-bar","status":"active"},"geometry":{"type":"LineString","coordinates":[[148.3324734,-36.433392],[148.3317788,-36.4333606],[148.3309205,-36.4333217],[148.3296793,-36.4332656],[148.3288314,-36.4332272],[148.3286368,-36.4332184]]}},{"type":"Feature","id":289721915,"properties":{"kind":"lift","name":"Guthries Double Chairlift","subtype":"chair_lift","status":"active"},"geometry":{"type":"LineString","coordinates":[[148.3344254,-36.4330129],[148.3344812,-36.43238],[148.3345159,-36.4319866],[148.3345612,-36.4314733],[148.3346151,-36.4308622],[148.3346761,-36.4301701],[148.334747,-36.4293667],[148.334832,-36.4284025],[148.3348498,-36.4282011]]}},{"type":"Feature","id":320449508,"properties":{"kind":"run","name":"Nordic trail","subtype":"easy","pisteType":"nordic"},"geometry":{"type":"LineString","coordinates":[[148.3331578,-36.4338488],[148.334545,-36.43367],[148.334943,-36.433518],[148.3350419,-36.4334658],[148.33554,-36.433203],[148.335986,-36.433153],[148.3361006,-36.4331917],[148.33697,-36.432852],[148.338568,-36.432495],[148.339188,-36.432438],[148.340603,-36.432557],[148.341032,-36.43249],[148.341887,-36.432237],[148.342332,-36.43209],[148.343565,-36.431623],[148.34522,-36.430485],[148.3465619,-36.42968],[148.346707,-36.429593],[148.347673,-36.429058],[148.348157,-36.428883],[148.348652,-36.428857],[148.349195,-36.429019],[148.349443,-36.429093],[148.3514032,-36.429993],[148.353118,-36.430563],[148.3538777,-36.4310426],[148.354673,-36.431462],[148.354947,-36.43155],[148.355347,-36.431572],[148.355672,-36.431507],[148.355852,-36.431417],[148.3565773,-36.4311502],[148.3571406,-36.4307214],[148.3578227,-36.4304541],[148.358427,-36.429883],[148.358658,-36.42969],[148.359,-36.4293427]]}},{"type":"Feature","id":696795537,"properties":{"kind":"run","name":"Exhibition","subtype":"intermediate","pisteType":"downhill"},"geometry":{"type":"LineString","coordinates":[[148.3348498,-36.4282011],[148.3348095,-36.4281409],[148.334658,-36.4281873],[148.3346137,-36.4282887],[148.3343656,-36.4283589],[148.3342168,-36.4284657],[148.3343388,-36.4288099],[148.3344086,-36.4292264],[148.3343603,-36.4296051],[148.3341256,-36.4297605],[148.3340189,-36.4299931],[148.3339552,-36.4302949],[148.334302,-36.4306765],[148.3342489,-36.4311321],[148.3338773,-36.4316361],[148.3338419,-36.4322142],[148.3341427,-36.4328862],[148.3344254,-36.4330129]]}},{"type":"Feature","id":696795538,"properties":{"kind":"run","name":"Top of the World","subtype":"easy","pisteType":"downhill"},"geometry":{"type":"LineString","coordinates":[[148.3246269,-36.4376506],[148.3245469,-36.4375834],[148.3244733,-36.4374593],[148.3244177,-36.4372639],[148.3243515,-36.4370679],[148.3242879,-36.4368599],[148.3242881,-36.4368028],[148.3243503,-36.4366706],[148.3244216,-36.436503],[148.3244752,-36.4364026],[148.3245257,-36.4363003],[148.3245624,-36.4362529],[148.3246574,-36.4362063],[148.3247665,-36.4361295],[148.3248039,-36.436078],[148.324862,-36.4357047],[148.3249063,-36.4356245],[148.3250276,-36.4354375],[148.3251998,-36.4352373],[148.3252534,-36.4352031],[148.3255473,-36.4350754],[148.32579,-36.4349438],[148.3259336,-36.4348419],[148.3260577,-36.434721],[148.3261725,-36.4346303],[148.3265033,-36.4343931],[148.3266975,-36.4342499],[148.3268502,-36.4341484],[148.3270115,-36.434009],[148.3271921,-36.4337872],[148.3274143,-36.4335456],[148.3276034,-36.4333242],[148.3278148,-36.4329632],[148.3278124,-36.432853],[148.3281026,-36.4325313],[148.3283858,-36.4322294],[148.3285698,-36.43205],[148.3287751,-36.432033],[148.3289198,-36.4319082],[148.3289681,-36.4318666],[148.3291502,-36.4314805],[148.329766,-36.4312186],[148.3304137,-36.4309822],[148.3308652,-36.4308201],[148.3314365,-36.4306149],[148.3318439,-36.4305373],[148.3319002,-36.4305266],[148.3330433,-36.430595],[148.3340202,-36.4306918],[148.3345723,-36.4307516],[148.3350659,-36.4307955],[148.3353721,-36.4308228],[148.3357968,-36.4309139],[148.3357437,-36.431136],[148.3354252,-36.4316201],[148.33545,-36.4320871],[148.3354004,-36.4324772],[148.3350217,-36.4328103],[148.3344254,-36.4330129]]}},{"type":"Feature","id":696795539,"properties":{"kind":"run","name":"Ash Alley","subtype":"intermediate","pisteType":"downhill"},"geometry":{"type":"LineString","coordinates":[[148.3348498,-36.4282011],[148.3349085,-36.428314],[148.3350359,-36.4286501],[148.3357119,-36.4291826],[148.3356063,-36.429619],[148.3352027,-36.4299562],[148.334984,-36.4304222],[148.3350659,-36.4307955]]}},{"type":"Feature","id":696795540,"properties":{"kind":"run","name":"Lenny's Leap","subtype":"advanced","pisteType":"downhill"},"geometry":{"type":"LineString","coordinates":[[148.3348498,-36.4282011],[148.3355047,-36.4284812],[148.3360962,-36.4286969],[148.3365553,-36.4289819],[148.3366046,-36.4295248],[148.3370236,-36.4300479],[148.3375998,-36.4303999],[148.3375967,-36.4311362],[148.3370544,-36.4317187],[148.3363427,-36.4321104],[148.335554,-36.432383],[148.3354004,-36.4324772]]}},{"type":"Feature","id":696795541,"properties":{"kind":"run","name":"Rocky Road","subtype":"intermediate","pisteType":"downhill"},"geometry":{"type":"LineString","coordinates":[[148.3342168,-36.4284657],[148.3340306,-36.4288127],[148.3332907,-36.4292314],[148.3324492,-36.4294898],[148.3317987,-36.4297253],[148.3316686,-36.4301702],[148.3318439,-36.4305373],[148.3319247,-36.4307132],[148.332498,-36.4313543],[148.3326508,-36.4316562],[148.3326646,-36.4318122],[148.3326267,-36.431961],[148.3324369,-36.4324247],[148.3324041,-36.4325873],[148.3324207,-36.4331533],[148.3324734,-36.433392]]}},{"type":"Feature","id":696795542,"properties":{"kind":"run","name":"The Pass","subtype":"intermediate","pisteType":"downhill"},"geometry":{"type":"LineString","coordinates":[[148.3308652,-36.4308201],[148.3309138,-36.4312477],[148.3309173,-36.4313615],[148.330609,-36.4319927],[148.3306105,-36.4321144],[148.3308519,-36.4324549],[148.3313796,-36.4329433],[148.3320567,-36.4332176],[148.3324734,-36.433392]]}},{"type":"Feature","id":696795544,"properties":{"kind":"run","name":"Rex's Ridge","subtype":"easy","pisteType":"downhill"},"geometry":{"type":"LineString","coordinates":[[148.3246269,-36.4376506],[148.3246714,-36.4375509],[148.3247429,-36.4373714],[148.3248136,-36.4371571],[148.3248228,-36.4369743],[148.3248461,-36.4368186],[148.3248561,-36.4367513],[148.3249244,-36.4366203],[148.3250127,-36.4365116],[148.3251542,-36.436374],[148.3252504,-36.4362218],[148.3253345,-36.4360437],[148.3255257,-36.4359393],[148.3257147,-36.4356606],[148.3259352,-36.4352949],[148.3260524,-36.4349271],[148.3262975,-36.4347582],[148.3268119,-36.4345652],[148.3268746,-36.4345231],[148.3270391,-36.434309],[148.3271687,-36.4341055],[148.3273968,-36.4339396],[148.3274458,-36.4339157],[148.3276753,-36.4338038],[148.3278894,-36.43363],[148.3286368,-36.4332184]]}},{"type":"Feature","id":696795545,"properties":{"kind":"run","name":"Peggy's Lane","subtype":"intermediate","pisteType":"downhill"},"geometry":{"type":"LineString","coordinates":[[148.3286368,-36.4332184],[148.3287597,-36.4329621],[148.3293155,-36.4323872],[148.3299085,-36.431617],[148.3305764,-36.4310985],[148.3308652,-36.4308201]]}},{"type":"Feature","id":696795546,"properties":{"kind":"run","name":"Big Dipper","subtype":"advanced","pisteType":"downhill"},"geometry":{"type":"LineString","coordinates":[[148.3286368,-36.4332184],[148.329124,-36.432902],[148.3299039,-36.4327479],[148.3307678,-36.4328494],[148.3314543,-36.4330485],[148.3324734,-36.433392]]}},{"type":"Feature","id":696795547,"properties":{"kind":"run","name":"Charlotte's Web","subtype":"advanced","pisteType":"downhill"},"geometry":{"type":"LineString","coordinates":[[148.3286368,-36.4332184],[148.3291473,-36.4334919],[148.3298011,-36.4334956],[148.3306324,-36.4337135],[148.3314917,-36.4336985],[148.3321408,-36.433552],[148.3324734,-36.433392]]}},{"type":"Feature","id":696795548,"properties":{"kind":"run","name":"Pulpit Cornice","subtype":"intermediate","pisteType":"downhill"},"geometry":{"type":"LineString","coordinates":[[148.3286368,-36.4332184],[148.3288765,-36.4336647],[148.3294696,-36.4339728],[148.3302401,-36.4340855],[148.3312161,-36.4341531],[148.3317298,-36.4339277],[148.3324734,-36.433392]]}},{"type":"Feature","id":696795549,"properties":{"kind":"run","name":"Kosi Coaster","subtype":"intermediate","pisteType":"downhill"},"geometry":{"type":"LineString","coordinates":[[148.3286368,-36.4332184],[148.3290427,-36.4343939],[148.329633,-36.4347355],[148.3305717,-36.4348144],[148.3314263,-36.4345251],[148.3317719,-36.4341982],[148.3321175,-36.4337962],[148.3324734,-36.433392]]}},{"type":"Feature","id":696795550,"properties":{"kind":"run","name":"Little Josh","subtype":"easy","pisteType":"downhill"},"geometry":{"type":"LineString","coordinates":[[148.3286368,-36.4332184],[148.3285859,-36.4336742],[148.3286743,-36.4342384],[148.3290812,-36.4351192],[148.3293791,-36.4353899]]}},{"type":"Feature","id":696795551,"properties":{"kind":"run","name":"Lucy's Lane","subtype":"easy","pisteType":"downhill"},"geometry":{"type":"LineString","coordinates":[[148.3289188,-36.4356153],[148.3293791,-36.4353899],[148.3296454,-36.4352595],[148.3300019,-36.4350849],[148.3312675,-36.434852]]}},{"type":"Feature","id":696795552,"properties":{"kind":"run","name":"Main Street","subtype":"easy","pisteType":"downhill"},"geometry":{"type":"LineString","coordinates":[[148.3312669,-36.4356066],[148.3315892,-36.4354231],[148.3313167,-36.4352208],[148.3312627,-36.4351808],[148.3312675,-36.434852],[148.3318092,-36.4342621],[148.3322249,-36.4337436],[148.3324734,-36.433392]]}},{"type":"Feature","id":696795553,"properties":{"kind":"run","name":"Easy Starter","subtype":"easy","pisteType":"downhill"},"geometry":{"type":"LineString","coordinates":[[148.3289188,-36.4356153],[148.3293404,-36.4357892],[148.3294275,-36.4358251],[148.3301607,-36.4356785],[148.3306604,-36.4354343],[148.3313167,-36.4352208]]}},{"type":"Feature","id":696795554,"properties":{"kind":"run","name":"Waterfall","subtype":"easy","pisteType":"downhill"},"geometry":{"type":"LineString","coordinates":[[148.3274458,-36.4339157],[148.327524,-36.434228],[148.3276325,-36.4343468],[148.3278023,-36.4344296],[148.3279896,-36.4345598],[148.3280323,-36.4347734],[148.3280263,-36.4349704],[148.3280843,-36.4351082],[148.3286611,-36.4356185],[148.3289094,-36.4357339],[148.3293404,-36.4357892]]}},{"type":"Feature","id":696795555,"properties":{"kind":"run","name":"Home Run","subtype":"easy","pisteType":"downhill"},"geometry":{"type":"LineString","coordinates":[[148.3262975,-36.4347582],[148.3265309,-36.4347742],[148.3266698,-36.4348029],[148.3271001,-36.4350281],[148.3274152,-36.4352649],[148.3276899,-36.4353993],[148.3279582,-36.4354904],[148.3281309,-36.4355607],[148.3285259,-36.4357196],[148.3290847,-36.436046],[148.3293195,-36.4361285],[148.3296377,-36.4362421],[148.329849,-36.4362449],[148.3302155,-36.4362039],[148.3304628,-36.4361518],[148.3307047,-36.4360599],[148.330964,-36.4359255],[148.3311486,-36.4358232],[148.3312582,-36.4356936],[148.3312669,-36.4356066]]}},{"type":"Feature","id":696795556,"properties":{"kind":"run","name":"Rollercoaster","subtype":"advanced","pisteType":"downhill"},"geometry":{"type":"LineString","coordinates":[[148.3255257,-36.4359393],[148.3255728,-36.4359325],[148.3281309,-36.4355607]]}},{"type":"Feature","id":696795557,"properties":{"kind":"run","name":"Sidewinder","subtype":"advanced","pisteType":"downhill"},"geometry":{"type":"LineString","coordinates":[[148.3255728,-36.4359325],[148.3257383,-36.4359455],[148.326029,-36.4360096],[148.3262993,-36.4361661],[148.3265684,-36.4363233],[148.3269298,-36.4364569],[148.3271793,-36.4364631],[148.3274737,-36.4364434]]}},{"type":"Feature","id":696795558,"properties":{"kind":"run","name":"Over the Edge","subtype":"advanced","pisteType":"downhill"},"geometry":{"type":"LineString","coordinates":[[148.3248461,-36.4368186],[148.3250581,-36.4367316],[148.3254354,-36.4366833],[148.3267703,-36.4365539],[148.3274737,-36.4364434],[148.3275189,-36.4364362],[148.3284143,-36.4362631],[148.3284959,-36.4362367],[148.3290847,-36.436046]]}},{"type":"Feature","id":696795559,"properties":{"kind":"run","name":"The Equaliser","subtype":"advanced","pisteType":"downhill"},"geometry":{"type":"LineString","coordinates":[[148.3246714,-36.4375509],[148.3251208,-36.4374179],[148.3254786,-36.4372809],[148.3263827,-36.4369372],[148.3277183,-36.4365352],[148.3290306,-36.4362008],[148.3293195,-36.4361285]]}},{"type":"Feature","id":696795560,"properties":{"kind":"run","name":"Avalanche","subtype":"advanced","pisteType":"downhill"},"geometry":{"type":"LineString","coordinates":[[148.3246269,-36.4376506],[148.3248978,-36.4378583],[148.3252373,-36.4381287],[148.3255768,-36.4383822],[148.3259526,-36.4386351],[148.3263971,-36.4388374],[148.3266763,-36.4389029],[148.3269522,-36.4389027],[148.3272354,-36.4388679],[148.3274573,-36.4388132],[148.3276449,-36.4387168],[148.3278449,-36.4385501],[148.32819,-36.4381845],[148.3287784,-36.437606],[148.3289323,-36.4373956],[148.329072,-36.4371806],[148.329152,-36.4370574],[148.3293431,-36.4368157],[148.3294888,-36.4366448],[148.3297032,-36.4363874],[148.329849,-36.4362449]]}},{"type":"Feature","id":711023633,"properties":{"kind":"run","name":"Twynham South Face","subtype":"intermediate","pisteType":"downhill"},"geometry":{"type":"LineString","coordinates":[[148.3149144,-36.3934306],[148.3141828,-36.3936828],[148.3138224,-36.3939729],[148.3134913,-36.3942708],[148.3131309,-36.3946628],[148.3126829,-36.3951959],[148.3119817,-36.3959642],[148.3115239,-36.3964816],[148.3109395,-36.3972656],[148.3106376,-36.3977438],[148.3104136,-36.3981828],[148.3101506,-36.3988178],[148.3099948,-36.3993744],[148.3098877,-36.4002524],[148.309839,-36.4009579],[148.3097903,-36.4014596],[148.3098073,-36.402213],[148.3098625,-36.4026834],[148.3099397,-36.4028254],[148.3100049,-36.4028907],[148.3101844,-36.4029925],[148.3105272,-36.4032027],[148.3107884,-36.4034097],[148.3110496,-36.4036856],[148.3112904,-36.4038794],[148.3115556,-36.4040731],[148.3117923,-36.4041947],[148.3121637,-36.4043293],[148.3125228,-36.4044147],[148.3126248,-36.4044344]]}},{"type":"Feature","id":711023634,"properties":{"kind":"run","name":"Blue Lake Chutes","subtype":"expert","pisteType":"downhill"},"geometry":{"type":"LineString","coordinates":[[148.3149144,-36.3934306],[148.3146936,-36.3941762],[148.3145094,-36.3948223],[148.3143971,-36.3953501],[148.3143328,-36.3957507],[148.3143521,-36.3961239],[148.3144579,-36.3965705],[148.3145139,-36.3970752],[148.3145288,-36.3973253],[148.3145506,-36.3976314],[148.3145252,-36.3977396],[148.3144809,-36.3978479],[148.3143972,-36.3979633],[148.3142978,-36.3980282],[148.3141399,-36.3980734],[148.3140073,-36.3981137],[148.3138537,-36.3981793],[148.3136993,-36.3983014],[148.3136281,-36.3984093],[148.3135941,-36.3986512],[148.3136488,-36.3988557],[148.3136165,-36.3989225],[148.3134421,-36.3989927],[148.3131939,-36.3990845],[148.3130127,-36.3992033],[148.3128651,-36.3993923],[148.3127511,-36.3995272],[148.3125431,-36.399646],[148.3122882,-36.3997864],[148.3121674,-36.3999592],[148.3121339,-36.4001644],[148.3120534,-36.4005964],[148.3119326,-36.4008286],[148.311879,-36.4010068]]}},{"type":"Feature","id":711023635,"properties":{"kind":"run","name":"Glissade Gully","subtype":"expert","pisteType":"downhill"},"geometry":{"type":"LineString","coordinates":[[148.311879,-36.4010068],[148.3118041,-36.4011526],[148.3116797,-36.4013195],[148.3115849,-36.4014911],[148.3115671,-36.4016246],[148.3115849,-36.4017725],[148.3117034,-36.4019298],[148.3118811,-36.4020872],[148.3120944,-36.4022017],[148.3123254,-36.4023352],[148.3125091,-36.4024592],[148.3126335,-36.4025641],[148.3128113,-36.4027357]]}},{"type":"Feature","id":711023636,"properties":{"kind":"run","name":"Stag Gully","subtype":"expert","pisteType":"downhill"},"geometry":{"type":"LineString","coordinates":[[148.311879,-36.4010068],[148.311879,-36.4011418],[148.3120064,-36.4013469],[148.3121406,-36.4014495],[148.3124559,-36.4015845],[148.3126974,-36.4017249],[148.3128651,-36.4018923],[148.3129725,-36.4020705],[148.3130396,-36.4022811],[148.3131469,-36.4025025]]}},{"type":"Feature","id":711023637,"properties":{"kind":"run","name":"The Amphitheatre","subtype":"expert","pisteType":"downhill"},"geometry":{"type":"LineString","coordinates":[[148.3127511,-36.3995272],[148.3126106,-36.399698],[148.3125928,-36.3997886],[148.312658,-36.3999412],[148.312812,-36.4001558],[148.3129246,-36.400461],[148.3130253,-36.4006279],[148.3132363,-36.4007924],[148.3133867,-36.4009283],[148.3135052,-36.4010857],[148.3136355,-36.4012907],[148.3137362,-36.4014195],[148.3139258,-36.4015816],[148.3140325,-36.4017151],[148.314068,-36.4017914]]}},{"type":"Feature","id":711023638,"properties":{"kind":"run","name":"Mapped ski run","subtype":"expert","pisteType":"downhill"},"geometry":{"type":"LineString","coordinates":[[148.3136488,-36.3988557],[148.3137836,-36.3991067],[148.3138488,-36.3993117],[148.3138488,-36.3994596],[148.313837,-36.3996122],[148.3138666,-36.3997648],[148.3139377,-36.3999126],[148.3140562,-36.4001844],[148.3140739,-36.4003799],[148.3140443,-36.4005373],[148.3140206,-36.4006708],[148.3140029,-36.4007662],[148.3140147,-36.4009235],[148.3141036,-36.4011191],[148.3141865,-36.4012812],[148.3142398,-36.4014386],[148.3142576,-36.4015482],[148.3142813,-36.4016961]]}},{"type":"Feature","id":711023639,"properties":{"kind":"run","name":"Centre Gully","subtype":"intermediate","pisteType":"downhill"},"geometry":{"type":"LineString","coordinates":[[148.3149144,-36.3934306],[148.3154215,-36.3936038],[148.3155816,-36.3939129],[148.315868,-36.3943584],[148.3160999,-36.3947275],[148.3162802,-36.3949868],[148.3165539,-36.3953763],[148.3170172,-36.3960114],[148.3172626,-36.3963221],[148.3174325,-36.3965538],[148.3175344,-36.3967056],[148.3176162,-36.3968848],[148.3176979,-36.3970725],[148.3178097,-36.3974533],[148.3178284,-36.397754],[148.3178121,-36.3979708],[148.3177835,-36.3982467],[148.31771,-36.3986573],[148.3176291,-36.3989696],[148.3174826,-36.3993023],[148.3173779,-36.3995339],[148.317132,-36.3999508],[148.3168861,-36.4002751],[148.3166559,-36.4004983],[148.3163315,-36.400751],[148.3159809,-36.4010205],[148.3157821,-36.4012353],[148.3155937,-36.4014501],[148.3154263,-36.4017154],[148.3153425,-36.4019302]]}},{"type":"Feature","id":826792141,"properties":{"kind":"run","name":"Nordic trail","subtype":"easy","pisteType":"nordic"},"geometry":{"type":"LineString","coordinates":[[148.359,-36.4293427],[148.3595143,-36.4292316],[148.3601459,-36.4291829],[148.3603161,-36.4291611],[148.3608024,-36.4290987],[148.3614683,-36.4290661],[148.362544,-36.428874],[148.3648217,-36.4289082],[148.3654666,-36.4287082],[148.3663458,-36.4284201],[148.3673372,-36.4279426],[148.3686491,-36.4275625],[148.3691651,-36.4272653],[148.3693023,-36.427019],[148.3693347,-36.4267569],[148.3693926,-36.4264537],[148.3694887,-36.426145],[148.3696234,-36.4259931],[148.3698168,-36.4258886],[148.3700146,-36.4258359],[148.370174,-36.4258563],[148.371067,-36.426457],[148.371303,-36.426525],[148.371902,-36.42655],[148.372505,-36.426487],[148.373125,-36.42635],[148.373505,-36.426183],[148.37422,-36.4257],[148.374588,-36.425532],[148.3749976,-36.425506],[148.3756875,-36.4255764],[148.3759727,-36.4255639],[148.3764973,-36.4254715],[148.3769374,-36.425268],[148.3770067,-36.4251562],[148.3772882,-36.4248657],[148.377755,-36.424378],[148.37951,-36.422353],[148.380062,-36.421925],[148.38068,-36.421525],[148.3839681,-36.420081],[148.386936,-36.4187736],[148.3871687,-36.4186701],[148.3873874,-36.4185341],[148.3877711,-36.4182855],[148.3884696,-36.4176973],[148.3893003,-36.417087],[148.3902735,-36.4165813],[148.3908759,-36.4163381]]}},{"type":"Feature","id":1480983701,"properties":{"kind":"run","name":"Top of the World","subtype":"easy","pisteType":"downhill"},"geometry":{"type":"LineString","coordinates":[[148.3286368,-36.4332184],[148.3285874,-36.4330093],[148.3285696,-36.4328671],[148.3285877,-36.4327654],[148.3286816,-36.4326238],[148.3287805,-36.4324083],[148.3288286,-36.4321655],[148.3289198,-36.4319082]]}},{"type":"Feature","id":1504394294,"properties":{"kind":"run","name":"Guthries Chutes","subtype":"advanced","pisteType":"downhill"},"geometry":{"type":"LineString","coordinates":[[148.3355095,-36.4283778],[148.3359045,-36.4282797],[148.3363198,-36.4281014],[148.3366401,-36.4280482],[148.3370761,-36.4279496],[148.3376259,-36.4279623],[148.3379792,-36.4280889],[148.3385268,-36.4284284],[148.3387455,-36.4287081],[148.3388781,-36.4291984],[148.3387892,-36.4294398],[148.3385243,-36.4298591],[148.338296,-36.430135],[148.3378317,-36.4306702],[148.3377787,-36.4304361],[148.3376789,-36.4302811],[148.3371495,-36.4299455],[148.3367608,-36.4294828],[148.3366328,-36.4289273],[148.3362792,-36.4286506],[148.3355095,-36.4283778]]}}]}