{"type":"FeatureCollection","features":[{"type":"Feature","id":"building-249170746","properties":{"kind":"building","name":"Resort building","height":7.2},"geometry":{"type":"Polygon","coordinates":[[[148.3246603,-36.4375851],[148.3247032,-36.4376887],[148.324605,-36.437715],[148.3245621,-36.4376114],[148.3246603,-36.4375851]]]}},{"type":"Feature","id":"building-249170747","properties":{"kind":"building","name":"Kosciusko Chalet","height":7.2},"geometry":{"type":"Polygon","coordinates":[[[148.3323726,-36.4346432],[148.3325425,-36.4347049],[148.3326921,-36.4344382],[148.3327609,-36.4344632],[148.332649,-36.4346627],[148.3327393,-36.4346955],[148.3328658,-36.4344699],[148.3328889,-36.4344783],[148.3329482,-36.4343725],[148.3326007,-36.4342466],[148.33258,-36.4342801],[148.3325296,-36.4343738],[148.3325703,-36.4343885],[148.3325329,-36.4344552],[148.3325054,-36.4345041],[148.3324712,-36.434565],[148.3324257,-36.4345485],[148.3323726,-36.4346432]]]}},{"type":"Feature","id":"building-289721910","properties":{"kind":"building","name":"Resort building","height":7.2},"geometry":{"type":"Polygon","coordinates":[[[148.3313952,-36.4355223],[148.3312756,-36.43556],[148.3312143,-36.4356029],[148.3312208,-36.4356346],[148.3313434,-36.4356418],[148.3313387,-36.4356705],[148.3314938,-36.435638],[148.3314996,-36.4355893],[148.3314705,-36.4355614],[148.331415,-36.4355647],[148.3313952,-36.4355223]]]}},{"type":"Feature","id":"building-320449503","properties":{"kind":"building","name":"Lucy Lodge","height":7.2},"geometry":{"type":"Polygon","coordinates":[[[148.3316168,-36.4363674],[148.3317479,-36.4363435],[148.3318042,-36.436296],[148.331767,-36.436225],[148.3316919,-36.436197],[148.3315551,-36.4362293],[148.3315416,-36.4362703],[148.3316168,-36.4363674]]]}},{"type":"Feature","id":"building-320449505","properties":{"kind":"building","name":"Snowbird Lodge","height":7.2},"geometry":{"type":"Polygon","coordinates":[[[148.3324026,-36.4360006],[148.3324348,-36.4362617],[148.3322793,-36.436266],[148.3322766,-36.4362358],[148.3321928,-36.4362333],[148.3321824,-36.4361299],[148.3322683,-36.4361234],[148.3322548,-36.4360177],[148.3324026,-36.4360006]]]}},{"type":"Feature","id":"building-320449507","properties":{"kind":"building","name":"Targangil Lodge","height":7.2},"geometry":{"type":"Polygon","coordinates":[[[148.3316919,-36.4360869],[148.3317506,-36.4359939],[148.3317777,-36.4359898],[148.331823,-36.4359184],[148.3318018,-36.4358733],[148.3317586,-36.4358623],[148.3316811,-36.4358927],[148.3316141,-36.4360028],[148.3316436,-36.4360848],[148.3316919,-36.4360869]]]}},{"type":"Feature","id":"building-320449509","properties":{"kind":"building","name":"Kosciuszko Alpine Club","height":7.2},"geometry":{"type":"Polygon","coordinates":[[[148.3323344,-36.435232],[148.3324282,-36.4352507],[148.3325409,-36.4350341],[148.3322344,-36.4349175],[148.332199,-36.4349793],[148.3321693,-36.435028],[148.3322406,-36.4350545],[148.3322636,-36.4350637],[148.332222,-36.4351349],[148.3323224,-36.4351731],[148.332319,-36.4351953],[148.332337,-36.4352009],[148.3323344,-36.435232]]]}},{"type":"Feature","id":"building-320449511","properties":{"kind":"building","name":"Knockshannoch Lodge","height":7.2},"geometry":{"type":"Polygon","coordinates":[[[148.3323524,-36.4354688],[148.3324175,-36.4354472],[148.3324366,-36.4354015],[148.3324172,-36.4353556],[148.3323431,-36.4353332],[148.3322955,-36.4353515],[148.3322074,-36.4353182],[148.3321767,-36.4353708],[148.3322715,-36.4354066],[148.3322889,-36.4354467],[148.3323524,-36.4354688]]]}},{"type":"Feature","id":"building-320449512","properties":{"kind":"building","name":"Bella Vista Staff Lodge","height":7.2},"geometry":{"type":"Polygon","coordinates":[[[148.3318301,-36.4348363],[148.3319429,-36.4348179],[148.3319173,-36.4347157],[148.331963,-36.4347083],[148.3319399,-36.4346164],[148.3318843,-36.4346255],[148.3318694,-36.4345664],[148.3317629,-36.4345838],[148.3317756,-36.4346343],[148.3317176,-36.4346438],[148.3317437,-36.4347477],[148.3318053,-36.4347377],[148.3318301,-36.4348363]]]}},{"type":"Feature","id":"building-320449513","properties":{"kind":"building","name":"Burrawong Lodge","height":7.2},"geometry":{"type":"Polygon","coordinates":[[[148.3319198,-36.4363027],[148.3319169,-36.436214],[148.3319491,-36.4362075],[148.3319279,-36.4360632],[148.3318421,-36.4360675],[148.3317965,-36.4361366],[148.3318286,-36.4363113],[148.3319198,-36.4363027]]]}},{"type":"Feature","id":"building-320449514","properties":{"kind":"building","name":"Arlberg Ski Lodge","height":7.2},"geometry":{"type":"Polygon","coordinates":[[[148.3321319,-36.4362652],[148.3320986,-36.436014],[148.3319456,-36.4360272],[148.3319789,-36.4362783],[148.3320589,-36.4362714],[148.3321319,-36.4362652]]]}},{"type":"Feature","id":"building-320449515","properties":{"kind":"building","name":"Pygmy Possum Lodge","height":10.3},"geometry":{"type":"Polygon","coordinates":[[[148.3331805,-36.435828],[148.3331856,-36.4357544],[148.333143,-36.435747],[148.3331416,-36.4356694],[148.3331783,-36.4356687],[148.3331815,-36.4356476],[148.3332945,-36.435651],[148.3332965,-36.435665],[148.3334182,-36.4356656],[148.3334174,-36.4356508],[148.333535,-36.4356525],[148.3335401,-36.435689],[148.3335856,-36.4356921],[148.3335855,-36.4357557],[148.3335426,-36.4357563],[148.3335412,-36.4358461],[148.3335003,-36.4358468],[148.3335,-36.4358805],[148.3334529,-36.4358791],[148.3334481,-36.4358482],[148.3334095,-36.4358446],[148.3334063,-36.4357651],[148.3333148,-36.4357642],[148.3333253,-36.4358366],[148.333277,-36.4358409],[148.3332798,-36.4358787],[148.3332258,-36.4358763],[148.3332247,-36.4358312],[148.3331805,-36.435828]]]}},{"type":"Feature","id":"building-320449516","properties":{"kind":"building","name":"Jerrabomberra Lodge","height":7.2},"geometry":{"type":"Polygon","coordinates":[[[148.3327809,-36.4355078],[148.3327791,-36.4353688],[148.3325879,-36.4353703],[148.332511,-36.4353704],[148.3325111,-36.4354222],[148.3325137,-36.43551],[148.3327809,-36.4355078]]]}},{"type":"Feature","id":"building-320449517","properties":{"kind":"building","name":"Resort building","height":7.2},"geometry":{"type":"Polygon","coordinates":[[[148.332289,-36.4348473],[148.3323978,-36.4348855],[148.3324972,-36.4347026],[148.3323656,-36.4346563],[148.332278,-36.4348175],[148.3323008,-36.4348255],[148.332289,-36.4348473]]]}},{"type":"Feature","id":"building-320449518","properties":{"kind":"building","name":"Spencer's Creek Lodge","height":7.2},"geometry":{"type":"Polygon","coordinates":[[[148.3330295,-36.4354651],[148.3330508,-36.4354639],[148.333056,-36.435475],[148.3330932,-36.4354754],[148.3330963,-36.4354632],[148.3331458,-36.4354539],[148.3331537,-36.4354248],[148.3331716,-36.4354161],[148.3331458,-36.4353477],[148.3331071,-36.4353506],[148.3331007,-36.4353326],[148.3330397,-36.4353203],[148.332996,-36.4353532],[148.3330088,-36.4353804],[148.3329713,-36.4353921],[148.3330013,-36.435456],[148.3330224,-36.4354538],[148.3330295,-36.4354651]]]}},{"type":"Feature","id":"building-320449519","properties":{"kind":"building","name":"Workshop","height":7.2},"geometry":{"type":"Polygon","coordinates":[[[148.3325477,-36.4352483],[148.3327606,-36.4353268],[148.3328234,-36.4352137],[148.3327485,-36.4351862],[148.3326113,-36.4351368],[148.3325477,-36.4352483]]]}},{"type":"Feature","id":"building-320449520","properties":{"kind":"building","name":"Southern Alps Ski Club","height":7.2},"geometry":{"type":"Polygon","coordinates":[[[148.3324912,-36.435787],[148.3327647,-36.4357179],[148.3328264,-36.4358992],[148.3326199,-36.4359531],[148.3325877,-36.4358625],[148.3325126,-36.4358754],[148.3324912,-36.435787]]]}},{"type":"Feature","id":"building-320449521","properties":{"kind":"building","name":"Stillwell Hotel","height":7.2},"geometry":{"type":"Polygon","coordinates":[[[148.3321666,-36.4359423],[148.3323919,-36.4358698],[148.3322629,-36.4356249],[148.332062,-36.4357244],[148.3321666,-36.4359423]]]}},{"type":"Feature","id":"building-640782670","properties":{"kind":"building","name":"Resort building","height":7.2},"geometry":{"type":"Polygon","coordinates":[[[148.3326007,-36.4342466],[148.3325778,-36.4342375],[148.3325571,-36.4342709],[148.33258,-36.4342801],[148.3326007,-36.4342466]]]}},{"type":"Feature","id":"building-640785386","properties":{"kind":"building","name":"Resort building","height":7.2},"geometry":{"type":"Polygon","coordinates":[[[148.3327485,-36.4351862],[148.3327756,-36.4351386],[148.3328504,-36.4351661],[148.3328234,-36.4352137],[148.3327485,-36.4351862]]]}},{"type":"Feature","id":"building-640785387","properties":{"kind":"building","name":"Charlotte Pass Ski Centre","height":7.2},"geometry":{"type":"Polygon","coordinates":[[[148.3319859,-36.4353505],[148.3319964,-36.4353253],[148.3319734,-36.4352816],[148.3320068,-36.4352194],[148.3320653,-36.4352043],[148.3320862,-36.4351723],[148.3321594,-36.4351925],[148.3321427,-36.4352261],[148.3321573,-36.4352497],[148.3321113,-36.4353505],[148.3320841,-36.4353489],[148.3320674,-36.4353791],[148.3319859,-36.4353505]]]}},{"type":"Feature","id":"building-640785389","properties":{"kind":"building","name":"Resort building","height":7.2},"geometry":{"type":"Polygon","coordinates":[[[148.332199,-36.4349793],[148.3321828,-36.4349732],[148.3321536,-36.4350232],[148.3321693,-36.435028],[148.332199,-36.4349793]]]}},{"type":"Feature","id":"building-640785390","properties":{"kind":"building","name":"Resort building","height":7.2},"geometry":{"type":"Polygon","coordinates":[[[148.3321693,-36.435028],[148.3321595,-36.4350452],[148.3322307,-36.4350717],[148.3322406,-36.4350545],[148.3321693,-36.435028]]]}},{"type":"Feature","id":"building-640785391","properties":{"kind":"building","name":"Resort building","height":7.2},"geometry":{"type":"Polygon","coordinates":[[[148.3325111,-36.4354222],[148.3324842,-36.4354222],[148.3324841,-36.4353528],[148.3325879,-36.4353527],[148.3325879,-36.4353703],[148.332511,-36.4353704],[148.3325111,-36.4354222]]]}},{"type":"Feature","id":"building-640785392","properties":{"kind":"building","name":"Resort building","height":7.2},"geometry":{"type":"Polygon","coordinates":[[[148.3283568,-36.4321594],[148.3283909,-36.432123],[148.3283284,-36.4320851],[148.3282942,-36.4321216],[148.3283568,-36.4321594]]]}},{"type":"Feature","id":"pylon-charlotte-pass-0","properties":{"kind":"pylon","name":"Lift tower","height":13},"geometry":{"type":"Polygon","coordinates":[[[148.32921486483448,-36.4362907],[148.32920766996105,-36.43627672555768],[148.3291903,-36.43627093715415],[148.32917293003894,-36.43627672555768],[148.3291657351655,-36.4362907],[148.32917293003894,-36.43630467444232],[148.3291903,-36.43631046284585],[148.32920766996105,-36.43630467444232],[148.32921486483448,-36.4362907]]]}},{"type":"Feature","id":"pylon-charlotte-pass-1","properties":{"kind":"pylon","name":"Lift tower","height":13},"geometry":{"type":"Polygon","coordinates":[[[148.32634636510505,-36.4371455],[148.32633917015235,-36.43713152555768],[148.3263218,-36.43712573715415],[148.32630442984762,-36.43713152555768],[148.32629723489492,-36.4371455],[148.32630442984762,-36.43715947444232],[148.3263218,-36.43716526284585],[148.32633917015235,-36.43715947444232],[148.32634636510505,-36.4371455]]]}},{"type":"Feature","id":"pylon-charlotte-pass-2","properties":{"kind":"pylon","name":"Lift tower","height":13},"geometry":{"type":"Polygon","coordinates":[[[148.32742856500298,-36.436823],[148.3274213700802,-36.43680902555768],[148.327404,-36.436803237154145],[148.3273866299198,-36.43680902555768],[148.32737943499703,-36.436823],[148.3273866299198,-36.436836974442315],[148.327404,-36.43684276284585],[148.3274213700802,-36.436836974442315],[148.32742856500298,-36.436823]]]}},{"type":"Feature","id":"pylon-charlotte-pass-3","properties":{"kind":"pylon","name":"Lift tower","height":13},"geometry":{"type":"Polygon","coordinates":[[[148.32832166491875,-36.4365569],[148.32831447002062,-36.43654292555768],[148.3282971,-36.43653713715415],[148.32827972997936,-36.43654292555768],[148.32827253508123,-36.4365569],[148.32827972997936,-36.43657087444232],[148.3282971,-36.43657666284585],[148.32831447002062,-36.43657087444232],[148.32832166491875,-36.4365569]]]}},{"type":"Feature","id":"pylon-charlotte-pass-4","properties":{"kind":"pylon","name":"Lift tower","height":13},"geometry":{"type":"Polygon","coordinates":[[[148.32973986477975,-36.4361177],[148.32973266992235,-36.43610372555768],[148.3297153,-36.436097937154145],[148.32969793007766,-36.43610372555768],[148.32969073522025,-36.4361177],[148.32969793007766,-36.436131674442315],[148.3297153,-36.43613746284585],[148.32973266992235,-36.436131674442315],[148.32973986477975,-36.4361177]]]}},{"type":"Feature","id":"pylon-charlotte-pass-5","properties":{"kind":"pylon","name":"Lift tower","height":13},"geometry":{"type":"Polygon","coordinates":[[[148.33066186468363,-36.435814],[148.33065466985437,-36.43580002555768],[148.3306373,-36.43579423715415],[148.33061993014564,-36.43580002555768],[148.33061273531638,-36.435814],[148.33061993014564,-36.43582797444232],[148.3306373,-36.43583376284585],[148.33065466985437,-36.43582797444232],[148.33066186468363,-36.435814]]]}},{"type":"Feature","id":"pylon-charlotte-pass-6","properties":{"kind":"pylon","name":"Lift tower","height":13},"geometry":{"type":"Polygon","coordinates":[[[148.3297149645831,-36.4354964],[148.32970776978328,-36.43548242555768],[148.3296904,-36.435476637154146],[148.32967303021672,-36.43548242555768],[148.3296658354169,-36.4354964],[148.32967303021672,-36.435510374442316],[148.3296904,-36.43551616284585],[148.32970776978328,-36.435510374442316],[148.3297149645831,-36.4354964]]]}},{"type":"Feature","id":"pylon-charlotte-pass-7","properties":{"kind":"pylon","name":"Lift tower","height":13},"geometry":{"type":"Polygon","coordinates":[[[148.33485656233827,-36.4284025],[148.33484936819596,-36.42838852555768],[148.334832,-36.428382737154145],[148.33481463180405,-36.42838852555768],[148.33480743766174,-36.4284025],[148.33481463180405,-36.428416474442315],[148.334832,-36.42842226284585],[148.33484936819596,-36.428416474442315],[148.33485656233827,-36.4284025]]]}},{"type":"Feature","id":"pylon-charlotte-pass-8","properties":{"kind":"pylon","name":"Lift tower","height":13},"geometry":{"type":"Polygon","coordinates":[[[148.33477156264334,-36.4293667],[148.33476436841167,-36.429352725557685],[148.334747,-36.42934693715415],[148.33472963158832,-36.429352725557685],[148.33472243735665,-36.4293667],[148.33472963158832,-36.42938067444232],[148.334747,-36.429386462845855],[148.33476436841167,-36.42938067444232],[148.33477156264334,-36.4293667]]]}},{"type":"Feature","id":"pylon-charlotte-pass-9","properties":{"kind":"pylon","name":"Lift tower","height":13},"geometry":{"type":"Polygon","coordinates":[[[148.33470066289755,-36.4301701],[148.3346934685914,-36.43015612555768],[148.3346761,-36.430150337154146],[148.33465873140858,-36.43015612555768],[148.33465153710245,-36.4301701],[148.33465873140858,-36.430184074442316],[148.3346761,-36.43018986284585],[148.3346934685914,-36.430184074442316],[148.33470066289755,-36.4301701]]]}},{"type":"Feature","id":"pylon-charlotte-pass-10","properties":{"kind":"pylon","name":"Lift tower","height":13},"geometry":{"type":"Polygon","coordinates":[[[148.33463966311655,-36.4308622],[148.3346324687463,-36.43084822555768],[148.3346151,-36.43084243715415],[148.33459773125372,-36.43084822555768],[148.33459053688347,-36.4308622],[148.33459773125372,-36.43087617444232],[148.3346151,-36.43088196284585],[148.3346324687463,-36.43087617444232],[148.33463966311655,-36.4308622]]]}},{"type":"Feature","id":"pylon-charlotte-pass-11","properties":{"kind":"pylon","name":"Lift tower","height":13},"geometry":{"type":"Polygon","coordinates":[[[148.33458576330992,-36.4314733],[148.33457856888302,-36.43145932555768],[148.3345612,-36.43145353715415],[148.33454383111697,-36.43145932555768],[148.33453663669007,-36.4314733],[148.33454383111697,-36.43148727444232],[148.3345612,-36.43149306284585],[148.33457856888302,-36.43148727444232],[148.33458576330992,-36.4314733]]]}},{"type":"Feature","id":"pylon-charlotte-pass-12","properties":{"kind":"pylon","name":"Lift tower","height":13},"geometry":{"type":"Polygon","coordinates":[[[148.33454046347236,-36.4319866],[148.3345332689979,-36.431972625557684],[148.3345159,-36.43196683715415],[148.33449853100214,-36.431972625557684],[148.33449133652766,-36.4319866],[148.33449853100214,-36.43200057444232],[148.3345159,-36.432006362845854],[148.3345332689979,-36.43200057444232],[148.33454046347236,-36.4319866]]]}},{"type":"Feature","id":"pylon-charlotte-pass-13","properties":{"kind":"pylon","name":"Lift tower","height":13},"geometry":{"type":"Polygon","coordinates":[[[148.33450576359684,-36.43238],[148.3344985690859,-36.432366025557684],[148.3344812,-36.43236023715415],[148.3344638309141,-36.432366025557684],[148.33445663640316,-36.43238],[148.3344638309141,-36.43239397444232],[148.3344812,-36.432399762845854],[148.3344985690859,-36.43239397444232],[148.33450576359684,-36.43238]]]}},{"type":"Feature","id":"pylon-charlotte-pass-14","properties":{"kind":"pylon","name":"Lift tower","height":13},"geometry":{"type":"Polygon","coordinates":[[[148.32885596386495,-36.4332272],[148.32884876927548,-36.43321322555768],[148.3288314,-36.433207437154145],[148.32881403072454,-36.43321322555768],[148.32880683613507,-36.4332272],[148.32881403072454,-36.433241174442315],[148.3288314,-36.43324696284585],[148.32884876927548,-36.433241174442315],[148.32885596386495,-36.4332272]]]}},{"type":"Feature","id":"pylon-charlotte-pass-15","properties":{"kind":"pylon","name":"Lift tower","height":13},"geometry":{"type":"Polygon","coordinates":[[[148.3297038638771,-36.4332656],[148.32969666928406,-36.43325162555768],[148.3296793,-36.433245837154146],[148.32966193071596,-36.43325162555768],[148.3296547361229,-36.4332656],[148.32966193071596,-36.43327957444232],[148.3296793,-36.43328536284585],[148.32969666928406,-36.43327957444232],[148.3297038638771,-36.4332656]]]}},{"type":"Feature","id":"pylon-charlotte-pass-16","properties":{"kind":"pylon","name":"Lift tower","height":13},"geometry":{"type":"Polygon","coordinates":[[[148.33094506389483,-36.4333217],[148.3309378692966,-36.43330772555768],[148.3309205,-36.43330193715415],[148.33090313070338,-36.43330772555768],[148.33089593610515,-36.4333217],[148.33090313070338,-36.43333567444232],[148.3309205,-36.43334146284585],[148.3309378692966,-36.43333567444232],[148.33094506389483,-36.4333217]]]}},{"type":"Feature","id":"pylon-charlotte-pass-17","properties":{"kind":"pylon","name":"Lift tower","height":13},"geometry":{"type":"Polygon","coordinates":[[[148.33180336390714,-36.4333606],[148.3317961693053,-36.43334662555768],[148.3317788,-36.43334083715415],[148.33176143069468,-36.43334662555768],[148.33175423609285,-36.4333606],[148.33176143069468,-36.43337457444232],[148.3317788,-36.43338036284585],[148.3317961693053,-36.43337457444232],[148.33180336390714,-36.4333606]]]}},{"type":"Feature","id":"marker-charlotte-pass-summit zone \u00b7 1964 m","properties":{"kind":"marker","name":"Summit zone \u00b7 1964 m","height":26},"geometry":{"type":"Polygon","coordinates":[[[148.3267781501741,-36.4257],[148.32676322481896,-36.42566303901575],[148.32672414973192,-36.42564019587123],[148.32667585026806,-36.42564019587123],[148.32663677518102,-36.42566303901575],[148.32662184982587,-36.4257],[148.32663677518102,-36.425736960984246],[148.32667585026806,-36.42575980412877],[148.32672414973192,-36.42575980412877],[148.32676322481896,-36.425736960984246],[148.3267781501741,-36.4257]]]}},{"type":"Feature","id":"marker-charlotte-pass-resort base \u00b7 1755 m","properties":{"kind":"marker","name":"Resort base \u00b7 1755 m","height":18},"geometry":{"type":"Polygon","coordinates":[[[148.33277815621435,-36.4317],[148.33276322970562,-36.43166303901575],[148.33272415159846,-36.43164019587123],[148.33267584840152,-36.43164019587123],[148.33263677029436,-36.43166303901575],[148.33262184378563,-36.4317],[148.33263677029436,-36.431736960984246],[148.33267584840152,-36.43175980412877],[148.33272415159846,-36.43175980412877],[148.33276322970562,-36.431736960984246],[148.33277815621435,-36.4317]]]}}]}