{"type":"FeatureCollection","features":[{"type":"Feature","id":28602887,"properties":{"kind":"run","name":"Ski touring route","subtype":"unknown","pisteType":"skitour","featured":false},"geometry":{"type":"LineString","coordinates":[[19.9696878,49.2449572],[19.9701437,49.2449382],[19.9704677,49.2449311],[19.970705,49.2448769],[19.970865,49.2448842],[19.9711784,49.2449905],[19.9717184,49.2452237],[19.9721451,49.2453],[19.9723381,49.2454749],[19.9723782,49.24578],[19.9723777,49.2460208],[19.9724594,49.2463427],[19.9725303,49.2466155],[19.9725974,49.2467136],[19.9727073,49.2467853],[19.9729782,49.2468711],[19.9731338,49.2470865],[19.9733216,49.2472283],[19.9733672,49.2472721],[19.9733618,49.2473562],[19.9732706,49.2474332],[19.9731198,49.247552],[19.9730127,49.2476331],[19.9729675,49.2476958],[19.9729998,49.2477502],[19.9731814,49.2478536],[19.9732625,49.2479917],[19.9735388,49.2482456],[19.9736454,49.2484568],[19.973726,49.2485794],[19.973767,49.248804],[19.9737571,49.2489185],[19.9737775,49.2489915],[19.9738714,49.249044],[19.9740377,49.249051],[19.9744609,49.249043],[19.9746792,49.2491297],[19.9748211,49.2492305],[19.9749338,49.2493888],[19.9748723,49.249683],[19.9748296,49.249982],[19.9748316,49.2502223],[19.9748799,49.2503274],[19.9747256,49.2505037],[19.9745607,49.2506898],[19.9743831,49.2508009],[19.9742147,49.2508911],[19.9741074,49.2509664],[19.9740833,49.2510645],[19.97413,49.2512297],[19.9741827,49.2513304],[19.9742319,49.2514634],[19.9741419,49.2516356],[19.9741202,49.251709],[19.9741744,49.2517443]]}},{"type":"Feature","id":32130815,"properties":{"kind":"lift","name":"Kolej krzesełkowa Gąsienicowa","subtype":"chair_lift","status":"active"},"geometry":{"type":"LineString","coordinates":[[19.9970642,49.2362171],[19.9963882,49.2360434],[19.9947312,49.2356231],[19.9934243,49.2352959],[19.9927824,49.2351386],[19.9917235,49.2348653],[19.9902141,49.2344946],[19.9891727,49.2342315],[19.9881177,49.2339684],[19.9867131,49.2336181],[19.9850848,49.2332083],[19.9839204,49.2329174],[19.9828874,49.2326498]]}},{"type":"Feature","id":32130859,"properties":{"kind":"lift","name":"Kolej linowa Kasprowy Wierch - odcinek I","subtype":"cable_car","status":"active"},"geometry":{"type":"LineString","coordinates":[[19.9792009,49.2692868],[19.9788734,49.2682375],[19.9778561,49.2649274],[19.976571,49.2607109],[19.9738909,49.25201]]}},{"type":"Feature","id":37030773,"properties":{"kind":"run","name":"Ski touring route","subtype":"unknown","pisteType":"skitour","featured":false},"geometry":{"type":"LineString","coordinates":[[19.9804779,49.2313362],[19.9805249,49.2312698],[19.980588,49.2312362],[19.9806647,49.2312164],[19.9809909,49.2311896],[19.9812296,49.2311579],[19.9814554,49.2311466],[19.9816152,49.2311311],[19.9816617,49.2311248],[19.9817535,49.2311403],[19.9818768,49.2311491],[19.9820332,49.2311297],[19.982273,49.2310987],[19.9824869,49.2310902],[19.9825747,49.2310842],[19.9826221,49.2310809],[19.9830376,49.2309905]]}},{"type":"Feature","id":80377055,"properties":{"kind":"run","name":"Ski touring route","subtype":"unknown","pisteType":"skitour","featured":false},"geometry":{"type":"LineString","coordinates":[[19.962563,49.251427],[19.9627161,49.2514619],[19.9629173,49.2515249],[19.963274,49.2516475],[19.963502,49.251679],[19.9637101,49.2517301],[19.9640407,49.2517322],[19.9642584,49.251665],[19.9644005,49.2515897],[19.9645867,49.251593],[19.9647707,49.2516475],[19.9649351,49.2517383],[19.964937,49.251801],[19.9648975,49.251899],[19.9647836,49.252014],[19.9644998,49.2520668],[19.9642917,49.2520931],[19.9642156,49.2521543],[19.9642366,49.2522092],[19.9643482,49.252234],[19.9644944,49.2522349],[19.9647197,49.2522874],[19.9650268,49.2523881],[19.9651676,49.2524546],[19.9653125,49.2525334],[19.9655002,49.2525877],[19.9656585,49.2525982],[19.9659079,49.2526647],[19.9662539,49.2527575],[19.9664658,49.2528538],[19.9666831,49.2530183],[19.9667572,49.25307]]}},{"type":"Feature","id":95951671,"properties":{"kind":"run","name":"Ski touring route","subtype":"unknown","pisteType":"skitour","featured":false},"geometry":{"type":"LineString","coordinates":[[19.9936941,49.2343072],[19.9935473,49.2341351],[19.9934976,49.2340556],[19.9935156,49.2339709],[19.9934766,49.2338195],[19.993467,49.2337723],[19.9934703,49.2337303],[19.9934636,49.2337036],[19.9934599,49.2336672],[19.9934515,49.2336287],[19.9933934,49.2335491],[19.9930964,49.2333113],[19.9929863,49.2332672],[19.9928546,49.2332409],[19.9927959,49.2332069],[19.9927679,49.2331763],[19.9927967,49.2331286],[19.9927736,49.2330935],[19.9927253,49.2330684],[19.9926644,49.2330584],[19.9925814,49.2330131],[19.9925409,49.2329571],[19.9925248,49.2329089],[19.9924934,49.2328728],[19.9924645,49.2327959],[19.9924698,49.2327477],[19.9924371,49.2326708],[19.9923685,49.2325567],[19.992186,49.2322386],[19.9921386,49.2321557],[19.9920917,49.2319806],[19.9920554,49.231893],[19.9920434,49.2318492],[19.9920382,49.2317968],[19.9920559,49.2317123],[19.9921112,49.2316523],[19.9921584,49.2316099],[19.9922233,49.231464],[19.9922615,49.2313471],[19.9922587,49.2311572],[19.9922432,49.2310488],[19.9922463,49.2309861],[19.9922432,49.2309621],[19.9922271,49.2309376],[19.9922298,49.2309034],[19.992203,49.2308701],[19.9921949,49.230829],[19.992203,49.2307598],[19.9922165,49.2307179],[19.9922769,49.230621],[19.992349,49.2305386],[19.9923896,49.2304352],[19.9924142,49.230233],[19.9922346,49.2300272],[19.9921482,49.2299844],[19.9920892,49.2299059],[19.992056,49.2298483],[19.9919879,49.2298104],[19.9919526,49.2297658],[19.9919367,49.2297214],[19.9919484,49.2296597],[19.9919943,49.2293744],[19.9919817,49.2292829],[19.9919315,49.2292055],[19.9919,49.2291517],[19.9918776,49.229074],[19.9919142,49.2289297],[19.9917977,49.228855],[19.9917764,49.2287299],[19.9917772,49.2286803],[19.9917395,49.2286162],[19.9917135,49.2285607],[19.9917161,49.2285143],[19.9916942,49.2284512],[19.9917266,49.2283574],[19.9917054,49.228274],[19.9916779,49.2281752],[19.9917497,49.2279292],[19.9918089,49.2278786],[19.9918461,49.227827],[19.9918655,49.2277592],[19.991922,49.2276702],[19.9921267,49.2274661],[19.992235,49.2273737],[19.9923469,49.2272957],[19.9924263,49.2272078],[19.9925097,49.2271048],[19.9925262,49.2270105],[19.9925224,49.2269392],[19.9925008,49.226849],[19.992439,49.2268267],[19.9924457,49.2267977],[19.9924698,49.2267665],[19.9924833,49.2267189],[19.9924698,49.2266505],[19.9924765,49.2266222],[19.9925543,49.2265181],[19.9926026,49.2264036],[19.9926187,49.2262643],[19.992612,49.2260821],[19.9925403,49.2258743],[19.9924084,49.2255563],[19.9924041,49.2254734],[19.9924363,49.2253631],[19.9925383,49.2251893]]}},{"type":"Feature","id":188690855,"properties":{"kind":"run","name":"Ski touring route","subtype":"unknown","pisteType":"skitour","featured":false},"geometry":{"type":"LineString","coordinates":[[19.9517272,49.2496471],[19.951801,49.2497121],[19.9518964,49.2497961],[19.9520234,49.2498731],[19.9521911,49.249965],[19.9523802,49.2500534],[19.9524634,49.2500816],[19.952543,49.250089],[19.9526875,49.2500975],[19.9528497,49.2500959],[19.9529006,49.2501033],[19.9530216,49.2501368],[19.9531554,49.2501961],[19.9533322,49.2502383],[19.953547,49.2502521],[19.9537186,49.2502845],[19.9539238,49.2502889],[19.9540056,49.2502941],[19.9541558,49.2503248],[19.9542898,49.250372],[19.954793,49.2505254],[19.954946,49.250572],[19.9552475,49.2506863],[19.9553108,49.2507048],[19.9557436,49.2507869],[19.9558054,49.250808],[19.9560454,49.2509306],[19.9562037,49.2509936],[19.956346,49.2510238],[19.956584,49.251045],[19.9568152,49.25104],[19.9570124,49.2510093],[19.9572574,49.2509897],[19.9574496,49.250991],[19.9576561,49.2510085],[19.9577594,49.2510155],[19.9579719,49.2510138],[19.958124,49.251048],[19.958354,49.251115],[19.9585547,49.2511555],[19.9587156,49.2511669],[19.9588006,49.2511776],[19.9590679,49.2512725],[19.9595488,49.2514024],[19.9598851,49.2514978],[19.9601064,49.2515463],[19.9602605,49.2515652],[19.9603893,49.251567],[19.9605647,49.2516217]]}},{"type":"Feature","id":241575951,"properties":{"kind":"run","name":"Mapped ski run","subtype":"advanced","pisteType":"downhill","featured":false},"geometry":{"type":"LineString","coordinates":[[19.9828874,49.2326498],[19.9827691,49.2325685],[19.9827088,49.232466],[19.9826645,49.2323706],[19.9826417,49.2322909],[19.9826189,49.232199],[19.9826109,49.2321298],[19.9826189,49.2320676],[19.9826605,49.2320002],[19.9827135,49.2319489],[19.9827614,49.2319146],[19.9828362,49.2318802],[19.982926,49.2318539],[19.9830112,49.2318391],[19.9830994,49.2318316],[19.983209,49.2318312],[19.9833015,49.2318408],[19.9833833,49.2318574],[19.9834759,49.2318881],[19.9835416,49.2319222],[19.9836542,49.2319949],[19.9837327,49.2320564],[19.9838085,49.232118],[19.9838527,49.2321605],[19.9839037,49.2322112],[19.9839614,49.2322778],[19.9839962,49.2323163],[19.9840164,49.2323439],[19.9840432,49.2323802],[19.98407,49.232421],[19.9841042,49.2324861],[19.9841223,49.2325372],[19.9841424,49.2325913],[19.9841692,49.2326491],[19.9841947,49.2326894],[19.9842309,49.2327218],[19.9842899,49.2327559],[19.9844267,49.2328207],[19.9845072,49.2328593],[19.9845877,49.2328908],[19.9847003,49.232925],[19.9848036,49.2329386],[19.984882,49.2329436],[19.9849712,49.2329416],[19.9850611,49.2329442],[19.9851503,49.2329534],[19.9852606,49.2329747],[19.9853721,49.2329975],[19.9854519,49.23303],[19.9855157,49.2330589],[19.985572,49.2330949],[19.9856525,49.2331557],[19.9857008,49.2332037],[19.9857517,49.2332504],[19.9858443,49.2333018],[19.9859388,49.2333223],[19.9860736,49.2333199],[19.9861822,49.233312],[19.9862875,49.2333063],[19.9863794,49.2333024],[19.9864893,49.233298],[19.9865738,49.2332958],[19.9866938,49.2333192],[19.9867914,49.2333572],[19.9868563,49.2333972],[19.9869128,49.2334575],[19.9869507,49.2335108],[19.9869949,49.2335533],[19.9870472,49.233587],[19.9871398,49.2336294],[19.987241,49.2336691],[19.9873587,49.2336967],[19.9875088,49.233715],[19.9876361,49.233725],[19.98786,49.2337385],[19.9880075,49.2337411],[19.9881214,49.2337512],[19.9882381,49.233763],[19.9883079,49.2337744],[19.9883521,49.2337895],[19.9883856,49.2338081],[19.9884326,49.2338442],[19.9885017,49.2339087],[19.9885684,49.2339532],[19.9886351,49.2339767],[19.9887142,49.2339924],[19.9888476,49.2339986],[19.9889435,49.2339907],[19.9891045,49.2339697],[19.9892212,49.2339556],[19.9893197,49.2339556],[19.989421,49.2339609],[19.9895269,49.2339872],[19.9896121,49.2340248],[19.9896895,49.2340734],[19.9897363,49.2341205],[19.9897562,49.2341711],[19.9897925,49.2342114],[19.9898203,49.2342276],[19.9898589,49.2342403],[19.989927,49.2342556],[19.9899748,49.2342629],[19.99002,49.234265],[19.9900625,49.234264],[19.9901104,49.2342621],[19.9901767,49.2342503],[19.9902404,49.2342333],[19.9903296,49.2342088],[19.9904037,49.2341886],[19.9904904,49.234165],[19.9905552,49.2341514],[19.9906037,49.2341438],[19.9906413,49.2341373],[19.9906924,49.2341335],[19.9907326,49.234133],[19.9907779,49.2341388],[19.9908084,49.2341464],[19.9908654,49.2341624],[19.9909224,49.2341812],[19.990974,49.2342],[19.9910397,49.2342339],[19.991092,49.2342684],[19.991147,49.2343084],[19.9911825,49.2343446],[19.991207,49.2343693],[19.9912341,49.2343948],[19.991269,49.2344178],[19.9913253,49.2344407],[19.991387,49.234453],[19.9914393,49.2344522],[19.9914936,49.2344447],[19.9915855,49.2344268],[19.9916673,49.2344058],[19.9917592,49.2343839],[19.9918279,49.2343703],[19.9918886,49.2343672],[19.9919633,49.2343745],[19.9920287,49.2343896],[19.9920843,49.2344102],[19.9921442,49.2344372],[19.9921809,49.2344647],[19.9922073,49.234496],[19.992246,49.2345554],[19.992268,49.2345973],[19.9922924,49.2346332],[19.9923169,49.2346621],[19.9923535,49.2347073],[19.9923973,49.23475],[19.9924237,49.2347664],[19.9924528,49.2347775],[19.9924894,49.2347862],[19.9925355,49.2347913],[19.9925882,49.2347929],[19.9926534,49.2347918],[19.9927373,49.2347845],[19.9928883,49.234758],[19.9929856,49.234728],[19.9930589,49.2346933],[19.9931305,49.234662],[19.9931743,49.2346498],[19.993223,49.2346437],[19.9932769,49.2346424],[19.9933347,49.2346418],[19.9933837,49.2346423],[19.993435,49.234654],[19.9934861,49.2346729],[19.9935185,49.2347129],[19.9935337,49.2347371],[19.9935735,49.234765],[19.9936256,49.2347816],[19.9936986,49.2347828],[19.9937646,49.23478],[19.9938191,49.2347715],[19.9938789,49.2347631],[19.9939186,49.2347695],[19.9939493,49.2347885],[19.9939703,49.2348099],[19.9939835,49.2348389],[19.9939921,49.2348962],[19.9939971,49.2349811],[19.9939956,49.2350498],[19.9939967,49.2351027],[19.9940191,49.2351407],[19.9940657,49.2351665],[19.9941475,49.2351884],[19.9942111,49.2352054],[19.9942725,49.235221],[19.9943392,49.235233],[19.9944363,49.2352529],[19.9945062,49.235268],[19.9945788,49.2352826],[19.9946419,49.2353022],[19.9947137,49.2353242],[19.9947683,49.2353545],[19.9947962,49.2353883],[19.9948187,49.2354327],[19.9948332,49.2354788],[19.9948518,49.2355258],[19.9948584,49.2355511],[19.994864,49.2355723],[19.9948724,49.2355987],[19.9948875,49.2356199],[19.9949052,49.2356394],[19.9949327,49.2356582],[19.9949615,49.2356709],[19.9950027,49.2356801],[19.9950453,49.2356867],[19.9950919,49.2356909],[19.9951385,49.235693],[19.9951741,49.2356901],[19.995211,49.235684],[19.9952478,49.2356833],[19.9952861,49.2356867],[19.9953142,49.2356928],[19.9953377,49.2356989],[19.9953689,49.2357088],[19.9953954,49.2357221],[19.9954138,49.2357364],[19.9954322,49.2357576],[19.9954492,49.2357747],[19.9954597,49.2357829],[19.9954689,49.2357888],[19.9954911,49.235799],[19.9955147,49.2358075],[19.9955426,49.2358161],[19.9955718,49.2358229],[19.9956003,49.2358271],[19.9956308,49.2358282],[19.9956745,49.235823],[19.9957261,49.2358143],[19.9957734,49.2358053],[19.9958185,49.2358017],[19.9958666,49.2358078],[19.995898,49.2358155],[19.9959214,49.2358266],[19.9959615,49.2358516],[19.9963518,49.2361493],[19.9964242,49.2362014],[19.9964994,49.2362476],[19.9965584,49.2362803],[19.9965986,49.2363019],[19.9966442,49.2363215],[19.9966871,49.2363349],[19.9967153,49.2363441],[19.9967609,49.2363526],[19.9968132,49.2363598],[19.9970169,49.2363921],[19.9970551,49.2363753],[19.9971465,49.236291],[19.9971806,49.2362463],[19.9970642,49.2362171]]}},{"type":"Feature","id":241576428,"properties":{"kind":"lift","name":"Kolej krzesełkowa Goryczkowa","subtype":"chair_lift","status":"active"},"geometry":{"type":"LineString","coordinates":[[19.9694097,49.2448981],[19.9697484,49.244531],[19.970247,49.2440049],[19.9710523,49.2431551],[19.9719046,49.2422308],[19.972402,49.2416731],[19.9729083,49.2411293],[19.9736571,49.240325],[19.9742558,49.239682],[19.9750383,49.2388414],[19.9759581,49.2378705],[19.9766474,49.2371297],[19.9773145,49.2364129],[19.9778484,49.2358392],[19.9783741,49.2352718],[19.9787603,49.2348567],[19.9795427,49.2340112],[19.9803681,49.2331194],[19.9809919,49.2324678]]}},{"type":"Feature","id":241576922,"properties":{"kind":"run","name":"Mapped ski run","subtype":"advanced","pisteType":"downhill","featured":false},"geometry":{"type":"LineString","coordinates":[[19.9809919,49.2324678],[19.9808623,49.2323658],[19.9807437,49.2322302],[19.9805814,49.2320446],[19.9801812,49.2316435],[19.9800524,49.2315103],[19.9800062,49.2314711],[19.979972,49.231442],[19.97987,49.2313755],[19.9798177,49.2313492],[19.9797279,49.2313107],[19.9792954,49.2311287],[19.9788132,49.2310409],[19.9773381,49.2308114],[19.978357,49.2317372],[19.9778178,49.2318549],[19.9774948,49.2320029],[19.9773914,49.2320847],[19.9772596,49.2321923],[19.9770926,49.2323515],[19.9769793,49.2324651],[19.9768663,49.2325727],[19.9767283,49.2327173],[19.9766087,49.2328571],[19.9765141,49.2329761],[19.9764462,49.2330671],[19.9763797,49.2331659],[19.976324,49.2332542],[19.9762602,49.2333531],[19.9761588,49.2334554],[19.9760459,49.2335305],[19.9759062,49.233581],[19.9757371,49.2336177],[19.975568,49.2336263],[19.9753427,49.2336201],[19.9751227,49.233607],[19.9749027,49.233571],[19.974621,49.2335092],[19.9743876,49.2335035],[19.9741924,49.2335382],[19.9740116,49.2336046],[19.9738675,49.2336903],[19.9737848,49.2337437],[19.9736576,49.233886],[19.9733452,49.234135],[19.9727937,49.2342966],[19.9721601,49.2342811],[19.9713869,49.2345528],[19.9713013,49.2348881],[19.970891,49.2352628],[19.9707494,49.235871],[19.9707049,49.2365397],[19.9706078,49.2368484],[19.9702577,49.2372076],[19.9699715,49.2375057],[19.9696675,49.2378272],[19.9693935,49.2381122],[19.9693461,49.2383768],[19.9694564,49.238574],[19.9695594,49.2387396],[19.9696094,49.2388731],[19.9696009,49.2390473],[19.9694484,49.2392409],[19.9692494,49.239404],[19.9690842,49.2396667],[19.9691721,49.2400588],[19.9689787,49.240402],[19.9688944,49.2404552],[19.9688201,49.2405099],[19.9687775,49.2405827],[19.9687509,49.2406402],[19.9687537,49.2407529],[19.9687604,49.2408478],[19.9687745,49.2409233],[19.9688031,49.2410276],[19.9688477,49.2411109],[19.9689274,49.2411933],[19.9689274,49.2413182],[19.9688585,49.241415],[19.968797,49.2414977],[19.9686633,49.2416964],[19.9686223,49.2418862],[19.9686144,49.2420218],[19.9686172,49.2421847],[19.9686597,49.2423477],[19.968725,49.242476],[19.9687972,49.2425695],[19.9689359,49.2426732],[19.9691001,49.2427039],[19.969252,49.2427134],[19.9693834,49.2427601]]}},{"type":"Feature","id":249237712,"properties":{"kind":"run","name":"Ski touring route","subtype":"unknown","pisteType":"skitour","featured":false},"geometry":{"type":"LineString","coordinates":[[19.9741744,49.2517443],[19.9741424,49.2516964],[19.9741872,49.2516219],[19.9743757,49.2515057],[19.9744588,49.2514287],[19.9745959,49.2512422],[19.9746993,49.2511606],[19.974742,49.251105],[19.9748891,49.2510484],[19.975032,49.2509565],[19.9752217,49.2508053],[19.9754743,49.2507086],[19.9757361,49.2506622],[19.9760219,49.2503945],[19.976213,49.2501821],[19.9763578,49.2499912],[19.9764571,49.2497934],[19.9764973,49.2495308],[19.976449,49.2493627],[19.9764093,49.2492901],[19.976398,49.2492121],[19.9763874,49.2488559],[19.9760976,49.2485135],[19.9759497,49.2482957],[19.9758992,49.2480828],[19.9759083,49.2477488],[19.9759581,49.2475656],[19.9760201,49.247437],[19.9760869,49.247139],[19.976154,49.2468904],[19.9762049,49.2468011],[19.9763176,49.2467608],[19.9764088,49.2467206],[19.9764222,49.2466505],[19.9762961,49.2464824],[19.9762587,49.2464228],[19.9762325,49.2463571],[19.9762396,49.2463281],[19.9763629,49.2463121],[19.9763381,49.246263],[19.9762854,49.246183],[19.976245,49.2461373],[19.9761464,49.246095],[19.9761399,49.2460285],[19.9758268,49.2458266],[19.9757302,49.2457523],[19.9756161,49.2456602],[19.9756338,49.2456299],[19.9757505,49.2456426],[19.9759886,49.2456076],[19.9761983,49.2455633],[19.9762334,49.245542],[19.9762219,49.2455081],[19.9761593,49.2454791],[19.9759957,49.2453583],[19.975804,49.2451921],[19.975776,49.245112],[19.9757802,49.2450193],[19.9757946,49.2449503],[19.9758455,49.2448269],[19.9758744,49.2448245],[19.9760194,49.2449087],[19.9760887,49.2449191],[19.9762277,49.2449235],[19.9763363,49.2449201],[19.9763918,49.244899],[19.976381,49.2448658],[19.9763361,49.2448387],[19.9762859,49.2447388],[19.9762793,49.2446408],[19.9762837,49.2443397],[19.9763506,49.2441163],[19.9764408,49.2440289],[19.9764964,49.2440609],[19.9765456,49.2441301],[19.9766325,49.2442218],[19.9766835,49.2442363],[19.9767485,49.2442163],[19.9768117,49.2440791],[19.976915,49.2438914],[19.9770116,49.2437939],[19.9770418,49.2437371],[19.9770489,49.2436758],[19.9770514,49.2435826],[19.9770863,49.243489],[19.9771081,49.2434164],[19.9771457,49.2433595],[19.9771497,49.2433064],[19.9771389,49.2432323],[19.9771173,49.2431817],[19.9770621,49.2431151],[19.9770116,49.2430508],[19.9769079,49.2429774],[19.9768446,49.2429396],[19.9767264,49.2428863],[19.9766535,49.2428686],[19.9765512,49.242804],[19.9764814,49.2427466],[19.9763446,49.2426184],[19.9762644,49.2424776],[19.9760639,49.242105],[19.9759667,49.2420128],[19.975953,49.2419654],[19.9759283,49.241891],[19.9758966,49.2416089],[19.9760057,49.241346],[19.9760616,49.2412909],[19.9760754,49.2412553],[19.9760352,49.2412185],[19.9760495,49.2411848],[19.9760789,49.2411732],[19.9760904,49.24115],[19.9760833,49.2411268],[19.9761242,49.2410781],[19.9761153,49.2410328],[19.9761554,49.2409865],[19.9762547,49.2409609],[19.9763134,49.2409366],[19.9763681,49.2408952],[19.9766196,49.2406579],[19.9767544,49.2405153],[19.9767842,49.2404906],[19.9767753,49.2404575],[19.9768126,49.240439],[19.9768233,49.2404047],[19.9769017,49.2403774],[19.9769459,49.2403351],[19.9769225,49.2402946],[19.9769933,49.2402243],[19.9769873,49.2402063],[19.977082,49.240119],[19.9771598,49.2400857],[19.9772442,49.2400141],[19.9773046,49.2400192],[19.977411,49.2400585],[19.9775955,49.2400222],[19.9776293,49.2399564],[19.9775853,49.2398899],[19.9775594,49.2398546],[19.9775616,49.2397943],[19.9775153,49.2396884],[19.9775285,49.2396547],[19.9772923,49.2395493],[19.9771341,49.2394664],[19.9769199,49.2392693],[19.9768268,49.2391511],[19.9767666,49.2391003],[19.9766893,49.2390128],[19.9765701,49.2388128],[19.9765328,49.2387364],[19.976465,49.2386876],[19.9763561,49.2386373],[19.9762554,49.2385377],[19.9762577,49.2385147],[19.976277,49.2384881],[19.9762828,49.2384531],[19.9763214,49.238415],[19.9763906,49.2383945],[19.9764544,49.2384044],[19.9764928,49.2384149],[19.9765161,49.2384486],[19.9765399,49.2384856],[19.9765679,49.2385083],[19.976615,49.2385252],[19.9767112,49.2385421],[19.976784,49.2385716],[19.9768181,49.2386908],[19.9768931,49.2387839],[19.9770682,49.2388652],[19.9772011,49.2389167],[19.9773048,49.2389586],[19.9775577,49.2390203],[19.9775997,49.239028],[19.9776451,49.2390186],[19.9776494,49.2389944],[19.977638,49.2389675],[19.9776283,49.2389522],[19.9775616,49.2389227],[19.9774076,49.2388792],[19.9772952,49.2387807],[19.9771908,49.2386491],[19.9771582,49.2385516],[19.9771617,49.2384903],[19.9772303,49.2383848],[19.977242,49.2383113],[19.9772587,49.2382964],[19.9772508,49.2382154],[19.9772019,49.2381754],[19.9771188,49.2381242],[19.9771065,49.2380777],[19.9772605,49.2379312],[19.9774474,49.2378005],[19.9777192,49.2376356],[19.9777444,49.2376212],[19.9777496,49.2375983],[19.9777373,49.2375815],[19.9777208,49.2375747],[19.97757,49.2375108],[19.9774664,49.2374043],[19.977319,49.2372473],[19.9772636,49.2371788],[19.9772449,49.2371478],[19.9772625,49.2371404],[19.9779415,49.2373647],[19.9780554,49.2372514],[19.9780617,49.2372109],[19.9780895,49.2371984],[19.97813,49.2371904],[19.9781401,49.2371751],[19.9781338,49.2371501],[19.9780205,49.2371188],[19.9778932,49.2370151],[19.9778434,49.2369409],[19.9778505,49.2368904],[19.9778602,49.236852],[19.9778941,49.2368072],[19.9779537,49.2367808],[19.9779872,49.2367295],[19.9780132,49.2366924],[19.9780368,49.2366554],[19.9780706,49.2366355],[19.9781302,49.2366316],[19.9781927,49.2366112],[19.9782126,49.2365827],[19.978257,49.2365579],[19.9782952,49.2365247],[19.9783172,49.2364856],[19.9783574,49.2364525],[19.9785663,49.2363577],[19.9787255,49.236242],[19.9787485,49.2362125],[19.9788662,49.2361891],[19.9789391,49.2361378],[19.9789614,49.2361094],[19.9790852,49.2360859],[19.9791449,49.2360658],[19.9792071,49.2360329],[19.9792365,49.2359598],[19.9792616,49.2359244],[19.9793309,49.2357696],[19.9793397,49.235696],[19.9792939,49.2356068],[19.9792754,49.2354379],[19.97938,49.2351857],[19.9794171,49.2350616],[19.9794633,49.2350039],[19.9795013,49.2349909],[19.9795308,49.2350068],[19.979559,49.235048],[19.9795907,49.2350738],[19.9796313,49.2350919],[19.9796699,49.235089],[19.9797939,49.2350216],[19.9798238,49.2349259],[19.9798704,49.234866],[19.9798851,49.2348269],[19.9799047,49.2347047],[19.9799647,49.234552],[19.9800115,49.2344443],[19.9800931,49.2343332],[19.9802068,49.2341669],[19.9802709,49.2340391],[19.9803223,49.2338647],[19.980344,49.2337359],[19.9804149,49.2335463],[19.9804555,49.2334279],[19.9805398,49.2332537],[19.9805766,49.233188],[19.9806657,49.2330926],[19.9807838,49.2330041],[19.9808855,49.2329123],[19.9809661,49.2328046],[19.9810729,49.2327377],[19.981151,49.2326647],[19.9811577,49.2326296],[19.9812168,49.2325486],[19.9812852,49.2324853],[19.981308,49.2324476],[19.9813454,49.232471],[19.9814381,49.2324754],[19.9816556,49.2323698]]}},{"type":"Feature","id":250583977,"properties":{"kind":"run","name":"Ski touring route","subtype":"unknown","pisteType":"skitour","featured":false},"geometry":{"type":"LineString","coordinates":[[19.9695484,49.252802],[19.9694854,49.2527526],[19.9693676,49.2526084],[19.9692557,49.252318],[19.9690522,49.2520173],[19.9688873,49.2517025],[19.9687457,49.2515109],[19.9685815,49.2514185],[19.968497,49.2512724],[19.9684536,49.251133],[19.968241,49.250637],[19.9682227,49.250464],[19.9682763,49.2502626],[19.9682723,49.2501001],[19.9682388,49.24993],[19.968338,49.2498074],[19.9684989,49.2496341],[19.9685818,49.2494938],[19.968625,49.2492594],[19.9686089,49.249037],[19.9686168,49.2489524],[19.968983,49.2486172],[19.9690944,49.2485205],[19.9691811,49.2484375],[19.9693224,49.2483909],[19.9693429,49.248306],[19.9692192,49.2480771],[19.9691874,49.2478174],[19.9691075,49.2475202],[19.9689645,49.2473815],[19.9689009,49.24733],[19.969021,49.2468799],[19.9690109,49.246468],[19.9688399,49.2462039],[19.968475,49.245995],[19.9680177,49.2455029]]}},{"type":"Feature","id":263222827,"properties":{"kind":"run","name":"Mapped ski run","subtype":"easy","pisteType":"downhill","featured":false},"geometry":{"type":"LineString","coordinates":[[19.9679315,49.2450388],[19.9680177,49.2455029]]}},{"type":"Feature","id":263222828,"properties":{"kind":"run","name":"Szlak narciarski z Hali Gąsienicowej","subtype":"unknown","pisteType":"skitour","featured":false},"geometry":{"type":"LineString","coordinates":[[20.0072541,49.2493256],[20.0074944,49.2498481],[20.0077573,49.2503594],[20.0078271,49.2504539],[20.0079665,49.2506255],[20.0080065,49.2506682],[20.0080682,49.2507042],[20.0080816,49.2507417],[20.0081128,49.2507706],[20.0081623,49.2507954],[20.00822,49.2508151],[20.0083576,49.2508556],[20.0084812,49.2509059],[20.008561,49.2509567],[20.0086579,49.2510729],[20.0087068,49.2510893],[20.0087963,49.251154],[20.0088562,49.251227],[20.008859,49.2512685],[20.0088556,49.251304],[20.0088275,49.2513556],[20.0087839,49.2513867],[20.008751,49.2514178],[20.008745,49.2514803],[20.0088241,49.2515274],[20.0089208,49.2515534],[20.0090057,49.2515745],[20.0090777,49.251592],[20.0091607,49.2516191],[20.0092275,49.2516463],[20.0092823,49.2516751],[20.0093318,49.2517128],[20.0093702,49.2517654],[20.0095772,49.2522179],[20.0095977,49.252237],[20.0096311,49.2522503],[20.009693,49.2522722],[20.0097348,49.2523026],[20.0097466,49.2523382],[20.0097476,49.2523791],[20.0097524,49.2524468],[20.0097719,49.252487],[20.0098328,49.2525526],[20.0098691,49.2526513],[20.0099124,49.2526839],[20.0100177,49.2527787],[20.0101337,49.2528665],[20.010383,49.2529912],[20.0105551,49.2531131],[20.0105734,49.2531873],[20.0106073,49.2532214],[20.0106608,49.2532458],[20.0107526,49.2532983],[20.0108101,49.2534342],[20.0110213,49.2535005],[20.0114591,49.2535575],[20.0116476,49.2536026],[20.0117779,49.253663],[20.0118268,49.2536972],[20.0119361,49.2538034],[20.0119792,49.253857],[20.0120804,49.253929],[20.012392,49.2541149],[20.0124263,49.2541355],[20.0124536,49.2541476],[20.0125659,49.2541925],[20.0126713,49.2542571],[20.0127773,49.2543224],[20.0130455,49.2545788],[20.0132543,49.2547289],[20.0133616,49.2548556],[20.0136297,49.2551252],[20.0137291,49.2552537],[20.0138045,49.2552886],[20.0140474,49.2555474],[20.0144194,49.2558622],[20.0145755,49.256038],[20.0146744,49.2562002],[20.0150038,49.2566111],[20.0150584,49.2567214],[20.0151941,49.257092],[20.015584,49.2575302],[20.0159166,49.2580379],[20.0159702,49.2581079],[20.01604,49.2581919],[20.016689,49.2587499],[20.0170751,49.259213],[20.0172889,49.2594391],[20.0173589,49.2595604],[20.0173615,49.2595913],[20.0173539,49.2596234],[20.017336,49.2596475],[20.0173061,49.2597034],[20.0172965,49.2597685],[20.0173076,49.2598214],[20.0174362,49.2600447],[20.0174707,49.2601599],[20.0175163,49.2604663],[20.0176146,49.2606367],[20.0176726,49.2607805],[20.0176895,49.2608099],[20.0177336,49.2608465],[20.0178445,49.2609393],[20.0178581,49.2609545],[20.0178659,49.2609623],[20.0178744,49.2609727],[20.0178761,49.2609834],[20.0178706,49.2609989],[20.0178615,49.2610095],[20.0178476,49.2610204],[20.0178357,49.2610279],[20.017814,49.2610328],[20.0177914,49.2610349],[20.0177688,49.2610329],[20.0176153,49.261019],[20.0171719,49.2609286],[20.0168784,49.2608613],[20.016735,49.2608111],[20.0165762,49.2607315],[20.0164052,49.2606435],[20.0160453,49.2604081],[20.0159298,49.2603227],[20.0158339,49.260296],[20.015681,49.2602816],[20.0156052,49.2602597],[20.0155293,49.260209],[20.0153511,49.2600308],[20.0152981,49.2599893],[20.0152646,49.2599744],[20.0152174,49.2599605],[20.0150286,49.259921],[20.0149649,49.2598987],[20.0147991,49.2598204],[20.014432,49.2595867],[20.0142028,49.2593989],[20.0140543,49.2592895],[20.0139865,49.2592558],[20.0138767,49.2592186],[20.0137307,49.2591672],[20.0134268,49.2589529],[20.0128109,49.2586311],[20.0120005,49.2584335],[20.0117967,49.2583819],[20.0117424,49.2583771],[20.0116885,49.258384],[20.011635,49.2583989],[20.0115929,49.258423],[20.0115518,49.2584637],[20.0115323,49.2584969],[20.0115272,49.2585433],[20.0114916,49.2586238],[20.0114773,49.258714],[20.0114665,49.2587406],[20.0114425,49.2587595],[20.0113901,49.2587818],[20.0112131,49.2588523],[20.0110415,49.25896],[20.0109462,49.2590011],[20.010805,49.2590458],[20.0105533,49.2591197],[20.0102811,49.2591915],[20.0101744,49.2592344],[20.010121,49.2592689],[20.0100933,49.259307],[20.0100757,49.2593409],[20.0100606,49.2593695],[20.0098412,49.2599505],[20.009821,49.2599771],[20.0097888,49.2599977],[20.0097419,49.2600117],[20.0096908,49.2600221],[20.0087303,49.2602361],[20.0079978,49.2603822],[20.0077336,49.2604505],[20.0074788,49.2604986],[20.0071737,49.260552],[20.0070436,49.2605949],[20.0068715,49.2606697],[20.0065856,49.2607656],[20.0063503,49.260826],[20.0060572,49.260868],[20.0055114,49.2609026],[20.0053306,49.2609271],[20.0049262,49.2610373],[20.0048342,49.2610592],[20.0047063,49.2610702],[20.0046177,49.2610707],[20.004517,49.2610485],[20.0043294,49.2609702],[20.0042501,49.2609529],[20.0041424,49.2609421],[20.0038916,49.2609343],[20.0038297,49.2609244],[20.0037908,49.2609021],[20.0036854,49.2608153],[20.0036412,49.2607975],[20.0036019,49.2607895],[20.0035507,49.2607949],[20.0035044,49.2608148],[20.0034454,49.2608409],[20.0034004,49.2608734],[20.0032526,49.2610455],[20.0031604,49.2611261],[20.003084,49.2611734],[20.0030167,49.2612143],[20.002968,49.261247],[20.0029305,49.2612693],[20.002857,49.2613098],[20.0026317,49.261395],[20.002534,49.2614429],[20.002383,49.2615431],[20.0022693,49.2616058],[20.0021636,49.2616541],[20.0020855,49.2616836],[20.0019924,49.261706],[20.0018717,49.2617279],[20.0015089,49.2617708],[20.0010216,49.261792],[20.0010061,49.2617947],[20.000992,49.261799],[20.0009791,49.2618038],[20.0009669,49.2618089],[20.000947,49.2618196],[20.0009221,49.2618363],[20.0008988,49.2618631],[20.0008491,49.2619401],[20.0006709,49.2622639],[20.0006052,49.2623712],[20.0005549,49.2624425],[20.0005344,49.2624662],[20.0005193,49.2624793],[20.0004945,49.2624977],[20.0004643,49.2625126],[20.0003962,49.2625314],[19.9990301,49.2628595],[19.9989132,49.2628801],[19.9987691,49.2628919],[19.9986244,49.2628951],[19.998513,49.2628911],[19.9981378,49.2628658],[19.9980606,49.2628658],[19.9979968,49.2628762],[19.9976103,49.2629807],[19.9975458,49.2630057],[19.9974872,49.263074],[19.9974334,49.2631492],[19.9972703,49.2633575],[19.9971775,49.2635331],[19.9971485,49.2636192],[19.9971287,49.2636988],[19.9970705,49.2639933],[19.9970579,49.2641854],[19.9970685,49.2642178],[19.9970819,49.2642594],[19.9972,49.2645009],[19.9972301,49.2646248],[19.9972234,49.2647293],[19.9972,49.2648406],[19.9971566,49.2649416],[19.9969765,49.2651512],[19.9968662,49.2653079],[19.9967768,49.2655179],[19.9967291,49.2656587],[19.9966715,49.2659624],[19.9966263,49.2660866],[19.9965791,49.2661825],[19.9964117,49.2664387],[19.9963406,49.2665341],[19.9962558,49.2666416],[19.9961337,49.2667597],[19.9960767,49.2667993],[19.9959176,49.2668843]]}},{"type":"Feature","id":263226218,"properties":{"kind":"run","name":"Ski touring route","subtype":"unknown","pisteType":"skitour","featured":false},"geometry":{"type":"LineString","coordinates":[[19.9685447,49.2561352],[19.9684089,49.2558876],[19.96839,49.2557003],[19.9683421,49.2555932],[19.96821,49.2554793],[19.9681967,49.2553869],[19.968218,49.2553042],[19.9682421,49.2551714],[19.9682291,49.2550915],[19.9681116,49.2549425],[19.968128,49.2548024],[19.9681974,49.2546418],[19.9680523,49.2544317],[19.9674431,49.2537655],[19.9670398,49.253498],[19.9669341,49.2532638],[19.9667572,49.25307],[19.9665639,49.2524183],[19.9666283,49.251788],[19.9666579,49.2511117]]}},{"type":"Feature","id":263226509,"properties":{"kind":"run","name":"FIS II","subtype":"intermediate","pisteType":"skitour","featured":false},"geometry":{"type":"LineString","coordinates":[[19.9666579,49.2511117],[19.9666283,49.2504294],[19.9665532,49.2494664],[19.9667141,49.2486925],[19.9667266,49.248619],[19.9667877,49.2482614],[19.966757,49.2480062],[19.9666589,49.2476521],[19.9664834,49.2472357],[19.9662808,49.2468204],[19.9659482,49.2461182],[19.9657297,49.2455093],[19.9656022,49.2452147],[19.9655446,49.2448912],[19.9651665,49.2440437],[19.9647977,49.2433451]]}},{"type":"Feature","id":274676499,"properties":{"kind":"lift","name":"Kolej linowa Kasprowy Wierch - odcinek II","subtype":"cable_car","status":"active"},"geometry":{"type":"LineString","coordinates":[[19.9737025,49.2518221],[19.9758811,49.2472869],[19.9773712,49.2441867],[19.9793381,49.2400547],[19.9827413,49.2329527],[19.9827571,49.2329213]]}},{"type":"Feature","id":274723583,"properties":{"kind":"lift","name":"Drag Lift","subtype":"drag_lift","status":"active"},"geometry":{"type":"LineString","coordinates":[[19.9656955,49.2587615],[19.9617688,49.2567834]]}},{"type":"Feature","id":274723769,"properties":{"kind":"run","name":"Mapped ski run","subtype":"easy","pisteType":"downhill","featured":false},"geometry":{"type":"LineString","coordinates":[[19.9618305,49.2567694],[19.9620236,49.2567816],[19.962155,49.2568018],[19.9622261,49.2568153],[19.962265,49.2568429],[19.9622954,49.256889],[19.962315,49.256935],[19.9623507,49.2569714],[19.9624025,49.2570061],[19.9624541,49.2570381],[19.9625279,49.2570687],[19.9626117,49.2570862],[19.9627464,49.257088],[19.9628329,49.2570967],[19.962895,49.2571028],[19.9629811,49.2571247],[19.9630482,49.2571667],[19.9630857,49.257214],[19.9631253,49.2572735],[19.9631451,49.2573418],[19.9631917,49.2573838],[19.9632852,49.2574144],[19.9633627,49.2574328],[19.9634666,49.2574486],[19.9635927,49.2574709],[19.9637375,49.2575125],[19.9638489,49.2575514],[19.9639709,49.2575991],[19.9640286,49.2576298],[19.9640755,49.2576676],[19.9641747,49.2577676],[19.964223,49.2578011],[19.9642713,49.2578311],[19.9644188,49.2578735],[19.9646521,49.257923],[19.9649405,49.257986],[19.9651048,49.2580262],[19.965261,49.2580805],[19.9653056,49.2581038],[19.9653402,49.2581278],[19.9653871,49.2581873],[19.9656419,49.2586854]]}},{"type":"Feature","id":313189572,"properties":{"kind":"run","name":"Ski touring route","subtype":"unknown","pisteType":"skitour","featured":false},"geometry":{"type":"LineString","coordinates":[[19.9730701,49.2599366],[19.9729221,49.2597999],[19.972654,49.259574],[19.9724914,49.259481],[19.9723594,49.2593871],[19.9722213,49.2593034],[19.972097,49.2592871],[19.9720504,49.2593053],[19.9720231,49.2593487],[19.9720552,49.259417],[19.972117,49.2594899],[19.972219,49.259632],[19.972394,49.259943],[19.9724188,49.2600235],[19.9723951,49.2600817],[19.9723614,49.2601242],[19.9722929,49.2601313],[19.972218,49.2601158],[19.9721557,49.2600595],[19.9720407,49.2599454],[19.9718436,49.2598513],[19.971604,49.259761],[19.971387,49.259617],[19.971009,49.259398],[19.970543,49.259149],[19.970258,49.258971],[19.9702,49.258924],[19.9701829,49.2589109]]}},{"type":"Feature","id":358549831,"properties":{"kind":"run","name":"Nartostrada Goryczkowa","subtype":"easy","pisteType":"downhill","featured":true},"geometry":{"type":"LineString","coordinates":[[19.9734235,49.2598623],[19.9734534,49.2599092]]}},{"type":"Feature","id":358549834,"properties":{"kind":"run","name":"Ski touring route","subtype":"unknown","pisteType":"skitour","featured":false},"geometry":{"type":"LineString","coordinates":[[19.9731829,49.2600235],[19.9734696,49.2602213]]}},{"type":"Feature","id":358549837,"properties":{"kind":"run","name":"Ski touring route","subtype":"unknown","pisteType":"skitour","featured":false},"geometry":{"type":"LineString","coordinates":[[19.9730701,49.2599366],[19.9731829,49.2600235]]}},{"type":"Feature","id":358549839,"properties":{"kind":"run","name":"Nartostrada Goryczkowa","subtype":"easy","pisteType":"downhill","featured":true},"geometry":{"type":"LineString","coordinates":[[19.9734534,49.2599092],[19.973488,49.2599635],[19.9734696,49.2602213]]}},{"type":"Feature","id":358560664,"properties":{"kind":"run","name":"Nartostrada Goryczkowa","subtype":"easy","pisteType":"downhill","featured":true},"geometry":{"type":"LineString","coordinates":[[19.9734696,49.2602213],[19.9734157,49.2603995],[19.9733693,49.2608136],[19.9734071,49.2609606],[19.9735017,49.2612827],[19.9735876,49.2615048],[19.9736977,49.2617091],[19.9738232,49.2618852],[19.9740742,49.2621501],[19.9741929,49.262278],[19.9742602,49.2623231]]}},{"type":"Feature","id":466861766,"properties":{"kind":"run","name":"Ski touring route","subtype":"unknown","pisteType":"skitour","featured":false},"geometry":{"type":"LineString","coordinates":[[19.9827311,49.2326941],[19.9827737,49.2326862],[19.9827198,49.2325929],[19.982607,49.232397],[19.9825247,49.2322159],[19.9824987,49.2321278],[19.9824792,49.2320376],[19.982489,49.231911],[19.9825193,49.2317391],[19.9825909,49.2315016],[19.9826169,49.2314504],[19.982652,49.2313894],[19.9827383,49.2312495],[19.9828264,49.2311467],[19.9829534,49.2310435],[19.9830376,49.2309905]]}},{"type":"Feature","id":602226940,"properties":{"kind":"run","name":"Mapped ski run","subtype":"advanced","pisteType":"downhill","featured":false},"geometry":{"type":"LineString","coordinates":[[19.9689274,49.2411933],[19.9690317,49.24128],[19.9691106,49.2413409],[19.9691853,49.2414087],[19.9692361,49.2414671],[19.9692837,49.2415399],[19.9693044,49.2416022],[19.9693296,49.241712],[19.9693217,49.2418421],[19.969316,49.2419358],[19.969312,49.2420021],[19.9693518,49.2421469],[19.9693278,49.2425214],[19.9693009,49.2426771],[19.9693834,49.2427601],[19.9698393,49.2428721],[19.9698876,49.2429212],[19.969952,49.2429982],[19.9699895,49.2431278],[19.970011,49.2434465],[19.9700485,49.2435375],[19.9701451,49.2436916],[19.9702739,49.2438387],[19.9703811,49.2439788],[19.9704187,49.2441294],[19.9704133,49.244245],[19.9703329,49.2444306],[19.9702578,49.2445041],[19.9701397,49.2445882],[19.9699949,49.2447213],[19.9697964,49.2448368],[19.9697428,49.2449174],[19.9696878,49.2449572]]}},{"type":"Feature","id":770572895,"properties":{"kind":"run","name":"Mapped ski run","subtype":"advanced","pisteType":"downhill","featured":false},"geometry":{"type":"LineString","coordinates":[[19.9696878,49.2449572],[19.9695846,49.2450908],[19.9695074,49.2451365],[19.9694242,49.2451611],[19.9693506,49.2451682],[19.9692766,49.245164],[19.9691989,49.2451596],[19.9691372,49.245143],[19.9690836,49.2451202],[19.9690353,49.2450896],[19.9689978,49.2450484],[19.9689723,49.2449959],[19.9689629,49.2449451],[19.9689548,49.2448891],[19.9689595,49.2448449],[19.9689642,49.2448042],[19.9689474,49.2447643],[19.9688931,49.2447367],[19.9688006,49.2447219],[19.9686866,49.244721],[19.9685911,49.2447291],[19.9685223,49.2447372],[19.9684439,49.2447604],[19.9683788,49.2447844],[19.9683111,49.244819],[19.9682454,49.2448628],[19.9681716,49.2449206],[19.9681126,49.2449661],[19.968059,49.2450187],[19.9680087,49.2450357],[19.9679315,49.2450388]]}},{"type":"Feature","id":770572896,"properties":{"kind":"run","name":"Nartostrada Goryczkowa","subtype":"easy","pisteType":"downhill","featured":true},"geometry":{"type":"LineString","coordinates":[[19.9695484,49.252802],[19.9694983,49.252856],[19.9694256,49.2529301],[19.9693315,49.2529866],[19.9691918,49.2530187],[19.9688872,49.2530068],[19.9688168,49.2530169],[19.9687637,49.2530375],[19.968706,49.2530718],[19.9686223,49.2531978],[19.968661,49.2532834],[19.9687464,49.2533607],[19.9687553,49.253431],[19.9686879,49.2535014],[19.9685736,49.2535646],[19.9683951,49.2536805],[19.9683033,49.2537712],[19.9682413,49.2538341],[19.9681942,49.2538971],[19.9681492,49.2539566],[19.9681374,49.2540073],[19.9681471,49.2540546],[19.9682434,49.2543122]]}},{"type":"Feature","id":770572898,"properties":{"kind":"run","name":"Nartostrada Goryczkowa","subtype":"easy","pisteType":"downhill","featured":true},"geometry":{"type":"LineString","coordinates":[[19.9680177,49.2455029],[19.9688399,49.2462039],[19.9695037,49.2464759],[19.9700776,49.246742],[19.97026,49.2468471],[19.9704585,49.2469644],[19.9705416,49.247037],[19.9705872,49.2471132],[19.970602,49.2471867],[19.9706067,49.2473636],[19.9706382,49.2475404],[19.9707857,49.2479571],[19.9708394,49.2480832],[19.9712792,49.24864],[19.9713329,49.2487275],[19.9713892,49.2489079],[19.9714442,49.2490593],[19.9714563,49.2492073],[19.9711666,49.2500302],[19.9710968,49.2505274],[19.971062,49.250615],[19.9710164,49.2506815],[19.9708849,49.25079],[19.9707642,49.2509196],[19.9706596,49.2510561],[19.9705979,49.2512067],[19.9705711,49.2517564],[19.9705336,49.251879],[19.9704371,49.2520016],[19.9701668,49.2522239],[19.969961,49.2523903],[19.9696995,49.2526389],[19.9695484,49.252802]]}},{"type":"Feature","id":770572899,"properties":{"kind":"run","name":"Ski touring route","subtype":"unknown","pisteType":"skitour","featured":false},"geometry":{"type":"LineString","coordinates":[[19.9685815,49.2514185],[19.9684447,49.251404],[19.9681,49.251373],[19.9679518,49.2513096],[19.9678284,49.2513149],[19.9675414,49.2513306],[19.9672101,49.2512935],[19.966988,49.2512337],[19.9668859,49.2511716],[19.9666579,49.2511117],[19.9663331,49.2510514],[19.9660407,49.2510207],[19.9659307,49.251005],[19.9658462,49.2510305],[19.9656799,49.2511636],[19.9654049,49.251415],[19.965287,49.2514785],[19.9650937,49.2515039],[19.9648873,49.2515048],[19.9647327,49.2514756],[19.9646402,49.2514331],[19.964548,49.251314],[19.9644191,49.2511497],[19.9643268,49.2511196],[19.9642222,49.2511231],[19.9640939,49.251198],[19.9639915,49.2512194],[19.9638949,49.251194],[19.9637903,49.2511275],[19.9636763,49.2510943],[19.9634913,49.2511065],[19.9632622,49.2511106],[19.9629621,49.2511711],[19.962563,49.251427]]}},{"type":"Feature","id":770572900,"properties":{"kind":"run","name":"Ski touring route","subtype":"unknown","pisteType":"skitour","featured":false},"geometry":{"type":"LineString","coordinates":[[19.9804779,49.2313362],[19.9800062,49.2314711]]}},{"type":"Feature","id":770572901,"properties":{"kind":"run","name":"Mapped ski run","subtype":"advanced","pisteType":"downhill","featured":false},"geometry":{"type":"LineString","coordinates":[[19.9721601,49.2342811],[19.9715692,49.2338624],[19.9711361,49.233673],[19.9706863,49.2335529],[19.9703653,49.2336357],[19.9701566,49.2338199],[19.9701195,49.2339376],[19.9700879,49.2340381],[19.9700916,49.2342967],[19.9701832,49.2346188],[19.9702616,49.2348801],[19.9704831,49.2350986],[19.9705626,49.2354448],[19.9707494,49.235871]]}},{"type":"Feature","id":770572902,"properties":{"kind":"run","name":"Mapped ski run","subtype":"advanced","pisteType":"downhill","featured":false},"geometry":{"type":"LineString","coordinates":[[19.9921809,49.2344647],[19.9925351,49.2342204],[19.9925815,49.2339716],[19.9926652,49.2337956],[19.9928139,49.2337167],[19.9929997,49.2336621],[19.9933343,49.2336803],[19.9934365,49.233917],[19.9934976,49.2340556],[19.9935473,49.2341351],[19.9936941,49.2343072],[19.9937432,49.2346027],[19.9939493,49.2347885]]}},{"type":"Feature","id":770572903,"properties":{"kind":"run","name":"Nartostrada Goryczkowa","subtype":"easy","pisteType":"downhill","featured":true},"geometry":{"type":"LineString","coordinates":[[19.9710114,49.2568864],[19.9711325,49.2570429],[19.9712783,49.2572265],[19.9713958,49.2574019],[19.9714594,49.2576801],[19.9714244,49.2578233],[19.9714223,49.2579263],[19.9714823,49.2580453],[19.971699,49.2583414],[19.9718878,49.2585185],[19.9722218,49.258723],[19.9729188,49.2591463],[19.9731092,49.2593822],[19.9731641,49.2595215],[19.9733693,49.2597774],[19.9734235,49.2598623]]}},{"type":"Feature","id":770572904,"properties":{"kind":"run","name":"Mapped ski run","subtype":"easy","pisteType":"downhill","featured":false},"geometry":{"type":"LineString","coordinates":[[19.9709518,49.2568225],[19.9710114,49.2568864]]}},{"type":"Feature","id":770602065,"properties":{"kind":"run","name":"Ski touring route","subtype":"unknown","pisteType":"skitour","featured":false},"geometry":{"type":"LineString","coordinates":[[19.9682434,49.2543122],[19.9680523,49.2544317]]}},{"type":"Feature","id":770602066,"properties":{"kind":"run","name":"Nartostrada Goryczkowa","subtype":"easy","pisteType":"downhill","featured":true},"geometry":{"type":"LineString","coordinates":[[19.9682434,49.2543122],[19.9685387,49.2545444],[19.9700385,49.2557284],[19.9706777,49.2563307],[19.9708485,49.2567172],[19.9709518,49.2568225]]}},{"type":"Feature","id":915626355,"properties":{"kind":"run","name":"Ski touring route","subtype":"unknown","pisteType":"skitour","featured":false},"geometry":{"type":"LineString","coordinates":[[20.0041281,49.2430799],[20.004281,49.2435257],[20.0045353,49.2439213],[20.0049394,49.244227],[20.0053102,49.2444691],[20.0056073,49.2446832],[20.0060256,49.2450618],[20.0063422,49.2453064]]}},{"type":"Feature","id":915741108,"properties":{"kind":"run","name":"Ski touring route","subtype":"unknown","pisteType":"skitour","featured":false},"geometry":{"type":"LineString","coordinates":[[19.954793,49.2505254],[19.9546936,49.2504307],[19.954302,49.2497934],[19.9539319,49.2492226],[19.9536905,49.248932],[19.9537683,49.2488952],[19.9531057,49.2484102],[19.9528545,49.2483002],[19.9520302,49.2479392],[19.9517612,49.2477793]]}},{"type":"Feature","id":915741109,"properties":{"kind":"run","name":"Ski touring route","subtype":"unknown","pisteType":"skitour","featured":false},"geometry":{"type":"LineString","coordinates":[[19.9537683,49.2488952],[19.9540204,49.2488374],[19.9543449,49.2487796],[19.954581,49.2487866],[19.9548626,49.2487446],[19.9554017,49.2486658],[19.9557209,49.2485975],[19.956134,49.248517],[19.9563351,49.2485188],[19.9566758,49.248405],[19.9571639,49.2484977],[19.9574804,49.2484627],[19.9580383,49.2483016],[19.9583039,49.2481388],[19.9585667,49.2479987],[19.958902,49.2478832],[19.9592105,49.2478727],[19.959535,49.2478289],[19.9596825,49.2477694],[19.9601331,49.2478289],[19.9605623,49.247962],[19.9610129,49.248018],[19.9612784,49.2480127],[19.9617988,49.2481143],[19.9623218,49.2481493],[19.9626866,49.2481476],[19.9632016,49.2482334],[19.9635074,49.2482474],[19.963789,49.2482596],[19.9643281,49.2483629],[19.9649718,49.2484487],[19.9659187,49.248566],[19.9664202,49.2486361],[19.9667266,49.248619],[19.9669433,49.2484557],[19.9671122,49.2482579],[19.9672759,49.2480198],[19.9673429,49.2478061],[19.9675494,49.2475698],[19.9678257,49.2473912],[19.9677479,49.2472021],[19.9676809,49.2469394],[19.9677613,49.2467258],[19.9677962,49.2465262],[19.9678552,49.2463301],[19.9679008,49.246099],[19.9680177,49.2455029]]}},{"type":"Feature","id":915741110,"properties":{"kind":"run","name":"Ski touring route","subtype":"unknown","pisteType":"skitour","featured":false},"geometry":{"type":"LineString","coordinates":[[19.9689009,49.24733],[19.9687269,49.2473106],[19.9685284,49.2472564],[19.9683487,49.2472003],[19.968228,49.2472038],[19.968043,49.2472616],[19.9678257,49.2473912]]}},{"type":"Feature","id":915741111,"properties":{"kind":"run","name":"Ski touring route","subtype":"unknown","pisteType":"skitour","featured":false},"geometry":{"type":"LineString","coordinates":[[19.9605647,49.2516217],[19.9607232,49.251623],[19.9609441,49.2516249],[19.9611048,49.2516379],[19.9613817,49.2516734],[19.9615742,49.2516764],[19.961799,49.2516314],[19.962244,49.2514864],[19.962563,49.251427]]}},{"type":"Feature","id":915741112,"properties":{"kind":"run","name":"Ski touring route","subtype":"unknown","pisteType":"skitour","featured":false},"geometry":{"type":"LineString","coordinates":[[19.9517272,49.2496471],[19.9517234,49.2495565],[19.9517172,49.2494578],[19.9516894,49.249393],[19.9516829,49.2493444],[19.9516719,49.2492042],[19.9516229,49.2491014],[19.9515447,49.2490309],[19.951452,49.2489642],[19.9512478,49.2488446],[19.9509733,49.2486849],[19.9508708,49.2486094],[19.9507437,49.248523],[19.9505891,49.2484297],[19.9504705,49.2483465],[19.9502588,49.2482138],[19.950116,49.2481085],[19.9499982,49.2480108],[19.9499534,49.2479617],[19.9498821,49.2479002]]}},{"type":"Feature","id":915741113,"properties":{"kind":"run","name":"Ski touring route","subtype":"unknown","pisteType":"skitour","featured":false},"geometry":{"type":"LineString","coordinates":[[19.9498821,49.2479002],[19.9503806,49.2478674],[19.9514616,49.2477956],[19.9517612,49.2477793],[19.9517872,49.2477779],[19.9521375,49.2477589],[19.9524942,49.2477519],[19.9529126,49.2478166],[19.9532586,49.2478201],[19.9535751,49.2478447],[19.9537468,49.2479164],[19.953889,49.2479147],[19.9539909,49.2478639],[19.9540874,49.2477554],[19.9542028,49.2476608],[19.9544227,49.2476065],[19.9547204,49.247533],[19.9551818,49.2474927],[19.9556217,49.2474735],[19.9559677,49.2475155],[19.9561742,49.247512],[19.9562654,49.2474542],[19.9563271,49.2473246],[19.956421,49.2470743],[19.9565095,49.2468974],[19.956539,49.2467258],[19.9565497,49.2466295],[19.9567884,49.2464877],[19.9570352,49.2462811],[19.957231,49.2462671],[19.9575019,49.2461165],[19.9578238,49.2460184],[19.9582127,49.2459396],[19.958674,49.2458871],[19.9590415,49.2458451],[19.9594277,49.2458573],[19.9598113,49.2458416],[19.9603263,49.2460219],[19.9609217,49.2462671],[19.9613669,49.2464229],[19.9617156,49.2465595],[19.9619248,49.246633],[19.9621287,49.2466453],[19.9626625,49.246633],[19.9632499,49.2465017],[19.9637032,49.2463634],[19.9640143,49.2461778],[19.9643066,49.2459589],[19.9645266,49.245782],[19.9646929,49.2456262],[19.9648431,49.2453986],[19.9648833,49.2452497],[19.9648699,49.2450466],[19.9648082,49.244819],[19.9647868,49.2445844],[19.9647599,49.2443007],[19.9647278,49.2440853],[19.9647036,49.243919],[19.9646929,49.2436913],[19.9647157,49.2435714],[19.9647532,49.2434637],[19.9647977,49.2433451]]}},{"type":"Feature","id":972650489,"properties":{"kind":"run","name":"Mapped ski run","subtype":"easy","pisteType":"downhill","featured":false},"geometry":{"type":"LineString","coordinates":[[19.9826189,49.2320676],[19.9825805,49.2317616],[19.9826508,49.2314739],[19.98272,49.2311766],[19.9825747,49.2310842],[19.9817535,49.2311403],[19.9812296,49.2311579],[19.9806157,49.2311858],[19.9798483,49.2310867],[19.9792954,49.2311287]]}},{"type":"Feature","id":1034894809,"properties":{"kind":"run","name":"Mapped ski run","subtype":"advanced","pisteType":"downhill","featured":false},"geometry":{"type":"LineString","coordinates":[[19.9701195,49.2339376],[19.9703187,49.2341667],[19.9705114,49.2344888],[19.9705538,49.2347073],[19.9705517,49.2348787],[19.9704831,49.2350986]]}},{"type":"Feature","id":1034894810,"properties":{"kind":"run","name":"Mapped ski run","subtype":"advanced","pisteType":"downhill","featured":false},"geometry":{"type":"LineString","coordinates":[[19.9689868,49.2386574],[19.9689868,49.2389643],[19.9690249,49.2392021],[19.9690503,49.2394261],[19.9690842,49.2396667]]}},{"type":"Feature","id":1034894811,"properties":{"kind":"run","name":"Mapped ski run","subtype":"advanced","pisteType":"downhill","featured":false},"geometry":{"type":"LineString","coordinates":[[19.968797,49.2414977],[19.9686078,49.241616],[19.9683473,49.2417142],[19.9680255,49.2418137],[19.9678688,49.2419284],[19.967786,49.2420404]]}},{"type":"Feature","id":1034894812,"properties":{"kind":"run","name":"Mapped ski run","subtype":"advanced","pisteType":"downhill","featured":false},"geometry":{"type":"LineString","coordinates":[[19.9677041,49.2432874],[19.9676958,49.243369],[19.9677238,49.2434641],[19.9677969,49.2435747],[19.967887,49.2436545],[19.9679643,49.2437259],[19.9680271,49.2437861],[19.9680791,49.2438463],[19.9681073,49.243884],[19.96813,49.2439216],[19.9681448,49.2440381],[19.9681361,49.2441453],[19.9681205,49.2441932],[19.9680995,49.244234],[19.967974,49.2443519],[19.9678913,49.2444487],[19.9678497,49.2445012],[19.9678189,49.2445573],[19.9677847,49.2446299],[19.9677612,49.2447026],[19.9677431,49.2447753],[19.9677465,49.2448479],[19.9677626,49.244897],[19.9677948,49.244946],[19.9678283,49.2449845],[19.9678725,49.245016],[19.9679315,49.2450388]]}},{"type":"Feature","id":1034894813,"properties":{"kind":"run","name":"Mapped ski run","subtype":"advanced","pisteType":"downhill","featured":false},"geometry":{"type":"LineString","coordinates":[[19.9678137,49.2394233],[19.967182,49.2396605],[19.9668412,49.2399313],[19.9666015,49.2400502],[19.9665601,49.2401948],[19.9666067,49.240322],[19.9668862,49.2405543],[19.9672377,49.240839],[19.9675172,49.241204],[19.9677841,49.2417017],[19.967786,49.2420404],[19.9677883,49.242451],[19.9677629,49.2429763],[19.9677041,49.2432874]]}},{"type":"Feature","id":1034894814,"properties":{"kind":"run","name":"Ski touring route","subtype":"intermediate","pisteType":"skitour","featured":false},"geometry":{"type":"LineString","coordinates":[[19.9647977,49.2433451],[19.9648366,49.2430824],[19.9648726,49.2429051],[19.9648109,49.2424813],[19.9650485,49.2417901],[19.9653623,49.2411281],[19.965688,49.240851],[19.9658623,49.240795],[19.9659723,49.2406234],[19.9660447,49.2404447],[19.9666015,49.2400502]]}},{"type":"Feature","id":1034894815,"properties":{"kind":"run","name":"Mapped ski run","subtype":"advanced","pisteType":"downhill","featured":false},"geometry":{"type":"LineString","coordinates":[[19.9693461,49.2383768],[19.9691197,49.238465],[19.9689868,49.2386574],[19.9688852,49.2387957],[19.9685129,49.2390828],[19.9679662,49.2393155],[19.9678137,49.2394233],[19.9678645,49.2395754],[19.9682372,49.2398215],[19.9684955,49.2400897],[19.9687073,49.2403303],[19.9688201,49.2405099]]}},{"type":"Feature","id":1046827663,"properties":{"kind":"run","name":"Ski touring route","subtype":"unknown","pisteType":"skitour","featured":false},"geometry":{"type":"LineString","coordinates":[[19.9682434,49.2543122],[19.9681261,49.2541441],[19.9680512,49.2540012],[19.9680829,49.253849],[19.9682528,49.2536761],[19.968391,49.2535896],[19.9685921,49.253515],[19.9686461,49.253453],[19.9686214,49.2533697],[19.968512,49.2532437],[19.9685177,49.2531667],[19.9686271,49.2530107],[19.9688028,49.2529468],[19.9690418,49.2529411],[19.9692895,49.2529261],[19.9694018,49.252849],[19.9695484,49.252802]]}},{"type":"Feature","id":1046827664,"properties":{"kind":"run","name":"Ski touring route","subtype":"unknown","pisteType":"skitour","featured":false},"geometry":{"type":"LineString","coordinates":[[19.9734304,49.2598367],[19.9733473,49.2596661],[19.9732004,49.2594331],[19.973163,49.2592677],[19.9730423,49.2591479],[19.9728813,49.2589443],[19.9726801,49.2587735],[19.9726029,49.2586181],[19.9724218,49.258408],[19.9721602,49.2581869],[19.9720327,49.257957],[19.9719958,49.2577337],[19.9720025,49.2575455],[19.9720361,49.2572806],[19.9719824,49.2570048],[19.9719623,49.2568012],[19.9718717,49.2565735],[19.9718114,49.2563853],[19.9718851,49.2560722],[19.9719736,49.255873],[19.9720529,49.2557591],[19.9721671,49.2556687],[19.9721886,49.2555355],[19.9722034,49.2553873],[19.9724022,49.255183],[19.9724468,49.2550196],[19.9724637,49.2547993],[19.9725508,49.2545832],[19.9725741,49.254349],[19.9725062,49.2541938],[19.9724468,49.2540303],[19.9722918,49.2537671],[19.9721326,49.2535246],[19.9719161,49.253357],[19.971725,49.2532323],[19.9716889,49.2530951],[19.9716996,49.2529011],[19.9717187,49.2527667],[19.9717356,49.2526171],[19.9716783,49.2524411],[19.9716168,49.2521945],[19.971672,49.2519977],[19.9716822,49.2518126],[19.9717173,49.2515806],[19.9715181,49.2513256],[19.9714868,49.2511088],[19.9715806,49.2508895],[19.971772,49.2506422],[19.9719166,49.2503285],[19.9719322,49.2499537],[19.9716431,49.2496578],[19.9715259,49.2494334],[19.9716079,49.2490713],[19.9715532,49.2487015],[19.9715583,49.2483027],[19.9712124,49.247376],[19.9710486,49.2468027],[19.9706573,49.2463126],[19.9701432,49.2461077],[19.9701113,49.2458106],[19.9696878,49.2449572],[19.9697964,49.2446236]]}},{"type":"Feature","id":1046827665,"properties":{"kind":"run","name":"Ski touring route","subtype":"unknown","pisteType":"skitour","featured":false},"geometry":{"type":"LineString","coordinates":[[19.9735752,49.260176],[19.9735188,49.2600904],[19.9735088,49.2600268],[19.9735054,49.2599785],[19.973479,49.2599111]]}},{"type":"Feature","id":1046827666,"properties":{"kind":"run","name":"Ski touring route","subtype":"unknown","pisteType":"skitour","featured":false},"geometry":{"type":"LineString","coordinates":[[19.973479,49.2599111],[19.9734304,49.2598367]]}},{"type":"Feature","id":1046827669,"properties":{"kind":"run","name":"Mapped ski run","subtype":"advanced","pisteType":"downhill","featured":false},"geometry":{"type":"LineString","coordinates":[[19.9701397,49.2445882],[19.9697964,49.2446236]]}},{"type":"Feature","id":1150038402,"properties":{"kind":"run","name":"Ski touring route","subtype":"unknown","pisteType":"skitour","featured":false},"geometry":{"type":"LineString","coordinates":[[19.9656419,49.2586854],[19.9661039,49.2590123],[19.9689256,49.2585186],[19.9701829,49.2589109]]}}]}