{"type":"FeatureCollection","features":[{"type":"Feature","id":"building-184187402","properties":{"kind":"building","name":"Wysokogórskie Obserwatorium Meteorologiczne Kasprowy Wierch","height":7.2},"geometry":{"type":"Polygon","coordinates":[[[19.9818374,49.2325869],[19.9818246,49.2325646],[19.9817989,49.2325708],[19.9817722,49.232524],[19.9817053,49.2325404],[19.9816594,49.2324603],[19.9817532,49.2324374],[19.9817663,49.2324601],[19.9817819,49.2324563],[19.9817856,49.2324627],[19.9818403,49.2324493],[19.9818357,49.2324416],[19.9818864,49.2324292],[19.9819219,49.2324914],[19.9819009,49.2324966],[19.9819538,49.2325891],[19.9818968,49.2326032],[19.9819018,49.2326157],[19.981899,49.2326285],[19.9818887,49.2326396],[19.9818725,49.232647],[19.9818532,49.2326497],[19.9818338,49.2326472],[19.9818174,49.2326399],[19.9818068,49.232629],[19.9818036,49.2326162],[19.9818083,49.2326036],[19.9818202,49.2325933],[19.9818374,49.2325869]]]}},{"type":"Feature","id":"pylon-kasprowy-wierch-zakopane-0","properties":{"kind":"pylon","name":"Lift tower","height":13},"geometry":{"type":"Polygon","coordinates":[[[19.992812666723868,49.2351386],[19.99280380180569,49.23515257444232],[19.9927824,49.23515836284585],[19.99276099819431,49.23515257444232],[19.99275213327613,49.2351386],[19.99276099819431,49.23512462555768],[19.9927824,49.23511883715415],[19.99280380180569,49.23512462555768],[19.992812666723868,49.2351386]]]}},{"type":"Feature","id":"pylon-kasprowy-wierch-zakopane-1","properties":{"kind":"pylon","name":"Lift tower","height":13},"geometry":{"type":"Polygon","coordinates":[[[19.989202966168058,49.2342315],[19.989194101412675,49.23424547444232],[19.9891727,49.23425126284585],[19.989151298587327,49.23424547444232],[19.989142433831944,49.2342315],[19.989151298587327,49.23421752555768],[19.9891727,49.23421173715415],[19.989194101412675,49.23421752555768],[19.989202966168058,49.2342315]]]}},{"type":"Feature","id":"pylon-kasprowy-wierch-zakopane-2","properties":{"kind":"pylon","name":"Lift tower","height":13},"geometry":{"type":"Polygon","coordinates":[[[19.983950665362915,49.2329174],[19.98394180084335,49.232931374442316],[19.9839204,49.23293716284585],[19.983898999156647,49.232931374442316],[19.983890134637083,49.2329174],[19.983898999156647,49.23290342555768],[19.9839204,49.232897637154146],[19.98394180084335,49.23290342555768],[19.983950665362915,49.2329174]]]}},{"type":"Feature","id":"pylon-kasprowy-wierch-zakopane-3","properties":{"kind":"pylon","name":"Lift tower","height":13},"geometry":{"type":"Polygon","coordinates":[[[19.975911374170217,49.2472869],[19.975902507071055,49.24730087444232],[19.9758811,49.24730666284585],[19.975859692928942,49.24730087444232],[19.97585082582978,49.2472869],[19.975859692928942,49.24727292555768],[19.9758811,49.24726713715415],[19.975902507071055,49.24727292555768],[19.975911374170217,49.2472869]]]}},{"type":"Feature","id":"pylon-kasprowy-wierch-zakopane-4","properties":{"kind":"pylon","name":"Lift tower","height":13},"geometry":{"type":"Polygon","coordinates":[[[19.97740147226946,49.2441867],[19.97739260572702,49.24420067444232],[19.9773712,49.24420646284585],[19.977349794272982,49.24420067444232],[19.97734092773054,49.2441867],[19.977349794272982,49.24417272555768],[19.9773712,49.24416693715415],[19.97739260572702,49.24417272555768],[19.97740147226946,49.2441867]]]}},{"type":"Feature","id":"pylon-kasprowy-wierch-zakopane-5","properties":{"kind":"pylon","name":"Lift tower","height":13},"geometry":{"type":"Polygon","coordinates":[[[19.979368369736605,49.2400547],[19.979359503936017,49.24006867444232],[19.9793381,49.240074462845854],[19.979316696063982,49.24006867444232],[19.979307830263394,49.2400547],[19.979316696063982,49.240040725557684],[19.9793381,49.24003493715415],[19.979359503936017,49.240040725557684],[19.979368369736605,49.2400547]]]}},{"type":"Feature","id":"pylon-kasprowy-wierch-zakopane-6","properties":{"kind":"pylon","name":"Lift tower","height":13},"geometry":{"type":"Polygon","coordinates":[[[19.976601282404364,49.2607109],[19.976592412893474,49.26072487444232],[19.976571,49.26073066284585],[19.976549587106526,49.26072487444232],[19.976540717595636,49.2607109],[19.976549587106526,49.26069692555768],[19.976571,49.26069113715415],[19.976592412893474,49.26069692555768],[19.976601282404364,49.2607109]]]}},{"type":"Feature","id":"pylon-kasprowy-wierch-zakopane-7","properties":{"kind":"pylon","name":"Lift tower","height":13},"geometry":{"type":"Polygon","coordinates":[[[19.97598836839796,49.2378705],[19.975979502989453,49.23788447444232],[19.9759581,49.23789026284585],[19.975936697010546,49.23788447444232],[19.97592783160204,49.2378705],[19.975936697010546,49.23785652555768],[19.9759581,49.23785073715415],[19.975979502989453,49.23785652555768],[19.97598836839796,49.2378705]]]}},{"type":"Feature","id":"pylon-kasprowy-wierch-zakopane-8","properties":{"kind":"pylon","name":"Lift tower","height":13},"geometry":{"type":"Polygon","coordinates":[[[19.978790566551137,49.2348567],[19.978781701683552,49.23487067444232],[19.9787603,49.234876462845854],[19.97873889831645,49.23487067444232],[19.978730033448866,49.2348567],[19.97873889831645,49.234842725557684],[19.9787603,49.23483693715415],[19.978781701683552,49.234842725557684],[19.978790566551137,49.2348567]]]}},{"type":"Feature","id":"pylon-kasprowy-wierch-zakopane-9","properties":{"kind":"pylon","name":"Lift tower","height":13},"geometry":{"type":"Polygon","coordinates":[[[19.975068568992985,49.2388414],[19.9750597034102,49.238855374442316],[19.9750383,49.23886116284585],[19.975016896589803,49.238855374442316],[19.975008031007018,49.2388414],[19.975016896589803,49.23882742555768],[19.9750383,49.238821637154146],[19.9750597034102,49.23882742555768],[19.975068568992985,49.2388414]]]}},{"type":"Feature","id":"pylon-kasprowy-wierch-zakopane-10","properties":{"kind":"pylon","name":"Lift tower","height":13},"geometry":{"type":"Polygon","coordinates":[[[19.98039836548668,49.2331194],[19.980389500930865,49.23313337444232],[19.9803681,49.23313916284585],[19.980346699069134,49.23313337444232],[19.98033783451332,49.2331194],[19.980346699069134,49.23310542555768],[19.9803681,49.23309963715415],[19.980389500930865,49.23310542555768],[19.98039836548668,49.2331194]]]}},{"type":"Feature","id":"pylon-kasprowy-wierch-zakopane-11","properties":{"kind":"pylon","name":"Lift tower","height":13},"geometry":{"type":"Polygon","coordinates":[[[19.976677667943978,49.2371297],[19.97666880266844,49.237143674442315],[19.9766474,49.23714946284585],[19.976625997331563,49.237143674442315],[19.976617132056024,49.2371297],[19.976625997331563,49.23711572555768],[19.9766474,49.237109937154145],[19.97666880266844,49.23711572555768],[19.976677667943978,49.2371297]]]}},{"type":"Feature","id":"pylon-kasprowy-wierch-zakopane-12","properties":{"kind":"pylon","name":"Lift tower","height":13},"geometry":{"type":"Polygon","coordinates":[[[19.977878667153167,49.2358392],[19.97786980210925,49.23585317444232],[19.9778484,49.23585896284585],[19.977826997890748,49.23585317444232],[19.97781813284683,49.2358392],[19.977826997890748,49.23582522555768],[19.9778484,49.23581943715415],[19.97786980210925,49.23582522555768],[19.977878667153167,49.2358392]]]}},{"type":"Feature","id":"pylon-kasprowy-wierch-zakopane-13","properties":{"kind":"pylon","name":"Lift tower","height":13},"geometry":{"type":"Polygon","coordinates":[[[19.97957296603308,49.2340112],[19.97956410131723,49.234025174442316],[19.9795427,49.23403096284585],[19.97952129868277,49.234025174442316],[19.97951243396692,49.2340112],[19.97952129868277,49.23399722555768],[19.9795427,49.233991437154145],[19.97956410131723,49.23399722555768],[19.97957296603308,49.2340112]]]}},{"type":"Feature","id":"pylon-kasprowy-wierch-zakopane-14","properties":{"kind":"pylon","name":"Lift tower","height":13},"geometry":{"type":"Polygon","coordinates":[[[19.98289866552301,49.2331787],[19.982889800956556,49.23319267444232],[19.9828684,49.233198462845856],[19.982846999043446,49.23319267444232],[19.982838134476992,49.2331787],[19.982846999043446,49.233164725557685],[19.9828684,49.23315893715415],[19.982889800956556,49.233164725557685],[19.98289866552301,49.2331787]]]}},{"type":"Feature","id":"pylon-kasprowy-wierch-zakopane-15","properties":{"kind":"pylon","name":"Lift tower","height":13},"geometry":{"type":"Polygon","coordinates":[[[19.985115065541144,49.2332083],[19.98510620096938,49.23322227444232],[19.9850848,49.23322806284585],[19.98506339903062,49.23322227444232],[19.985054534458854,49.2332083],[19.98506339903062,49.23319432555768],[19.9850848,49.23318853715415],[19.98510620096938,49.23319432555768],[19.985115065541144,49.2332083]]]}},{"type":"Feature","id":"pylon-kasprowy-wierch-zakopane-16","properties":{"kind":"pylon","name":"Lift tower","height":13},"geometry":{"type":"Polygon","coordinates":[[[19.986743365792222,49.2336181],[19.98673450114692,49.23363207444232],[19.9867131,49.23363786284585],[19.98669169885308,49.23363207444232],[19.986682834207777,49.2336181],[19.98669169885308,49.23360412555768],[19.9867131,49.23359833715415],[19.98673450114692,49.23360412555768],[19.986743365792222,49.2336181]]]}},{"type":"Feature","id":"pylon-kasprowy-wierch-zakopane-17","properties":{"kind":"pylon","name":"Lift tower","height":13},"geometry":{"type":"Polygon","coordinates":[[[19.990244366329264,49.2344946],[19.990235501526666,49.234508574442316],[19.9902141,49.23451436284585],[19.990192698473333,49.234508574442316],[19.990183833670734,49.2344946],[19.990192698473333,49.23448062555768],[19.9902141,49.234474837154146],[19.990235501526666,49.23448062555768],[19.990244366329264,49.2344946]]]}},{"type":"Feature","id":"pylon-kasprowy-wierch-zakopane-18","properties":{"kind":"pylon","name":"Lift tower","height":13},"geometry":{"type":"Polygon","coordinates":[[[19.991753766556403,49.2348653],[19.991744901687277,49.23487927444232],[19.9917235,49.234885062845855],[19.99170209831272,49.23487927444232],[19.991693233443595,49.2348653],[19.99170209831272,49.234851325557685],[19.9917235,49.23484553715415],[19.991744901687277,49.234851325557685],[19.991753766556403,49.2348653]]]}},{"type":"Feature","id":"pylon-kasprowy-wierch-zakopane-19","properties":{"kind":"pylon","name":"Lift tower","height":13},"geometry":{"type":"Polygon","coordinates":[[[19.993454566820255,49.2352959],[19.993445701873846,49.235309874442315],[19.9934243,49.23531566284585],[19.993402898126156,49.235309874442315],[19.993394033179747,49.2352959],[19.993402898126156,49.23528192555768],[19.9934243,49.235276137154145],[19.993445701873846,49.23528192555768],[19.993454566820255,49.2352959]]]}},{"type":"Feature","id":"pylon-kasprowy-wierch-zakopane-20","properties":{"kind":"pylon","name":"Lift tower","height":13},"geometry":{"type":"Polygon","coordinates":[[[19.994761467020748,49.2356231],[19.994752602015616,49.235637074442316],[19.9947312,49.23564286284585],[19.994709797984385,49.235637074442316],[19.994700932979253,49.2356231],[19.994709797984385,49.23560912555768],[19.9947312,49.235603337154146],[19.994752602015616,49.23560912555768],[19.994761467020748,49.2356231]]]}},{"type":"Feature","id":"pylon-kasprowy-wierch-zakopane-21","properties":{"kind":"pylon","name":"Lift tower","height":13},"geometry":{"type":"Polygon","coordinates":[[[19.996418467278293,49.2360434],[19.99640960219773,49.23605737444232],[19.9963882,49.23606316284585],[19.996366797802267,49.23605737444232],[19.996357932721704,49.2360434],[19.996366797802267,49.23602942555768],[19.9963882,49.23602363715415],[19.99640960219773,49.23602942555768],[19.996418467278293,49.2360434]]]}},{"type":"Feature","id":"pylon-kasprowy-wierch-zakopane-22","properties":{"kind":"pylon","name":"Lift tower","height":13},"geometry":{"type":"Polygon","coordinates":[[[19.977344767504718,49.2364129],[19.977335902357837,49.236426874442316],[19.9773145,49.23643266284585],[19.97729309764216,49.236426874442316],[19.97728423249528,49.2364129],[19.97729309764216,49.23639892555768],[19.9773145,49.236393137154145],[19.977335902357837,49.23639892555768],[19.977344767504718,49.2364129]]]}},{"type":"Feature","id":"pylon-kasprowy-wierch-zakopane-23","properties":{"kind":"pylon","name":"Lift tower","height":13},"geometry":{"type":"Polygon","coordinates":[[[19.974286069508178,49.239682],[19.974277203774495,49.23969597444232],[19.9742558,49.239701762845854],[19.97423439622551,49.23969597444232],[19.974225530491825,49.239682],[19.97423439622551,49.239668025557684],[19.9742558,49.23966223715415],[19.974277203774495,49.239668025557684],[19.974286069508178,49.239682]]]}},{"type":"Feature","id":"pylon-kasprowy-wierch-zakopane-24","properties":{"kind":"pylon","name":"Lift tower","height":13},"geometry":{"type":"Polygon","coordinates":[[[19.97368736990228,49.240325],[19.97367850405317,49.24033897444232],[19.9736571,49.24034476284585],[19.973635695946832,49.24033897444232],[19.97362683009772,49.240325],[19.973635695946832,49.24031102555768],[19.9736571,49.240305237154146],[19.97367850405317,49.24031102555768],[19.97368736990228,49.240325]]]}},{"type":"Feature","id":"pylon-kasprowy-wierch-zakopane-25","properties":{"kind":"pylon","name":"Lift tower","height":13},"geometry":{"type":"Polygon","coordinates":[[[19.972938570395264,49.2411293],[19.97292970440176,49.241143274442315],[19.9729083,49.24114906284585],[19.97288689559824,49.241143274442315],[19.972878029604736,49.2411293],[19.97288689559824,49.24111532555768],[19.9729083,49.241109537154145],[19.97292970440176,49.24111532555768],[19.972938570395264,49.2411293]]]}},{"type":"Feature","id":"pylon-kasprowy-wierch-zakopane-26","properties":{"kind":"pylon","name":"Lift tower","height":13},"geometry":{"type":"Polygon","coordinates":[[[19.972432270728593,49.2416731],[19.972423404637457,49.24168707444232],[19.972402,49.24169286284585],[19.97238059536254,49.24168707444232],[19.972371729271405,49.2416731],[19.97238059536254,49.24165912555768],[19.972402,49.24165333715415],[19.972423404637457,49.24165912555768],[19.972432270728593,49.2416731]]]}},{"type":"Feature","id":"pylon-kasprowy-wierch-zakopane-27","properties":{"kind":"pylon","name":"Lift tower","height":13},"geometry":{"type":"Polygon","coordinates":[[[19.97193487107045,49.2422308],[19.971926004879187,49.24224477444232],[19.9719046,49.242250562845854],[19.97188319512081,49.24224477444232],[19.971874328929548,49.2422308],[19.97188319512081,49.24221682555768],[19.9719046,49.24221103715415],[19.971926004879187,49.24221682555768],[19.97193487107045,49.2422308]]]}},{"type":"Feature","id":"pylon-kasprowy-wierch-zakopane-28","properties":{"kind":"pylon","name":"Lift tower","height":13},"geometry":{"type":"Polygon","coordinates":[[[19.97108257163705,49.2431551],[19.971073705279835,49.24316907444232],[19.9710523,49.243174862845855],[19.971030894720165,49.24316907444232],[19.97102202836295,49.2431551],[19.971030894720165,49.243141125557685],[19.9710523,49.24313533715415],[19.971073705279835,49.243141125557685],[19.97108257163705,49.2431551]]]}},{"type":"Feature","id":"pylon-kasprowy-wierch-zakopane-29","properties":{"kind":"pylon","name":"Lift tower","height":13},"geometry":{"type":"Polygon","coordinates":[[[19.970277272158008,49.2440049],[19.97026840564821,49.24401887444232],[19.970247,49.24402466284585],[19.970225594351792,49.24401887444232],[19.970216727841994,49.2440049],[19.970225594351792,49.24399092555768],[19.970247,49.24398513715415],[19.97026840564821,49.24399092555768],[19.970277272158008,49.2440049]]]}},{"type":"Feature","id":"pylon-kasprowy-wierch-zakopane-30","properties":{"kind":"pylon","name":"Lift tower","height":13},"geometry":{"type":"Polygon","coordinates":[[[19.969778672480537,49.244531],[19.969769805876272,49.24454497444232],[19.9697484,49.244550762845854],[19.96972699412373,49.24454497444232],[19.969718127519464,49.244531],[19.96972699412373,49.244517025557684],[19.9697484,49.24451123715415],[19.969769805876272,49.244517025557684],[19.969778672480537,49.244531]]]}},{"type":"Feature","id":"pylon-kasprowy-wierch-zakopane-31","properties":{"kind":"pylon","name":"Lift tower","height":13},"geometry":{"type":"Polygon","coordinates":[[[19.988147966006853,49.2339684],[19.988139101298685,49.23398237444232],[19.9881177,49.233988162845854],[19.988096298701315,49.23398237444232],[19.988087433993147,49.2339684],[19.988096298701315,49.233954425557684],[19.9881177,49.23394863715415],[19.988139101298685,49.233954425557684],[19.988147966006853,49.2339684]]]}},{"type":"Feature","id":"marker-kasprowy-wierch-zakopane-summit","properties":{"kind":"marker","markerType":"summit","name":"Upper mountain · 1958 m","height":26},"geometry":{"type":"Polygon","coordinates":[[[19.97359630976647,49.238499999999995],[19.9735779162378,49.23853696098424],[19.973529761354563,49.23855980412876],[19.973470238645433,49.23855980412876],[19.973422083762195,49.23853696098424],[19.973403690233525,49.238499999999995],[19.973422083762195,49.23846303901575],[19.973470238645433,49.23844019587123],[19.973529761354563,49.23844019587123],[19.9735779162378,49.23846303901575],[19.97359630976647,49.238499999999995]]]}},{"type":"Feature","id":"marker-kasprowy-wierch-zakopane-base","properties":{"kind":"marker","markerType":"base","name":"Base · 1355 m","height":18},"geometry":{"type":"Polygon","coordinates":[[[19.977596301967278,49.2345],[19.977577909928122,49.234536960984244],[19.97752975894448,49.234559804128764],[19.977470241055517,49.234559804128764],[19.977422090071876,49.234536960984244],[19.97740369803272,49.2345],[19.977422090071876,49.23446303901575],[19.977470241055517,49.23444019587123],[19.97752975894448,49.23444019587123],[19.977577909928122,49.23446303901575],[19.977596301967278,49.2345]]]}},{"type":"Feature","id":"marker-kasprowy-wierch-zakopane-peak","properties":{"kind":"marker","markerType":"peak","name":"Peak · 1987 m","height":22},"geometry":{"type":"Polygon","coordinates":[[[19.98159631366672,49.2405],[19.981577919393168,49.240536960984244],[19.98152976255981,49.240559804128765],[19.981470237440192,49.240559804128765],[19.981422080606833,49.240536960984244],[19.98140368633328,49.2405],[19.981422080606833,49.24046303901575],[19.981470237440192,49.24044019587123],[19.98152976255981,49.24044019587123],[19.981577919393168,49.24046303901575],[19.98159631366672,49.2405]]]}}]}