{"type":"FeatureCollection","features":[{"type":"Feature","id":"building-250261056","properties":{"kind":"building","name":"Resort building","height":7.2},"geometry":{"type":"Polygon","coordinates":[[[146.2677518,-37.8417779],[146.2676895,-37.8417776],[146.2676888,-37.8418537],[146.2677511,-37.841854],[146.2677518,-37.8417779]]]}},{"type":"Feature","id":"building-250261057","properties":{"kind":"building","name":"Resort building","height":7.2},"geometry":{"type":"Polygon","coordinates":[[[146.2674426,-37.8416678],[146.267529,-37.8415941],[146.2673189,-37.8414263],[146.2672581,-37.8414834],[146.2673772,-37.8415775],[146.2673539,-37.8416015],[146.2674426,-37.8416678]]]}},{"type":"Feature","id":"building-250261058","properties":{"kind":"building","name":"Scout Alpine Adventure Centre - Baw Baw Ski Club","height":7.2},"geometry":{"type":"Polygon","coordinates":[[[146.2671193,-37.8409254],[146.2670329,-37.840966],[146.2669302,-37.8407982],[146.2670143,-37.8407632],[146.2671193,-37.8409254]]]}},{"type":"Feature","id":"building-250261060","properties":{"kind":"building","name":"Resort building","height":7.2},"geometry":{"type":"Polygon","coordinates":[[[146.2683557,-37.841749],[146.2682719,-37.8417584],[146.2682625,-37.841706],[146.2683462,-37.8416966],[146.2683557,-37.841749]]]}},{"type":"Feature","id":"building-250261077","properties":{"kind":"building","name":"Resort building","height":7.2},"geometry":{"type":"Polygon","coordinates":[[[146.2717444,-37.8407582],[146.2716023,-37.8407137],[146.2716812,-37.8405569],[146.2718233,-37.8406014],[146.2717444,-37.8407582]]]}},{"type":"Feature","id":"building-250261078","properties":{"kind":"building","name":"Mount Baw Baw Ski Hire","height":7.2},"geometry":{"type":"Polygon","coordinates":[[[146.2647406,-37.8410891],[146.2646253,-37.8409387],[146.2648882,-37.8408052],[146.2650142,-37.8409683],[146.2647406,-37.8410891]]]}},{"type":"Feature","id":"building-250261079","properties":{"kind":"building","name":"Village Restaurant","height":7.2},"geometry":{"type":"Polygon","coordinates":[[[146.26451,-37.8410594],[146.2642954,-37.8407819],[146.2644295,-37.8407141],[146.2645341,-37.8408455],[146.2645046,-37.8408772],[146.2645421,-37.8409175],[146.2645207,-37.8409387],[146.2645797,-37.8410192],[146.26451,-37.8410594]]]}},{"type":"Feature","id":"building-250261080","properties":{"kind":"building","name":"Resort building","height":7.2},"geometry":{"type":"Polygon","coordinates":[[[146.2659396,-37.840873],[146.2659315,-37.8410361],[146.2657411,-37.8410255],[146.2657438,-37.840926],[146.2658189,-37.8409281],[146.2658216,-37.8408666],[146.2659396,-37.840873]]]}},{"type":"Feature","id":"building-250261081","properties":{"kind":"building","name":"Resort building","height":7.2},"geometry":{"type":"Polygon","coordinates":[[[146.2655075,-37.8406391],[146.2653397,-37.8406068],[146.2653955,-37.840426],[146.2655633,-37.8404582],[146.2655075,-37.8406391]]]}},{"type":"Feature","id":"building-250261082","properties":{"kind":"building","name":"Baw Baw Guest Information & Arrivals","height":7.2},"geometry":{"type":"Polygon","coordinates":[[[146.2651939,-37.8404705],[146.2651483,-37.8405976],[146.2652851,-37.8406294],[146.2653307,-37.8405002],[146.2651939,-37.8404705]]]}},{"type":"Feature","id":"building-250261083","properties":{"kind":"building","name":"Kelly's Lodge & Cafe","height":7.2},"geometry":{"type":"Polygon","coordinates":[[[146.2655828,-37.8400257],[146.2653978,-37.8401676],[146.2653119,-37.8400935],[146.265489,-37.8399537],[146.2655828,-37.8400257]]]}},{"type":"Feature","id":"building-250261084","properties":{"kind":"building","name":"Resort building","height":7.2},"geometry":{"type":"Polygon","coordinates":[[[146.2656086,-37.8403335],[146.2656317,-37.8402861],[146.2654828,-37.8402409],[146.2654597,-37.8402883],[146.2656086,-37.8403335]]]}},{"type":"Feature","id":"building-250261085","properties":{"kind":"building","name":"Resort building","height":7.2},"geometry":{"type":"Polygon","coordinates":[[[146.2659597,-37.8403455],[146.2657683,-37.8403718],[146.2657333,-37.8402128],[146.2659246,-37.8401865],[146.2659597,-37.8403455]]]}},{"type":"Feature","id":"building-250261086","properties":{"kind":"building","name":"Banksia","height":7.2},"geometry":{"type":"Polygon","coordinates":[[[146.2650974,-37.8392356],[146.264923,-37.8392759],[146.2648801,-37.8391551],[146.2650518,-37.839117],[146.2650974,-37.8392356]]]}},{"type":"Feature","id":"building-288424019","properties":{"kind":"building","name":"Resort building","height":7.2},"geometry":{"type":"Polygon","coordinates":[[[146.2610131,-37.8372367],[146.2609822,-37.8370673],[146.26111,-37.8370528],[146.2611409,-37.8372222],[146.2610131,-37.8372367]]]}},{"type":"Feature","id":"building-554462118","properties":{"kind":"building","name":"Skiosk","height":7.2},"geometry":{"type":"Polygon","coordinates":[[[146.2681206,-37.8420127],[146.2680718,-37.8420668],[146.2681518,-37.8421118],[146.2682006,-37.8420577],[146.2681206,-37.8420127]]]}},{"type":"Feature","id":"building-575496028","properties":{"kind":"building","name":"Resort building","height":7.2},"geometry":{"type":"Polygon","coordinates":[[[146.2658332,-37.8416548],[146.2658378,-37.8416386],[146.2658355,-37.8416222],[146.2658267,-37.8416073],[146.2658124,-37.8415953],[146.2657939,-37.8415876],[146.2657733,-37.841585],[146.2657527,-37.8415877],[146.2657336,-37.8415958],[146.2657191,-37.8416085],[146.2657107,-37.8416243],[146.2657093,-37.8416413],[146.2657153,-37.8416578],[146.2657277,-37.8416717],[146.2657454,-37.8416817],[146.2657662,-37.8416864],[146.2657871,-37.8416856],[146.2658065,-37.8416795],[146.2658224,-37.8416689],[146.2658332,-37.8416548]]]}},{"type":"Feature","id":"building-575496029","properties":{"kind":"building","name":"Resort building","height":7.2},"geometry":{"type":"Polygon","coordinates":[[[146.2656202,-37.841456],[146.2656247,-37.8414398],[146.2656224,-37.8414234],[146.2656137,-37.8414085],[146.2655993,-37.8413965],[146.2655808,-37.8413888],[146.2655602,-37.8413862],[146.2655396,-37.8413889],[146.2655205,-37.841397],[146.265506,-37.8414097],[146.2654976,-37.8414255],[146.2654963,-37.8414425],[146.2655022,-37.841459],[146.2655147,-37.8414729],[146.2655323,-37.8414829],[146.2655531,-37.8414876],[146.265574,-37.8414868],[146.2655934,-37.8414807],[146.2656094,-37.8414701],[146.2656202,-37.841456]]]}},{"type":"Feature","id":"building-575496030","properties":{"kind":"building","name":"Resort building","height":7.2},"geometry":{"type":"Polygon","coordinates":[[[146.2655266,-37.8416065],[146.2655181,-37.841584],[146.265519,-37.8415606],[146.2655292,-37.8415386],[146.2655479,-37.8415204],[146.2655729,-37.8415078],[146.2656017,-37.8415021],[146.2656327,-37.8415042],[146.265661,-37.8415144],[146.2656834,-37.8415315],[146.2656974,-37.8415535],[146.2657012,-37.8415779],[146.2656945,-37.8416019],[146.2656781,-37.8416228],[146.2656538,-37.8416381],[146.2656258,-37.841646],[146.2655961,-37.8416464],[146.2655678,-37.8416394],[146.2655438,-37.8416256],[146.2655266,-37.8416065]]]}},{"type":"Feature","id":"building-575496032","properties":{"kind":"building","name":"Resort building","height":7.2},"geometry":{"type":"Polygon","coordinates":[[[146.2663754,-37.8405754],[146.2664743,-37.8405872],[146.266482,-37.8405469],[146.2665408,-37.8405539],[146.2665318,-37.8406012],[146.2665603,-37.8406045],[146.2665396,-37.8407126],[146.2664469,-37.8407015],[146.2664535,-37.8406666],[146.2663601,-37.8406554],[146.2663754,-37.8405754]]]}},{"type":"Feature","id":"building-576510179","properties":{"kind":"building","name":"WF Waters Lodge","height":7.2},"geometry":{"type":"Polygon","coordinates":[[[146.2642601,-37.839858],[146.2643277,-37.8399407],[146.2641208,-37.8400463],[146.2640532,-37.8399635],[146.2642601,-37.839858]]]}},{"type":"Feature","id":"building-576510181","properties":{"kind":"building","name":"Resort building","height":7.2},"geometry":{"type":"Polygon","coordinates":[[[146.2643528,-37.8402281],[146.2643979,-37.8402962],[146.2645293,-37.840242],[146.2644842,-37.8401739],[146.2643528,-37.8402281]]]}},{"type":"Feature","id":"building-857478475","properties":{"kind":"building","name":"Resort building","height":7.2},"geometry":{"type":"Polygon","coordinates":[[[146.2709611,-37.8393685],[146.2709417,-37.8393717],[146.270922,-37.8393696],[146.2709042,-37.8393627],[146.2708902,-37.8393515],[146.2708816,-37.8393374],[146.2708793,-37.8393218],[146.2708835,-37.8393065],[146.2708937,-37.8392931],[146.2709089,-37.8392831],[146.2709274,-37.8392775],[146.2709472,-37.8392769],[146.2709662,-37.8392814],[146.2709823,-37.8392905],[146.2709937,-37.8393033],[146.2709993,-37.8393184],[146.2709984,-37.839334],[146.2709911,-37.8393486],[146.2709782,-37.8393605],[146.2709611,-37.8393685]]]}},{"type":"Feature","id":"building-857478476","properties":{"kind":"building","name":"Resort building","height":7.2},"geometry":{"type":"Polygon","coordinates":[[[146.2709879,-37.8393787],[146.2709683,-37.8393849],[146.2709524,-37.8393958],[146.2709418,-37.8394102],[146.2709378,-37.8394266],[146.2709408,-37.839443],[146.2709502,-37.8394578],[146.2709652,-37.8394693],[146.2709841,-37.8394763],[146.2710049,-37.8394782],[146.2710253,-37.8394746],[146.2710432,-37.839466],[146.2710566,-37.8394534],[146.2710641,-37.839438],[146.2710648,-37.8394215],[146.2710587,-37.8394055],[146.2710464,-37.839392],[146.2710292,-37.8393825],[146.2710089,-37.8393778],[146.2709879,-37.8393787]]]}},{"type":"Feature","id":"building-857478477","properties":{"kind":"building","name":"Resort building","height":7.2},"geometry":{"type":"Polygon","coordinates":[[[146.2746403,-37.8384909],[146.2747495,-37.8385429],[146.2747895,-37.8384905],[146.2746803,-37.8384385],[146.2746403,-37.8384909]]]}},{"type":"Feature","id":"building-970360592","properties":{"kind":"building","name":"Benbullen","height":7.2},"geometry":{"type":"Polygon","coordinates":[[[146.2652592,-37.8392657],[146.2652713,-37.8393129],[146.2654078,-37.8392983],[146.2653976,-37.8392472],[146.2652592,-37.8392657]]]}},{"type":"Feature","id":"building-1484455574","properties":{"kind":"building","name":"Guest Services","height":7.2},"geometry":{"type":"Polygon","coordinates":[[[146.263354,-37.8393999],[146.2633657,-37.8394547],[146.2635462,-37.8394307],[146.263534,-37.8393737],[146.2635049,-37.8393775],[146.2634939,-37.8393261],[146.2633742,-37.839342],[146.2633856,-37.8393957],[146.263354,-37.8393999]]]}},{"type":"Feature","id":"building-1484455577","properties":{"kind":"building","name":"Everest","height":7.2},"geometry":{"type":"Polygon","coordinates":[[[146.2634658,-37.8389379],[146.2634668,-37.8388662],[146.2634788,-37.8388663],[146.2634741,-37.8388537],[146.2636566,-37.8388552],[146.2636561,-37.8388915],[146.2636219,-37.8388912],[146.2636212,-37.8389392],[146.2634658,-37.8389379]]]}},{"type":"Feature","id":"building-1484455578","properties":{"kind":"building","name":"Resort building","height":7.2},"geometry":{"type":"Polygon","coordinates":[[[146.2629796,-37.8389996],[146.263033,-37.839092],[146.2632286,-37.8390215],[146.2631752,-37.8389291],[146.2629796,-37.8389996]]]}},{"type":"Feature","id":"building-1484455579","properties":{"kind":"building","name":"Resort building","height":7.2},"geometry":{"type":"Polygon","coordinates":[[[146.2645526,-37.8389589],[146.2645548,-37.8389082],[146.2646403,-37.8389105],[146.2646381,-37.8389613],[146.2645526,-37.8389589]]]}},{"type":"Feature","id":"building-1484455580","properties":{"kind":"building","name":"Resort building","height":7.2},"geometry":{"type":"Polygon","coordinates":[[[146.2647431,-37.8390383],[146.2648223,-37.8390728],[146.2648642,-37.8390128],[146.264785,-37.8389783],[146.2647431,-37.8390383]]]}},{"type":"Feature","id":"building-1484455581","properties":{"kind":"building","name":"Resort building","height":7.2},"geometry":{"type":"Polygon","coordinates":[[[146.2651546,-37.8392852],[146.2649689,-37.8393655],[146.2649925,-37.8393996],[146.2649478,-37.8394189],[146.2649922,-37.8394831],[146.2650215,-37.8394704],[146.2650487,-37.8395096],[146.2651519,-37.839465],[146.2651239,-37.8394246],[146.2652218,-37.8393822],[146.2651546,-37.8392852]]]}},{"type":"Feature","id":"pylon-mount-baw-baw-0","properties":{"kind":"pylon","name":"Lift tower","height":13},"geometry":{"type":"Polygon","coordinates":[[[146.267308453023,-37.838928568235026],[146.26730112350282,-37.83891459379271],[146.26728342847585,-37.838908805389174],[146.26726573344888,-37.83891459379271],[146.2672584039287,-37.838928568235026],[146.26726573344888,-37.838942542677344],[146.26728342847585,-37.83894833108088],[146.26730112350282,-37.838942542677344],[146.267308453023,-37.838928568235026]]]}},{"type":"Feature","id":"pylon-mount-baw-baw-1","properties":{"kind":"pylon","name":"Lift tower","height":13},"geometry":{"type":"Polygon","coordinates":[[[146.2687029813266,-37.83842083647006],[146.26869565185692,-37.83840686202774],[146.26867795695173,-37.838401073624205],[146.26866026204655,-37.83840686202774],[146.26865293257686,-37.83842083647006],[146.26866026204655,-37.838434810912375],[146.26867795695173,-37.83844059931591],[146.26869565185692,-37.838434810912375],[146.2687029813266,-37.83842083647006]]]}},{"type":"Feature","id":"pylon-mount-baw-baw-2","properties":{"kind":"pylon","name":"Lift tower","height":13},"geometry":{"type":"Polygon","coordinates":[[[146.27009750963023,-37.83791310470508],[146.27009018021096,-37.83789913026276],[146.2700724854276,-37.83789334185923],[146.27005479064422,-37.83789913026276],[146.27004746122495,-37.83791310470508],[146.27005479064422,-37.8379270791474],[146.2700724854276,-37.83793286755093],[146.27009018021096,-37.8379270791474],[146.27009750963023,-37.83791310470508]]]}},{"type":"Feature","id":"pylon-mount-baw-baw-3","properties":{"kind":"pylon","name":"Lift tower","height":13},"geometry":{"type":"Polygon","coordinates":[[[146.26947468546246,-37.84091596033248],[146.2694673557448,-37.84090198589016],[146.26944966024104,-37.84089619748663],[146.26943196473727,-37.84090198589016],[146.26942463501962,-37.84091596033248],[146.26943196473727,-37.8409299347748],[146.26944966024104,-37.84093572317833],[146.2694673557448,-37.8409299347748],[146.26947468546246,-37.84091596033248]]]}},{"type":"Feature","id":"pylon-mount-baw-baw-4","properties":{"kind":"pylon","name":"Lift tower","height":13},"geometry":{"type":"Polygon","coordinates":[[[146.27070734545808,-37.84019272066496],[146.2707000158123,-37.84017874622264],[146.27068232048205,-37.84017295781911],[146.2706646251518,-37.84017874622264],[146.27065729550603,-37.84019272066496],[146.2706646251518,-37.84020669510728],[146.27068232048205,-37.84021248351081],[146.2707000158123,-37.84020669510728],[146.27070734545808,-37.84019272066496]]]}},{"type":"Feature","id":"pylon-mount-baw-baw-5","properties":{"kind":"pylon","name":"Lift tower","height":13},"geometry":{"type":"Polygon","coordinates":[[[146.27193998534477,-37.83946947824163],[146.27193265577088,-37.839455503799314],[146.27191496061414,-37.83944971539578],[146.2718972654574,-37.839455503799314],[146.2718899358835,-37.83946947824163],[146.2718972654574,-37.83948345268395],[146.27191496061414,-37.839489241087485],[146.27193265577088,-37.83948345268395],[146.27193998534477,-37.83946947824163]]]}},{"type":"Feature","id":"pylon-mount-baw-baw-6","properties":{"kind":"pylon","name":"Lift tower","height":13},"geometry":{"type":"Polygon","coordinates":[[[146.27317261104108,-37.838746233873586],[146.27316528153904,-37.83873225943127],[146.2731475865558,-37.838726471027734],[146.27312989157258,-37.83873225943127],[146.27312256207054,-37.838746233873586],[146.27312989157258,-37.838760208315904],[146.2731475865558,-37.83876599671944],[146.27316528153904,-37.838760208315904],[146.27317261104108,-37.838746233873586]]]}},{"type":"Feature","id":"pylon-mount-baw-baw-7","properties":{"kind":"pylon","name":"Lift tower","height":13},"geometry":{"type":"Polygon","coordinates":[[[146.27317650559283,-37.83975679367584],[146.27316917599038,-37.83974281923352],[146.2731514807647,-37.83973703082999],[146.27313378553904,-37.83974281923352],[146.2731264559366,-37.83975679367584],[146.27313378553904,-37.83977076811816],[146.2731514807647,-37.83977655652169],[146.27316917599038,-37.83977076811816],[146.27317650559283,-37.83975679367584]]]}},{"type":"Feature","id":"pylon-mount-baw-baw-8","properties":{"kind":"pylon","name":"Lift tower","height":13},"geometry":{"type":"Polygon","coordinates":[[[146.27432308608383,-37.83895008735167],[146.27431575656155,-37.83893611290935],[146.2742980615294,-37.83893032450582],[146.27428036649727,-37.83893611290935],[146.274273036975,-37.83895008735167],[146.27428036649727,-37.83896406179399],[146.2742980615294,-37.83896985019752],[146.27431575656155,-37.83896406179399],[146.27432308608383,-37.83895008735167]]]}},{"type":"Feature","id":"pylon-mount-baw-baw-9","properties":{"kind":"pylon","name":"Lift tower","height":13},"geometry":{"type":"Polygon","coordinates":[[[146.26606285634057,-37.8420406406339],[146.26605552651117,-37.84202666619158],[146.26603783073756,-37.842020877788045],[146.26602013496395,-37.84202666619158],[146.26601280513455,-37.8420406406339],[146.26602013496395,-37.842054615076215],[146.26603783073756,-37.84206040347975],[146.26605552651117,-37.842054615076215],[146.26606285634057,-37.8420406406339]]]}},{"type":"Feature","id":"pylon-mount-baw-baw-10","properties":{"kind":"pylon","name":"Lift tower","height":13},"geometry":{"type":"Polygon","coordinates":[[[146.26885370322515,-37.840177460929574],[146.26884637358089,-37.840163486487256],[146.2688286782543,-37.84015769808372],[146.2688109829277,-37.840163486487256],[146.26880365328344,-37.840177460929574],[146.2688109829277,-37.84019143537189],[146.2688286782543,-37.84019722377543],[146.26884637358089,-37.84019143537189],[146.26885370322515,-37.840177460929574]]]}},{"type":"Feature","id":"pylon-mount-baw-baw-11","properties":{"kind":"pylon","name":"Lift tower","height":13},"geometry":{"type":"Polygon","coordinates":[[[146.26964747174213,-37.8391393220981],[146.26964014220104,-37.83912534765578],[146.2696224471235,-37.83911955925225],[146.26960475204598,-37.83912534765578],[146.2695974225049,-37.8391393220981],[146.26960475204598,-37.83915329654042],[146.2696224471235,-37.83915908494395],[146.26964014220104,-37.83915329654042],[146.26964747174213,-37.8391393220981]]]}},{"type":"Feature","id":"marker-mount-baw-baw-summit zone \u00b7 1567 m","properties":{"kind":"marker","name":"Summit zone \u00b7 1567 m","height":26},"geometry":{"type":"Polygon","coordinates":[[[146.2687796165128,-37.8324],[146.26876441111187,-37.83236303901575],[146.26872460285549,-37.83234019587123],[146.2686753971445,-37.83234019587123],[146.26863558888812,-37.83236303901575],[146.2686203834872,-37.8324],[146.26863558888812,-37.832436960984246],[146.2686753971445,-37.83245980412877],[146.26872460285549,-37.83245980412877],[146.26876441111187,-37.832436960984246],[146.2687796165128,-37.8324]]]}},{"type":"Feature","id":"marker-mount-baw-baw-resort base \u00b7 1450 m","properties":{"kind":"marker","name":"Resort base \u00b7 1450 m","height":18},"geometry":{"type":"Polygon","coordinates":[[[146.2747796229885,-37.8384],[146.27476441635082,-37.83836303901575],[146.27472460485657,-37.83834019587123],[146.27467539514342,-37.83834019587123],[146.27463558364917,-37.83836303901575],[146.2746203770115,-37.8384],[146.27463558364917,-37.83843696098425],[146.27467539514342,-37.83845980412877],[146.27472460485657,-37.83845980412877],[146.27476441635082,-37.83843696098425],[146.2747796229885,-37.8384]]]}}]}