{"type":"FeatureCollection","features":[{"type":"Feature","id":209573930,"properties":{"kind":"run","name":"Mapped ski run","subtype":"easy","pisteType":"downhill","featured":false},"geometry":{"type":"LineString","coordinates":[[41.2912574,39.8456692],[41.2904869,39.8458945],[41.2900711,39.8459321],[41.2896859,39.8459321],[41.2893924,39.8460025],[41.2888359,39.8463499],[41.2880754,39.8466749],[41.2873225,39.8469274],[41.2868804,39.8470804]]}},{"type":"Feature","id":209573943,"properties":{"kind":"run","name":"Mapped ski run","subtype":"intermediate","pisteType":"downhill","featured":false},"geometry":{"type":"LineString","coordinates":[[41.3013706,39.832445],[41.3009037,39.8323055],[41.3003416,39.8321926],[41.299546,39.8321129],[41.2991915,39.8319934],[41.2991136,39.8317742],[41.2994249,39.8315153],[41.2999611,39.8313094],[41.3004281,39.8313028],[41.3012496,39.8315219],[41.3020538,39.8316614],[41.3027975,39.8317145],[41.3036103,39.8317942],[41.3040514,39.8319668],[41.3042589,39.8319801],[41.3041984,39.8318739],[41.3038179,39.8316016],[41.3033423,39.8314289],[41.3027975,39.8312164],[41.3024256,39.8309973],[41.3013793,39.8300809],[41.3002897,39.8289121],[41.2999006,39.8283675],[41.2995374,39.8280753],[41.2990272,39.8278761],[41.2984478,39.8275839],[41.2977473,39.8273647],[41.2966664,39.8271123],[41.2953789,39.8268064]]}},{"type":"Feature","id":209573978,"properties":{"kind":"lift","name":"Chair Lift","subtype":"chair_lift","status":"active"},"geometry":{"type":"LineString","coordinates":[[41.2914752,39.8453018],[41.2915853,39.8443904],[41.2916588,39.8436527],[41.2918546,39.8421257],[41.2920137,39.8408054],[41.2921238,39.8399409],[41.2922095,39.8392737],[41.2924115,39.8377842],[41.2925767,39.836398],[41.292595,39.8361302]]}},{"type":"Feature","id":209573980,"properties":{"kind":"lift","name":"Chair Lift","subtype":"chair_lift","status":"active"},"geometry":{"type":"LineString","coordinates":[[41.2785951,39.8464425],[41.2791332,39.8461373],[41.2798364,39.8457524],[41.2809737,39.8451233],[41.2821416,39.8445083],[41.2830222,39.8439965],[41.2839638,39.8434848],[41.2847221,39.8430623],[41.2860551,39.8423345],[41.2864036,39.8421421]]}},{"type":"Feature","id":209573981,"properties":{"kind":"lift","name":"Gondola","subtype":"gondola","status":"active"},"geometry":{"type":"LineString","coordinates":[[41.274084,39.8656216],[41.2741247,39.8652911],[41.2742816,39.8642679],[41.2744425,39.8634177],[41.2745592,39.8627661],[41.2746638,39.8620733],[41.2747201,39.8612456],[41.2748583,39.860349],[41.2749824,39.8594976],[41.275036,39.8592465],[41.2759352,39.8580186],[41.2770297,39.8564555],[41.2781465,39.8549053],[41.279604,39.8528316],[41.2810349,39.8508037],[41.2817956,39.8497315],[41.2830099,39.8480199],[41.283921,39.8467242],[41.2848077,39.8454754],[41.2856576,39.8442548],[41.2860629,39.8438553],[41.2866344,39.8432552],[41.2879491,39.8419333],[41.2890374,39.8408621],[41.2900586,39.8398645],[41.2905237,39.8393675],[41.2922954,39.8376784],[41.2929407,39.8370486],[41.293673,39.8363405],[41.2939476,39.8360568]]}},{"type":"Feature","id":209573983,"properties":{"kind":"lift","name":"Chair Lift","subtype":"chair_lift","status":"active"},"geometry":{"type":"LineString","coordinates":[[41.2749752,39.8587082],[41.2753298,39.8582204],[41.2755805,39.8578167],[41.2764244,39.8565494],[41.2771581,39.8554932],[41.2780937,39.8540944],[41.2786257,39.8532964],[41.2794756,39.8520383],[41.2802705,39.8508413],[41.2808942,39.849954],[41.2813651,39.8492217],[41.2823129,39.847818],[41.2826431,39.8472781]]}},{"type":"Feature","id":209573992,"properties":{"kind":"lift","name":"Chair Lift","subtype":"chair_lift","status":"active"},"geometry":{"type":"LineString","coordinates":[[41.2836962,39.848389],[41.2841754,39.8476699],[41.2854241,39.8457956],[41.2862733,39.8445211],[41.2866057,39.8440222],[41.2870701,39.8433252]]}},{"type":"Feature","id":240354801,"properties":{"kind":"lift","name":"Chair Lift","subtype":"chair_lift","status":"active"},"geometry":{"type":"LineString","coordinates":[[41.2757213,39.8677937],[41.2763787,39.8674937],[41.2770912,39.8671687],[41.2781322,39.8666937],[41.2791635,39.8662231],[41.2798321,39.865918],[41.280446,39.8656379],[41.2807638,39.8654929],[41.2811211,39.8653299],[41.2820748,39.8648947],[41.2832218,39.8643714],[41.2840137,39.86401],[41.2843304,39.8638655]]}},{"type":"Feature","id":294053411,"properties":{"kind":"run","name":"Mapped ski run","subtype":"easy","pisteType":"downhill","featured":false},"geometry":{"type":"LineString","coordinates":[[41.2879283,39.827654],[41.2870614,39.8275714],[41.2853402,39.8274062],[41.2831191,39.8272264],[41.2826002,39.8272555],[41.281594,39.8274451],[41.2811764,39.8275957],[41.2798982,39.8283781],[41.2796387,39.8285142],[41.2794552,39.8287086],[41.2792907,39.8292286],[41.2789553,39.8302345],[41.2788287,39.8305406],[41.2780061,39.8317506],[41.2773164,39.8331793],[41.2772467,39.8333397],[41.2772214,39.8336604],[41.2772942,39.8339013],[41.2774239,39.8342872],[41.2774619,39.8344621],[41.2774303,39.8346808],[41.2772467,39.8350744],[41.2772278,39.8353417],[41.277348,39.8360851],[41.2774682,39.8366731],[41.277772,39.8378344],[41.2778163,39.8380773],[41.277772,39.8394815],[41.2778006,39.839676],[41.2778099,39.8397391],[41.2780061,39.8406234],[41.2780631,39.8411287],[41.2781263,39.8416777],[41.2779745,39.8425183],[41.2778795,39.8431887],[41.277734,39.8435046],[41.2777024,39.8438301],[41.277734,39.8446998],[41.2777593,39.8449184],[41.2780124,39.8456714],[41.2781896,39.8460601],[41.2783805,39.8468717],[41.2784364,39.8471095],[41.2784301,39.8473184],[41.2783352,39.8475856],[41.2783225,39.847746],[41.2783541,39.8483775],[41.2783288,39.8486399],[41.2780631,39.8496115],[41.2780251,39.849835],[41.2779998,39.8506026],[41.2779555,39.8509766],[41.2779555,39.8512876],[41.2779492,39.8514382],[41.2778542,39.8516519],[41.2774682,39.8530219],[41.277348,39.8535319],[41.2770632,39.8550719],[41.276943,39.855407],[41.2765633,39.8561114],[41.2763355,39.8563737],[41.2761647,39.8566555],[41.2760723,39.8569906],[41.2759937,39.8572931],[41.2758989,39.8577284],[41.2756128,39.8582913],[41.2752305,39.8588338],[41.2749211,39.8592799]]}},{"type":"Feature","id":294053413,"properties":{"kind":"run","name":"Vadi","subtype":"intermediate","pisteType":"downhill","featured":false},"geometry":{"type":"LineString","coordinates":[[41.2865512,39.8420507],[41.2853286,39.8417967],[41.2842499,39.8419219],[41.2834558,39.8419071],[41.2822264,39.8427749],[41.2812975,39.8433892],[41.280511,39.843863],[41.2800716,39.8443093],[41.2790641,39.8450544],[41.2785618,39.8458374],[41.2783949,39.8461882],[41.2784118,39.846425]]}},{"type":"Feature","id":294053414,"properties":{"kind":"run","name":"Kapı kaya","subtype":"advanced","pisteType":"downhill","featured":false},"geometry":{"type":"LineString","coordinates":[[41.3004805,39.832301],[41.2996211,39.8321984],[41.298314,39.832111],[41.2973167,39.8327037],[41.2959983,39.8338635],[41.2951593,39.8344636],[41.2949156,39.8347036],[41.2946663,39.8347699],[41.2944673,39.8347294],[41.2943693,39.834621],[41.2937221,39.8341756],[41.2929259,39.8337879],[41.2919958,39.833598],[41.291052,39.8335684],[41.2895292,39.8336903],[41.2890776,39.8337265],[41.2880093,39.8336646],[41.2864289,39.8333945],[41.2847303,39.8330706],[41.2838203,39.8329193],[41.282023,39.8331766],[41.2801797,39.8333189],[41.2772942,39.8339013],[41.2767381,39.834008]]}},{"type":"Feature","id":294053415,"properties":{"kind":"run","name":"Mapped ski run","subtype":"easy","pisteType":"downhill","featured":false},"geometry":{"type":"LineString","coordinates":[[41.2852651,39.8591566],[41.2858405,39.8592045],[41.2862576,39.8594768],[41.2863726,39.8604189],[41.2861857,39.8611844],[41.285759,39.8616371],[41.285361,39.8621376],[41.2853696,39.8623587],[41.2852203,39.8625518],[41.2836068,39.8630197],[41.2824948,39.8634621],[41.281961,39.8637088],[41.2813857,39.8640106],[41.280606,39.86419],[41.2797766,39.8642084],[41.2790814,39.8640171],[41.2787639,39.8639571],[41.2783266,39.8641288]]}},{"type":"Feature","id":294053416,"properties":{"kind":"lift","name":"Chair Lift","subtype":"chair_lift","status":"active"},"geometry":{"type":"LineString","coordinates":[[41.2758285,39.8662347],[41.2762328,39.8658568],[41.2770211,39.8651163],[41.2777762,39.864464],[41.2781338,39.8641048]]}},{"type":"Feature","id":294053417,"properties":{"kind":"lift","name":"T-Bar","subtype":"t-bar","status":"active"},"geometry":{"type":"LineString","coordinates":[[41.288917,39.8281366],[41.2902091,39.8280685],[41.2912495,39.8279599],[41.292268,39.8278311],[41.2936613,39.8276384],[41.2953937,39.8274302],[41.2960581,39.8273625]]}},{"type":"Feature","id":294053418,"properties":{"kind":"lift","name":"Chair Lift","subtype":"chair_lift","status":"active"},"geometry":{"type":"LineString","coordinates":[[41.2783523,39.8643224],[41.2789005,39.8639153],[41.2800496,39.8630942],[41.2806762,39.8625964],[41.2817929,39.8617749],[41.2828427,39.860987],[41.2841717,39.8599916],[41.2849983,39.8593848],[41.2851722,39.8592572]]}},{"type":"Feature","id":294088766,"properties":{"kind":"run","name":"Mapped ski run","subtype":"easy","pisteType":"downhill","featured":false},"geometry":{"type":"LineString","coordinates":[[41.2946663,39.8347699],[41.2945763,39.834729],[41.2945045,39.8345832],[41.2944613,39.834032],[41.2942364,39.8335008],[41.2939424,39.8331223],[41.2932074,39.8325446],[41.2924118,39.8321328],[41.2922648,39.8319071],[41.2922129,39.8316215],[41.2925415,39.8311434],[41.2930258,39.8306785],[41.29383,39.8301008],[41.294565,39.8295961],[41.2950925,39.8290914],[41.2956806,39.8284738],[41.2962686,39.8280952],[41.296407,39.8278561],[41.2963724,39.8275506],[41.2959573,39.8271721],[41.2953789,39.8268064]]}},{"type":"Feature","id":294088768,"properties":{"kind":"run","name":"Mapped ski run","subtype":"easy","pisteType":"downhill","featured":false},"geometry":{"type":"LineString","coordinates":[[41.2868804,39.8470804],[41.2855657,39.8481898],[41.2848648,39.8487146],[41.2845532,39.8488874],[41.2843023,39.8489339],[41.2840946,39.8489339],[41.2839474,39.8488342],[41.2836748,39.8485096]]}},{"type":"Feature","id":294088769,"properties":{"kind":"run","name":"Gelincik","subtype":"easy","pisteType":"downhill","featured":false},"geometry":{"type":"LineString","coordinates":[[41.2826431,39.8472781],[41.2823146,39.8468613],[41.2820187,39.8468107],[41.2817449,39.8468448],[41.2816726,39.8471317],[41.2818792,39.8472044],[41.2819394,39.8474811],[41.2817781,39.8476767],[41.2814891,39.8478075],[41.2807465,39.8479454]]}},{"type":"Feature","id":294088770,"properties":{"kind":"run","name":"Boran","subtype":"intermediate","pisteType":"downhill","featured":false},"geometry":{"type":"LineString","coordinates":[[41.2865512,39.8420507],[41.2858823,39.8427223],[41.2848312,39.8427533],[41.2838672,39.8429649],[41.2826524,39.8432721],[41.2816715,39.8437137],[41.2812251,39.8441917],[41.2809156,39.8446326],[41.2808681,39.8449762],[41.28078,39.8454369],[41.2799193,39.8461357],[41.2788022,39.8468027],[41.2783805,39.8468717]]}},{"type":"Feature","id":294088771,"properties":{"kind":"run","name":"Kuzey","subtype":"advanced","pisteType":"downhill","featured":false},"geometry":{"type":"LineString","coordinates":[[41.2996211,39.8321984],[41.2973691,39.835288],[41.2967735,39.8365463],[41.2967352,39.8374078],[41.2971091,39.8385416],[41.2963996,39.8398301],[41.2950013,39.840961],[41.2941856,39.8418337],[41.2937605,39.8422885],[41.2929321,39.8434322],[41.2924958,39.8445586],[41.2922082,39.8450997],[41.2916377,39.8455782],[41.2912574,39.8456692]]}},{"type":"Feature","id":294088772,"properties":{"kind":"lift","name":"Drag Lift","subtype":"drag_lift","status":"active"},"geometry":{"type":"LineString","coordinates":[[41.2758152,39.8641432],[41.2779103,39.8639482]]}},{"type":"Feature","id":294088774,"properties":{"kind":"run","name":"Mapped ski run","subtype":"easy","pisteType":"downhill","featured":false},"geometry":{"type":"LineString","coordinates":[[41.2850875,39.8591358],[41.2847334,39.8590517],[41.2839096,39.8587186],[41.2833807,39.8586821],[41.2824358,39.8588291],[41.2817504,39.85915],[41.28106,39.8594742],[41.2807958,39.859635],[41.2806568,39.8599234],[41.2807517,39.8602818],[41.2809686,39.860605],[41.2811364,39.8608957],[41.2811351,39.8611663],[41.2811132,39.8615415],[41.2810665,39.8617881],[41.2809502,39.8620338],[41.2807849,39.8622198],[41.2806651,39.8623544],[41.2796074,39.8630258],[41.2790814,39.8640171],[41.2792686,39.864275],[41.2789847,39.8649654],[41.2779923,39.8655947],[41.277206,39.8661909],[41.2762663,39.8669526],[41.275476,39.8676559]]}},{"type":"Feature","id":294088775,"properties":{"kind":"run","name":"Mapped ski run","subtype":"novice","pisteType":"downhill","featured":false},"geometry":{"type":"LineString","coordinates":[[41.2782623,39.8640544],[41.2778673,39.864236],[41.2770739,39.8647304],[41.2753977,39.8657848]]}},{"type":"Feature","id":294088776,"properties":{"kind":"run","name":"Mapped ski run","subtype":"novice","pisteType":"downhill","featured":false},"geometry":{"type":"LineString","coordinates":[[41.2782185,39.8640061],[41.2778948,39.8639196],[41.2771829,39.8638773],[41.276085,39.8640061],[41.2757637,39.8640963]]}},{"type":"Feature","id":294088777,"properties":{"kind":"run","name":"Mapped ski run","subtype":"advanced","pisteType":"downhill","featured":false},"geometry":{"type":"LineString","coordinates":[[41.2847334,39.8590517],[41.2841376,39.8598945],[41.2829816,39.8607246],[41.2818866,39.8614012],[41.2807849,39.8622198]]}},{"type":"Feature","id":294088778,"properties":{"kind":"run","name":"Mapped ski run","subtype":"easy","pisteType":"downhill","featured":false},"geometry":{"type":"LineString","coordinates":[[41.2844193,39.8638136],[41.2846769,39.8634051],[41.2849244,39.8629965],[41.2852126,39.8626634],[41.2852203,39.8625518]]}},{"type":"Feature","id":294088779,"properties":{"kind":"run","name":"Fırtına","subtype":"intermediate","pisteType":"downhill","featured":false},"geometry":{"type":"LineString","coordinates":[[41.2836962,39.848389],[41.2806492,39.8486262],[41.2797593,39.8488478],[41.2789424,39.8492461],[41.2780251,39.849835]]}},{"type":"Feature","id":294088780,"properties":{"kind":"run","name":"Mapped ski run","subtype":"easy","pisteType":"downhill","featured":false},"geometry":{"type":"LineString","coordinates":[[41.2843196,39.8639753],[41.2839263,39.8643813],[41.2808569,39.8661742],[41.2795245,39.8663459],[41.2778464,39.8665177],[41.2762663,39.8669526]]}},{"type":"Feature","id":294088781,"properties":{"kind":"run","name":"Viran şehir","subtype":"intermediate","pisteType":"downhill","featured":false},"geometry":{"type":"LineString","coordinates":[[41.2922129,39.8316215],[41.2903527,39.8313319],[41.2889491,39.8312122],[41.2874643,39.8314569],[41.2850437,39.8322015],[41.2838203,39.8329193]]}},{"type":"Feature","id":294088782,"properties":{"kind":"run","name":"Dere boğazı","subtype":"easy","pisteType":"downhill","featured":false},"geometry":{"type":"LineString","coordinates":[[41.2873081,39.8430978],[41.2877852,39.843484],[41.2885332,39.844165],[41.2888784,39.8446545],[41.2889503,39.8450116],[41.2880346,39.8460975],[41.2868804,39.8470804]]}},{"type":"Feature","id":294088783,"properties":{"kind":"run","name":"Mapped ski run","subtype":"intermediate","pisteType":"downhill","featured":false},"geometry":{"type":"LineString","coordinates":[[41.285361,39.8621376],[41.2849134,39.8623052],[41.2835997,39.8625812],[41.2831442,39.8625665],[41.2817011,39.862261],[41.2814224,39.8621948],[41.2809308,39.8621766],[41.2807849,39.8622198]]}},{"type":"Feature","id":294088784,"properties":{"kind":"run","name":"Çarık yırtan","subtype":"intermediate","pisteType":"downhill","featured":false},"geometry":{"type":"LineString","coordinates":[[41.2836962,39.848389],[41.2824118,39.8491388],[41.2814626,39.849537],[41.2804659,39.8500888],[41.279676,39.8512287],[41.2790658,39.8521162],[41.2781945,39.8536492],[41.2770632,39.8550719]]}},{"type":"Feature","id":294088785,"properties":{"kind":"run","name":"Kardelen","subtype":"intermediate","pisteType":"downhill","featured":false},"geometry":{"type":"LineString","coordinates":[[41.2873081,39.8430978],[41.2873092,39.8435453],[41.2873024,39.8444277],[41.2863701,39.8462081],[41.2853429,39.8478166],[41.2847157,39.8484647],[41.2842275,39.8486703],[41.2836748,39.8485096]]}},{"type":"Feature","id":294088786,"properties":{"kind":"run","name":"Murat dedeman","subtype":"easy","pisteType":"downhill","featured":false},"geometry":{"type":"LineString","coordinates":[[41.2831813,39.8488061],[41.2836962,39.848389],[41.2824919,39.8481966],[41.2807465,39.8479454],[41.2803913,39.8476014],[41.2797256,39.8470748],[41.2791458,39.8469733],[41.2784364,39.8471095]]}},{"type":"Feature","id":294088787,"properties":{"kind":"run","name":"Mapped ski run","subtype":"easy","pisteType":"downhill","featured":false},"geometry":{"type":"LineString","coordinates":[[41.2953789,39.8268064],[41.2944044,39.8269415],[41.2930188,39.827144],[41.2921942,39.8273943],[41.2917004,39.8276889],[41.2902573,39.8279724],[41.2893464,39.8278804],[41.2879283,39.827654]]}},{"type":"Feature","id":294088788,"properties":{"kind":"run","name":"Yusufun dere","subtype":"intermediate","pisteType":"downhill","featured":false},"geometry":{"type":"LineString","coordinates":[[41.2946663,39.8347699],[41.2931651,39.8354644],[41.2926588,39.8359015],[41.2920671,39.836273],[41.2913911,39.8364939],[41.2909452,39.8366338],[41.2908541,39.8368546],[41.2909404,39.8372596],[41.2916739,39.8378818],[41.2930691,39.8394795],[41.2941856,39.8418337]]}},{"type":"Feature","id":1353240332,"properties":{"kind":"run","name":"5b","subtype":"advanced","pisteType":"downhill","featured":false},"geometry":{"type":"LineString","coordinates":[[41.2909452,39.8366338],[41.2904378,39.8368466],[41.2900452,39.8370113],[41.2877781,39.8413484],[41.2873081,39.8430978]]}},{"type":"Feature","id":1353240333,"properties":{"kind":"run","name":"5 a","subtype":"advanced","pisteType":"downhill","featured":false},"geometry":{"type":"LineString","coordinates":[[41.2904378,39.8368466],[41.2870105,39.8369813],[41.2778006,39.839676]]}},{"type":"Feature","id":1353240334,"properties":{"kind":"lift","name":"Chair Lift","subtype":"chair_lift","status":"active"},"geometry":{"type":"LineString","coordinates":[[41.2948955,39.8347956],[41.3010284,39.8324454]]}},{"type":"Feature","id":1353240335,"properties":{"kind":"run","name":"Speed Slope","subtype":"advanced","pisteType":"downhill","featured":false},"geometry":{"type":"LineString","coordinates":[[41.3018001,39.8330943],[41.2971091,39.8385416]]}},{"type":"Feature","id":1353240336,"properties":{"kind":"lift","name":"Drag Lift","subtype":"drag_lift","status":"active"},"geometry":{"type":"LineString","coordinates":[[41.2854027,39.8626653],[41.290938,39.8618558]]}},{"type":"Feature","id":1353240337,"properties":{"kind":"run","name":"Mapped ski run","subtype":"advanced","pisteType":"downhill","featured":false},"geometry":{"type":"LineString","coordinates":[[41.2909667,39.8621039],[41.2872743,39.8630975],[41.286001,39.8632929],[41.2844193,39.8638136]]}},{"type":"Feature","id":1353240338,"properties":{"kind":"run","name":"Mapped ski run","subtype":"intermediate","pisteType":"downhill","featured":false},"geometry":{"type":"LineString","coordinates":[[41.2908712,39.8616722],[41.2875501,39.8596034],[41.2855872,39.8589844],[41.2852651,39.8591566]]}},{"type":"Feature","id":1481618777,"properties":{"kind":"run","name":"Boz yokuş","subtype":"intermediate","pisteType":"downhill","featured":false},"geometry":{"type":"LineString","coordinates":[[41.2873081,39.8430978],[41.286982,39.8431129],[41.2858876,39.8431953],[41.2854156,39.8435413],[41.2848791,39.8441344],[41.28445,39.845024],[41.2841066,39.8456501],[41.2835273,39.8465067],[41.283141,39.8473634],[41.2837204,39.848253],[41.2836962,39.848389],[41.2836748,39.8485096]]}}]}