{"type":"FeatureCollection","features":[{"type":"Feature","id":"building-1338304867","properties":{"kind":"building","name":"Alpine building","height":7.2},"geometry":{"type":"Polygon","coordinates":[[[41.2879693,39.8489114],[41.2880954,39.8489848],[41.2880349,39.849046],[41.2879088,39.8489725],[41.2879693,39.8489114]]]}},{"type":"Feature","id":"building-1338304859","properties":{"kind":"building","name":"Alpine building","height":7.2},"geometry":{"type":"Polygon","coordinates":[[[41.2879522,39.8487957],[41.2880783,39.8488691],[41.2880178,39.8489303],[41.2878917,39.8488569],[41.2879522,39.8487957]]]}},{"type":"Feature","id":"building-1338304860","properties":{"kind":"building","name":"Alpine building","height":7.2},"geometry":{"type":"Polygon","coordinates":[[[41.2880215,39.8487247],[41.2881476,39.8487982],[41.2880871,39.8488594],[41.287961,39.8487859],[41.2880215,39.8487247]]]}},{"type":"Feature","id":"building-1338304861","properties":{"kind":"building","name":"Alpine building","height":7.2},"geometry":{"type":"Polygon","coordinates":[[[41.2880908,39.8486549],[41.2882169,39.8487284],[41.2881565,39.8487896],[41.2880304,39.8487161],[41.2880908,39.8486549]]]}},{"type":"Feature","id":"building-1338304862","properties":{"kind":"building","name":"Alpine building","height":7.2},"geometry":{"type":"Polygon","coordinates":[[[41.2881602,39.8485852],[41.2882863,39.8486586],[41.2882258,39.8487198],[41.2880997,39.8486463],[41.2881602,39.8485852]]]}},{"type":"Feature","id":"building-1338304863","properties":{"kind":"building","name":"Alpine building","height":7.2},"geometry":{"type":"Polygon","coordinates":[[[41.2882249,39.8485177],[41.288351,39.8485912],[41.2882905,39.8486524],[41.2881644,39.8485789],[41.2882249,39.8485177]]]}},{"type":"Feature","id":"building-1338304864","properties":{"kind":"building","name":"Alpine building","height":7.2},"geometry":{"type":"Polygon","coordinates":[[[41.2882926,39.8484527],[41.2884187,39.8485261],[41.2883583,39.8485873],[41.2882322,39.8485139],[41.2882926,39.8484527]]]}},{"type":"Feature","id":"building-1338304865","properties":{"kind":"building","name":"Alpine building","height":7.2},"geometry":{"type":"Polygon","coordinates":[[[41.2883585,39.8483878],[41.2884846,39.8484613],[41.2884241,39.8485225],[41.288298,39.848449],[41.2883585,39.8483878]]]}},{"type":"Feature","id":"building-1338304868","properties":{"kind":"building","name":"Alpine building","height":7.2},"geometry":{"type":"Polygon","coordinates":[[[41.2885468,39.8486801],[41.2886944,39.8486719],[41.2887212,39.8485504],[41.2885468,39.8486801]]]}},{"type":"Feature","id":"building-1338304866","properties":{"kind":"building","name":"Alpine building","height":7.2},"geometry":{"type":"Polygon","coordinates":[[[41.2884256,39.8483219],[41.2885517,39.8483954],[41.2884912,39.8484566],[41.2883651,39.8483831],[41.2884256,39.8483219]]]}},{"type":"Feature","id":"building-1338304858","properties":{"kind":"building","name":"Vilayetler Evi","height":7.2},"geometry":{"type":"Polygon","coordinates":[[[41.2886714,39.8483771],[41.2886766,39.848199],[41.2889897,39.8482044],[41.2889845,39.8483826],[41.2886714,39.8483771]]]}},{"type":"Feature","id":"building-1338304869","properties":{"kind":"building","name":"Alpine building","height":7.2},"geometry":{"type":"Polygon","coordinates":[[[41.2887682,39.8481594],[41.289052,39.8481658],[41.288977,39.8480126],[41.2887682,39.8481594]]]}},{"type":"Feature","id":"building-1416731027","properties":{"kind":"building","name":"Alpine building","height":7.2},"geometry":{"type":"Polygon","coordinates":[[[41.2761069,39.8593863],[41.2760885,39.8593153],[41.2762077,39.8592972],[41.276226,39.8593682],[41.2761069,39.8593863]]]}},{"type":"Feature","id":"building-756501256","properties":{"kind":"building","name":"Alpine building","height":7.2},"geometry":{"type":"Polygon","coordinates":[[[41.2861825,39.84409],[41.2864707,39.8438108],[41.2861395,39.8436358],[41.2858196,39.8439818],[41.2859153,39.8440356],[41.2859831,39.8439764],[41.2861825,39.84409]]]}},{"type":"Feature","id":"building-1416731026","properties":{"kind":"building","name":"Alpine building","height":7.2},"geometry":{"type":"Polygon","coordinates":[[[41.2761187,39.8595077],[41.2761003,39.8594366],[41.2762195,39.8594185],[41.2762378,39.8594896],[41.2761187,39.8595077]]]}},{"type":"Feature","id":"building-756501257","properties":{"kind":"building","name":"Küre Kafe","height":7.2},"geometry":{"type":"Polygon","coordinates":[[[41.2878485,39.8443638],[41.2878237,39.8443857],[41.2877912,39.8444005],[41.2877543,39.8444068],[41.2877167,39.8444038],[41.2876822,39.844392],[41.2876523,39.8443707],[41.2876336,39.8443428],[41.2876283,39.8443117],[41.2876369,39.8442811],[41.2876585,39.8442545],[41.2876904,39.8442351],[41.2877291,39.844225],[41.2877699,39.8442256],[41.2878081,39.8442368],[41.2878371,39.8442553],[41.2878571,39.8442799],[41.2878661,39.8443081],[41.2878631,39.844337],[41.2878485,39.8443638]]]}},{"type":"Feature","id":"building-1416731025","properties":{"kind":"building","name":"Alpine building","height":7.2},"geometry":{"type":"Polygon","coordinates":[[[41.2760739,39.8596797],[41.2760555,39.8596087],[41.2761747,39.8595906],[41.276193,39.8596616],[41.2760739,39.8596797]]]}},{"type":"Feature","id":"building-1416731024","properties":{"kind":"building","name":"Alpine building","height":7.2},"geometry":{"type":"Polygon","coordinates":[[[41.2760172,39.8598101],[41.2759989,39.8597391],[41.276118,39.859721],[41.2761364,39.859792],[41.2760172,39.8598101]]]}},{"type":"Feature","id":"building-1416731022","properties":{"kind":"building","name":"Alpine building","height":7.2},"geometry":{"type":"Polygon","coordinates":[[[41.275931,39.8599211],[41.2759305,39.8598487],[41.276052,39.8598482],[41.2760525,39.8599206],[41.275931,39.8599211]]]}},{"type":"Feature","id":"building-1416731023","properties":{"kind":"building","name":"Alpine building","height":7.2},"geometry":{"type":"Polygon","coordinates":[[[41.2759158,39.8600637],[41.2758974,39.8599926],[41.2760166,39.8599745],[41.2760349,39.8600456],[41.2759158,39.8600637]]]}},{"type":"Feature","id":"building-1416731028","properties":{"kind":"building","name":"Alpine building","height":7.2},"geometry":{"type":"Polygon","coordinates":[[[41.2757152,39.8601144],[41.2756969,39.8600434],[41.275816,39.8600253],[41.2758344,39.8600963],[41.2757152,39.8601144]]]}},{"type":"Feature","id":"building-1416731029","properties":{"kind":"building","name":"Alpine building","height":7.2},"geometry":{"type":"Polygon","coordinates":[[[41.2757884,39.8602032],[41.27577,39.8601321],[41.2758892,39.860114],[41.2759075,39.860185],[41.2757884,39.8602032]]]}},{"type":"Feature","id":"building-102591921","properties":{"kind":"building","name":"Pollat Renaissance Erzurum","height":7.2},"geometry":{"type":"Polygon","coordinates":[[[41.2741345,39.8660405],[41.2748931,39.8660352],[41.2754991,39.8664252],[41.2753828,39.8665191],[41.275487,39.8666098],[41.27529,39.8668159],[41.274685,39.8664111],[41.2741223,39.8663516],[41.2741345,39.8660405]]]}},{"type":"Feature","id":"building-240355262","properties":{"kind":"building","name":"Sway Hotel","height":7.2},"geometry":{"type":"Polygon","coordinates":[[[41.2738218,39.867596],[41.2738325,39.8672337],[41.2744009,39.8672625],[41.2744116,39.8671925],[41.2745565,39.8671925],[41.2745565,39.8672708],[41.2750875,39.8672913],[41.2750661,39.8675219],[41.2748845,39.8675199],[41.2748684,39.8675569],[41.2751412,39.8676001],[41.2751841,39.8677607],[41.2751313,39.8677628],[41.2750983,39.8678513],[41.2748191,39.8677508],[41.274473,39.8676325],[41.2738218,39.867596]]]}},{"type":"Feature","id":"building-1416731007","properties":{"kind":"building","name":"Alpine building","height":7.2},"geometry":{"type":"Polygon","coordinates":[[[41.2737141,39.8682841],[41.2737358,39.8679979],[41.2739213,39.8680062],[41.2738995,39.8682924],[41.2737141,39.8682841]]]}},{"type":"Feature","id":"building-1416731005","properties":{"kind":"building","name":"Alpine building","height":7.2},"geometry":{"type":"Polygon","coordinates":[[[41.2740066,39.8691185],[41.2740523,39.8689194],[41.2743437,39.8689588],[41.2743522,39.8689221],[41.2744274,39.8689322],[41.2744171,39.868977],[41.274588,39.8690001],[41.2745442,39.8691911],[41.2740066,39.8691185]]]}},{"type":"Feature","id":"pylon-palandoken-erzurum-0","properties":{"kind":"pylon","name":"Lift tower","height":13},"geometry":{"type":"Polygon","coordinates":[[[41.30078533555289,39.8325274],[41.300777797783965,39.832541374442314],[41.3007596,39.83254716284585],[41.30074140221603,39.832541374442314],[41.30073386444711,39.8325274],[41.30074140221603,39.83251342555768],[41.3007596,39.832507637154144],[41.300777797783965,39.83251342555768],[41.30078533555289,39.8325274]]]}},{"type":"Feature","id":"pylon-palandoken-erzurum-1","properties":{"kind":"pylon","name":"Lift tower","height":13},"geometry":{"type":"Polygon","coordinates":[[[41.300693635605676,39.8326683],[41.30068609782129,39.83268227444232],[41.3006679,39.832688062845854],[41.30064970217871,39.83268227444232],[41.300642164394326,39.8326683],[41.30064970217871,39.832654325557684],[41.3006679,39.83264853715415],[41.30068609782129,39.832654325557684],[41.300693635605676,39.8326683]]]}},{"type":"Feature","id":"pylon-palandoken-erzurum-2","properties":{"kind":"pylon","name":"Lift tower","height":13},"geometry":{"type":"Polygon","coordinates":[[[41.30033283579567,39.8331754],[41.30032529795564,39.83318937444232],[41.3003071,39.833195162845854],[41.30028890204436,39.83318937444232],[41.300281364204324,39.8331754],[41.30028890204436,39.833161425557684],[41.3003071,39.83315563715415],[41.30032529795564,39.833161425557684],[41.30033283579567,39.8331754]]]}},{"type":"Feature","id":"pylon-palandoken-erzurum-3","properties":{"kind":"pylon","name":"Lift tower","height":13},"geometry":{"type":"Polygon","coordinates":[[[41.299770336094745,39.8339736],[41.299762798167116,39.83398757444232],[41.2997446,39.83399336284585],[41.29972640183288,39.83398757444232],[41.29971886390525,39.8339736],[41.29972640183288,39.83395962555768],[41.2997446,39.83395383715415],[41.299762798167116,39.83395962555768],[41.299770336094745,39.8339736]]]}},{"type":"Feature","id":"pylon-palandoken-erzurum-4","properties":{"kind":"pylon","name":"Lift tower","height":13},"geometry":{"type":"Polygon","coordinates":[[[41.277164536168904,39.8341715],[41.27715699821955,39.834185474442315],[41.2771388,39.83419126284585],[41.27712060178045,39.834185474442315],[41.2771130638311,39.8341715],[41.27712060178045,39.83415752555768],[41.2771388,39.834151737154144],[41.27715699821955,39.83415752555768],[41.277164536168904,39.8341715]]]}},{"type":"Feature","id":"pylon-palandoken-erzurum-5","properties":{"kind":"pylon","name":"Lift tower","height":13},"geometry":{"type":"Polygon","coordinates":[[[41.277519736174185,39.8341856],[41.277512198223285,39.834199574442316],[41.277494,39.83420536284585],[41.27747580177671,39.834199574442316],[41.27746826382581,39.8341856],[41.27747580177671,39.83417162555768],[41.277494,39.834165837154146],[41.277512198223285,39.83417162555768],[41.277519736174185,39.8341856]]]}},{"type":"Feature","id":"pylon-palandoken-erzurum-6","properties":{"kind":"pylon","name":"Lift tower","height":13},"geometry":{"type":"Polygon","coordinates":[[[41.27892143619509,39.8342414],[41.27891389823807,39.83425537444232],[41.2788957,39.834261162845856],[41.278877501761926,39.83425537444232],[41.27886996380491,39.8342414],[41.278877501761926,39.834227425557685],[41.2788957,39.83422163715415],[41.27891389823807,39.834227425557685],[41.27892143619509,39.8342414]]]}},{"type":"Feature","id":"pylon-palandoken-erzurum-7","properties":{"kind":"pylon","name":"Lift tower","height":13},"geometry":{"type":"Polygon","coordinates":[[[41.27931303620094,39.834257],[41.27930549824221,39.83427097444232],[41.2792873,39.83427676284585],[41.27926910175779,39.83427097444232],[41.27926156379906,39.834257],[41.27926910175779,39.83424302555768],[41.2792873,39.83423723715415],[41.27930549824221,39.83424302555768],[41.27931303620094,39.834257]]]}},{"type":"Feature","id":"pylon-palandoken-erzurum-8","properties":{"kind":"pylon","name":"Lift tower","height":13},"geometry":{"type":"Polygon","coordinates":[[[41.2811477362283,39.83433],[41.281140198261554,39.83434397444232],[41.281122,39.834349762845854],[41.28110380173845,39.83434397444232],[41.28109626377171,39.83433],[41.28110380173845,39.83431602555768],[41.281122,39.83431023715415],[41.281140198261554,39.83431602555768],[41.2811477362283,39.83433]]]}},{"type":"Feature","id":"pylon-palandoken-erzurum-9","properties":{"kind":"pylon","name":"Lift tower","height":13},"geometry":{"type":"Polygon","coordinates":[[[41.28309903625737,39.8344076],[41.283091498282104,39.83442157444232],[41.2830733,39.83442736284585],[41.28305510171789,39.83442157444232],[41.28304756374263,39.8344076],[41.28305510171789,39.83439362555768],[41.2830733,39.834387837154146],[41.283091498282104,39.83439362555768],[41.28309903625737,39.8344076]]]}},{"type":"Feature","id":"pylon-palandoken-erzurum-10","properties":{"kind":"pylon","name":"Lift tower","height":13},"geometry":{"type":"Polygon","coordinates":[[[41.28513113628768,39.8344885],[41.28512359830354,39.83450247444232],[41.2851054,39.83450826284585],[41.285087201696456,39.83450247444232],[41.28507966371232,39.8344885],[41.285087201696456,39.83447452555768],[41.2851054,39.83446873715415],[41.28512359830354,39.83447452555768],[41.28513113628768,39.8344885]]]}},{"type":"Feature","id":"pylon-palandoken-erzurum-11","properties":{"kind":"pylon","name":"Lift tower","height":13},"geometry":{"type":"Polygon","coordinates":[[[41.28675093631181,39.8345529],[41.2867433983206,39.83456687444232],[41.2867252,39.83457266284585],[41.286707001679396,39.83456687444232],[41.28669946368819,39.8345529],[41.286707001679396,39.83453892555768],[41.2867252,39.834533137154146],[41.2867433983206,39.83453892555768],[41.28675093631181,39.8345529]]]}},{"type":"Feature","id":"pylon-palandoken-erzurum-12","properties":{"kind":"pylon","name":"Lift tower","height":13},"geometry":{"type":"Polygon","coordinates":[[[41.28808513633171,39.834606],[41.288077598334674,39.83461997444232],[41.2880594,39.83462576284585],[41.28804120166533,39.83461997444232],[41.288033663668294,39.834606],[41.28804120166533,39.83459202555768],[41.2880594,39.83458623715415],[41.288077598334674,39.83459202555768],[41.28808513633171,39.834606]]]}},{"type":"Feature","id":"pylon-palandoken-erzurum-13","properties":{"kind":"pylon","name":"Lift tower","height":13},"geometry":{"type":"Polygon","coordinates":[[[41.28900473634542,39.8346426],[41.28899719834437,39.83465657444232],[41.288979,39.834662362845854],[41.28896080165563,39.83465657444232],[41.28895326365458,39.8346426],[41.28896080165563,39.834628625557684],[41.288979,39.83462283715415],[41.28899719834437,39.834628625557684],[41.28900473634542,39.8346426]]]}},{"type":"Feature","id":"pylon-palandoken-erzurum-14","properties":{"kind":"pylon","name":"Lift tower","height":13},"geometry":{"type":"Polygon","coordinates":[[[41.29034413636539,39.8346959],[41.29033659835849,39.83470987444232],[41.2903184,39.83471566284585],[41.2903002016415,39.83470987444232],[41.2902926636346,39.8346959],[41.2903002016415,39.83468192555768],[41.2903184,39.83467613715415],[41.29033659835849,39.83468192555768],[41.29034413636539,39.8346959]]]}},{"type":"Feature","id":"pylon-palandoken-erzurum-15","properties":{"kind":"pylon","name":"Lift tower","height":13},"geometry":{"type":"Polygon","coordinates":[[[41.291861136387986,39.8347562],[41.291853598374466,39.83477017444232],[41.2918354,39.83477596284585],[41.29181720162553,39.83477017444232],[41.29180966361201,39.8347562],[41.29181720162553,39.83474222555768],[41.2918354,39.83473643715415],[41.291853598374466,39.83474222555768],[41.291861136387986,39.8347562]]]}},{"type":"Feature","id":"pylon-palandoken-erzurum-16","properties":{"kind":"pylon","name":"Lift tower","height":13},"geometry":{"type":"Polygon","coordinates":[[[41.29301773640526,39.8348023],[41.29301019838668,39.83481627444232],[41.292992,39.83482206284585],[41.292973801613314,39.83481627444232],[41.292966263594735,39.8348023],[41.292973801613314,39.83478832555768],[41.292992,39.83478253715415],[41.29301019838668,39.83478832555768],[41.29301773640526,39.8348023]]]}},{"type":"Feature","id":"pylon-palandoken-erzurum-17","properties":{"kind":"pylon","name":"Lift tower","height":13},"geometry":{"type":"Polygon","coordinates":[[[41.29362993641437,39.8348266],[41.29362239839312,39.83484057444232],[41.2936042,39.83484636284585],[41.293586001606876,39.83484057444232],[41.293578463585625,39.8348266],[41.293586001606876,39.83481262555768],[41.2936042,39.83480683715415],[41.29362239839312,39.83481262555768],[41.29362993641437,39.8348266]]]}},{"type":"Feature","id":"pylon-palandoken-erzurum-18","properties":{"kind":"pylon","name":"Lift tower","height":13},"geometry":{"type":"Polygon","coordinates":[[[41.299006036490624,39.8350301],[41.29899849844704,39.835044074442315],[41.2989803,39.83504986284585],[41.29896210155295,39.835044074442315],[41.29895456350937,39.8350301],[41.29896210155295,39.83501612555768],[41.2989803,39.835010337154145],[41.29899849844704,39.83501612555768],[41.299006036490624,39.8350301]]]}},{"type":"Feature","id":"pylon-palandoken-erzurum-19","properties":{"kind":"pylon","name":"Lift tower","height":13},"geometry":{"type":"Polygon","coordinates":[[[41.29830893686362,39.8360255],[41.2983013987108,39.836039474442316],[41.2982832,39.83604526284585],[41.2982650012892,39.836039474442316],[41.29825746313638,39.8360255],[41.2982650012892,39.83601152555768],[41.2982832,39.836005737154146],[41.2983013987108,39.83601152555768],[41.29830893686362,39.8360255]]]}},{"type":"Feature","id":"pylon-palandoken-erzurum-20","properties":{"kind":"pylon","name":"Lift tower","height":13},"geometry":{"type":"Polygon","coordinates":[[[41.29260243700321,39.836398],[41.2925948988095,39.83641197444232],[41.2925767,39.836417762845855],[41.2925585011905,39.83641197444232],[41.292550962996785,39.836398],[41.2925585011905,39.836384025557685],[41.2925767,39.83637823715415],[41.2925948988095,39.836384025557685],[41.29260243700321,39.836398]]]}},{"type":"Feature","id":"pylon-palandoken-erzurum-21","properties":{"kind":"pylon","name":"Lift tower","height":13},"geometry":{"type":"Polygon","coordinates":[[[41.297935937076545,39.8365937],[41.29792839886135,39.83660767444232],[41.2979102,39.836613462845854],[41.29789200113864,39.83660767444232],[41.29788446292345,39.8365937],[41.29789200113864,39.836579725557684],[41.2979102,39.83657393715415],[41.29792839886135,39.836579725557684],[41.297935937076545,39.8365937]]]}},{"type":"Feature","id":"pylon-palandoken-erzurum-22","properties":{"kind":"pylon","name":"Lift tower","height":13},"geometry":{"type":"Polygon","coordinates":[[[41.2972266374531,39.8375985],[41.29721909912762,39.83761247444232],[41.2972009,39.83761826284585],[41.29718270087238,39.83761247444232],[41.2971751625469,39.8375985],[41.29718270087238,39.83758452555768],[41.2972009,39.837578737154146],[41.29721909912762,39.83758452555768],[41.2972266374531,39.8375985]]]}},{"type":"Feature","id":"pylon-palandoken-erzurum-23","properties":{"kind":"pylon","name":"Lift tower","height":13},"geometry":{"type":"Polygon","coordinates":[[[41.29243723752269,39.8377842],[41.29242969917683,39.83779817444232],[41.2924115,39.837803962845854],[41.29239330082317,39.83779817444232],[41.29238576247731,39.8377842],[41.29239330082317,39.83777022555768],[41.2924115,39.83776443715415],[41.29242969917683,39.83777022555768],[41.29243723752269,39.8377842]]]}},{"type":"Feature","id":"pylon-palandoken-erzurum-24","properties":{"kind":"pylon","name":"Lift tower","height":13},"geometry":{"type":"Polygon","coordinates":[[[41.29651733780854,39.8385469],[41.29650979937895,39.838560874442315],[41.2964916,39.83856666284585],[41.29647340062105,39.838560874442315],[41.29646586219147,39.8385469],[41.29647340062105,39.83853292555768],[41.2964916,39.838527137154145],[41.29650979937895,39.83853292555768],[41.29651733780854,39.8385469]]]}},{"type":"Feature","id":"pylon-palandoken-erzurum-25","properties":{"kind":"pylon","name":"Lift tower","height":13},"geometry":{"type":"Polygon","coordinates":[[[41.29223523808093,39.8392737],[41.292227699571555,39.83928767444232],[41.2922095,39.83929346284585],[41.29219130042844,39.83928767444232],[41.29218376191907,39.8392737],[41.29219130042844,39.83925972555768],[41.2922095,39.83925393715415],[41.292227699571555,39.83925972555768],[41.29223523808093,39.8392737]]]}},{"type":"Feature","id":"pylon-palandoken-erzurum-26","properties":{"kind":"pylon","name":"Lift tower","height":13},"geometry":{"type":"Polygon","coordinates":[[[41.295856938169266,39.8395094],[41.29584939963402,39.839523374442315],[41.2958312,39.83952916284585],[41.29581300036598,39.839523374442315],[41.29580546183074,39.8395094],[41.29581300036598,39.83949542555768],[41.2958312,39.839489637154145],[41.29584939963402,39.83949542555768],[41.295856938169266,39.8395094]]]}},{"type":"Feature","id":"pylon-palandoken-erzurum-27","properties":{"kind":"pylon","name":"Lift tower","height":13},"geometry":{"type":"Polygon","coordinates":[[[41.292149538330996,39.8399409],[41.29214199974838,39.83995487444232],[41.2921238,39.839960662845854],[41.29210560025162,39.83995487444232],[41.292098061669,39.8399409],[41.29210560025162,39.839926925557684],[41.2921238,39.83992113715415],[41.29214199974838,39.839926925557684],[41.292149538330996,39.8399409]]]}},{"type":"Feature","id":"pylon-palandoken-erzurum-28","properties":{"kind":"pylon","name":"Lift tower","height":13},"geometry":{"type":"Polygon","coordinates":[[[41.295190438517686,39.840439],[41.295182899880395,39.84045297444232],[41.2951647,39.840458762845856],[41.29514650011961,39.84045297444232],[41.295138961482316,39.840439],[41.29514650011961,39.840425025557686],[41.2951647,39.84041923715415],[41.295182899880395,39.840425025557686],[41.295190438517686,39.840439]]]}},{"type":"Feature","id":"pylon-palandoken-erzurum-29","properties":{"kind":"pylon","name":"Lift tower","height":13},"geometry":{"type":"Polygon","coordinates":[[[41.29203943865502,39.8408054],[41.2920318999775,39.84081937444232],[41.2920137,39.84082516284585],[41.291995500022495,39.84081937444232],[41.29198796134498,39.8408054],[41.291995500022495,39.84079142555768],[41.2920137,39.84078563715415],[41.2920318999775,39.84079142555768],[41.29203943865502,39.8408054]]]}},{"type":"Feature","id":"pylon-palandoken-erzurum-30","properties":{"kind":"pylon","name":"Lift tower","height":13},"geometry":{"type":"Polygon","coordinates":[[[41.29452393888022,39.8414062],[41.29451640013674,39.84142017444232],[41.2944982,39.841425962845854],[41.294479999863256,39.84142017444232],[41.29447246111978,39.8414062],[41.294479999863256,39.841392225557684],[41.2944982,39.84138643715415],[41.29451640013674,39.841392225557684],[41.29452393888022,39.8414062]]]}},{"type":"Feature","id":"pylon-palandoken-erzurum-31","properties":{"kind":"pylon","name":"Lift tower","height":13},"geometry":{"type":"Polygon","coordinates":[[[41.29433433898933,39.8416973],[41.294326800213895,39.84171127444232],[41.2943086,39.84171706284585],[41.29429039978611,39.84171127444232],[41.29428286101067,39.8416973],[41.29429039978611,39.84168332555768],[41.2943086,39.84167753715415],[41.294326800213895,39.84168332555768],[41.29433433898933,39.8416973]]]}},{"type":"Feature","id":"pylon-palandoken-erzurum-32","properties":{"kind":"pylon","name":"Lift tower","height":13},"geometry":{"type":"Polygon","coordinates":[[[41.29188033914991,39.8421257],[41.29187280032745,39.842139674442315],[41.2918546,39.84214546284585],[41.291836399672555,39.842139674442315],[41.29182886085009,39.8421257],[41.291836399672555,39.84211172555768],[41.2918546,39.842105937154145],[41.29187280032745,39.84211172555768],[41.29188033914991,39.8421257]]]}},{"type":"Feature","id":"pylon-palandoken-erzurum-33","properties":{"kind":"pylon","name":"Lift tower","height":13},"geometry":{"type":"Polygon","coordinates":[[[41.286080839228184,39.8423345],[41.28607330038279,39.84234847444232],[41.2860551,39.84235426284585],[41.28603689961721,39.84234847444232],[41.28602936077181,39.8423345],[41.28603689961721,39.84232052555768],[41.2860551,39.84231473715415],[41.28607330038279,39.84232052555768],[41.286080839228184,39.8423345]]]}},{"type":"Feature","id":"pylon-palandoken-erzurum-34","properties":{"kind":"pylon","name":"Lift tower","height":13},"geometry":{"type":"Polygon","coordinates":[[[41.29380843925158,39.8423969],[41.29380090039933,39.842410874442315],[41.2937827,39.84241666284585],[41.29376449960067,39.842410874442315],[41.293756960748425,39.8423969],[41.29376449960067,39.84238292555768],[41.2937827,39.842377137154145],[41.29380090039933,39.84238292555768],[41.29380843925158,39.8423969]]]}},{"type":"Feature","id":"pylon-palandoken-erzurum-35","properties":{"kind":"pylon","name":"Lift tower","height":13},"geometry":{"type":"Polygon","coordinates":[[[41.29347823942581,39.8428617],[41.29347070052253,39.84287567444232],[41.2934525,39.84288146284585],[41.29343429947747,39.84287567444232],[41.29342676057419,39.8428617],[41.29343429947747,39.84284772555768],[41.2934525,39.84284193715415],[41.29347070052253,39.84284772555768],[41.29347823942581,39.8428617]]]}},{"type":"Feature","id":"pylon-palandoken-erzurum-36","properties":{"kind":"pylon","name":"Lift tower","height":13},"geometry":{"type":"Polygon","coordinates":[[[41.28474783950101,39.8430623],[41.284740300575706,39.84307627444232],[41.2847221,39.84308206284585],[41.2847038994243,39.84307627444232],[41.284696360499,39.8430623],[41.2847038994243,39.84304832555768],[41.2847221,39.84304253715415],[41.284740300575706,39.84304832555768],[41.28474783950101,39.8430623]]]}},{"type":"Feature","id":"pylon-palandoken-erzurum-37","properties":{"kind":"pylon","name":"Lift tower","height":13},"geometry":{"type":"Polygon","coordinates":[[[41.28398953965939,39.8434848],[41.2839820006877,39.84349877444232],[41.2839638,39.84350456284585],[41.283945599312304,39.84349877444232],[41.28393806034062,39.8434848],[41.283945599312304,39.84347082555768],[41.2839638,39.84346503715415],[41.2839820006877,39.84347082555768],[41.28398953965939,39.8434848]]]}},{"type":"Feature","id":"pylon-palandoken-erzurum-38","properties":{"kind":"pylon","name":"Lift tower","height":13},"geometry":{"type":"Polygon","coordinates":[[[41.291684539722326,39.8436527],[41.2916770007322,39.84366667444232],[41.2916588,39.84367246284585],[41.2916405992678,39.84366667444232],[41.291633060277675,39.8436527],[41.2916405992678,39.84363872555768],[41.2916588,39.84363293715415],[41.2916770007322,39.84363872555768],[41.291684539722326,39.8436527]]]}},{"type":"Feature","id":"pylon-palandoken-erzurum-39","properties":{"kind":"pylon","name":"Lift tower","height":13},"geometry":{"type":"Polygon","coordinates":[[[41.28304793985121,39.8439965],[41.28304040082333,39.84401047444232],[41.2830222,39.844016262845855],[41.283003999176664,39.84401047444232],[41.28299646014879,39.8439965],[41.283003999176664,39.843982525557685],[41.2830222,39.84397673715415],[41.28304040082333,39.843982525557685],[41.28304793985121,39.8439965]]]}},{"type":"Feature","id":"pylon-palandoken-erzurum-40","properties":{"kind":"pylon","name":"Lift tower","height":13},"geometry":{"type":"Polygon","coordinates":[[[41.28663143986085,39.8440222],[41.28662390083015,39.844036174442316],[41.2866057,39.84404196284585],[41.286587499169855,39.844036174442316],[41.28657996013916,39.8440222],[41.286587499169855,39.84400822555768],[41.2866057,39.844002437154145],[41.28662390083015,39.84400822555768],[41.28663143986085,39.8440222]]]}},{"type":"Feature","id":"pylon-palandoken-erzurum-41","properties":{"kind":"pylon","name":"Lift tower","height":13},"geometry":{"type":"Polygon","coordinates":[[[41.2926161398746,39.8440589],[41.29260860083988,39.84407287444232],[41.2925904,39.84407866284585],[41.292572199160126,39.84407287444232],[41.2925646601254,39.8440589],[41.292572199160126,39.84404492555768],[41.2925904,39.84403913715415],[41.29260860083988,39.84404492555768],[41.2926161398746,39.8440589]]]}},{"type":"Feature","id":"pylon-palandoken-erzurum-42","properties":{"kind":"pylon","name":"Lift tower","height":13},"geometry":{"type":"Polygon","coordinates":[[[41.285683339948044,39.8442548],[41.28567580089181,39.84426877444232],[41.2856576,39.844274562845854],[41.28563939910819,39.84426877444232],[41.28563186005196,39.8442548],[41.28563939910819,39.844240825557684],[41.2856576,39.84423503715415],[41.28567580089181,39.844240825557684],[41.285683339948044,39.8442548]]]}},{"type":"Feature","id":"pylon-palandoken-erzurum-43","properties":{"kind":"pylon","name":"Lift tower","height":13},"geometry":{"type":"Polygon","coordinates":[[[41.29161103999888,39.8443904],[41.291603500927756,39.84440437444232],[41.2915853,39.844410162845854],[41.291567099072246,39.84440437444232],[41.291559560001126,39.8443904],[41.291567099072246,39.844376425557684],[41.2915853,39.84437063715415],[41.291603500927756,39.844376425557684],[41.29161103999888,39.8443904]]]}},{"type":"Feature","id":"pylon-palandoken-erzurum-44","properties":{"kind":"pylon","name":"Lift tower","height":13},"geometry":{"type":"Polygon","coordinates":[[[41.292328740041796,39.8445049],[41.292321200958106,39.844518874442315],[41.292303,39.84452466284585],[41.29228479904189,39.844518874442315],[41.2922772599582,39.8445049],[41.29228479904189,39.84449092555768],[41.292303,39.844485137154145],[41.292321200958106,39.84449092555768],[41.292328740041796,39.8445049]]]}},{"type":"Feature","id":"pylon-palandoken-erzurum-45","properties":{"kind":"pylon","name":"Lift tower","height":13},"geometry":{"type":"Polygon","coordinates":[[[41.28216734004308,39.8445083],[41.28215980095901,39.84452227444232],[41.2821416,39.84452806284585],[41.282123399041,39.84452227444232],[41.282115859956924,39.8445083],[41.282123399041,39.84449432555768],[41.2821416,39.84448853715415],[41.28215980095901,39.84449432555768],[41.28216734004308,39.8445083]]]}},{"type":"Feature","id":"pylon-palandoken-erzurum-46","properties":{"kind":"pylon","name":"Lift tower","height":13},"geometry":{"type":"Polygon","coordinates":[[[41.28629904004787,39.8445211],[41.2862915009624,39.84453507444232],[41.2862733,39.844540862845854],[41.2862550990376,39.84453507444232],[41.28624755995212,39.8445211],[41.2862550990376,39.84450712555768],[41.2862733,39.84450133715415],[41.2862915009624,39.84450712555768],[41.28629904004787,39.8445211]]]}},{"type":"Feature","id":"pylon-palandoken-erzurum-47","properties":{"kind":"pylon","name":"Lift tower","height":13},"geometry":{"type":"Polygon","coordinates":[[[41.28099944027363,39.8451233],[41.280991901122036,39.845137274442315],[41.2809737,39.84514306284585],[41.28095549887796,39.845137274442315],[41.28094795972636,39.8451233],[41.28095549887796,39.84510932555768],[41.2809737,39.845103537154145],[41.280991901122036,39.84510932555768],[41.28099944027363,39.8451233]]]}},{"type":"Feature","id":"pylon-palandoken-erzurum-48","properties":{"kind":"pylon","name":"Lift tower","height":13},"geometry":{"type":"Polygon","coordinates":[[[41.29175394034101,39.845303],[41.29174640116968,39.84531697444232],[41.2917282,39.84532276284585],[41.29170999883032,39.84531697444232],[41.29170245965899,39.845303],[41.29170999883032,39.84528902555768],[41.2917282,39.84528323715415],[41.29174640116968,39.84528902555768],[41.29175394034101,39.845303]]]}},{"type":"Feature","id":"pylon-palandoken-erzurum-49","properties":{"kind":"pylon","name":"Lift tower","height":13},"geometry":{"type":"Polygon","coordinates":[[[41.28483344040564,39.8454754],[41.284825901215385,39.845489374442316],[41.2848077,39.84549516284585],[41.28478949878462,39.845489374442316],[41.28478195959436,39.8454754],[41.28478949878462,39.84546142555768],[41.2848077,39.845455637154146],[41.284825901215385,39.84546142555768],[41.28483344040564,39.8454754]]]}},{"type":"Feature","id":"pylon-palandoken-erzurum-50","properties":{"kind":"pylon","name":"Lift tower","height":13},"geometry":{"type":"Polygon","coordinates":[[[41.27986214050949,39.8457524],[41.27985460128882,39.84576637444232],[41.2798364,39.845772162845854],[41.27981819871118,39.84576637444232],[41.27981065949051,39.8457524],[41.27981819871118,39.845738425557684],[41.2798364,39.84573263715415],[41.27985460128882,39.845738425557684],[41.27986214050949,39.8457524]]]}},{"type":"Feature","id":"pylon-palandoken-erzurum-51","properties":{"kind":"pylon","name":"Lift tower","height":13},"geometry":{"type":"Polygon","coordinates":[[[41.28544984052569,39.8457956],[41.285442301300264,39.84580957444232],[41.2854241,39.845815362845855],[41.285405898699736,39.84580957444232],[41.28539835947431,39.8457956],[41.285405898699736,39.845781625557684],[41.2854241,39.84577583715415],[41.285442301300264,39.845781625557684],[41.28544984052569,39.8457956]]]}},{"type":"Feature","id":"pylon-palandoken-erzurum-52","properties":{"kind":"pylon","name":"Lift tower","height":13},"geometry":{"type":"Polygon","coordinates":[[[41.279158940653794,39.8461373],[41.27915140139085,39.84615127444232],[41.2791332,39.846157062845855],[41.279114998609145,39.84615127444232],[41.2791074593462,39.8461373],[41.279114998609145,39.846123325557684],[41.2791332,39.84611753715415],[41.27915140139085,39.846123325557684],[41.279158940653794,39.8461373]]]}},{"type":"Feature","id":"pylon-palandoken-erzurum-53","properties":{"kind":"pylon","name":"Lift tower","height":13},"geometry":{"type":"Polygon","coordinates":[[[41.283946740873844,39.8467242],[41.283939201546445,39.846738174442315],[41.283921,39.84674396284585],[41.28390279845355,39.846738174442315],[41.283895259126155,39.8467242],[41.28390279845355,39.84671022555768],[41.283921,39.846704437154145],[41.283939201546445,39.84671022555768],[41.283946740873844,39.8467242]]]}},{"type":"Feature","id":"pylon-palandoken-erzurum-54","properties":{"kind":"pylon","name":"Lift tower","height":13},"geometry":{"type":"Polygon","coordinates":[[[41.28420114122843,39.8476699],[41.28419360179718,39.84768387444232],[41.2841754,39.84768966284585],[41.28415719820283,39.84768387444232],[41.284149658771575,39.8476699],[41.28415719820283,39.84765592555768],[41.2841754,39.84765013715415],[41.28419360179718,39.84765592555768],[41.28420114122843,39.8476699]]]}},{"type":"Feature","id":"pylon-palandoken-erzurum-55","properties":{"kind":"pylon","name":"Lift tower","height":13},"geometry":{"type":"Polygon","coordinates":[[[41.28233864128396,39.847818],[41.28233110183644,39.847831974442315],[41.2823129,39.84783776284585],[41.28229469816356,39.847831974442315],[41.282287158716045,39.847818],[41.28229469816356,39.84780402555768],[41.2823129,39.847798237154144],[41.28233110183644,39.84780402555768],[41.28233864128396,39.847818]]]}},{"type":"Feature","id":"pylon-palandoken-erzurum-56","properties":{"kind":"pylon","name":"Lift tower","height":13},"geometry":{"type":"Polygon","coordinates":[[[41.28303564135967,39.8480199],[41.283028101889975,39.848033874442315],[41.2830099,39.84803966284585],[41.28299169811003,39.848033874442315],[41.28298415864034,39.8480199],[41.28299169811003,39.84800592555768],[41.2830099,39.848000137154145],[41.283028101889975,39.84800592555768],[41.28303564135967,39.8480199]]]}},{"type":"Feature","id":"pylon-palandoken-erzurum-57","properties":{"kind":"pylon","name":"Lift tower","height":13},"geometry":{"type":"Polygon","coordinates":[[[41.2813908418103,39.8492217],[41.281383302208624,39.84923567444232],[41.2813651,39.84924146284585],[41.28134689779138,39.84923567444232],[41.281339358189705,39.8492217],[41.28134689779138,39.84920772555768],[41.2813651,39.84920193715415],[41.281383302208624,39.84920772555768],[41.2813908418103,39.8492217]]]}},{"type":"Feature","id":"pylon-palandoken-erzurum-58","properties":{"kind":"pylon","name":"Lift tower","height":13},"geometry":{"type":"Polygon","coordinates":[[[41.2809199420849,39.849954],[41.28091240240279,39.849967974442315],[41.2808942,39.84997376284585],[41.28087599759721,39.849967974442315],[41.2808684579151,39.849954],[41.28087599759721,39.84994002555768],[41.2808942,39.849934237154145],[41.28091240240279,39.84994002555768],[41.2809199420849,39.849954]]]}},{"type":"Feature","id":"pylon-palandoken-erzurum-59","properties":{"kind":"pylon","name":"Lift tower","height":13},"geometry":{"type":"Polygon","coordinates":[[[41.28106064240354,39.8508037],[41.28105310262811,39.85081767444232],[41.2810349,39.85082346284585],[41.281016697371896,39.85081767444232],[41.281009157596465,39.8508037],[41.281016697371896,39.85078972555768],[41.2810349,39.85078393715415],[41.28105310262811,39.85078972555768],[41.28106064240354,39.8508037]]]}},{"type":"Feature","id":"pylon-palandoken-erzurum-60","properties":{"kind":"pylon","name":"Lift tower","height":13},"geometry":{"type":"Polygon","coordinates":[[[41.28029624241764,39.8508413],[41.280288702638074,39.85085527444232],[41.2802705,39.85086106284585],[41.280252297361926,39.85085527444232],[41.28024475758236,39.8508413],[41.280252297361926,39.85082732555768],[41.2802705,39.85082153715415],[41.280288702638074,39.85082732555768],[41.28029624241764,39.8508413]]]}},{"type":"Feature","id":"pylon-palandoken-erzurum-61","properties":{"kind":"pylon","name":"Lift tower","height":13},"geometry":{"type":"Polygon","coordinates":[[[41.27950134286654,39.8520383],[41.27949380295549,39.852052274442315],[41.2794756,39.85205806284585],[41.2794573970445,39.852052274442315],[41.27944985713346,39.8520383],[41.2794573970445,39.85202432555768],[41.2794756,39.852018537154144],[41.27949380295549,39.85202432555768],[41.27950134286654,39.8520383]]]}},{"type":"Feature","id":"pylon-palandoken-erzurum-62","properties":{"kind":"pylon","name":"Lift tower","height":13},"geometry":{"type":"Polygon","coordinates":[[[41.27962974316406,39.8528316],[41.27962220316588,39.85284557444232],[41.279604,39.852851362845854],[41.27958579683412,39.85284557444232],[41.27957825683594,39.8528316],[41.27958579683412,39.852817625557684],[41.279604,39.85281183715415],[41.27962220316588,39.852817625557684],[41.27962974316406,39.8528316]]]}},{"type":"Feature","id":"pylon-palandoken-erzurum-63","properties":{"kind":"pylon","name":"Lift tower","height":13},"geometry":{"type":"Polygon","coordinates":[[[41.27865144333838,39.8532964],[41.278643903289144,39.853310374442316],[41.2786257,39.85331616284585],[41.278607496710855,39.853310374442316],[41.278599956661616,39.8532964],[41.278607496710855,39.85328242555768],[41.2786257,39.853276637154146],[41.278643903289144,39.85328242555768],[41.27865144333838,39.8532964]]]}},{"type":"Feature","id":"pylon-palandoken-erzurum-64","properties":{"kind":"pylon","name":"Lift tower","height":13},"geometry":{"type":"Polygon","coordinates":[[[41.278119443637685,39.8540944],[41.27811190350078,39.85410837444232],[41.2780937,39.85411416284585],[41.27807549649922,39.85410837444232],[41.278067956362314,39.8540944],[41.27807549649922,39.85408042555768],[41.2780937,39.85407463715415],[41.27811190350078,39.85408042555768],[41.278119443637685,39.8540944]]]}},{"type":"Feature","id":"pylon-palandoken-erzurum-65","properties":{"kind":"pylon","name":"Lift tower","height":13},"geometry":{"type":"Polygon","coordinates":[[[41.27817224394183,39.8549053],[41.278164703715845,39.85491927444232],[41.2781465,39.85492506284585],[41.27812829628415,39.85491927444232],[41.278120756058165,39.8549053],[41.27812829628415,39.85489132555768],[41.2781465,39.854885537154146],[41.278164703715845,39.85489132555768],[41.27817224394183,39.8549053]]]}},{"type":"Feature","id":"pylon-palandoken-erzurum-66","properties":{"kind":"pylon","name":"Lift tower","height":13},"geometry":{"type":"Polygon","coordinates":[[[41.27718384416235,39.8554932],[41.27717630387178,39.855507174442316],[41.2771581,39.85551296284585],[41.277139896128226,39.855507174442316],[41.27713235583765,39.8554932],[41.277139896128226,39.85547922555768],[41.2771581,39.855473437154146],[41.27717630387178,39.85547922555768],[41.27718384416235,39.8554932]]]}},{"type":"Feature","id":"pylon-palandoken-erzurum-67","properties":{"kind":"pylon","name":"Lift tower","height":13},"geometry":{"type":"Polygon","coordinates":[[[41.27705544452332,39.8564555],[41.277047904127016,39.85646947444232],[41.2770297,39.856475262845855],[41.27701149587298,39.85646947444232],[41.27700395547668,39.8564555],[41.27701149587298,39.856441525557685],[41.2770297,39.85643573715415],[41.277047904127016,39.856441525557685],[41.27705544452332,39.8564555]]]}},{"type":"Feature","id":"pylon-palandoken-erzurum-68","properties":{"kind":"pylon","name":"Lift tower","height":13},"geometry":{"type":"Polygon","coordinates":[[[41.276450144558545,39.8565494],[41.276442604151924,39.85656337444232],[41.2764244,39.85656916284585],[41.27640619584808,39.85656337444232],[41.27639865544146,39.8565494],[41.27640619584808,39.85653542555768],[41.2764244,39.856529637154146],[41.276442604151924,39.85653542555768],[41.276450144558545,39.8565494]]]}},{"type":"Feature","id":"pylon-palandoken-erzurum-69","properties":{"kind":"pylon","name":"Lift tower","height":13},"geometry":{"type":"Polygon","coordinates":[[[41.27560624503394,39.8578167],[41.27559870448808,39.85783067444232],[41.2755805,39.85783646284585],[41.27556229551191,39.85783067444232],[41.27555475496605,39.8578167],[41.27556229551191,39.85780272555768],[41.2755805,39.85779693715415],[41.27559870448808,39.85780272555768],[41.27560624503394,39.8578167]]]}},{"type":"Feature","id":"pylon-palandoken-erzurum-70","properties":{"kind":"pylon","name":"Lift tower","height":13},"geometry":{"type":"Polygon","coordinates":[[[41.27596094510968,39.8580186],[41.27595340454164,39.85803257444232],[41.2759352,39.85803836284585],[41.27591699545836,39.85803257444232],[41.27590945489032,39.8580186],[41.27591699545836,39.85800462555768],[41.2759352,39.85799883715415],[41.27595340454164,39.85800462555768],[41.27596094510968,39.8580186]]]}},{"type":"Feature","id":"pylon-palandoken-erzurum-71","properties":{"kind":"pylon","name":"Lift tower","height":13},"geometry":{"type":"Polygon","coordinates":[[[41.295419433643374,39.8274302],[41.295411896433734,39.82744417444232],[41.2953937,39.827449962845854],[41.29537550356626,39.82744417444232],[41.29536796635662,39.8274302],[41.29537550356626,39.827416225557684],[41.2953937,39.82741043715415],[41.295411896433734,39.827416225557684],[41.295419433643374,39.8274302]]]}},{"type":"Feature","id":"pylon-palandoken-erzurum-72","properties":{"kind":"pylon","name":"Lift tower","height":13},"geometry":{"type":"Polygon","coordinates":[[[41.29368703372136,39.8276384],[41.29367949648888,39.827652374442316],[41.2936613,39.82765816284585],[41.293643103511116,39.827652374442316],[41.29363556627863,39.8276384],[41.293643103511116,39.82762442555768],[41.2936613,39.827618637154146],[41.29367949648888,39.82762442555768],[41.29368703372136,39.8276384]]]}},{"type":"Feature","id":"pylon-palandoken-erzurum-73","properties":{"kind":"pylon","name":"Lift tower","height":13},"geometry":{"type":"Polygon","coordinates":[[[41.29229373379355,39.8278311],[41.29228619653992,39.827845074442315],[41.292268,39.82785086284585],[41.29224980346008,39.827845074442315],[41.29224226620645,39.8278311],[41.29224980346008,39.82781712555768],[41.292268,39.827811337154145],[41.29228619653992,39.82781712555768],[41.29229373379355,39.8278311]]]}},{"type":"Feature","id":"pylon-palandoken-erzurum-74","properties":{"kind":"pylon","name":"Lift tower","height":13},"geometry":{"type":"Polygon","coordinates":[[[41.291275233841795,39.8279599],[41.29126769657404,39.82797387444232],[41.2912495,39.827979662845856],[41.29123130342596,39.82797387444232],[41.291223766158204,39.8279599],[41.29123130342596,39.827945925557685],[41.2912495,39.82794013715415],[41.29126769657404,39.827945925557685],[41.291275233841795,39.8279599]]]}},{"type":"Feature","id":"pylon-palandoken-erzurum-75","properties":{"kind":"pylon","name":"Lift tower","height":13},"geometry":{"type":"Polygon","coordinates":[[[41.29023483388247,39.8280685],[41.2902272966028,39.82808247444232],[41.2902091,39.82808826284585],[41.290190903397196,39.82808247444232],[41.290183366117525,39.8280685],[41.290190903397196,39.82805452555768],[41.2902091,39.82804873715415],[41.2902272966028,39.82805452555768],[41.29023483388247,39.8280685]]]}},{"type":"Feature","id":"pylon-palandoken-erzurum-76","properties":{"kind":"pylon","name":"Lift tower","height":13},"geometry":{"type":"Polygon","coordinates":[[[41.29369873698166,39.8363405],[41.293691198794264,39.83635447444232],[41.293673,39.83636026284585],[41.29365480120573,39.83635447444232],[41.293647263018336,39.8363405],[41.29365480120573,39.83632652555768],[41.293673,39.836320737154146],[41.293691198794264,39.83632652555768],[41.29369873698166,39.8363405]]]}},{"type":"Feature","id":"pylon-palandoken-erzurum-77","properties":{"kind":"pylon","name":"Lift tower","height":13},"geometry":{"type":"Polygon","coordinates":[[[41.292966437247024,39.8370486],[41.2929588989819,39.83706257444232],[41.2929407,39.837068362845855],[41.292922501018104,39.83706257444232],[41.29291496275298,39.8370486],[41.292922501018104,39.837034625557685],[41.2929407,39.83702883715415],[41.2929588989819,39.837034625557685],[41.292966437247024,39.8370486]]]}},{"type":"Feature","id":"pylon-palandoken-erzurum-78","properties":{"kind":"pylon","name":"Lift tower","height":13},"geometry":{"type":"Polygon","coordinates":[[[41.29232113748304,39.8376784],[41.29231359914879,39.83769237444232],[41.2922954,39.837698162845854],[41.29227720085121,39.83769237444232],[41.29226966251696,39.8376784],[41.29227720085121,39.83766442555768],[41.2922954,39.83765863715415],[41.29231359914879,39.83766442555768],[41.29232113748304,39.8376784]]]}},{"type":"Feature","id":"pylon-palandoken-erzurum-79","properties":{"kind":"pylon","name":"Lift tower","height":13},"geometry":{"type":"Polygon","coordinates":[[[41.29054943811609,39.8393675],[41.29054189959642,39.83938147444232],[41.2905237,39.839387262845854],[41.29050550040358,39.83938147444232],[41.290497961883915,39.8393675],[41.29050550040358,39.839353525557684],[41.2905237,39.83934773715415],[41.29054189959642,39.839353525557684],[41.29054943811609,39.8393675]]]}},{"type":"Feature","id":"pylon-palandoken-erzurum-80","properties":{"kind":"pylon","name":"Lift tower","height":13},"geometry":{"type":"Polygon","coordinates":[[[41.29008433830236,39.8398645],[41.29007679972813,39.839878474442315],[41.2900586,39.83988426284585],[41.29004040027187,39.839878474442315],[41.29003286169765,39.8398645],[41.29004040027187,39.83985052555768],[41.2900586,39.839844737154145],[41.29007679972813,39.83985052555768],[41.29008433830236,39.8398645]]]}},{"type":"Feature","id":"pylon-palandoken-erzurum-81","properties":{"kind":"pylon","name":"Lift tower","height":13},"geometry":{"type":"Polygon","coordinates":[[[41.28906313867627,39.8408621],[41.28905559999253,39.84087607444232],[41.2890374,39.840881862845855],[41.289019200007466,39.84087607444232],[41.28901166132373,39.8408621],[41.289019200007466,39.840848125557685],[41.2890374,39.84084233715415],[41.28905559999253,39.840848125557685],[41.28906313867627,39.8408621]]]}},{"type":"Feature","id":"pylon-palandoken-erzurum-82","properties":{"kind":"pylon","name":"Lift tower","height":13},"geometry":{"type":"Polygon","coordinates":[[[41.28797483907779,39.8419333],[41.28796730027645,39.84194727444232],[41.2879491,39.84195306284585],[41.28793089972355,39.84194727444232],[41.28792336092221,39.8419333],[41.28793089972355,39.84191932555768],[41.2879491,39.84191353715415],[41.28796730027645,39.84191932555768],[41.28797483907779,39.8419333]]]}},{"type":"Feature","id":"pylon-palandoken-erzurum-83","properties":{"kind":"pylon","name":"Lift tower","height":13},"geometry":{"type":"Polygon","coordinates":[[[41.286660139573314,39.8432552],[41.28665260062683,39.84326917444232],[41.2866344,39.843274962845854],[41.286616199373164,39.84326917444232],[41.28660866042668,39.8432552],[41.286616199373164,39.84324122555768],[41.2866344,39.84323543715415],[41.28665260062683,39.84324122555768],[41.286660139573314,39.8432552]]]}},{"type":"Feature","id":"pylon-palandoken-erzurum-84","properties":{"kind":"pylon","name":"Lift tower","height":13},"geometry":{"type":"Polygon","coordinates":[[[41.284197445849884,39.8599916],[41.28418990506504,39.86000557444232],[41.2841717,39.86001136284585],[41.28415349493496,39.86000557444232],[41.28414595415012,39.8599916],[41.28415349493496,39.85997762555768],[41.2841717,39.85997183715415],[41.28418990506504,39.85997762555768],[41.284197445849884,39.8599916]]]}},{"type":"Feature","id":"pylon-palandoken-erzurum-85","properties":{"kind":"pylon","name":"Lift tower","height":13},"geometry":{"type":"Polygon","coordinates":[[[41.282868446223354,39.860987],[41.28286090532912,39.86100097444232],[41.2828427,39.861006762845854],[41.282824494670884,39.86100097444232],[41.28281695377665,39.860987],[41.282824494670884,39.86097302555768],[41.2828427,39.86096723715415],[41.28286090532912,39.86097302555768],[41.282868446223354,39.860987]]]}},{"type":"Feature","id":"pylon-palandoken-erzurum-86","properties":{"kind":"pylon","name":"Lift tower","height":13},"geometry":{"type":"Polygon","coordinates":[[[41.28181864651897,39.8617749],[41.28181110553816,39.86178887444232],[41.2817929,39.86179466284585],[41.28177469446184,39.86178887444232],[41.28176715348103,39.8617749],[41.28177469446184,39.86176092555768],[41.2817929,39.86175513715415],[41.28181110553816,39.86176092555768],[41.28181864651897,39.8617749]]]}},{"type":"Feature","id":"pylon-palandoken-erzurum-87","properties":{"kind":"pylon","name":"Lift tower","height":13},"geometry":{"type":"Polygon","coordinates":[[[41.28070194682722,39.8625964],[41.28069440575612,39.86261037444232],[41.2806762,39.86261616284585],[41.28065799424388,39.86261037444232],[41.28065045317278,39.8625964],[41.28065799424388,39.86258242555768],[41.2806762,39.86257663715415],[41.28069440575612,39.86258242555768],[41.28070194682722,39.8625964]]]}},{"type":"Feature","id":"pylon-palandoken-erzurum-88","properties":{"kind":"pylon","name":"Lift tower","height":13},"geometry":{"type":"Polygon","coordinates":[[[41.28007534701401,39.8630942],[41.2800678058882,39.86310817444232],[41.2800496,39.86311396284585],[41.280031394111795,39.86310817444232],[41.280023852985984,39.8630942],[41.280031394111795,39.86308022555768],[41.2800496,39.86307443715415],[41.2800678058882,39.86308022555768],[41.28007534701401,39.8630942]]]}},{"type":"Feature","id":"pylon-palandoken-erzurum-89","properties":{"kind":"pylon","name":"Lift tower","height":13},"geometry":{"type":"Polygon","coordinates":[[[41.27780194752803,39.864464],[41.27779440625167,39.864477974442316],[41.2777762,39.86448376284585],[41.277757993748324,39.864477974442316],[41.27775045247196,39.864464],[41.277757993748324,39.86445002555768],[41.2777762,39.864444237154146],[41.27779440625167,39.86445002555768],[41.27780194752803,39.864464]]]}},{"type":"Feature","id":"pylon-palandoken-erzurum-90","properties":{"kind":"pylon","name":"Lift tower","height":13},"geometry":{"type":"Polygon","coordinates":[[[41.27704684777282,39.8651163],[41.27703930642476,39.865130274442315],[41.2770211,39.86513606284585],[41.277002893575236,39.865130274442315],[41.276995352227175,39.8651163],[41.277002893575236,39.86510232555768],[41.2770211,39.865096537154145],[41.27703930642476,39.86510232555768],[41.27704684777282,39.8651163]]]}},{"type":"Feature","id":"pylon-palandoken-erzurum-91","properties":{"kind":"pylon","name":"Lift tower","height":13},"geometry":{"type":"Polygon","coordinates":[[[41.27625854805073,39.8658568],[41.27625100662127,39.86587077444232],[41.2762328,39.865876562845855],[41.27621459337873,39.86587077444232],[41.27620705194928,39.8658568],[41.27621459337873,39.865842825557685],[41.2762328,39.86583703715415],[41.27625100662127,39.865842825557685],[41.27625854805073,39.8658568]]]}},{"type":"Feature","id":"pylon-palandoken-erzurum-92","properties":{"kind":"pylon","name":"Lift tower","height":13},"geometry":{"type":"Polygon","coordinates":[[[41.27415044783842,39.8652911],[41.27414290647115,39.86530507444232],[41.2741247,39.86531086284585],[41.274106493528855,39.86530507444232],[41.27409895216158,39.8652911],[41.274106493528855,39.86527712555768],[41.2741247,39.86527133715415],[41.27414290647115,39.86527712555768],[41.27415044783842,39.8652911]]]}},{"type":"Feature","id":"pylon-palandoken-erzurum-93","properties":{"kind":"pylon","name":"Lift tower","height":13},"geometry":{"type":"Polygon","coordinates":[[[41.27500814566454,39.8594976],[41.275000604933986,39.859511574442315],[41.2749824,39.85951736284585],[41.27496419506601,39.859511574442315],[41.274956654335455,39.8594976],[41.27496419506601,39.85948362555768],[41.2749824,39.859477837154145],[41.275000604933986,39.85948362555768],[41.27500814566454,39.8594976]]]}},{"type":"Feature","id":"pylon-palandoken-erzurum-94","properties":{"kind":"pylon","name":"Lift tower","height":13},"geometry":{"type":"Polygon","coordinates":[[[41.274884045983974,39.860349],[41.27487650515985,39.86036297444232],[41.2748583,39.86036876284585],[41.274840094840144,39.86036297444232],[41.27483255401602,39.860349],[41.274840094840144,39.86033502555768],[41.2748583,39.86032923715415],[41.27487650515985,39.86033502555768],[41.274884045983974,39.860349]]]}},{"type":"Feature","id":"pylon-palandoken-erzurum-95","properties":{"kind":"pylon","name":"Lift tower","height":13},"geometry":{"type":"Polygon","coordinates":[[[41.27474584632038,39.8612456],[41.27473830539773,39.861259574442315],[41.2747201,39.86126536284585],[41.27470189460227,39.861259574442315],[41.27469435367963,39.8612456],[41.27470189460227,39.86123162555768],[41.2747201,39.861225837154144],[41.27473830539773,39.86123162555768],[41.27474584632038,39.8612456]]]}},{"type":"Feature","id":"pylon-palandoken-erzurum-96","properties":{"kind":"pylon","name":"Lift tower","height":13},"geometry":{"type":"Polygon","coordinates":[[[41.27468954663094,39.8620733],[41.27468200561733,39.86208727444232],[41.2746638,39.86209306284585],[41.27464559438267,39.86208727444232],[41.27463805336906,39.8620733],[41.27464559438267,39.86205932555768],[41.2746638,39.86205353715415],[41.27468200561733,39.86205932555768],[41.27468954663094,39.8620733]]]}},{"type":"Feature","id":"pylon-palandoken-erzurum-97","properties":{"kind":"pylon","name":"Lift tower","height":13},"geometry":{"type":"Polygon","coordinates":[[[41.2745849468909,39.8627661],[41.274577405801146,39.86278007444232],[41.2745592,39.862785862845854],[41.27454099419885,39.86278007444232],[41.2745334531091,39.8627661],[41.27454099419885,39.862752125557684],[41.2745592,39.86274633715415],[41.274577405801146,39.862752125557684],[41.2745849468909,39.8627661]]]}},{"type":"Feature","id":"pylon-palandoken-erzurum-98","properties":{"kind":"pylon","name":"Lift tower","height":13},"geometry":{"type":"Polygon","coordinates":[[[41.2744682471354,39.8634177],[41.274460705974036,39.86343167444232],[41.2744425,39.86343746284585],[41.27442429402596,39.86343167444232],[41.274416752864596,39.8634177],[41.27442429402596,39.86340372555768],[41.2744425,39.86339793715415],[41.274460705974036,39.86340372555768],[41.2744682471354,39.8634177]]]}},{"type":"Feature","id":"pylon-palandoken-erzurum-99","properties":{"kind":"pylon","name":"Lift tower","height":13},"geometry":{"type":"Polygon","coordinates":[[[41.274307347454446,39.8642679],[41.274299806199636,39.86428187444232],[41.2742816,39.864287662845854],[41.27426339380037,39.86428187444232],[41.27425585254556,39.8642679],[41.27426339380037,39.86425392555768],[41.2742816,39.86424813715415],[41.274299806199636,39.86425392555768],[41.274307347454446,39.8642679]]]}},{"type":"Feature","id":"pylon-palandoken-erzurum-100","properties":{"kind":"pylon","name":"Lift tower","height":13},"geometry":{"type":"Polygon","coordinates":[[[41.27711694854308,39.8671687],[41.27710940696942,39.86718267444232],[41.2770912,39.86718846284585],[41.27707299303058,39.86718267444232],[41.27706545145692,39.8671687],[41.27707299303058,39.86715472555768],[41.2770912,39.86714893715415],[41.27710940696942,39.86715472555768],[41.27711694854308,39.8671687]]]}},{"type":"Feature","id":"pylon-palandoken-erzurum-101","properties":{"kind":"pylon","name":"Lift tower","height":13},"geometry":{"type":"Polygon","coordinates":[[[41.27640444866506,39.8674937],[41.27639690705568,39.867507674442315],[41.2763787,39.86751346284585],[41.27636049294433,39.867507674442315],[41.27635295133494,39.8674937],[41.27636049294433,39.86747972555768],[41.2763787,39.867473937154145],[41.27639690705568,39.86747972555768],[41.27640444866506,39.8674937]]]}},{"type":"Feature","id":"pylon-palandoken-erzurum-102","properties":{"kind":"pylon","name":"Lift tower","height":13},"geometry":{"type":"Polygon","coordinates":[[[41.278157948364814,39.8666937],[41.278150406843366,39.86670767444232],[41.2781322,39.86671346284585],[41.27811399315664,39.86670767444232],[41.27810645163519,39.8666937],[41.27811399315664,39.86667972555768],[41.2781322,39.86667393715415],[41.278150406843366,39.86667972555768],[41.278157948364814,39.8666937]]]}},{"type":"Feature","id":"pylon-palandoken-erzurum-103","properties":{"kind":"pylon","name":"Lift tower","height":13},"geometry":{"type":"Polygon","coordinates":[[[41.279189248188196,39.8662231],[41.279181706718475,39.86623707444232],[41.2791635,39.86624286284585],[41.27914529328153,39.86623707444232],[41.27913775181181,39.8662231],[41.27914529328153,39.86620912555768],[41.2791635,39.86620333715415],[41.279181706718475,39.86620912555768],[41.279189248188196,39.8662231]]]}},{"type":"Feature","id":"pylon-palandoken-erzurum-104","properties":{"kind":"pylon","name":"Lift tower","height":13},"geometry":{"type":"Polygon","coordinates":[[[41.27985784807369,39.865918],[41.279850306637506,39.86593197444232],[41.2798321,39.86593776284585],[41.279813893362494,39.86593197444232],[41.27980635192631,39.865918],[41.279813893362494,39.86590402555768],[41.2798321,39.86589823715415],[41.279850306637506,39.86590402555768],[41.27985784807369,39.865918]]]}},{"type":"Feature","id":"pylon-palandoken-erzurum-105","properties":{"kind":"pylon","name":"Lift tower","height":13},"geometry":{"type":"Polygon","coordinates":[[[41.28047174796857,39.8656379],[41.280464206563174,39.86565187444232],[41.280446,39.865657662845855],[41.28042779343682,39.86565187444232],[41.280420252031426,39.8656379],[41.28042779343682,39.865623925557685],[41.280446,39.86561813715415],[41.280464206563174,39.865623925557685],[41.28047174796857,39.8656379]]]}},{"type":"Feature","id":"pylon-palandoken-erzurum-106","properties":{"kind":"pylon","name":"Lift tower","height":13},"geometry":{"type":"Polygon","coordinates":[[[41.280789547914154,39.8654929],[41.2807820065247,39.86550687444232],[41.2807638,39.86551266284585],[41.2807455934753,39.86550687444232],[41.28073805208585,39.8654929],[41.2807455934753,39.86547892555768],[41.2807638,39.86547313715415],[41.2807820065247,39.86547892555768],[41.280789547914154,39.8654929]]]}},{"type":"Feature","id":"pylon-palandoken-erzurum-107","properties":{"kind":"pylon","name":"Lift tower","height":13},"geometry":{"type":"Polygon","coordinates":[[[41.28114684785298,39.8653299],[41.28113930648144,39.86534387444232],[41.2811211,39.86534966284585],[41.28110289351856,39.86534387444232],[41.28109535214702,39.8653299],[41.28110289351856,39.86531592555768],[41.2811211,39.86531013715415],[41.28113930648144,39.86531592555768],[41.28114684785298,39.8653299]]]}},{"type":"Feature","id":"pylon-palandoken-erzurum-108","properties":{"kind":"pylon","name":"Lift tower","height":13},"geometry":{"type":"Polygon","coordinates":[[[41.28210054768966,39.8648947],[41.282093006365955,39.86490867444232],[41.2820748,39.86491446284585],[41.28205659363404,39.86490867444232],[41.282049052310335,39.8648947],[41.28205659363404,39.86488072555768],[41.2820748,39.86487493715415],[41.282093006365955,39.86488072555768],[41.28210054768966,39.8648947]]]}},{"type":"Feature","id":"pylon-palandoken-erzurum-109","properties":{"kind":"pylon","name":"Lift tower","height":13},"geometry":{"type":"Polygon","coordinates":[[[41.28324754749328,39.8643714],[41.283240006227096,39.86438537444232],[41.2832218,39.864391162845855],[41.2832035937729,39.86438537444232],[41.28319605250672,39.8643714],[41.2832035937729,39.864357425557685],[41.2832218,39.86435163715415],[41.283240006227096,39.864357425557685],[41.28324754749328,39.8643714]]]}},{"type":"Feature","id":"pylon-palandoken-erzurum-110","properties":{"kind":"pylon","name":"Lift tower","height":13},"geometry":{"type":"Polygon","coordinates":[[[41.284039447357664,39.86401],[41.284031906131204,39.86402397444232],[41.2840137,39.86402976284585],[41.2839954938688,39.86402397444232],[41.28398795264234,39.86401],[41.2839954938688,39.86399602555768],[41.2840137,39.86399023715415],[41.284031906131204,39.86399602555768],[41.284039447357664,39.86401]]]}},{"type":"Feature","id":"pylon-palandoken-erzurum-111","properties":{"kind":"pylon","name":"Lift tower","height":13},"geometry":{"type":"Polygon","coordinates":[[[41.278926247322126,39.8639153],[41.278918706106076,39.86392927444232],[41.2789005,39.863935062845854],[41.27888229389392,39.86392927444232],[41.27887475267787,39.8639153],[41.27888229389392,39.863901325557684],[41.2789005,39.86389553715415],[41.278918706106076,39.863901325557684],[41.278926247322126,39.8639153]]]}},{"type":"Feature","id":"pylon-palandoken-erzurum-112","properties":{"kind":"pylon","name":"Lift tower","height":13},"geometry":{"type":"Polygon","coordinates":[[[41.28502404562222,39.8593848],[41.28501650490406,39.85939877444232],[41.2849983,39.85940456284585],[41.28498009509594,39.85939877444232],[41.284972554377774,39.8593848],[41.28498009509594,39.85937082555768],[41.2849983,39.85936503715415],[41.28501650490406,39.85937082555768],[41.28502404562222,39.8593848]]]}},{"type":"Feature","id":"pylon-palandoken-erzurum-113","properties":{"kind":"pylon","name":"Lift tower","height":13},"geometry":{"type":"Polygon","coordinates":[[[41.281821342001464,39.8497315],[41.2818138023438,39.849745474442315],[41.2817956,39.84975126284585],[41.28177739765621,39.849745474442315],[41.28176985799854,39.8497315],[41.28177739765621,39.84971752555768],[41.2817956,39.849711737154145],[41.2818138023438,39.84971752555768],[41.281821342001464,39.8497315]]]}},{"type":"Feature","id":"marker-palandoken-erzurum-summit","properties":{"kind":"marker","markerType":"summit","name":"Upper mountain · 3176 m","height":26},"geometry":{"type":"Polygon","coordinates":[[[41.278081913848716,39.855999999999995],[41.278066269695685,39.85603696098424],[41.27802531277133,39.85605980412876],[41.27797468722867,39.85605980412876],[41.27793373030431,39.85603696098424],[41.27791808615128,39.855999999999995],[41.27793373030431,39.85596303901575],[41.27797468722867,39.85594019587123],[41.27802531277133,39.85594019587123],[41.278066269695685,39.85596303901575],[41.278081913848716,39.855999999999995]]]}},{"type":"Feature","id":"marker-palandoken-erzurum-base","properties":{"kind":"marker","markerType":"base","name":"Base · 2200 m","height":18},"geometry":{"type":"Polygon","coordinates":[[[41.2820819090751,39.852],[41.282066265833755,39.85203696098424],[41.282025311296195,39.852059804128764],[41.2819746887038,39.852059804128764],[41.28193373416624,39.85203696098424],[41.28191809092489,39.852],[41.28193373416624,39.85196303901575],[41.2819746887038,39.85194019587123],[41.282025311296195,39.85194019587123],[41.282066265833755,39.85196303901575],[41.2820819090751,39.852]]]}},{"type":"Feature","id":"marker-palandoken-erzurum-featured-run","properties":{"kind":"marker","markerType":"featured-run","name":"Powder · Itinerary 19","height":20},"geometry":{"type":"Polygon","coordinates":[[[41.285081905495524,39.849],[41.28506626293781,39.84903696098424],[41.28502531019004,39.849059804128764],[41.28497468980995,39.849059804128764],[41.28493373706218,39.84903696098424],[41.28491809450447,39.849],[41.28493373706218,39.84896303901575],[41.28497468980995,39.84894019587123],[41.28502531019004,39.84894019587123],[41.28506626293781,39.84896303901575],[41.285081905495524,39.849]]]}}]}