{"type":"FeatureCollection","features":[{"type":"Feature","id":23218788,"properties":{"kind":"run","name":"Brabralung Trail","subtype":"easy","pisteType":"nordic"},"geometry":{"type":"LineString","coordinates":[[147.185104,-37.0083579],[147.185292,-37.00864],[147.185353,-37.008665],[147.185453,-37.009105],[147.185623,-37.009337],[147.185818,-37.009383],[147.185962,-37.009535],[147.186128,-37.010077],[147.18622,-37.010097],[147.186347,-37.010247],[147.18674,-37.010327],[147.186882,-37.010643],[147.186997,-37.01165],[147.18723,-37.012113],[147.187325,-37.012213],[147.187472,-37.012268],[147.187573,-37.012575],[147.187683,-37.012643],[147.18772,-37.012928],[147.187868,-37.013307],[147.188055,-37.01356],[147.188337,-37.013817],[147.188765,-37.014037],[147.18907,-37.014092],[147.189337,-37.014445],[147.189313,-37.014567],[147.189038,-37.014628],[147.188265,-37.014447],[147.188093,-37.014465],[147.187795,-37.014357],[147.187545,-37.014367],[147.187252,-37.014217],[147.187068,-37.014238],[147.187005,-37.014397],[147.187247,-37.014893],[147.187355,-37.014998],[147.187408,-37.015293],[147.187512,-37.01536],[147.18782,-37.015715],[147.187942,-37.01601],[147.188185,-37.01627],[147.188315,-37.016602],[147.188858,-37.016788],[147.18893,-37.016927],[147.18905,-37.017528],[147.189237,-37.017713],[147.189362,-37.017755],[147.189407,-37.017905],[147.189503,-37.017872],[147.189588,-37.017908],[147.189745,-37.018208],[147.189978,-37.018188],[147.190145,-37.018343],[147.19013,-37.01872],[147.190295,-37.018777],[147.1905,-37.01931],[147.190522,-37.019718],[147.190627,-37.019697],[147.190687,-37.019863],[147.190343,-37.020752],[147.190397,-37.021067],[147.190593,-37.02139],[147.190723,-37.02185],[147.191137,-37.02217],[147.191263,-37.022908],[147.191343,-37.022968],[147.191522,-37.022932],[147.19223,-37.023222],[147.192425,-37.023353],[147.192703,-37.02344],[147.193415,-37.023537],[147.193735,-37.02374],[147.194253,-37.024312],[147.194593,-37.024342],[147.195183,-37.024093],[147.195717,-37.024223],[147.196305,-37.02419],[147.196432,-37.024143],[147.196947,-37.024225],[147.197408,-37.02422],[147.198568,-37.024545],[147.198635,-37.024622],[147.198787,-37.02468],[147.19933,-37.024468],[147.19971,-37.024508],[147.20072,-37.024857],[147.200857,-37.024832],[147.200983,-37.024883],[147.20097,-37.024853],[147.20117,-37.024885],[147.201505,-37.02503],[147.202232,-37.025135],[147.204037,-37.025217],[147.2054369,-37.0254041],[147.205519,-37.0254512],[147.2057096,-37.025592],[147.2058361,-37.0256464],[147.2059379,-37.0256936],[147.2060392,-37.0257645],[147.2061871,-37.0258324],[147.2062798,-37.0258234],[147.2063622,-37.0257987],[147.2064759,-37.0257355],[147.2065403,-37.0257157],[147.2066177,-37.0256802],[147.206696,-37.0256073],[147.2067294,-37.0255736],[147.206802,-37.02554],[147.206822,-37.025632],[147.206897,-37.025578],[147.206938,-37.025635],[147.207223,-37.025617],[147.207325,-37.025668],[147.207762,-37.025723],[147.207912,-37.025845],[147.208192,-37.02591],[147.208242,-37.026],[147.208467,-37.02609],[147.208493,-37.026187],[147.208948,-37.026212],[147.20907,-37.026338],[147.209573,-37.026438],[147.209738,-37.026578],[147.20992,-37.026572],[147.210083,-37.026715],[147.210137,-37.026713],[147.210245,-37.026965],[147.210378,-37.0271],[147.21056,-37.027202],[147.210847,-37.027117],[147.211503,-37.027078],[147.211603,-37.027133],[147.212063,-37.02713],[147.212335,-37.027178],[147.212947,-37.02714],[147.2136136,-37.0272231],[147.2142879,-37.0269308],[147.2147195,-37.0265421],[147.2148798,-37.0263154],[147.2155745,-37.0260593],[147.2162851,-37.0258186],[147.2166914,-37.0257488],[147.2170323,-37.0256952],[147.2172616,-37.025441],[147.2175613,-37.025244],[147.2178571,-37.0249532],[147.2183143,-37.0246451],[147.2188441,-37.0243063],[147.219203,-37.024072],[147.21949,-37.023862],[147.2197405,-37.0236395],[147.2199247,-37.0234607],[147.2199568,-37.0233645],[147.2199024,-37.0230764],[147.2199964,-37.0228576],[147.2202078,-37.0227399],[147.2205683,-37.0226228],[147.2205986,-37.0226159],[147.2207133,-37.0225762],[147.2207674,-37.0225175],[147.2207947,-37.0224012],[147.2209107,-37.0223374],[147.2218481,-37.0221679],[147.2229714,-37.0222346],[147.2235693,-37.0222282],[147.2241533,-37.0223976],[147.2243773,-37.0226531],[147.2250811,-37.0229851],[147.225433,-37.0230362],[147.2257505,-37.0229698],[147.226248,-37.0226948],[147.2265419,-37.0227622],[147.2266646,-37.0228412],[147.2268087,-37.0227552],[147.2269167,-37.0224574],[147.2274165,-37.0222188],[147.2278324,-37.0221677],[147.2282733,-37.0218812],[147.2286719,-37.0218359],[147.2289492,-37.0218789],[147.2292814,-37.0217142],[147.2302298,-37.0218041],[147.230755,-37.0217481],[147.2315115,-37.0218357],[147.232108,-37.0217383],[147.2327912,-37.0214781],[147.2333351,-37.0212993],[147.233687,-37.0212993],[147.2341275,-37.0212941],[147.2350854,-37.0210437]]}},{"type":"Feature","id":25888092,"properties":{"kind":"run","name":"Fitzy's Cirque","subtype":"easy","pisteType":"nordic"},"geometry":{"type":"LineString","coordinates":[[147.24368,-37.022337],[147.2434786,-37.0221763],[147.2432107,-37.0221104],[147.2430334,-37.0219782],[147.2427239,-37.0216639],[147.242454,-37.0215007],[147.2422541,-37.0215637],[147.2421397,-37.0215998],[147.2417301,-37.0218729],[147.241135,-37.021897],[147.2406781,-37.0218936],[147.2401629,-37.0219193],[147.2395942,-37.0219503],[147.239545,-37.021953],[147.239267,-37.022],[147.239153,-37.021958],[147.2391,-37.021795],[147.239107,-37.021575],[147.239175,-37.021428],[147.2395747,-37.0214428],[147.2396039,-37.0214426],[147.2400401,-37.0214389],[147.2403755,-37.021273],[147.2405234,-37.0211799],[147.2408423,-37.0210516],[147.241029,-37.0210345],[147.2413546,-37.0209737],[147.2416671,-37.0209441],[147.2419122,-37.0209004],[147.2424004,-37.0208317],[147.2430613,-37.0207299],[147.24357,-37.020697],[147.244043,-37.020908],[147.244133,-37.021013],[147.2444492,-37.021234],[147.2448576,-37.0215194],[147.244803,-37.021692],[147.2445614,-37.0220046],[147.2444169,-37.0221658],[147.2443163,-37.0223168],[147.2444289,-37.0225695],[147.2445094,-37.0227879],[147.244542,-37.022942]]}},{"type":"Feature","id":25888114,"properties":{"kind":"run","name":"Guide Alice","subtype":"easy","pisteType":"nordic"},"geometry":{"type":"LineString","coordinates":[[147.24728,-37.023233],[147.247762,-37.023348],[147.248203,-37.023582],[147.248688,-37.023695],[147.249383,-37.024083],[147.249707,-37.024188],[147.250042,-37.02445],[147.250253,-37.025],[147.250392,-37.025073],[147.25047,-37.025222],[147.2505602,-37.0254176],[147.2508499,-37.0255632],[147.2511932,-37.0255375],[147.251315,-37.025658],[147.2513182,-37.0255345],[147.2514013,-37.0253242],[147.2514351,-37.0251456],[147.2513917,-37.0249478],[147.251433,-37.0245452],[147.251528,-37.023745],[147.25163,-37.023623],[147.251997,-37.023393],[147.2524537,-37.023212],[147.252978,-37.023153],[147.253603,-37.02324],[147.253692,-37.023218],[147.253963,-37.023117],[147.25415,-37.023005],[147.255032,-37.022757],[147.25543,-37.022777],[147.256697,-37.022358],[147.257333,-37.021745],[147.257483,-37.021683],[147.257648,-37.021678],[147.257803,-37.021763],[147.25806,-37.021818],[147.258553,-37.021732],[147.258787,-37.021735],[147.259278,-37.02162],[147.25956,-37.021605],[147.260005,-37.021685],[147.26015,-37.021845],[147.260195,-37.022058],[147.260278,-37.022127],[147.260545,-37.022112],[147.260632,-37.022185],[147.260642,-37.022357],[147.260462,-37.02254],[147.260468,-37.0226],[147.260273,-37.022815],[147.260147,-37.023072],[147.259627,-37.023143],[147.259405,-37.023112],[147.259057,-37.023045],[147.258948,-37.023107],[147.258827,-37.023293],[147.258767,-37.023617],[147.258657,-37.023785],[147.25862,-37.02421],[147.258522,-37.024285],[147.257972,-37.02449],[147.257645,-37.024803],[147.257563,-37.025065],[147.257908,-37.025618],[147.257898,-37.025958],[147.257958,-37.026303],[147.25778,-37.026518],[147.257607,-37.026583],[147.2575825,-37.0266425]]}},{"type":"Feature","id":26477020,"properties":{"kind":"run","name":"Charlie Donald's Knee","subtype":"easy","pisteType":"nordic"},"geometry":{"type":"LineString","coordinates":[[147.257005,-37.026442],[147.256913,-37.026242],[147.256898,-37.025992],[147.256817,-37.025793],[147.25671,-37.025738],[147.256297,-37.025732],[147.256023,-37.025648],[147.25567,-37.02548],[147.255593,-37.025382],[147.255575,-37.025185],[147.255827,-37.024713],[147.255838,-37.024515],[147.25526,-37.024242],[147.255145,-37.02409],[147.255048,-37.02379],[147.254835,-37.023845],[147.254622,-37.023997],[147.254173,-37.024073],[147.254072,-37.024273],[147.253683,-37.024545],[147.253568,-37.02471],[147.253533,-37.024925],[147.253717,-37.025697],[147.25406,-37.026228],[147.2541422,-37.0264213]]}},{"type":"Feature","id":215340489,"properties":{"kind":"run","name":"Vera Houghton","subtype":"easy","pisteType":"nordic"},"geometry":{"type":"LineString","coordinates":[[147.253134,-37.0265707],[147.253057,-37.026357],[147.252878,-37.025918],[147.252683,-37.025673],[147.25251,-37.025557],[147.252318,-37.025528],[147.252075,-37.025542],[147.251735,-37.025712],[147.251315,-37.025658],[147.251037,-37.025897],[147.251102,-37.025958],[147.251028,-37.0261],[147.250297,-37.02633],[147.250198,-37.026318],[147.25007,-37.026138],[147.250155,-37.025945],[147.250162,-37.025718],[147.249893,-37.025532],[147.249667,-37.02517],[147.249273,-37.02492],[147.24865,-37.025018],[147.248125,-37.024808],[147.247875,-37.024762],[147.24743,-37.02479],[147.246985,-37.024907],[147.246922,-37.025087],[147.246962,-37.025117],[147.24702,-37.025078],[147.247018,-37.025118],[147.24686,-37.025447],[147.2467233,-37.0256746]]}},{"type":"Feature","id":215342017,"properties":{"kind":"run","name":"Appin Way","subtype":"easy","pisteType":"nordic"},"geometry":{"type":"LineString","coordinates":[[147.2467233,-37.0256746],[147.2469951,-37.0257586],[147.2471629,-37.0258105],[147.2475564,-37.0259401],[147.2483828,-37.0264495],[147.2485829,-37.0265156],[147.2490963,-37.0266656],[147.2495982,-37.0267667],[147.250027,-37.026857],[147.2502183,-37.0268959],[147.2507178,-37.0269309],[147.2511103,-37.0269558],[147.2514765,-37.0269272],[147.2525154,-37.0267352],[147.2530001,-37.0266082],[147.253134,-37.0265707],[147.2534569,-37.0264713],[147.2536965,-37.0264414],[147.2541422,-37.0264213],[147.2545422,-37.0264275],[147.254734,-37.0263727],[147.2550129,-37.026287],[147.2555708,-37.0262699],[147.2561945,-37.0262938],[147.2566652,-37.0263983],[147.257005,-37.026442],[147.2571654,-37.0265637],[147.2575825,-37.0266425],[147.2581847,-37.0267821],[147.2587251,-37.0268395],[147.2590202,-37.026878],[147.2592455,-37.0269037],[147.2592505,-37.026968],[147.2592562,-37.0270408],[147.2591514,-37.0270784],[147.2590698,-37.0271076],[147.2584904,-37.0270947],[147.2576053,-37.0269363],[147.2572157,-37.0268467],[147.2568261,-37.0267581],[147.2560672,-37.0265711],[147.2559155,-37.0265337],[147.2554005,-37.0264523],[147.2550056,-37.0264254],[147.2545422,-37.0264275]]}},{"type":"Feature","id":215342018,"properties":{"kind":"run","name":"Pigtail","subtype":"easy","pisteType":"nordic"},"geometry":{"type":"LineString","coordinates":[[147.2447792,-37.0247748],[147.2450186,-37.0246507],[147.245218,-37.024528],[147.2454008,-37.0243685],[147.2454152,-37.0241626],[147.2452459,-37.0240137],[147.245258,-37.023887],[147.245133,-37.02366],[147.245007,-37.023637],[147.244853,-37.023513],[147.244805,-37.023267],[147.244635,-37.023128],[147.244542,-37.022942]]}},{"type":"Feature","id":215342137,"properties":{"kind":"run","name":"Dinner Plain Track","subtype":"nordic","pisteType":"nordic"},"geometry":{"type":"LineString","coordinates":[[147.2351352,-37.021018],[147.2351964,-37.0209785],[147.2352339,-37.0209649],[147.2352645,-37.0209472],[147.2352925,-37.0209293],[147.2353338,-37.0208138]]}},{"type":"Feature","id":215342138,"properties":{"kind":"run","name":"Orites","subtype":"easy","pisteType":"nordic"},"geometry":{"type":"LineString","coordinates":[[147.2384933,-37.0212172],[147.2382704,-37.0213867],[147.2379916,-37.0214131],[147.2377462,-37.0213985],[147.2373855,-37.021396],[147.2371977,-37.0215202],[147.2371602,-37.0215973]]}},{"type":"Feature","id":236359109,"properties":{"kind":"lift","name":"Cobungra Platter","subtype":"platter","status":"active"},"geometry":{"type":"LineString","coordinates":[[147.2441528,-37.0245054],[147.2440482,-37.0229593]]}},{"type":"Feature","id":236359110,"properties":{"kind":"run","name":"Cobungra Platter Ski Run","subtype":"novice","pisteType":"downhill"},"geometry":{"type":"LineString","coordinates":[[147.2443058,-37.0229851],[147.2444185,-37.0245312]]}},{"type":"Feature","id":639937142,"properties":{"kind":"run","name":"Brabralung Trail","subtype":"easy","pisteType":"nordic"},"geometry":{"type":"LineString","coordinates":[[147.2351352,-37.021018],[147.2351733,-37.0210885],[147.2352052,-37.0211237],[147.2353822,-37.021188],[147.2358436,-37.021218],[147.2362267,-37.0213531],[147.2368329,-37.0214474],[147.237069,-37.021563],[147.2371602,-37.0215973]]}},{"type":"Feature","id":639937146,"properties":{"kind":"run","name":"Dinner Plain Track","subtype":"easy","pisteType":"nordic"},"geometry":{"type":"LineString","coordinates":[[147.2350854,-37.0210437],[147.2351352,-37.021018]]}},{"type":"Feature","id":943139698,"properties":{"kind":"run","name":"Pigtail","subtype":"easy","pisteType":"nordic"},"geometry":{"type":"LineString","coordinates":[[147.244542,-37.022942],[147.24433,-37.022842],[147.244202,-37.022762],[147.2439247,-37.0225267],[147.24368,-37.022337]]}},{"type":"Feature","id":943139700,"properties":{"kind":"run","name":"Appin Way","subtype":"easy","pisteType":"nordic"},"geometry":{"type":"LineString","coordinates":[[147.24368,-37.022337],[147.2438764,-37.0228522],[147.2439998,-37.0232976],[147.2440191,-37.0244185]]}},{"type":"Feature","id":943211683,"properties":{"kind":"run","name":"Brabralung Trail","subtype":"easy","pisteType":"nordic"},"geometry":{"type":"LineString","coordinates":[[147.2371602,-37.0215973],[147.2375692,-37.0217711],[147.2377247,-37.0218381],[147.2378542,-37.0218585],[147.2381324,-37.0218602],[147.2382438,-37.0218678],[147.2382966,-37.0218901],[147.2384959,-37.0219742],[147.2385734,-37.0220017],[147.2387592,-37.0220305]]}},{"type":"Feature","id":943211685,"properties":{"kind":"run","name":"Guide Alice","subtype":"easy","pisteType":"nordic"},"geometry":{"type":"LineString","coordinates":[[147.2448576,-37.0215194],[147.246462,-37.02225],[147.246548,-37.022368],[147.246642,-37.022397],[147.2467,-37.022598],[147.246747,-37.022585],[147.246792,-37.0226188],[147.246945,-37.022772],[147.24728,-37.023233]]}},{"type":"Feature","id":943211689,"properties":{"kind":"run","name":"Appin Way","subtype":"easy","pisteType":"nordic"},"geometry":{"type":"LineString","coordinates":[[147.2440191,-37.0244185],[147.244032,-37.0245825],[147.2447792,-37.0247748]]}},{"type":"Feature","id":943211690,"properties":{"kind":"run","name":"Appin Way","subtype":"easy","pisteType":"nordic"},"geometry":{"type":"LineString","coordinates":[[147.2447792,-37.0247748],[147.245642,-37.025058],[147.245723,-37.025125],[147.24589,-37.025155],[147.246028,-37.025092],[147.246147,-37.025113]]}},{"type":"Feature","id":943211693,"properties":{"kind":"run","name":"Appin Way","subtype":"easy","pisteType":"nordic"},"geometry":{"type":"LineString","coordinates":[[147.246147,-37.025113],[147.246338,-37.025417],[147.2463749,-37.0255669],[147.2467233,-37.0256746]]}},{"type":"Feature","id":1092247709,"properties":{"kind":"run","name":"Peashooter Toboggan Slope","subtype":"easy","pisteType":"sled"},"geometry":{"type":"LineString","coordinates":[[147.2458916,-37.0240029],[147.2460398,-37.0248244]]}}]}