{"type":"FeatureCollection","features":[{"type":"Feature","id":"building-236359107","properties":{"kind":"building","name":"Dinner Plain Hotel","height":7.2},"geometry":{"type":"Polygon","coordinates":[[[147.2390927,-37.0232103],[147.2389808,-37.0234262],[147.2386765,-37.0233256],[147.2387727,-37.0231402],[147.2388377,-37.0231616],[147.2388535,-37.0231312],[147.2390927,-37.0232103]]]}},{"type":"Feature","id":"building-451553664","properties":{"kind":"building","name":"Resort building","height":7.2},"geometry":{"type":"Polygon","coordinates":[[[147.2457761,-37.0237435],[147.2456447,-37.0237606],[147.2456125,-37.0235957],[147.2455374,-37.0235722],[147.2454864,-37.0233473],[147.2456125,-37.0233345],[147.2460068,-37.0232981],[147.2460604,-37.0235122],[147.2459692,-37.0236321],[147.2457761,-37.0237435]]]}},{"type":"Feature","id":"building-853537429","properties":{"kind":"building","name":"Hotel High Plains","height":7.2},"geometry":{"type":"Polygon","coordinates":[[[147.2415054,-37.0224388],[147.241519,-37.0224261],[147.2415966,-37.0223541],[147.2415571,-37.0223263],[147.2417122,-37.0222957],[147.2417793,-37.0223254],[147.2419103,-37.0222852],[147.2420596,-37.0223178],[147.2420874,-37.0223555],[147.2417301,-37.0226295],[147.2416397,-37.0225528],[147.2415954,-37.0225152],[147.2415518,-37.0224782],[147.2415214,-37.0224524],[147.2415054,-37.0224388]]]}},{"type":"Feature","id":"building-860268871","properties":{"kind":"building","name":"Resort building","height":7.2},"geometry":{"type":"Polygon","coordinates":[[[147.2424341,-37.0217363],[147.2424101,-37.021728],[147.2423841,-37.0217267],[147.242359,-37.0217325],[147.2423379,-37.0217448],[147.2423232,-37.021762],[147.2423168,-37.0217822],[147.2423193,-37.021803],[147.2423291,-37.0218202],[147.242345,-37.0218342],[147.2423656,-37.0218435],[147.2423888,-37.0218474],[147.2424124,-37.0218453],[147.242434,-37.0218375],[147.2424515,-37.0218248],[147.2424633,-37.0218083],[147.2424681,-37.0217898],[147.2424649,-37.0217691],[147.2424531,-37.0217506],[147.2424341,-37.0217363]]]}},{"type":"Feature","id":"building-943139699","properties":{"kind":"building","name":"Crisps Hut","height":7.2},"geometry":{"type":"Polygon","coordinates":[[[147.2398623,-37.0213457],[147.2399511,-37.0213398],[147.2399589,-37.0214153],[147.2398702,-37.0214212],[147.2398623,-37.0213457]]]}},{"type":"Feature","id":"building-943440511","properties":{"kind":"building","name":"Dinner Plain CFA","height":7.2},"geometry":{"type":"Polygon","coordinates":[[[147.2427175,-37.0219207],[147.2427209,-37.0218533],[147.2428283,-37.0218568],[147.2428249,-37.0219242],[147.2427175,-37.0219207]]]}},{"type":"Feature","id":"building-943496961","properties":{"kind":"building","name":"DP Hut","height":7.2},"geometry":{"type":"Polygon","coordinates":[[[147.2395709,-37.0221483],[147.2396383,-37.0221407],[147.2396291,-37.0220883],[147.2395616,-37.0220959],[147.2395709,-37.0221483]]]}},{"type":"Feature","id":"building-1089646227","properties":{"kind":"building","name":"Resort building","height":7.2},"geometry":{"type":"Polygon","coordinates":[[[147.2439146,-37.0245238],[147.243915,-37.0246382],[147.2439992,-37.024638],[147.2439988,-37.0245236],[147.2439146,-37.0245238]]]}},{"type":"Feature","id":"building-1089646228","properties":{"kind":"building","name":"Resort building","height":7.2},"geometry":{"type":"Polygon","coordinates":[[[147.2441542,-37.0245352],[147.2441567,-37.0245871],[147.2442283,-37.0245849],[147.2442258,-37.0245329],[147.2441542,-37.0245352]]]}},{"type":"Feature","id":"building-1089646229","properties":{"kind":"building","name":"Resort building","height":7.2},"geometry":{"type":"Polygon","coordinates":[[[147.2439984,-37.0242675],[147.244,-37.02432],[147.2438973,-37.0243219],[147.2438957,-37.0242695],[147.2439984,-37.0242675]]]}},{"type":"Feature","id":"building-1089646230","properties":{"kind":"building","name":"Resort building","height":7.2},"geometry":{"type":"Polygon","coordinates":[[[147.2447292,-37.0247216],[147.2447655,-37.0247554],[147.2448167,-37.0247204],[147.2447803,-37.0246866],[147.2447292,-37.0247216]]]}},{"type":"Feature","id":"building-1089646231","properties":{"kind":"building","name":"Resort building","height":7.2},"geometry":{"type":"Polygon","coordinates":[[[147.2439663,-37.0241134],[147.2439722,-37.0241189],[147.2439754,-37.0241256],[147.2439755,-37.0241328],[147.2439726,-37.0241396],[147.243967,-37.0241452],[147.2439594,-37.024149],[147.2439513,-37.0241504],[147.243943,-37.0241498],[147.2439354,-37.0241472],[147.2439292,-37.0241427],[147.243925,-37.024137],[147.2439234,-37.0241305],[147.2439243,-37.0241239],[147.2439278,-37.0241178],[147.2439335,-37.024113],[147.2439408,-37.0241098],[147.2439497,-37.0241086],[147.2439585,-37.0241098],[147.2439663,-37.0241134]]]}},{"type":"Feature","id":"pylon-dinner-plain-0","properties":{"kind":"pylon","name":"Lift tower","height":13},"geometry":{"type":"Polygon","coordinates":[[[147.24409562729036,-37.023294445121245],[147.2440883772021,-37.02328047067893],[147.24407087394067,-37.02327468227539],[147.24405337067924,-37.02328047067893],[147.24404612059098,-37.023294445121245],[147.24405337067924,-37.02330841956356],[147.24407087394067,-37.0233142079671],[147.2440883772021,-37.02330841956356],[147.24409562729036,-37.023294445121245]]]}},{"type":"Feature","id":"marker-dinner-plain-summit zone \u00b7 1535 m","properties":{"kind":"marker","name":"Summit zone \u00b7 1535 m","height":26},"geometry":{"type":"Polygon","coordinates":[[[147.23527875423707,-37.0171],[147.23526371351616,-37.01706303901575],[147.23522433639764,-37.01704019587123],[147.23517566360235,-37.01704019587123],[147.23513628648382,-37.01706303901575],[147.2351212457629,-37.0171],[147.23513628648382,-37.017136960984246],[147.23517566360235,-37.01715980412877],[147.23522433639764,-37.01715980412877],[147.23526371351616,-37.017136960984246],[147.23527875423707,-37.0171]]]}},{"type":"Feature","id":"marker-dinner-plain-resort base \u00b7 1515 m","properties":{"kind":"marker","name":"Resort base \u00b7 1515 m","height":18},"geometry":{"type":"Polygon","coordinates":[[[147.2412787604565,-37.0231],[147.2412637185478,-37.02306303901575],[147.24122433831954,-37.02304019587123],[147.24117566168044,-37.02304019587123],[147.24113628145219,-37.02306303901575],[147.24112123954347,-37.0231],[147.24113628145219,-37.023136960984246],[147.24117566168044,-37.02315980412877],[147.24122433831954,-37.02315980412877],[147.2412637185478,-37.023136960984246],[147.2412787604565,-37.0231]]]}}]}