{"type":"FeatureCollection","features":[{"type":"Feature","id":"marker-mount-saint-elias-summit","properties":{"kind":"marker","markerType":"summit","name":"Upper mountain · 5489 m","height":26},"geometry":{"type":"Polygon","coordinates":[[[-140.93527309845277,60.2962],[-140.93529733449168,60.296236960984245],[-140.9353607852653,60.296259804128766],[-140.93543921473469,60.296259804128766],[-140.9355026655083,60.296236960984245],[-140.9355269015472,60.2962],[-140.9355026655083,60.29616303901575],[-140.93543921473469,60.29614019587123],[-140.9353607852653,60.29614019587123],[-140.93529733449168,60.29616303901575],[-140.93527309845277,60.2962]]]}},{"type":"Feature","id":"marker-mount-saint-elias-base","properties":{"kind":"marker","markerType":"base","name":"Base · 100 m","height":18},"geometry":{"type":"Polygon","coordinates":[[[-140.93127311398035,60.2922],[-140.93129734705374,60.29223696098425],[-140.93136079006356,60.29225980412877],[-140.93143920993643,60.29225980412877],[-140.93150265294625,60.29223696098425],[-140.93152688601964,60.2922],[-140.93150265294625,60.292163039015755],[-140.93143920993643,60.292140195871234],[-140.93136079006356,60.292140195871234],[-140.93129734705374,60.292163039015755],[-140.93127311398035,60.2922]]]}},{"type":"Feature","id":"marker-mount-saint-elias-featured-run","properties":{"kind":"marker","markerType":"featured-run","name":"Powder · Mount St Elias","height":20},"geometry":{"type":"Polygon","coordinates":[[[-140.92827312562315,60.2892],[-140.92829735647297,60.28923696098425],[-140.9283607936614,60.28925980412877],[-140.92843920633862,60.28925980412877],[-140.92850264352705,60.28923696098425],[-140.92852687437687,60.2892],[-140.92850264352705,60.289163039015754],[-140.92843920633862,60.289140195871234],[-140.9283607936614,60.289140195871234],[-140.92829735647297,60.289163039015754],[-140.92827312562315,60.2892]]]}}]}