{"type":"FeatureCollection","features":[{"type":"Feature","id":"building-973077875","properties":{"kind":"building","name":"Alpine building","height":7.2},"geometry":{"type":"Polygon","coordinates":[[[9.9390215,46.4070225],[9.9390524,46.4070319],[9.9390818,46.406997],[9.9390459,46.4069863],[9.9390215,46.4070225]]]}},{"type":"Feature","id":"pylon-diavolezza-lagalb-0","properties":{"kind":"pylon","name":"Lift tower","height":13},"geometry":{"type":"Polygon","coordinates":[[[9.821346375293608,46.4336439],[9.821337976494561,46.43365787444232],[9.8213177,46.43366366284585],[9.821297423505438,46.43365787444232],[9.821289024706392,46.4336439],[9.821297423505438,46.43362992555768],[9.8213177,46.43362413715415],[9.821337976494561,46.43362992555768],[9.821346375293608,46.4336439]]]}},{"type":"Feature","id":"pylon-diavolezza-lagalb-1","properties":{"kind":"pylon","name":"Lift tower","height":13},"geometry":{"type":"Polygon","coordinates":[[[9.82206167483348,46.4327694],[9.822053276169203,46.432783374442316],[9.822033,46.43278916284585],[9.822012723830795,46.432783374442316],[9.82200432516652,46.4327694],[9.822012723830795,46.43275542555768],[9.822033,46.432749637154146],[9.822053276169203,46.43275542555768],[9.82206167483348,46.4327694]]]}},{"type":"Feature","id":"pylon-diavolezza-lagalb-2","properties":{"kind":"pylon","name":"Lift tower","height":13},"geometry":{"type":"Polygon","coordinates":[[[9.822715074413203,46.4319706],[9.822706675872022,46.43198457444232],[9.8226864,46.43199036284585],[9.822666124127979,46.43198457444232],[9.822657725586797,46.4319706],[9.822666124127979,46.43195662555768],[9.8226864,46.43195083715415],[9.822706675872022,46.43195662555768],[9.822715074413203,46.4319706]]]}},{"type":"Feature","id":"pylon-diavolezza-lagalb-3","properties":{"kind":"pylon","name":"Lift tower","height":13},"geometry":{"type":"Polygon","coordinates":[[[9.822259469605378,46.4228302],[9.822251072472376,46.42284417444232],[9.8222308,46.42284996284585],[9.822210527527623,46.42284417444232],[9.822202130394622,46.4228302],[9.822210527527623,46.42281622555768],[9.8222308,46.42281043715415],[9.822251072472376,46.42281622555768],[9.822259469605378,46.4228302]]]}},{"type":"Feature","id":"pylon-diavolezza-lagalb-4","properties":{"kind":"pylon","name":"Lift tower","height":13},"geometry":{"type":"Polygon","coordinates":[[[9.823760274101794,46.4313787],[9.823751875651823,46.43139267444232],[9.8237316,46.431398462845856],[9.823711324348178,46.43139267444232],[9.823702925898207,46.4313787],[9.823711324348178,46.431364725557685],[9.8237316,46.43135893715415],[9.823751875651823,46.431364725557685],[9.823760274101794,46.4313787]]]}},{"type":"Feature","id":"pylon-diavolezza-lagalb-5","properties":{"kind":"pylon","name":"Lift tower","height":13},"geometry":{"type":"Polygon","coordinates":[[[9.822905575766175,46.434542],[9.822897176828718,46.43455597444232],[9.8228769,46.43456176284585],[9.822856623171283,46.43455597444232],[9.822848224233827,46.434542],[9.822856623171283,46.43452802555768],[9.8228769,46.43452223715415],[9.822897176828718,46.43452802555768],[9.822905575766175,46.434542]]]}},{"type":"Feature","id":"pylon-diavolezza-lagalb-6","properties":{"kind":"pylon","name":"Lift tower","height":13},"geometry":{"type":"Polygon","coordinates":[[[9.92173750385075,46.4878389],[9.92172909668751,46.48785287444232],[9.9217088,46.48785866284585],[9.921688503312488,46.48785287444232],[9.921680096149249,46.4878389],[9.921688503312488,46.48782492555768],[9.9217088,46.48781913715415],[9.92172909668751,46.48782492555768],[9.92173750385075,46.4878389]]]}},{"type":"Feature","id":"pylon-diavolezza-lagalb-7","properties":{"kind":"pylon","name":"Lift tower","height":13},"geometry":{"type":"Polygon","coordinates":[[[9.910644005638689,46.4912268],[9.910635597951776,46.49124077444232],[9.9106153,46.49124656284585],[9.910595002048224,46.49124077444232],[9.91058659436131,46.4912268],[9.910595002048224,46.49121282555768],[9.9106153,46.49120703715415],[9.910635597951776,46.49121282555768],[9.910644005638689,46.4912268]]]}},{"type":"Feature","id":"pylon-diavolezza-lagalb-8","properties":{"kind":"pylon","name":"Lift tower","height":13},"geometry":{"type":"Polygon","coordinates":[[[9.911893705562742,46.4910829],[9.911885297898072,46.49109687444232],[9.911865,46.491102662845854],[9.911844702101929,46.49109687444232],[9.91183629443726,46.4910829],[9.911844702101929,46.491068925557684],[9.911865,46.49106313715415],[9.911885297898072,46.491068925557684],[9.911893705562742,46.4910829]]]}},{"type":"Feature","id":"pylon-diavolezza-lagalb-9","properties":{"kind":"pylon","name":"Lift tower","height":13},"geometry":{"type":"Polygon","coordinates":[[[9.917773604540155,46.4891453],[9.917765197174996,46.489159274442315],[9.9177449,46.48916506284585],[9.917724602825006,46.489159274442315],[9.917716195459846,46.4891453],[9.917724602825006,46.48913132555768],[9.9177449,46.489125537154145],[9.917765197174996,46.48913132555768],[9.917773604540155,46.4891453]]]}},{"type":"Feature","id":"pylon-diavolezza-lagalb-10","properties":{"kind":"pylon","name":"Lift tower","height":13},"geometry":{"type":"Polygon","coordinates":[[[9.907656205514238,46.490991],[9.907647797863774,46.49100497444232],[9.9076275,46.49101076284585],[9.907607202136226,46.49100497444232],[9.907598794485763,46.490991],[9.907607202136226,46.49097702555768],[9.9076275,46.49097123715415],[9.907647797863774,46.49097702555768],[9.907656205514238,46.490991]]]}},{"type":"Feature","id":"pylon-diavolezza-lagalb-11","properties":{"kind":"pylon","name":"Lift tower","height":13},"geometry":{"type":"Polygon","coordinates":[[[9.918902504343787,46.4887732],[9.918894097036143,46.488787174442315],[9.9188738,46.48879296284585],[9.918853502963858,46.488787174442315],[9.918845095656213,46.4887732],[9.918853502963858,46.48875922555768],[9.9188738,46.488753437154145],[9.918894097036143,46.48875922555768],[9.918902504343787,46.4887732]]]}},{"type":"Feature","id":"pylon-diavolezza-lagalb-12","properties":{"kind":"pylon","name":"Lift tower","height":13},"geometry":{"type":"Polygon","coordinates":[[[9.920862804002887,46.4881272],[9.920854396795088,46.48814117444232],[9.9208341,46.48814696284585],[9.920813803204913,46.48814117444232],[9.920805395997114,46.4881272],[9.920813803204913,46.48811322555768],[9.9208341,46.48810743715415],[9.920854396795088,46.48811322555768],[9.920862804002887,46.4881272]]]}},{"type":"Feature","id":"pylon-diavolezza-lagalb-13","properties":{"kind":"pylon","name":"Lift tower","height":13},"geometry":{"type":"Polygon","coordinates":[[[9.908948105568072,46.491093],[9.908939697901841,46.49110697444232],[9.9089194,46.49111276284585],[9.90889910209816,46.49110697444232],[9.908890694431928,46.491093],[9.90889910209816,46.49107902555768],[9.9089194,46.49107323715415],[9.908939697901841,46.49107902555768],[9.908948105568072,46.491093]]]}},{"type":"Feature","id":"pylon-diavolezza-lagalb-14","properties":{"kind":"pylon","name":"Lift tower","height":13},"geometry":{"type":"Polygon","coordinates":[[[9.911106805657953,46.4912633],[9.911098397965397,46.49127727444232],[9.9110781,46.49128306284585],[9.911057802034602,46.49127727444232],[9.911049394342045,46.4912633],[9.911057802034602,46.49124932555768],[9.9110781,46.49124353715415],[9.911098397965397,46.49124932555768],[9.911106805657953,46.4912633]]]}},{"type":"Feature","id":"pylon-diavolezza-lagalb-15","properties":{"kind":"pylon","name":"Lift tower","height":13},"geometry":{"type":"Polygon","coordinates":[[[9.911300005666028,46.4912786],[9.911291597971108,46.49129257444232],[9.9112713,46.49129836284585],[9.91125100202889,46.49129257444232],[9.91124259433397,46.4912786],[9.91125100202889,46.49126462555768],[9.9112713,46.49125883715415],[9.911291597971108,46.49126462555768],[9.911300005666028,46.4912786]]]}},{"type":"Feature","id":"pylon-diavolezza-lagalb-16","properties":{"kind":"pylon","name":"Lift tower","height":13},"geometry":{"type":"Polygon","coordinates":[[[9.914586405094447,46.4901956],[9.914577997566937,46.49020957444232],[9.9145577,46.49021536284585],[9.914537402433062,46.49020957444232],[9.914528994905552,46.4901956],[9.914537402433062,46.49018162555768],[9.9145577,46.49017583715415],[9.914577997566937,46.49018162555768],[9.914586405094447,46.4901956]]]}},{"type":"Feature","id":"pylon-diavolezza-lagalb-17","properties":{"kind":"pylon","name":"Lift tower","height":13},"geometry":{"type":"Polygon","coordinates":[[[9.968054664849722,46.4137846],[9.96804626910962,46.41379857444232],[9.968026,46.41380436284585],[9.968005730890381,46.41379857444232],[9.967997335150278,46.4137846],[9.968005730890381,46.41377062555768],[9.968026,46.41376483715415],[9.96804626910962,46.41377062555768],[9.968054664849722,46.4137846]]]}},{"type":"Feature","id":"pylon-diavolezza-lagalb-18","properties":{"kind":"pylon","name":"Lift tower","height":13},"geometry":{"type":"Polygon","coordinates":[[[9.967026565437063,46.414902],[9.967018169524934,46.414915974442316],[9.9669979,46.41492176284585],[9.966977630475068,46.414915974442316],[9.966969234562939,46.414902],[9.966977630475068,46.41488802555768],[9.9669979,46.414882237154146],[9.967018169524934,46.41488802555768],[9.967026565437063,46.414902]]]}},{"type":"Feature","id":"pylon-diavolezza-lagalb-19","properties":{"kind":"pylon","name":"Lift tower","height":13},"geometry":{"type":"Polygon","coordinates":[[[9.966751365595703,46.4152038],[9.966742969637108,46.41521777444232],[9.9667227,46.41522356284585],[9.966702430362892,46.41521777444232],[9.966694034404297,46.4152038],[9.966702430362892,46.41518982555768],[9.9667227,46.41518403715415],[9.966742969637108,46.41518982555768],[9.966751365595703,46.4152038]]]}},{"type":"Feature","id":"pylon-diavolezza-lagalb-20","properties":{"kind":"pylon","name":"Lift tower","height":13},"geometry":{"type":"Polygon","coordinates":[[[9.966662765646745,46.4153009],[9.9666543696732,46.415314874442316],[9.9666341,46.41532066284585],[9.9666138303268,46.415314874442316],[9.966605434353255,46.4153009],[9.9666138303268,46.41528692555768],[9.9666341,46.415281137154146],[9.9666543696732,46.41528692555768],[9.966662765646745,46.4153009]]]}},{"type":"Feature","id":"pylon-diavolezza-lagalb-21","properties":{"kind":"pylon","name":"Lift tower","height":13},"geometry":{"type":"Polygon","coordinates":[[[9.966474665755188,46.4155072],[9.966466269749882,46.41552117444232],[9.966446,46.41552696284585],[9.966425730250117,46.41552117444232],[9.966417334244811,46.4155072],[9.966425730250117,46.41549322555768],[9.966446,46.41548743715415],[9.966466269749882,46.41549322555768],[9.966474665755188,46.4155072]]]}},{"type":"Feature","id":"pylon-diavolezza-lagalb-22","properties":{"kind":"pylon","name":"Lift tower","height":13},"geometry":{"type":"Polygon","coordinates":[[[9.965498766317666,46.4165772],[9.965490370147613,46.41659117444232],[9.9654701,46.41659696284585],[9.965449829852385,46.41659117444232],[9.965441433682333,46.4165772],[9.965449829852385,46.41656322555768],[9.9654701,46.41655743715415],[9.965490370147613,46.41656322555768],[9.965498766317666,46.4165772]]]}},{"type":"Feature","id":"pylon-diavolezza-lagalb-23","properties":{"kind":"pylon","name":"Lift tower","height":13},"geometry":{"type":"Polygon","coordinates":[[[9.96487136667935,46.4172652],[9.964862970403363,46.41727917444232],[9.9648427,46.417284962845855],[9.964822429596637,46.41727917444232],[9.96481403332065,46.4172652],[9.964822429596637,46.417251225557685],[9.9648427,46.41724543715415],[9.964862970403363,46.417251225557685],[9.96487136667935,46.4172652]]]}},{"type":"Feature","id":"pylon-diavolezza-lagalb-24","properties":{"kind":"pylon","name":"Lift tower","height":13},"geometry":{"type":"Polygon","coordinates":[[[9.972595270079408,46.4237316],[9.972586872807566,46.42374557444232],[9.9725666,46.423751362845856],[9.972546327192434,46.42374557444232],[9.972537929920593,46.4237316],[9.972546327192434,46.423717625557686],[9.9725666,46.42371183715415],[9.972586872807566,46.423717625557686],[9.972595270079408,46.4237316]]]}},{"type":"Feature","id":"pylon-diavolezza-lagalb-25","properties":{"kind":"pylon","name":"Lift tower","height":13},"geometry":{"type":"Polygon","coordinates":[[[9.917041204667498,46.4893866],[9.917032797265039,46.48940057444232],[9.9170125,46.489406362845855],[9.916992202734962,46.48940057444232],[9.916983795332502,46.4893866],[9.916992202734962,46.489372625557685],[9.9170125,46.48936683715415],[9.917032797265039,46.489372625557685],[9.917041204667498,46.4893866]]]}},{"type":"Feature","id":"pylon-diavolezza-lagalb-26","properties":{"kind":"pylon","name":"Lift tower","height":13},"geometry":{"type":"Polygon","coordinates":[[[9.915335904964092,46.4899486],[9.915327497474763,46.489962574442316],[9.9153072,46.48996836284585],[9.915286902525239,46.489962574442316],[9.91527849503591,46.4899486],[9.915286902525239,46.48993462555768],[9.9153072,46.489928837154146],[9.915327497474763,46.48993462555768],[9.915335904964092,46.4899486]]]}},{"type":"Feature","id":"pylon-diavolezza-lagalb-27","properties":{"kind":"pylon","name":"Lift tower","height":13},"geometry":{"type":"Polygon","coordinates":[[[9.912971605375272,46.4907277],[9.91296319776551,46.49074167444232],[9.9129429,46.49074746284585],[9.912922602234488,46.49074167444232],[9.912914194624726,46.4907277],[9.912922602234488,46.49071372555768],[9.9129429,46.49070793715415],[9.91296319776551,46.49071372555768],[9.912971605375272,46.4907277]]]}},{"type":"Feature","id":"pylon-diavolezza-lagalb-28","properties":{"kind":"pylon","name":"Lift tower","height":13},"geometry":{"type":"Polygon","coordinates":[[[9.911488205633306,46.4912166],[9.911479797947969,46.49123057444232],[9.9114595,46.491236362845854],[9.91143920205203,46.49123057444232],[9.911430794366693,46.4912166],[9.91143920205203,46.49120262555768],[9.9114595,46.49119683715415],[9.911479797947969,46.49120262555768],[9.911488205633306,46.4912166]]]}},{"type":"Feature","id":"pylon-diavolezza-lagalb-29","properties":{"kind":"pylon","name":"Lift tower","height":13},"geometry":{"type":"Polygon","coordinates":[[[9.911177205660909,46.4912689],[9.911168797967488,46.49128287444232],[9.9111485,46.491288662845854],[9.911128202032511,46.49128287444232],[9.91111979433909,46.4912689],[9.911128202032511,46.49125492555768],[9.9111485,46.49124913715415],[9.911168797967488,46.49125492555768],[9.911177205660909,46.4912689]]]}},{"type":"Feature","id":"pylon-diavolezza-lagalb-30","properties":{"kind":"pylon","name":"Lift tower","height":13},"geometry":{"type":"Polygon","coordinates":[[[9.907416005552502,46.4910635],[9.907407597890831,46.49107747444232],[9.9073873,46.491083262845855],[9.907367002109169,46.49107747444232],[9.907358594447498,46.4910635],[9.907367002109169,46.491049525557685],[9.9073873,46.49104373715415],[9.907407597890831,46.491049525557685],[9.907416005552502,46.4910635]]]}},{"type":"Feature","id":"pylon-diavolezza-lagalb-31","properties":{"kind":"pylon","name":"Lift tower","height":13},"geometry":{"type":"Polygon","coordinates":[[[9.908777705614412,46.4911808],[9.908769297934608,46.49119477444232],[9.908749,46.491200562845854],[9.908728702065392,46.49119477444232],[9.908720294385589,46.4911808],[9.908728702065392,46.491166825557684],[9.908749,46.49116103715415],[9.908769297934608,46.491166825557684],[9.908777705614412,46.4911808]]]}},{"type":"Feature","id":"pylon-diavolezza-lagalb-32","properties":{"kind":"pylon","name":"Lift tower","height":13},"geometry":{"type":"Polygon","coordinates":[[[9.910362405686403,46.4913172],[9.910353997985514,46.491331174442315],[9.9103337,46.49133696284585],[9.910313402014488,46.491331174442315],[9.910304994313599,46.4913172],[9.910313402014488,46.49130322555768],[9.9103337,46.491297437154145],[9.910353997985514,46.49130322555768],[9.910362405686403,46.4913172]]]}},{"type":"Feature","id":"pylon-diavolezza-lagalb-33","properties":{"kind":"pylon","name":"Lift tower","height":13},"geometry":{"type":"Polygon","coordinates":[[[9.96811856634763,46.4166342],[9.968110170168801,46.416648174442315],[9.9680899,46.41665396284585],[9.9680696298312,46.416648174442315],[9.96806123365237,46.4166342],[9.9680696298312,46.41662022555768],[9.9680899,46.416614437154145],[9.968110170168801,46.41662022555768],[9.96811856634763,46.4166342]]]}},{"type":"Feature","id":"pylon-diavolezza-lagalb-34","properties":{"kind":"pylon","name":"Lift tower","height":13},"geometry":{"type":"Polygon","coordinates":[[[9.978043674621498,46.4323665],[9.978035276019309,46.43238047444232],[9.978015,46.43238626284585],[9.97799472398069,46.43238047444232],[9.9779863253785,46.4323665],[9.97799472398069,46.43235252555768],[9.978015,46.43234673715415],[9.978035276019309,46.43235252555768],[9.978043674621498,46.4323665]]]}},{"type":"Feature","id":"pylon-diavolezza-lagalb-35","properties":{"kind":"pylon","name":"Lift tower","height":13},"geometry":{"type":"Polygon","coordinates":[[[9.981200277259214,46.4373792],[9.981191877884456,46.43739317444232],[9.9811716,46.437398962845855],[9.981151322115544,46.43739317444232],[9.981142922740785,46.4373792],[9.981151322115544,46.437365225557684],[9.9811716,46.43735943715415],[9.981191877884456,46.437365225557684],[9.981200277259214,46.4373792]]]}},{"type":"Feature","id":"pylon-diavolezza-lagalb-36","properties":{"kind":"pylon","name":"Lift tower","height":13},"geometry":{"type":"Polygon","coordinates":[[[9.826059979669438,46.4419584],[9.826051579588741,46.441972374442315],[9.8260313,46.44197816284585],[9.82601102041126,46.441972374442315],[9.826002620330563,46.4419584],[9.82601102041126,46.44194442555768],[9.8260313,46.441938637154145],[9.826051579588741,46.44194442555768],[9.826059979669438,46.4419584]]]}},{"type":"Feature","id":"pylon-diavolezza-lagalb-37","properties":{"kind":"pylon","name":"Lift tower","height":13},"geometry":{"type":"Polygon","coordinates":[[[9.825953479381443,46.4414113],[9.825945079385098,46.44142527444232],[9.8259248,46.44143106284585],[9.8259045206149,46.44142527444232],[9.825896120618555,46.4414113],[9.8259045206149,46.44139732555768],[9.8259248,46.441391537154146],[9.825945079385098,46.44139732555768],[9.825953479381443,46.4414113]]]}},{"type":"Feature","id":"pylon-diavolezza-lagalb-38","properties":{"kind":"pylon","name":"Lift tower","height":13},"geometry":{"type":"Polygon","coordinates":[[[9.82574187880959,46.4403249],[9.825733478980737,46.44033887444232],[9.8257132,46.44034466284585],[9.825692921019261,46.44033887444232],[9.825684521190409,46.4403249],[9.825692921019261,46.44031092555768],[9.8257132,46.44030513715415],[9.825733478980737,46.44031092555768],[9.82574187880959,46.4403249]]]}},{"type":"Feature","id":"pylon-diavolezza-lagalb-39","properties":{"kind":"pylon","name":"Lift tower","height":13},"geometry":{"type":"Polygon","coordinates":[[[9.825463078056083,46.4388933],[9.825454678447928,46.438907274442315],[9.8254344,46.43891306284585],[9.825414121552074,46.438907274442315],[9.825405721943918,46.4388933],[9.825414121552074,46.43887932555768],[9.8254344,46.438873537154144],[9.825454678447928,46.43887932555768],[9.825463078056083,46.4388933]]]}},{"type":"Feature","id":"pylon-diavolezza-lagalb-40","properties":{"kind":"pylon","name":"Lift tower","height":13},"geometry":{"type":"Polygon","coordinates":[[[9.825259277505094,46.4378464],[9.82525087805832,46.437860374442316],[9.8252306,46.43786616284585],[9.825210321941679,46.437860374442316],[9.825201922494905,46.4378464],[9.825210321941679,46.43783242555768],[9.8252306,46.437826637154146],[9.82525087805832,46.43783242555768],[9.825259277505094,46.4378464]]]}},{"type":"Feature","id":"pylon-diavolezza-lagalb-41","properties":{"kind":"pylon","name":"Lift tower","height":13},"geometry":{"type":"Polygon","coordinates":[[[9.825035176899565,46.4366958],[9.825026777630145,46.43670977444232],[9.8250065,46.436715562845855],[9.824986222369857,46.43670977444232],[9.824977823100436,46.4366958],[9.824986222369857,46.436681825557685],[9.8250065,46.43667603715415],[9.825026777630145,46.436681825557685],[9.825035176899565,46.4366958]]]}},{"type":"Feature","id":"pylon-diavolezza-lagalb-42","properties":{"kind":"pylon","name":"Lift tower","height":13},"geometry":{"type":"Polygon","coordinates":[[[9.824901776538978,46.4360106],[9.824893377375172,46.43602457444232],[9.8248731,46.436030362845855],[9.824852822624827,46.43602457444232],[9.824844423461021,46.4360106],[9.824852822624827,46.435996625557685],[9.8248731,46.43599083715415],[9.824893377375172,46.435996625557685],[9.824901776538978,46.4360106]]]}},{"type":"Feature","id":"pylon-diavolezza-lagalb-43","properties":{"kind":"pylon","name":"Lift tower","height":13},"geometry":{"type":"Polygon","coordinates":[[[9.824753576138571,46.4352497],[9.824745177092042,46.43526367444232],[9.8247249,46.43526946284585],[9.824704622907957,46.43526367444232],[9.824696223861428,46.4352497],[9.824704622907957,46.43523572555768],[9.8247249,46.43522993715415],[9.824745177092042,46.43523572555768],[9.824753576138571,46.4352497]]]}},{"type":"Feature","id":"pylon-diavolezza-lagalb-44","properties":{"kind":"pylon","name":"Lift tower","height":13},"geometry":{"type":"Polygon","coordinates":[[[9.824567275635099,46.4342929],[9.824558876736035,46.43430687444232],[9.8245386,46.434312662845855],[9.824518323263966,46.43430687444232],[9.824509924364902,46.4342929],[9.824518323263966,46.434278925557685],[9.8245386,46.43427313715415],[9.824558876736035,46.434278925557685],[9.824567275635099,46.4342929]]]}},{"type":"Feature","id":"pylon-diavolezza-lagalb-45","properties":{"kind":"pylon","name":"Lift tower","height":13},"geometry":{"type":"Polygon","coordinates":[[[9.824361975080246,46.4332384],[9.824353576343693,46.43325237444232],[9.8243333,46.43325816284585],[9.824313023656305,46.43325237444232],[9.824304624919753,46.4332384],[9.824313023656305,46.43322442555768],[9.8243333,46.43321863715415],[9.824353576343693,46.43322442555768],[9.824361975080246,46.4332384]]]}},{"type":"Feature","id":"pylon-diavolezza-lagalb-46","properties":{"kind":"pylon","name":"Lift tower","height":13},"geometry":{"type":"Polygon","coordinates":[[[9.824231274726936,46.4325669],[9.824222876093865,46.432580874442316],[9.8242026,46.43258666284585],[9.824182323906134,46.432580874442316],[9.824173925273064,46.4325669],[9.824182323906134,46.43255292555768],[9.8242026,46.432547137154145],[9.824222876093865,46.43255292555768],[9.824231274726936,46.4325669]]]}},{"type":"Feature","id":"pylon-diavolezza-lagalb-47","properties":{"kind":"pylon","name":"Lift tower","height":13},"geometry":{"type":"Polygon","coordinates":[[[9.825610278453988,46.4396493],[9.82560187872929,46.43966327444232],[9.8255816,46.43966906284585],[9.82556132127071,46.43966327444232],[9.825552921546011,46.4396493],[9.82556132127071,46.43963532555768],[9.8255816,46.43962953715415],[9.82560187872929,46.43963532555768],[9.825610278453988,46.4396493]]]}},{"type":"Feature","id":"pylon-diavolezza-lagalb-48","properties":{"kind":"pylon","name":"Lift tower","height":13},"geometry":{"type":"Polygon","coordinates":[[[9.824377574377742,46.4319032],[9.824369175846948,46.43191717444232],[9.8243489,46.43192296284585],[9.824328624153052,46.43191717444232],[9.824320225622259,46.4319032],[9.824328624153052,46.43188922555768],[9.8243489,46.43188343715415],[9.824369175846948,46.43188922555768],[9.824377574377742,46.4319032]]]}},{"type":"Feature","id":"pylon-diavolezza-lagalb-49","properties":{"kind":"pylon","name":"Lift tower","height":13},"geometry":{"type":"Polygon","coordinates":[[[9.825060674488176,46.4321131],[9.825052275925037,46.43212707444232],[9.825032,46.432132862845855],[9.825011724074963,46.43212707444232],[9.825003325511824,46.4321131],[9.825011724074963,46.432099125557684],[9.825032,46.43209333715415],[9.825052275925037,46.432099125557684],[9.825060674488176,46.4321131]]]}},{"type":"Feature","id":"pylon-diavolezza-lagalb-50","properties":{"kind":"pylon","name":"Lift tower","height":13},"geometry":{"type":"Polygon","coordinates":[[[9.82650107472099,46.4325556],[9.82649267608966,46.43256957444232],[9.8264724,46.43257536284585],[9.82645212391034,46.43256957444232],[9.82644372527901,46.4325556],[9.82645212391034,46.43254162555768],[9.8264724,46.43253583715415],[9.82649267608966,46.43254162555768],[9.82650107472099,46.4325556]]]}},{"type":"Feature","id":"pylon-diavolezza-lagalb-51","properties":{"kind":"pylon","name":"Lift tower","height":13},"geometry":{"type":"Polygon","coordinates":[[[9.827957674956494,46.4330032],[9.827949276256186,46.43301717444232],[9.827929,46.433022962845854],[9.827908723743812,46.43301717444232],[9.827900325043505,46.4330032],[9.827908723743812,46.432989225557684],[9.827929,46.43298343715415],[9.827949276256186,46.432989225557684],[9.827957674956494,46.4330032]]]}},{"type":"Feature","id":"pylon-diavolezza-lagalb-52","properties":{"kind":"pylon","name":"Lift tower","height":13},"geometry":{"type":"Polygon","coordinates":[[[9.829118475144123,46.4333598],[9.829110076388861,46.433373774442316],[9.8290898,46.43337956284585],[9.829069523611139,46.433373774442316],[9.829061124855878,46.4333598],[9.829069523611139,46.43334582555768],[9.8290898,46.433340037154146],[9.829110076388861,46.43334582555768],[9.829118475144123,46.4333598]]]}},{"type":"Feature","id":"pylon-diavolezza-lagalb-53","properties":{"kind":"pylon","name":"Lift tower","height":13},"geometry":{"type":"Polygon","coordinates":[[[9.83038917534954,46.4337502],[9.830380776534112,46.43376417444232],[9.8303605,46.43376996284585],[9.830340223465887,46.43376417444232],[9.83033182465046,46.4337502],[9.830340223465887,46.43373622555768],[9.8303605,46.433730437154146],[9.830380776534112,46.43373622555768],[9.83038917534954,46.4337502]]]}},{"type":"Feature","id":"pylon-diavolezza-lagalb-54","properties":{"kind":"pylon","name":"Lift tower","height":13},"geometry":{"type":"Polygon","coordinates":[[[9.831627975549805,46.4341308],[9.831619576675722,46.434144774442316],[9.8315993,46.43415056284585],[9.831579023324279,46.434144774442316],[9.831570624450196,46.4341308],[9.831579023324279,46.43411682555768],[9.8315993,46.434111037154146],[9.831619576675722,46.43411682555768],[9.831627975549805,46.4341308]]]}},{"type":"Feature","id":"pylon-diavolezza-lagalb-55","properties":{"kind":"pylon","name":"Lift tower","height":13},"geometry":{"type":"Polygon","coordinates":[[[9.832263375652516,46.434326],[9.83225497674835,46.43433997444232],[9.8322347,46.43434576284585],[9.832214423251651,46.43433997444232],[9.832206024347485,46.434326],[9.832214423251651,46.43431202555768],[9.8322347,46.434306237154146],[9.83225497674835,46.43431202555768],[9.832263375652516,46.434326]]]}},{"type":"Feature","id":"pylon-diavolezza-lagalb-56","properties":{"kind":"pylon","name":"Lift tower","height":13},"geometry":{"type":"Polygon","coordinates":[[[10.006917875335175,46.4337229],[10.006909476523955,46.43373687444232],[10.0068892,46.43374266284585],[10.006868923476045,46.43373687444232],[10.006860524664825,46.4337229],[10.006868923476045,46.43370892555768],[10.0068892,46.43370313715415],[10.006909476523955,46.43370892555768],[10.006917875335175,46.4337229]]]}},{"type":"Feature","id":"pylon-diavolezza-lagalb-57","properties":{"kind":"pylon","name":"Lift tower","height":13},"geometry":{"type":"Polygon","coordinates":[[[10.01340027447339,46.432085],[10.013391875914582,46.43209897444232],[10.0133716,46.43210476284585],[10.013351324085416,46.43209897444232],[10.013342925526608,46.432085],[10.013351324085416,46.43207102555768],[10.0133716,46.43206523715415],[10.013391875914582,46.43207102555768],[10.01340027447339,46.432085]]]}},{"type":"Feature","id":"pylon-diavolezza-lagalb-58","properties":{"kind":"pylon","name":"Lift tower","height":13},"geometry":{"type":"Polygon","coordinates":[[[9.964724266767197,46.4174323],[9.96471587046548,46.41744627444232],[9.9646956,46.417452062845854],[9.964675329534522,46.41744627444232],[9.964666933232804,46.4174323],[9.964675329534522,46.41741832555768],[9.9646956,46.41741253715415],[9.96471587046548,46.41741832555768],[9.964724266767197,46.4174323]]]}},{"type":"Feature","id":"pylon-diavolezza-lagalb-59","properties":{"kind":"pylon","name":"Lift tower","height":13},"geometry":{"type":"Polygon","coordinates":[[[9.97078716328162,46.410801],[9.970778768000805,46.41081497444232],[9.9707585,46.41082076284585],[9.970738231999196,46.41081497444232],[9.97072983671838,46.410801],[9.970738231999196,46.41078702555768],[9.9707585,46.41078123715415],[9.970778768000805,46.41078702555768],[9.97078716328162,46.410801]]]}},{"type":"Feature","id":"pylon-diavolezza-lagalb-60","properties":{"kind":"pylon","name":"Lift tower","height":13},"geometry":{"type":"Polygon","coordinates":[[[9.970339563536296,46.4112856],[9.970331168180888,46.41129957444232],[9.9703109,46.41130536284585],[9.970290631819111,46.41129957444232],[9.970282236463703,46.4112856],[9.970290631819111,46.41127162555768],[9.9703109,46.41126583715415],[9.970331168180888,46.41127162555768],[9.970339563536296,46.4112856]]]}},{"type":"Feature","id":"pylon-diavolezza-lagalb-61","properties":{"kind":"pylon","name":"Lift tower","height":13},"geometry":{"type":"Polygon","coordinates":[[[9.969710063898457,46.4119747],[9.969701668436974,46.41198867444232],[9.9696814,46.411994462845854],[9.969661131563027,46.41198867444232],[9.969652736101544,46.4119747],[9.969661131563027,46.411960725557684],[9.9696814,46.41195493715415],[9.969701668436974,46.411960725557684],[9.969710063898457,46.4119747]]]}},{"type":"Feature","id":"pylon-diavolezza-lagalb-62","properties":{"kind":"pylon","name":"Lift tower","height":13},"geometry":{"type":"Polygon","coordinates":[[[9.969052464274716,46.4126906],[9.96904406870303,46.412704574442316],[9.9690238,46.41271036284585],[9.969003531296972,46.412704574442316],[9.968995135725285,46.4126906],[9.969003531296972,46.41267662555768],[9.9690238,46.412670837154145],[9.96904406870303,46.41267662555768],[9.969052464274716,46.4126906]]]}},{"type":"Feature","id":"marker-diavolezza-lagalb-summit","properties":{"kind":"marker","markerType":"summit","name":"Upper mountain · 2978 m","height":26},"geometry":{"type":"Polygon","coordinates":[[[9.941091198339214,46.409],[9.941073781006283,46.409036960984245],[9.941028181836677,46.409059804128766],[9.940971818163325,46.409059804128766],[9.940926218993718,46.409036960984245],[9.940908801660788,46.409],[9.940926218993718,46.40896303901575],[9.940971818163325,46.40894019587123],[9.941028181836677,46.40894019587123],[9.941073781006283,46.40896303901575],[9.941091198339214,46.409]]]}},{"type":"Feature","id":"marker-diavolezza-lagalb-base","properties":{"kind":"marker","markerType":"base","name":"Base · 1896 m","height":18},"geometry":{"type":"Polygon","coordinates":[[[9.945091191651978,46.405],[9.945073775596194,46.40503696098425],[9.945028179770206,46.40505980412877],[9.944971820229794,46.40505980412877],[9.944926224403806,46.40503696098425],[9.944908808348023,46.405],[9.944926224403806,46.404963039015755],[9.944971820229794,46.404940195871234],[9.945028179770206,46.404940195871234],[9.945073775596194,46.404963039015755],[9.945091191651978,46.405]]]}}]}