{"type":"FeatureCollection","features":[{"type":"Feature","id":927990313,"properties":{"kind":"run","name":"Wood Run","subtype":"easy","pisteType":"downhill"},"geometry":{"type":"LineString","coordinates":[[146.7972199,-36.742511],[146.7978422,-36.7426528],[146.7983732,-36.7431773],[146.7982767,-36.7436716],[146.7977992,-36.7444196],[146.7975847,-36.7444841]]}},{"type":"Feature","id":927990314,"properties":{"kind":"run","name":"Dingo Run","subtype":"intermediate","pisteType":"downhill"},"geometry":{"type":"LineString","coordinates":[[146.7970643,-36.7425626],[146.7968283,-36.7430569],[146.797118,-36.7443594],[146.7975847,-36.7444841]]}},{"type":"Feature","id":927990315,"properties":{"kind":"run","name":"Bambi Run","subtype":"novice","pisteType":"downhill"},"geometry":{"type":"LineString","coordinates":[[146.7957769,-36.7445872],[146.7961845,-36.7445485],[146.7964259,-36.7446517],[146.7963777,-36.7448537]]}},{"type":"Feature","id":927990316,"properties":{"kind":"run","name":"Toboggan Run","subtype":"easy","pisteType":"sled"},"geometry":{"type":"LineString","coordinates":[[146.7988864,-36.7449146],[146.7981162,-36.7449887]]}},{"type":"Feature","id":1362801305,"properties":{"kind":"run","name":"Alpine Way","subtype":"intermediate","pisteType":"downhill"},"geometry":{"type":"LineString","coordinates":[[146.7879792,-36.7608062],[146.787611,-36.7608844],[146.7872203,-36.7610409],[146.7869798,-36.7612757],[146.7864802,-36.7615074],[146.7860519,-36.7615857],[146.78571,-36.7617211],[146.785308,-36.7620071],[146.7852281,-36.7621202],[146.7852141,-36.7622343]]}},{"type":"Feature","id":1362801306,"properties":{"kind":"run","name":"Cresta","subtype":"easy","pisteType":"downhill"},"geometry":{"type":"LineString","coordinates":[[146.786688,-36.7623476],[146.7866116,-36.7626212],[146.7865526,-36.7628401],[146.7864624,-36.7630093],[146.7863387,-36.7631379],[146.7861835,-36.7632437],[146.7860231,-36.7632569]]}},{"type":"Feature","id":1362801307,"properties":{"kind":"run","name":"Toboggan Run","subtype":"easy","pisteType":"sled"},"geometry":{"type":"LineString","coordinates":[[146.7870097,-36.7633721],[146.7864018,-36.7635917]]}},{"type":"Feature","id":1362801309,"properties":{"kind":"run","name":"Rocky Road","subtype":"intermediate","pisteType":"downhill"},"geometry":{"type":"LineString","coordinates":[[146.7881302,-36.7608455],[146.7880377,-36.761112],[146.7878439,-36.7614294],[146.7875983,-36.7615631],[146.7874014,-36.7616704],[146.7870028,-36.7620056],[146.7867222,-36.7621701],[146.7863665,-36.7623184],[146.7860946,-36.7625038],[146.7858806,-36.7625385],[146.7855885,-36.7625107],[146.7854208,-36.7625177],[146.7852993,-36.762425],[146.7852588,-36.7623346]]}},{"type":"Feature","id":1362801311,"properties":{"kind":"run","name":"Mapped ski run","subtype":"intermediate","pisteType":"downhill"},"geometry":{"type":"LineString","coordinates":[[146.7860519,-36.7615857],[146.7856458,-36.7615268],[146.7852895,-36.7615229],[146.785167,-36.7614961]]}},{"type":"Feature","id":1362801312,"properties":{"kind":"run","name":"Poma Down","subtype":"easy","pisteType":"downhill"},"geometry":{"type":"LineString","coordinates":[[146.7874673,-36.7632006],[146.7871593,-36.7632376],[146.7868969,-36.7633243],[146.7866619,-36.7633093],[146.7864354,-36.7633636],[146.7862711,-36.7633451],[146.7860231,-36.7632569]]}},{"type":"Feature","id":1362801313,"properties":{"kind":"run","name":"Toboggan Run","subtype":"easy","pisteType":"sled"},"geometry":{"type":"LineString","coordinates":[[146.7866195,-36.7629836],[146.7861308,-36.7633989]]}},{"type":"Feature","id":1362801314,"properties":{"kind":"run","name":"International","subtype":"intermediate","pisteType":"downhill"},"geometry":{"type":"LineString","coordinates":[[146.7853434,-36.7603195],[146.7853413,-36.7606159],[146.7853852,-36.7608204],[146.7854433,-36.7610331],[146.7853851,-36.7613214],[146.7852501,-36.7614296],[146.785167,-36.7614961],[146.7847708,-36.7615136],[146.7844764,-36.7615194]]}},{"type":"Feature","id":1362801316,"properties":{"kind":"run","name":"International 2","subtype":"advanced","pisteType":"downhill"},"geometry":{"type":"LineString","coordinates":[[146.7858117,-36.759388],[146.7858457,-36.7595237],[146.7859177,-36.7596858],[146.7860435,-36.7598244],[146.7861649,-36.7599325],[146.7861649,-36.7600909],[146.7860885,-36.7603556]]}},{"type":"Feature","id":1362801317,"properties":{"kind":"run","name":"International","subtype":"advanced","pisteType":"downhill"},"geometry":{"type":"LineString","coordinates":[[146.7857646,-36.7590182],[146.7859074,-36.7590902],[146.7859577,-36.7591294],[146.7859577,-36.7592255],[146.7858233,-36.759377],[146.7858117,-36.759388],[146.785666,-36.7595549],[146.7856126,-36.7597012],[146.785526,-36.7597738],[146.7854852,-36.7598371],[146.7854042,-36.7600442],[146.7853434,-36.7603195]]}},{"type":"Feature","id":1362801318,"properties":{"kind":"run","name":"Toboggan Run","subtype":"easy","pisteType":"sled"},"geometry":{"type":"LineString","coordinates":[[146.7864449,-36.7624012],[146.7857387,-36.7629812]]}},{"type":"Feature","id":1362801319,"properties":{"kind":"run","name":"Toboggan Run","subtype":"easy","pisteType":"sled"},"geometry":{"type":"LineString","coordinates":[[146.7870601,-36.763159],[146.7862317,-36.763486]]}},{"type":"Feature","id":1362801321,"properties":{"kind":"run","name":"Novice","subtype":"novice","pisteType":"downhill"},"geometry":{"type":"LineString","coordinates":[[146.7876403,-36.7632614],[146.7875326,-36.7633398],[146.787244,-36.76344],[146.7870207,-36.7635615],[146.7867846,-36.7636332],[146.7865845,-36.7636819]]}},{"type":"Feature","id":1362801323,"properties":{"kind":"run","name":"Icy Slope","subtype":"intermediate","pisteType":"downhill"},"geometry":{"type":"LineString","coordinates":[[146.7875983,-36.7615631],[146.7870828,-36.7615757],[146.7867676,-36.7616313],[146.7864032,-36.7617912],[146.7861834,-36.7618306],[146.7859607,-36.7618955],[146.7857698,-36.762053],[146.7854208,-36.7622585],[146.7853173,-36.7622815]]}},{"type":"Feature","id":1362801325,"properties":{"kind":"run","name":"International 2","subtype":"intermediate","pisteType":"downhill"},"geometry":{"type":"LineString","coordinates":[[146.7860885,-36.7603556],[146.7860479,-36.7605635],[146.786058,-36.7607984],[146.7859852,-36.7610672],[146.785779,-36.7611871],[146.7856415,-36.7613328],[146.785494,-36.7613911],[146.7852501,-36.7614296]]}},{"type":"Feature","id":1362801326,"properties":{"kind":"run","name":"Toboggan Run","subtype":"easy","pisteType":"sled"},"geometry":{"type":"LineString","coordinates":[[146.7861205,-36.762295],[146.7855096,-36.7625504]]}},{"type":"Feature","id":1362801327,"properties":{"kind":"run","name":"Double Down","subtype":"easy","pisteType":"downhill"},"geometry":{"type":"LineString","coordinates":[[146.786606,-36.7623136],[146.7864375,-36.7624436],[146.7863022,-36.7625924],[146.7862124,-36.7627767],[146.7861201,-36.7628743],[146.7860746,-36.7629718],[146.7860131,-36.7630576],[146.7859959,-36.7631985]]}},{"type":"Feature","id":1362803636,"properties":{"kind":"run","name":"Bluey","subtype":"intermediate","pisteType":"downhill"},"geometry":{"type":"LineString","coordinates":[[146.784939,-36.7596451],[146.7846686,-36.7598314],[146.7845173,-36.7599282],[146.7843282,-36.7599898],[146.7842179,-36.7600025],[146.7839159,-36.7600371],[146.783559,-36.7601751],[146.7834444,-36.7604196],[146.7834923,-36.7607537],[146.7840045,-36.7613726]]}},{"type":"Feature","id":1362803639,"properties":{"kind":"run","name":"Gully Down","subtype":"intermediate","pisteType":"downhill"},"geometry":{"type":"LineString","coordinates":[[146.7845173,-36.7599282],[146.7843882,-36.7600831],[146.7843421,-36.7602498],[146.7843373,-36.7604348],[146.784348,-36.7605834],[146.7843086,-36.7607418],[146.7842115,-36.7608827],[146.7841977,-36.7610807],[146.7841843,-36.7612431],[146.7841311,-36.7613676]]}},{"type":"Feature","id":1362803640,"properties":{"kind":"run","name":"Summit","subtype":"intermediate","pisteType":"downhill"},"geometry":{"type":"LineString","coordinates":[[146.7850202,-36.7603132],[146.7849525,-36.7604847],[146.784757,-36.7606147],[146.7846489,-36.7607754],[146.7846335,-36.7610046],[146.7846981,-36.7611765],[146.7846942,-36.7612965],[146.7844764,-36.7615194]]}},{"type":"Feature","id":1362803641,"properties":{"kind":"run","name":"Summit","subtype":"advanced","pisteType":"downhill"},"geometry":{"type":"LineString","coordinates":[[146.7854387,-36.7590068],[146.785275,-36.7591141],[146.7850886,-36.759485],[146.784939,-36.7596451],[146.7849655,-36.7597679],[146.7850651,-36.760011],[146.7850202,-36.7603132]]}},{"type":"Feature","id":1362803642,"properties":{"kind":"run","name":"Snowy Glades","subtype":"intermediate","pisteType":"downhill"},"geometry":{"type":"LineString","coordinates":[[146.7842179,-36.7600025],[146.7838646,-36.760315],[146.7837759,-36.7605732],[146.7838076,-36.760808],[146.7839956,-36.761364]]}},{"type":"Feature","id":1521280136,"properties":{"kind":"run","name":"Bogong Loop","subtype":"nordic","pisteType":"nordic"},"geometry":{"type":"LineString","coordinates":[[146.7903592,-36.7681321],[146.7907918,-36.7682853],[146.7909393,-36.7683655],[146.7909727,-36.7685174],[146.7910534,-36.7686341],[146.7913221,-36.7688409],[146.791438,-36.768959],[146.7914555,-36.7691939],[146.7915644,-36.7694035],[146.7917751,-36.7698521],[146.7919366,-36.7700293],[146.7920402,-36.7702104],[146.7921016,-36.7703177],[146.7922526,-36.7704189],[146.7924142,-36.7704414],[146.7925599,-36.7703992],[146.7926003,-36.7703078],[146.792581,-36.7702333],[146.7922839,-36.770009],[146.7919609,-36.7696785],[146.7917835,-36.769514],[146.7917958,-36.7694408],[146.7918608,-36.7694029],[146.7920293,-36.7693241],[146.7920399,-36.7692271],[146.7919872,-36.7690836],[146.7918906,-36.768995],[146.7916431,-36.7688712],[146.791536,-36.7687615],[146.7913656,-36.7685871],[146.7912603,-36.7684239],[146.7912621,-36.7682974],[146.7912368,-36.7681719]]}},{"type":"Feature","id":1521280138,"properties":{"kind":"run","name":"Bogong Loop","subtype":"nordic","pisteType":"nordic"},"geometry":{"type":"LineString","coordinates":[[146.7903592,-36.7681321],[146.7907599,-36.7681279],[146.7909496,-36.7681392],[146.7911393,-36.7681818],[146.7912368,-36.7681719]]}},{"type":"Feature","id":1521280141,"properties":{"kind":"run","name":"Bogong Loop","subtype":"nordic","pisteType":"nordic"},"geometry":{"type":"LineString","coordinates":[[146.7857856,-36.764134],[146.7859892,-36.7641829],[146.7862587,-36.7641275],[146.7865193,-36.7641332],[146.7866185,-36.7641943],[146.7866504,-36.764332],[146.7867302,-36.7644101],[146.7869164,-36.7644769],[146.7879907,-36.7647922],[146.7881733,-36.7648632],[146.7883807,-36.7650535],[146.7885509,-36.7651756],[146.7886527,-36.7652633],[146.7887636,-36.7653588],[146.7888203,-36.7654526],[146.7888912,-36.7654838],[146.7890277,-36.7655335],[146.789065,-36.7656187],[146.7891731,-36.7659326],[146.789221,-36.7661868],[146.7891979,-36.7662549],[146.7890331,-36.7663771],[146.7890207,-36.7664765],[146.7890667,-36.7666057],[146.7891536,-36.7667009],[146.7892706,-36.7667179],[146.7893965,-36.7667335],[146.7895277,-36.7668102],[146.7894975,-36.7669096],[146.7894018,-36.7671198],[146.7894213,-36.7672348],[146.7895224,-36.7674734],[146.7896659,-36.7675615],[146.7897422,-36.7676609],[146.7897759,-36.7678242],[146.7898592,-36.7679307],[146.790127,-36.7680682],[146.7903592,-36.7681321]]}},{"type":"Feature","id":1521280143,"properties":{"kind":"run","name":"Bogong Loop","subtype":"nordic","pisteType":"nordic"},"geometry":{"type":"LineString","coordinates":[[146.7891731,-36.7659326],[146.7892688,-36.7657497],[146.7895239,-36.7655179],[146.7895821,-36.765483],[146.7898588,-36.7653171],[146.7900354,-36.7652608],[146.7901505,-36.765224],[146.7904398,-36.7652423],[146.7906722,-36.7652879],[146.7908294,-36.765235],[146.7909069,-36.7651401],[146.7909023,-36.7650269],[146.7906836,-36.7647057],[146.7905583,-36.7645542],[146.790392,-36.7645524],[146.7901983,-36.7646455],[146.7899887,-36.7646254],[146.789893,-36.7646747],[146.789893,-36.7647823],[146.7899819,-36.7648864],[146.7901687,-36.7650433],[146.7901482,-36.7651437],[146.7900354,-36.7652608]]}},{"type":"Feature","id":1521280148,"properties":{"kind":"run","name":"Bogong Loop","subtype":"nordic","pisteType":"nordic"},"geometry":{"type":"LineString","coordinates":[[146.7912368,-36.7681719],[146.7910303,-36.7677587],[146.7909583,-36.7674549],[146.7908494,-36.7671075],[146.7907599,-36.7670456],[146.7904983,-36.766957],[146.790263,-36.766784],[146.7900049,-36.7666574],[146.7898609,-36.7666419],[146.7895993,-36.7666869],[146.7893965,-36.7667335]]}},{"type":"Feature","id":1521280149,"properties":{"kind":"run","name":"Bogong Loop","subtype":"nordic","pisteType":"nordic"},"geometry":{"type":"LineString","coordinates":[[146.7886527,-36.7652633],[146.7889398,-36.765298],[146.7890654,-36.7653837],[146.7891907,-36.7653895],[146.7893403,-36.7653902],[146.7894593,-36.7654329],[146.7895821,-36.765483]]}},{"type":"Feature","id":1521283236,"properties":{"kind":"run","name":"Wirbill Plain Trail","subtype":"nordic","pisteType":"nordic"},"geometry":{"type":"LineString","coordinates":[[146.7920402,-36.7702104],[146.7918511,-36.770368],[146.7916769,-36.7704313],[146.7915439,-36.7705054],[146.7913716,-36.7705435],[146.7912658,-36.7705375],[146.7911088,-36.770497],[146.7910267,-36.7705538],[146.7909116,-36.7706875],[146.7906828,-36.7708215],[146.7905616,-36.7709066],[146.7905781,-36.7711279],[146.7905062,-36.7712646],[146.7903441,-36.771422],[146.7900447,-36.7715405],[146.7897391,-36.7715962],[146.7895611,-36.7716657],[146.7891915,-36.7718896],[146.7889352,-36.7720064],[146.7886668,-36.7720447],[146.7883642,-36.7723453],[146.7878679,-36.7727516],[146.7878016,-36.772824],[146.7877923,-36.7729653],[146.7877435,-36.7730219],[146.7876887,-36.7730346],[146.7876792,-36.7730974],[146.7878341,-36.7731379],[146.7878952,-36.7732084],[146.7878995,-36.7733025],[146.7877901,-36.7734048],[146.7876492,-36.7734648],[146.7874497,-36.7735815],[146.7870817,-36.7736813],[146.7864451,-36.7737881],[146.7860949,-36.7739522],[146.7858526,-36.7741427],[146.7854476,-36.7743102],[146.7849698,-36.7744228],[146.7845114,-36.7744789],[146.7843233,-36.7745044],[146.7841297,-36.7746054],[146.7837968,-36.7746973],[146.7835598,-36.7747245],[146.7833477,-36.7746136],[146.7831102,-36.7745325],[146.7829764,-36.7743916],[146.7829621,-36.7742189],[146.7830674,-36.7740789],[146.7831472,-36.7739422],[146.7833012,-36.7737204],[146.7832827,-36.7735133],[146.7831665,-36.773344],[146.783017,-36.7732235],[146.7828012,-36.7731706],[146.7827342,-36.7730672]]}},{"type":"Feature","id":1521283238,"properties":{"kind":"run","name":"Wirbill Plain Trail","subtype":"nordic","pisteType":"nordic"},"geometry":{"type":"LineString","coordinates":[[146.7827612,-36.7729557],[146.782874,-36.7727997],[146.7828675,-36.7726474],[146.7827435,-36.772519],[146.7825313,-36.7723798],[146.7823837,-36.7722137]]}},{"type":"Feature","id":1521283239,"properties":{"kind":"run","name":"Beginners Trail","subtype":"nordic","pisteType":"nordic"},"geometry":{"type":"LineString","coordinates":[[146.7869519,-36.7624618],[146.7864513,-36.7623065],[146.7860787,-36.7621598],[146.7859204,-36.7620421],[146.7857297,-36.7617488],[146.7855939,-36.761565],[146.7854638,-36.7614922],[146.7850915,-36.76142],[146.7847825,-36.7613645],[146.7845631,-36.7613721],[146.7842878,-36.7614093],[146.7840388,-36.7614591],[146.7839163,-36.7615508],[146.7838607,-36.7616887],[146.7839122,-36.761839],[146.7840444,-36.7619933],[146.7843156,-36.7622625],[146.7846382,-36.7626775],[146.7850539,-36.7632287],[146.785151,-36.7635386]]}},{"type":"Feature","id":1521283240,"properties":{"kind":"run","name":"Wirbill Plain Trail","subtype":"nordic","pisteType":"nordic"},"geometry":{"type":"LineString","coordinates":[[146.7822953,-36.7721496],[146.7822011,-36.7721294],[146.7819345,-36.7721112],[146.7817361,-36.7720003],[146.7815906,-36.7718609],[146.7815293,-36.7717449],[146.7816132,-36.7716301],[146.7818494,-36.7713736],[146.7821359,-36.7709741],[146.7822662,-36.7707085],[146.782383,-36.7705443],[146.7825595,-36.7704647],[146.7828943,-36.7703916],[146.7831091,-36.7703207],[146.7831816,-36.7702047],[146.783113,-36.7700404],[146.7830431,-36.7698653],[146.782852,-36.7695954],[146.7828559,-36.7693901],[146.7829693,-36.7691807],[146.7832086,-36.7689935],[146.7836111,-36.7688263],[146.7841724,-36.7686109],[146.7847539,-36.7683484],[146.7851454,-36.7680935],[146.7856035,-36.7679014],[146.7859832,-36.7677432],[146.7860672,-36.7676149],[146.7861474,-36.7675189],[146.7862623,-36.7674615],[146.7863268,-36.7673489],[146.7863514,-36.7671979],[146.7863087,-36.7669815],[146.7862365,-36.7667233],[146.7862272,-36.7665001],[146.7863394,-36.7662498],[146.7863845,-36.7660014],[146.7863839,-36.7658352],[146.7863081,-36.765728],[146.7861065,-36.7656043],[146.7860023,-36.7655454],[146.7858525,-36.7654607],[146.78572,-36.7653267],[146.7855898,-36.7652264],[146.7853233,-36.7651247],[146.7852341,-36.7650633],[146.785145,-36.765002],[146.7850371,-36.7647596],[146.7849261,-36.7644785]]}},{"type":"Feature","id":1521283242,"properties":{"kind":"run","name":"Wirbill Plain Trail","subtype":"nordic","pisteType":"nordic"},"geometry":{"type":"LineString","coordinates":[[146.7827342,-36.7730672],[146.7827612,-36.7729557]]}},{"type":"Feature","id":1521283244,"properties":{"kind":"run","name":"Wirbill Plain Trail","subtype":"nordic","pisteType":"nordic"},"geometry":{"type":"LineString","coordinates":[[146.7823837,-36.7722137],[146.7822953,-36.7721496]]}}]}