{"type":"FeatureCollection","features":[{"type":"Feature","id":"building-203301639","properties":{"kind":"building","name":"Park Office","height":7.2},"geometry":{"type":"Polygon","coordinates":[[[146.8025332,-36.7256436],[146.8027799,-36.7255303],[146.8027082,-36.7254301],[146.8024615,-36.7255434],[146.8025332,-36.7256436]]]}},{"type":"Feature","id":"building-203301641","properties":{"kind":"building","name":"Resort building","height":7.2},"geometry":{"type":"Polygon","coordinates":[[[146.8022739,-36.7253504],[146.8026261,-36.7253056],[146.8026056,-36.7252021],[146.8022534,-36.7252469],[146.8022739,-36.7253504]]]}},{"type":"Feature","id":"building-203301642","properties":{"kind":"building","name":"Resort building","height":7.2},"geometry":{"type":"Polygon","coordinates":[[[146.8032135,-36.7256209],[146.8033221,-36.7256162],[146.8033327,-36.7257746],[146.8031695,-36.7257816],[146.8031642,-36.7257022],[146.8032188,-36.7256999],[146.8032135,-36.7256209]]]}},{"type":"Feature","id":"building-330457583","properties":{"kind":"building","name":"Resort building","height":7.2},"geometry":{"type":"Polygon","coordinates":[[[146.8033593,-36.7280864],[146.8035088,-36.7281785],[146.8035907,-36.728093],[146.8034412,-36.728001],[146.8033593,-36.7280864]]]}},{"type":"Feature","id":"building-330457584","properties":{"kind":"building","name":"Resort building","height":7.2},"geometry":{"type":"Polygon","coordinates":[[[146.8031762,-36.7279901],[146.8032863,-36.7280654],[146.8032086,-36.7281383],[146.8030985,-36.7280631],[146.8031762,-36.7279901]]]}},{"type":"Feature","id":"pylon-mount-buffalo-0","properties":{"kind":"pylon","name":"Lift tower","height":13},"geometry":{"type":"Polygon","coordinates":[[[146.79741396288392,-36.7437247],[146.79740673929246,-36.74371072555768],[146.7973893,-36.74370493715415],[146.79737186070753,-36.74371072555768],[146.79736463711606,-36.7437247],[146.79737186070753,-36.74373867444232],[146.7973893,-36.743744462845854],[146.79740673929246,-36.74373867444232],[146.79741396288392,-36.7437247]]]}},{"type":"Feature","id":"marker-mount-buffalo-summit zone \u00b7 1723 m","properties":{"kind":"marker","name":"Summit zone \u00b7 1723 m","height":26},"geometry":{"type":"Polygon","coordinates":[[[146.77367845224518,-36.7236],[146.7736634691996,-36.72356303901575],[146.773624243077,-36.72354019587123],[146.77357575692298,-36.72354019587123],[146.77353653080038,-36.72356303901575],[146.7735215477548,-36.7236],[146.77353653080038,-36.723636960984244],[146.77357575692298,-36.723659804128765],[146.773624243077,-36.723659804128765],[146.7736634691996,-36.723636960984244],[146.77367845224518,-36.7236]]]}},{"type":"Feature","id":"marker-mount-buffalo-resort base \u00b7 1350 m","properties":{"kind":"marker","name":"Resort base \u00b7 1350 m","height":18},"geometry":{"type":"Polygon","coordinates":[[[146.779678458375,-36.7296],[146.77966347415872,-36.72956303901575],[146.77962424497122,-36.72954019587123],[146.77957575502876,-36.72954019587123],[146.77953652584125,-36.72956303901575],[146.77952154162497,-36.7296],[146.77953652584125,-36.729636960984244],[146.77957575502876,-36.729659804128765],[146.77962424497122,-36.729659804128765],[146.77966347415872,-36.729636960984244],[146.779678458375,-36.7296]]]}}]}