{"type":"FeatureCollection","features":[{"type":"Feature","id":25411529,"properties":{"kind":"run","name":"Riedboden","subtype":"easy","pisteType":"nordic","featured":false},"geometry":{"type":"LineString","coordinates":[[11.2505223,47.4051098],[11.2507267,47.4049528],[11.2508552,47.4048478],[11.2510262,47.4047556],[11.2513455,47.4046096],[11.2514272,47.4045447],[11.2514759,47.4044733],[11.2515622,47.4042347],[11.2515329,47.404012],[11.2514571,47.4037264],[11.2513412,47.4033929],[11.2511126,47.4028998],[11.2509689,47.4027649],[11.2507507,47.4026561],[11.2506108,47.4026023]]}},{"type":"Feature","id":26735590,"properties":{"kind":"lift","name":"Materialseilbahn Dammkarhütte","subtype":"goods","status":"active"},"geometry":{"type":"LineString","coordinates":[[11.3023789,47.44238],[11.3086787,47.4380145]]}},{"type":"Feature","id":26735591,"properties":{"kind":"lift","name":"Karwendelbahn","subtype":"cable_car","status":"active"},"geometry":{"type":"LineString","coordinates":[[11.270361,47.4382844],[11.2812554,47.4348665],[11.2902045,47.4320187],[11.2956947,47.430344]]}},{"type":"Feature","id":26736201,"properties":{"kind":"run","name":"Dammkarabfahrt","subtype":"expert","pisteType":"downhill","featured":true},"geometry":{"type":"LineString","coordinates":[[11.2998491,47.4439504],[11.2996739,47.4441377],[11.299392,47.4443827],[11.2993063,47.4444856],[11.2992646,47.4445993],[11.2992534,47.4447277],[11.2992785,47.4448904],[11.2992883,47.4450152],[11.2992926,47.4450798],[11.2992601,47.4451395],[11.2992112,47.4451843],[11.2989943,47.4452793],[11.298953,47.4453282],[11.2989445,47.4453639],[11.298957,47.4454361],[11.2990013,47.4455168],[11.2990594,47.4456026],[11.2990916,47.4456943],[11.2990965,47.4457762],[11.2990734,47.4458751],[11.2990209,47.4459733],[11.29889,47.4461499],[11.298788,47.4462768],[11.2987117,47.4464218],[11.2986344,47.4467069],[11.2985711,47.446977],[11.2985077,47.4471122],[11.2984407,47.4472192],[11.298336,47.4473425],[11.297759,47.4479552],[11.2974193,47.4483051],[11.2971394,47.4485378],[11.296809,47.4487867],[11.2966766,47.4488911],[11.2964627,47.4490423],[11.296248,47.4491373],[11.2959854,47.4492267],[11.2956532,47.4493118],[11.295391,47.4493559],[11.2951906,47.4493671],[11.2950772,47.4493622],[11.2948682,47.4493054],[11.2947232,47.4492706],[11.2946124,47.4492767],[11.294459,47.4492979],[11.2943375,47.4492956],[11.2941988,47.449287],[11.2940877,47.4492877],[11.2939568,47.4493546],[11.2938501,47.4494085],[11.293643,47.44946],[11.2934828,47.4494667],[11.293295,47.4494464],[11.2930864,47.4493914],[11.2929448,47.4493229],[11.2928685,47.4492596],[11.2928333,47.449171],[11.2928214,47.4490791],[11.2927928,47.4488289],[11.2927397,47.4487691],[11.2926519,47.4487187],[11.2925211,47.4487056],[11.2924098,47.448697],[11.2923266,47.4486666],[11.2922454,47.448591],[11.2921663,47.4485294],[11.29206,47.4484965],[11.2918787,47.448488],[11.2917313,47.4485035],[11.2913954,47.4486514],[11.2912741,47.4486649],[11.2910323,47.4486087],[11.2907205,47.4485827],[11.2903672,47.448575],[11.2897918,47.4485999],[11.2895208,47.4485792],[11.2892922,47.4485277],[11.2890816,47.4484362],[11.2889128,47.448333],[11.2887616,47.4482122],[11.2882119,47.4477818],[11.2881142,47.4477452],[11.288027,47.4477392],[11.2876617,47.4477504],[11.2875321,47.4477225],[11.2874265,47.4476869],[11.2871392,47.4474994],[11.2868509,47.4473434],[11.2867562,47.4473161],[11.2866738,47.4473153],[11.286584,47.4473355],[11.2864794,47.4473461],[11.2864154,47.4473232],[11.2863911,47.447259],[11.2863899,47.4471226],[11.2863817,47.4469981],[11.286321,47.4469031],[11.2862025,47.4468043],[11.2860627,47.4467096],[11.2859429,47.4466732],[11.2858393,47.4466732],[11.2857102,47.4466998],[11.2856318,47.4467004],[11.2855468,47.4466805],[11.2854405,47.4466372],[11.2853234,47.4466043],[11.2852117,47.446594],[11.2850803,47.4466254],[11.2848845,47.4466636],[11.2847592,47.4466829],[11.2846699,47.4466669],[11.2846233,47.4465992],[11.2845681,47.4465075],[11.2845301,47.4464696],[11.2844619,47.4464385],[11.284141,47.4463444],[11.2840487,47.446303],[11.2839782,47.4462641],[11.2839366,47.4461807],[11.2839093,47.4460873],[11.2838583,47.4460224],[11.2836638,47.44586],[11.2832809,47.4456023],[11.283187,47.4455612],[11.2830735,47.4455429],[11.2826058,47.445563],[11.2824963,47.4455568],[11.2824147,47.4455174],[11.2823776,47.4454453],[11.2823373,47.4453535],[11.282277,47.4452651],[11.282195,47.4452062],[11.2820765,47.4451522],[11.2819257,47.4451193],[11.2817637,47.4450952],[11.2816344,47.4451045],[11.2814964,47.445155],[11.2813054,47.4452728],[11.2811671,47.4453279],[11.2810319,47.4453555],[11.2808733,47.4453408],[11.2807165,47.4453061],[11.2805602,47.4452486],[11.2801718,47.4451058],[11.2797646,47.444936],[11.2794826,47.4448054],[11.2793606,47.4447212],[11.2792817,47.4446272],[11.2792794,47.4446244],[11.2792371,47.4445038]]}},{"type":"Feature","id":26972271,"properties":{"kind":"run","name":"Dammkarabfahrt","subtype":"expert","pisteType":"downhill","featured":true},"geometry":{"type":"LineString","coordinates":[[11.2766275,47.442755],[11.2759046,47.4419353],[11.2756472,47.441603],[11.2755668,47.4413736],[11.2755438,47.4411786],[11.2755394,47.4409994],[11.275422,47.4407519],[11.2752959,47.4405808],[11.2750737,47.4403739],[11.2747463,47.4401886],[11.2743717,47.4398583]]}},{"type":"Feature","id":27285844,"properties":{"kind":"lift","name":"Kranzbergbahn","subtype":"chair_lift","status":"active"},"geometry":{"type":"LineString","coordinates":[[11.256728,47.4449993],[11.2560326,47.4452213],[11.2551814,47.445493],[11.254992,47.4455535],[11.2537883,47.4459378],[11.251793,47.4465747],[11.249606,47.4472728],[11.2481609,47.4477341],[11.2472749,47.4480169],[11.245162,47.4487264],[11.244426,47.4489512],[11.2423425,47.4496267],[11.2405941,47.4501885],[11.239884,47.4504112],[11.2396904,47.450467]]}},{"type":"Feature","id":29901021,"properties":{"kind":"lift","name":"Luttenseelift","subtype":"t-bar","status":"active"},"geometry":{"type":"LineString","coordinates":[[11.2545766,47.4554781],[11.252897,47.4531118],[11.2526232,47.4526683]]}},{"type":"Feature","id":29901114,"properties":{"kind":"lift","name":"Korbinianlift","subtype":"t-bar","status":"active"},"geometry":{"type":"LineString","coordinates":[[11.2514521,47.4559643],[11.2514303,47.4559412],[11.2476405,47.4519256],[11.2474599,47.4517343]]}},{"type":"Feature","id":29901116,"properties":{"kind":"lift","name":"Sonnenhanglift","subtype":"t-bar","status":"active"},"geometry":{"type":"LineString","coordinates":[[11.247114,47.4515446],[11.2441311,47.4521429],[11.2433928,47.452291]]}},{"type":"Feature","id":29901119,"properties":{"kind":"lift","name":"Wildenseelift","subtype":"t-bar","status":"active"},"geometry":{"type":"LineString","coordinates":[[11.2387914,47.4540828],[11.238774,47.4540512],[11.2374056,47.4515697],[11.2373565,47.4514806]]}},{"type":"Feature","id":29901121,"properties":{"kind":"lift","name":"Gipfellift","subtype":"t-bar","status":"active"},"geometry":{"type":"LineString","coordinates":[[11.2376275,47.4545108],[11.2375263,47.4544577],[11.2316543,47.4513823],[11.2305978,47.4508289]]}},{"type":"Feature","id":30024984,"properties":{"kind":"run","name":"Mapped ski run","subtype":"easy","pisteType":"downhill","featured":false},"geometry":{"type":"LineString","coordinates":[[11.252897,47.4531118],[11.2527058,47.4532761],[11.2528791,47.4537996],[11.2533062,47.4545004],[11.2536273,47.4549991],[11.2540889,47.4553925],[11.2545464,47.4554524]]}},{"type":"Feature","id":30025025,"properties":{"kind":"run","name":"Mapped ski run","subtype":"intermediate","pisteType":"downhill","featured":false},"geometry":{"type":"LineString","coordinates":[[11.2478764,47.4517131],[11.2480922,47.4520385],[11.248274,47.4523127],[11.2488112,47.4526515],[11.2495682,47.4528302],[11.2500053,47.4531898],[11.2501708,47.4537307],[11.2515792,47.4558677],[11.2516158,47.4559216],[11.2516097,47.4559429],[11.2515833,47.4559697],[11.2515325,47.4559848],[11.2514898,47.4559738],[11.2514675,47.4559539],[11.2514303,47.4559412]]}},{"type":"Feature","id":30025026,"properties":{"kind":"run","name":"Mapped ski run","subtype":"intermediate","pisteType":"downhill","featured":false},"geometry":{"type":"LineString","coordinates":[[11.2441311,47.4521429],[11.2448091,47.4517372],[11.2453159,47.451463],[11.2466631,47.4511626],[11.2470798,47.4511265],[11.2474012,47.4512322],[11.2478764,47.4517131]]}},{"type":"Feature","id":30025106,"properties":{"kind":"run","name":"Mapped ski run","subtype":"easy","pisteType":"downhill","featured":false},"geometry":{"type":"LineString","coordinates":[[11.2441311,47.4521429],[11.2440338,47.4524474],[11.243576,47.452754],[11.2428661,47.4531976],[11.2426046,47.4532622],[11.2421938,47.4532321],[11.2414112,47.4531044],[11.2408849,47.4533486],[11.2403632,47.4535517],[11.2398567,47.4536744],[11.2389232,47.4541297],[11.2386815,47.4541466],[11.238588,47.4541396],[11.2386283,47.4541088],[11.238774,47.4540512]]}},{"type":"Feature","id":30025107,"properties":{"kind":"run","name":"Mapped ski run","subtype":"intermediate","pisteType":"downhill","featured":false},"geometry":{"type":"LineString","coordinates":[[11.2374056,47.4515697],[11.2370922,47.4516759],[11.2371985,47.4521334],[11.2375787,47.4525848],[11.2378887,47.4530072],[11.2380731,47.4533894],[11.2382311,47.453802],[11.238588,47.4541396]]}},{"type":"Feature","id":30025108,"properties":{"kind":"run","name":"Mapped ski run","subtype":"intermediate","pisteType":"downhill","featured":false},"geometry":{"type":"LineString","coordinates":[[11.2316543,47.4513823],[11.2314194,47.4510947],[11.2314879,47.450968],[11.2321722,47.4508383],[11.2327432,47.4506529],[11.233322,47.4505334],[11.2341778,47.4504979],[11.2348819,47.4504685],[11.2355696,47.4505345],[11.2359409,47.4508014],[11.2362818,47.4514606]]}},{"type":"Feature","id":30027900,"properties":{"kind":"run","name":"Mapped ski run","subtype":"intermediate","pisteType":"downhill","featured":false},"geometry":{"type":"LineString","coordinates":[[11.2316543,47.4513823],[11.2320133,47.4512401],[11.2329805,47.4511762],[11.2336261,47.4510717],[11.2342352,47.4510573],[11.2346655,47.4510282]]}},{"type":"Feature","id":30027921,"properties":{"kind":"run","name":"Mapped ski run","subtype":"intermediate","pisteType":"downhill","featured":false},"geometry":{"type":"LineString","coordinates":[[11.2396904,47.450467],[11.2394968,47.4505227],[11.2394251,47.4506252],[11.2394626,47.4508909],[11.2397586,47.4510553],[11.2401166,47.4512425],[11.2403477,47.4513315],[11.2406432,47.4514495],[11.2413704,47.4517271],[11.2420667,47.4518052],[11.2428061,47.4516536],[11.2433021,47.4514525],[11.2439949,47.4514057],[11.2448539,47.4513999],[11.2453159,47.451463]]}},{"type":"Feature","id":30027939,"properties":{"kind":"run","name":"Mapped ski run","subtype":"easy","pisteType":"downhill","featured":false},"geometry":{"type":"LineString","coordinates":[[11.2478764,47.4517131],[11.2486927,47.4516944],[11.2495641,47.4514528],[11.2501735,47.4515399],[11.2507084,47.4518039],[11.2515246,47.4521494],[11.2521182,47.4527992],[11.2527058,47.4532761]]}},{"type":"Feature","id":30027980,"properties":{"kind":"run","name":"Mapped ski run","subtype":"intermediate","pisteType":"downhill","featured":false},"geometry":{"type":"LineString","coordinates":[[11.2370922,47.4516759],[11.2364344,47.452224],[11.2363032,47.4526542],[11.2362517,47.4531389],[11.2366981,47.4536641],[11.2374019,47.4540703],[11.2378635,47.4544167],[11.2377699,47.4544661],[11.2376734,47.4544824],[11.2376305,47.4544752],[11.2375263,47.4544577]]}},{"type":"Feature","id":34569427,"properties":{"kind":"run","name":"Isarradweg","subtype":"easy","pisteType":"nordic","featured":false},"geometry":{"type":"LineString","coordinates":[[11.2661,47.3961824],[11.266009,47.3961354],[11.2659,47.3960168],[11.265678,47.3958514],[11.2654631,47.3956517],[11.2654396,47.39561],[11.2654329,47.3955483],[11.265428,47.3955098],[11.2654061,47.3954484],[11.2653529,47.395395],[11.2652687,47.3953069],[11.2652354,47.3952721],[11.2651826,47.3951575],[11.2651431,47.3949643],[11.2650743,47.3945955],[11.2650113,47.394138],[11.2650547,47.3940508]]}},{"type":"Feature","id":43059391,"properties":{"kind":"run","name":"Dammkarabfahrt","subtype":"expert","pisteType":"downhill","featured":true},"geometry":{"type":"LineString","coordinates":[[11.2713149,47.4377023],[11.2712903,47.4377391]]}},{"type":"Feature","id":48245494,"properties":{"kind":"run","name":"Mapped ski run","subtype":"easy","pisteType":"nordic","featured":false},"geometry":{"type":"LineString","coordinates":[[11.2215873,47.420183],[11.2218705,47.4203334],[11.2221828,47.420419],[11.2229762,47.4205961],[11.2239468,47.4207331],[11.225331,47.4208816],[11.2255674,47.4209558],[11.2260822,47.4215155],[11.2266646,47.4222636],[11.2268281,47.4224409],[11.2268672,47.4226234],[11.2271119,47.4231716],[11.2269853,47.4237541],[11.2270022,47.4241766],[11.2270866,47.4243422],[11.2276774,47.4248276],[11.2284962,47.4254272],[11.2286481,47.42545],[11.2288591,47.4253644],[11.2290701,47.4252159],[11.2293908,47.4251531],[11.2300323,47.4250732],[11.2308763,47.4250503],[11.2312224,47.4250966],[11.2314668,47.4249919]]}},{"type":"Feature","id":66420462,"properties":{"kind":"run","name":"Dammkarabfahrt","subtype":"expert","pisteType":"downhill","featured":true},"geometry":{"type":"LineString","coordinates":[[11.2729174,47.4383517],[11.2728907,47.438286],[11.2728555,47.4382374],[11.2727864,47.4380187]]}},{"type":"Feature","id":66421382,"properties":{"kind":"run","name":"Dammkarabfahrt","subtype":"expert","pisteType":"downhill","featured":true},"geometry":{"type":"LineString","coordinates":[[11.2734664,47.439204],[11.2732943,47.4390319],[11.2730926,47.4388102],[11.2729604,47.4386026],[11.2729053,47.4384662],[11.2729156,47.4384149]]}},{"type":"Feature","id":72077535,"properties":{"kind":"lift","name":"Goods","subtype":"goods","status":"active"},"geometry":{"type":"LineString","coordinates":[[11.2642965,47.4109033],[11.2772125,47.413511],[11.2780798,47.4136898],[11.2784877,47.413772]]}},{"type":"Feature","id":91643931,"properties":{"kind":"run","name":"Riedboden","subtype":"easy","pisteType":"nordic","featured":false},"geometry":{"type":"LineString","coordinates":[[11.2556565,47.4256574],[11.255698,47.4244824],[11.2556132,47.4231129],[11.2554173,47.4225617],[11.2553542,47.4224371],[11.2552131,47.4221477],[11.255102,47.4220489],[11.2550112,47.4219575],[11.2548989,47.4215751],[11.2547581,47.4211979],[11.2545183,47.4203388],[11.2543655,47.419758],[11.2542718,47.4191365],[11.2541541,47.4182776],[11.2540539,47.4170678],[11.2536132,47.4161292],[11.2531066,47.4152912],[11.2530066,47.4151257],[11.2522016,47.4143115],[11.2519991,47.4135267],[11.2516923,47.4128209],[11.2512625,47.4123364],[11.2511579,47.4118364],[11.2509874,47.4115265],[11.2507387,47.4111925],[11.2507599,47.4110635],[11.250799,47.4108249],[11.2507457,47.4106244],[11.2505247,47.4104253],[11.2502991,47.409902],[11.2497386,47.4094176],[11.2496971,47.4092282],[11.2497323,47.4088177],[11.2496715,47.4080054],[11.2494575,47.4075264],[11.2492904,47.4072076],[11.2490585,47.4068509],[11.2488778,47.4066288],[11.2488349,47.4065237],[11.2489344,47.4063344],[11.2489503,47.406182],[11.2488179,47.4060008],[11.2487644,47.405876],[11.2488693,47.4057228],[11.2491235,47.405633],[11.2492411,47.4055308],[11.2493758,47.4054635],[11.2497355,47.4055312],[11.2501782,47.4054197],[11.2505223,47.4051098]]}},{"type":"Feature","id":109226366,"properties":{"kind":"run","name":"Riedboden","subtype":"easy","pisteType":"nordic","featured":false},"geometry":{"type":"LineString","coordinates":[[11.2544021,47.4173529],[11.2543831,47.4176974],[11.2544221,47.4181435],[11.2544296,47.4186052],[11.2545002,47.4188216],[11.25467,47.4190792],[11.2547811,47.4192201],[11.2548942,47.4198941],[11.2551454,47.4208407],[11.2551376,47.4216257],[11.2551024,47.4219057],[11.2551186,47.4219842],[11.2553404,47.4222877],[11.2556352,47.4225643],[11.2557907,47.4228194],[11.2560813,47.4237275],[11.2563815,47.4243494],[11.2570365,47.4250418],[11.2574901,47.4254523],[11.2576141,47.4256195],[11.2578452,47.4262735],[11.2582284,47.4268576],[11.2583212,47.4269159],[11.2583355,47.4270063]]}},{"type":"Feature","id":113281751,"properties":{"kind":"run","name":"Mapped ski run","subtype":"intermediate","pisteType":"downhill","featured":false},"geometry":{"type":"LineString","coordinates":[[11.2371985,47.4521334],[11.2370452,47.4527415],[11.2370688,47.4533758],[11.2374019,47.4540703]]}},{"type":"Feature","id":113281755,"properties":{"kind":"run","name":"Mapped ski run","subtype":"easy","pisteType":"downhill","featured":false},"geometry":{"type":"LineString","coordinates":[[11.2528791,47.4537996],[11.252845,47.4544119],[11.2527817,47.4547751],[11.2526442,47.4554994],[11.2523848,47.4556415],[11.2519781,47.4556955],[11.2515792,47.4558677]]}},{"type":"Feature","id":113281764,"properties":{"kind":"run","name":"Mapped ski run","subtype":"intermediate","pisteType":"downhill","featured":false},"geometry":{"type":"LineString","coordinates":[[11.2362517,47.4531389],[11.2359207,47.4538095],[11.2357985,47.4545815],[11.2361384,47.4557047]]}},{"type":"Feature","id":113281765,"properties":{"kind":"run","name":"Mapped ski run","subtype":"intermediate","pisteType":"downhill","featured":false},"geometry":{"type":"LineString","coordinates":[[11.2341778,47.4504979],[11.2344826,47.4506254],[11.2346655,47.4510282],[11.2355064,47.4512546],[11.2362818,47.4514606],[11.2370922,47.4516759]]}},{"type":"Feature","id":113281775,"properties":{"kind":"run","name":"Mapped ski run","subtype":"advanced","pisteType":"downhill","featured":false},"geometry":{"type":"LineString","coordinates":[[11.2320133,47.4512401],[11.2330086,47.4515795],[11.2342665,47.4519056],[11.2364344,47.452224]]}},{"type":"Feature","id":113703193,"properties":{"kind":"run","name":"Dammkarabfahrt","subtype":"expert","pisteType":"downhill","featured":true},"geometry":{"type":"LineString","coordinates":[[11.2792371,47.4445038],[11.2791864,47.4443389],[11.2791244,47.4442095],[11.2788843,47.4440234],[11.2788324,47.4439731],[11.2788111,47.4439137],[11.2788121,47.4438644],[11.2788225,47.4438058],[11.278817,47.4437526],[11.2787794,47.4437129],[11.2785243,47.4436411],[11.2784156,47.4436004],[11.2780889,47.4434221],[11.2775904,47.4431762],[11.2772678,47.4430204],[11.2769465,47.4428726],[11.2767963,47.4428106],[11.2766275,47.442755]]}},{"type":"Feature","id":116345446,"properties":{"kind":"lift","name":"Goods","subtype":"goods","status":"active"},"geometry":{"type":"LineString","coordinates":[[11.2711039,47.4360079],[11.2822601,47.433662]]}},{"type":"Feature","id":121954104,"properties":{"kind":"run","name":"Dammkarabfahrt","subtype":"expert","pisteType":"downhill","featured":true},"geometry":{"type":"LineString","coordinates":[[11.2729156,47.4384149],[11.2729174,47.4383517]]}},{"type":"Feature","id":121954106,"properties":{"kind":"run","name":"Dammkarabfahrt","subtype":"expert","pisteType":"downhill","featured":true},"geometry":{"type":"LineString","coordinates":[[11.2712903,47.4377391],[11.2712706,47.4377641],[11.2712501,47.4377713],[11.2711708,47.4377691]]}},{"type":"Feature","id":121954111,"properties":{"kind":"run","name":"Dammkarabfahrt","subtype":"expert","pisteType":"downhill","featured":true},"geometry":{"type":"LineString","coordinates":[[11.2719319,47.4380044],[11.2713149,47.4377023]]}},{"type":"Feature","id":137220684,"properties":{"kind":"run","name":"Dammkarabfahrt","subtype":"expert","pisteType":"downhill","featured":true},"geometry":{"type":"LineString","coordinates":[[11.2743717,47.4398583],[11.2742712,47.4397917],[11.2741236,47.4396848],[11.2739519,47.4395795],[11.2737862,47.4394498],[11.2735963,47.4393085],[11.2734664,47.439204]]}},{"type":"Feature","id":146138288,"properties":{"kind":"run","name":"Mapped ski run","subtype":"unknown","pisteType":"sled","featured":false},"geometry":{"type":"LineString","coordinates":[[11.3048865,47.389581],[11.3048777,47.3896268],[11.3048191,47.3896665],[11.3045275,47.3897447],[11.3044155,47.3898332],[11.304329,47.390058],[11.3041631,47.3902311],[11.3041299,47.3904436],[11.3040322,47.3905659],[11.304032,47.3905973],[11.3040525,47.3906286],[11.3041062,47.3906392],[11.3043615,47.3906733],[11.304528,47.3907278],[11.3045653,47.3908088],[11.3045397,47.3908828],[11.3043512,47.3911102],[11.3043352,47.3911604],[11.304337,47.3912106],[11.3043936,47.3913414],[11.3044284,47.3913935],[11.3044839,47.3914436],[11.3046533,47.391489],[11.3047603,47.3915264],[11.3048465,47.391598],[11.3050181,47.3917868],[11.3050621,47.3919435],[11.3050725,47.3919659],[11.3050978,47.3919802],[11.3051631,47.3919788],[11.305203,47.3919701],[11.3052191,47.3919453],[11.3052437,47.3918522],[11.3053041,47.391607],[11.3052721,47.3915472],[11.305172,47.3914422],[11.3050271,47.3912723],[11.305015,47.3912293],[11.3050346,47.3911924],[11.3050908,47.3911793],[11.3051469,47.3911985],[11.3052112,47.3913293],[11.305324,47.3914023],[11.3054348,47.3914267],[11.3056132,47.3914185],[11.3057267,47.3914381],[11.3057766,47.3915158],[11.3057165,47.3918836],[11.3057402,47.3919583],[11.3058031,47.3920142],[11.3057845,47.3922882],[11.3058491,47.3925924],[11.3057848,47.3927175],[11.3056743,47.3927508],[11.3054918,47.3927714],[11.3053847,47.392863],[11.3052333,47.3931334],[11.3049833,47.3934297],[11.3048141,47.3935386],[11.3047452,47.3937962],[11.3047496,47.393972],[11.3048574,47.3941368],[11.3049572,47.3942784],[11.3050256,47.3944412],[11.3050984,47.3945473],[11.3050407,47.3946852],[11.304885,47.3949942],[11.3047952,47.3950299],[11.3046692,47.3950656],[11.304643,47.3950968],[11.304641,47.3951232],[11.3046694,47.3951532],[11.3047115,47.3951702],[11.3047627,47.3951658],[11.3051075,47.3950379],[11.3053185,47.3950116],[11.3054956,47.3949317],[11.3056415,47.3946969],[11.3056971,47.3945541],[11.3059086,47.3944342],[11.30615,47.3944124],[11.3063324,47.3943434],[11.3065577,47.3942781],[11.3066345,47.3942426],[11.3066705,47.3941917],[11.3067747,47.3940033],[11.3069727,47.393874],[11.3071693,47.3938169],[11.3073632,47.3937784],[11.3076467,47.3936208],[11.3078559,47.3935736],[11.3079427,47.3934662],[11.3080012,47.3932667],[11.3080973,47.3931886],[11.308477,47.3928838],[11.3085863,47.3928396],[11.308863,47.3927889],[11.308971,47.3927386],[11.3090805,47.3927358],[11.3092081,47.3927482],[11.3093722,47.3927405],[11.3095832,47.3926788],[11.3098077,47.3926415],[11.3099226,47.3926493],[11.3100285,47.3926693],[11.3101339,47.3927035],[11.3102258,47.392753],[11.3102889,47.3928114],[11.3102931,47.392853],[11.3102572,47.3929201],[11.3101894,47.392978],[11.3100636,47.3930515],[11.3099604,47.3931618],[11.3098221,47.3932659],[11.3096595,47.3934199],[11.3096034,47.3934931],[11.3095564,47.3935663],[11.3095794,47.3936322],[11.3096251,47.393692],[11.3097138,47.3937214],[11.3098162,47.3937323],[11.3101275,47.3937677],[11.3105081,47.3937672],[11.3109673,47.3937079],[11.3112945,47.393668],[11.3117505,47.3937043],[11.312185,47.3937007],[11.3126785,47.3938241],[11.313054,47.3939077],[11.3136726,47.394],[11.313687,47.3940021],[11.3140889,47.3940575],[11.3144702,47.394111],[11.3147492,47.3942054],[11.3148887,47.3942127],[11.3151891,47.3941546],[11.3155538,47.3941473],[11.3156497,47.3941868],[11.3156849,47.3942303],[11.3156826,47.3942635],[11.3156504,47.3944306],[11.3155538,47.394663],[11.3155495,47.3948213],[11.3155055,47.3949354],[11.3152963,47.3950697],[11.3151542,47.3951859],[11.3150435,47.3953712],[11.3150063,47.3954712]]}},{"type":"Feature","id":204967921,"properties":{"kind":"run","name":"Riedboden","subtype":"easy","pisteType":"nordic","featured":false},"geometry":{"type":"LineString","coordinates":[[11.2617973,47.4015384],[11.2617702,47.4016173],[11.2617408,47.4016769],[11.2616832,47.401755],[11.2615646,47.4018602],[11.2615027,47.4019137],[11.261433,47.401974],[11.261211,47.402154],[11.2609673,47.4023455],[11.2608682,47.4024361],[11.2607454,47.4025495],[11.2606758,47.4026268],[11.2606399,47.402679],[11.2606225,47.4027232],[11.2606094,47.4027799],[11.2606029,47.4029412],[11.260592,47.4030619],[11.2605724,47.4031326],[11.2605375,47.4032029],[11.2604756,47.4032902],[11.2604201,47.4033778],[11.2603065,47.403566],[11.2602069,47.4037239],[11.2601199,47.4038844],[11.2600668,47.4040088],[11.26006,47.4040493],[11.2600546,47.4041127],[11.2600579,47.4042562],[11.2600622,47.4043446],[11.2600491,47.4043917],[11.2600181,47.4044386],[11.2597152,47.4046818],[11.2596018,47.4047895],[11.2595618,47.4048423],[11.2595302,47.4049027],[11.2594639,47.4050426],[11.2593768,47.4052304],[11.2593411,47.4053012],[11.2593159,47.4053261],[11.2592778,47.4053533],[11.2590516,47.4054792],[11.258958,47.4055389],[11.2589031,47.4055882],[11.2588568,47.405692],[11.2588046,47.4059747],[11.2587744,47.4060625],[11.2587502,47.4061036],[11.2586534,47.4061912],[11.2586044,47.406228]]}},{"type":"Feature","id":236469723,"properties":{"kind":"run","name":"Dammkarabfahrt","subtype":"expert","pisteType":"downhill","featured":true},"geometry":{"type":"LineString","coordinates":[[11.2727864,47.4380187],[11.2726423,47.437969],[11.2725387,47.4379269],[11.2724362,47.4379095],[11.2723806,47.4379015],[11.2723355,47.437895],[11.2721798,47.437897],[11.2720548,47.4379077]]}},{"type":"Feature","id":243692585,"properties":{"kind":"run","name":"Dammkarabfahrt","subtype":"expert","pisteType":"downhill","featured":true},"geometry":{"type":"LineString","coordinates":[[11.2720548,47.4379077],[11.2719319,47.4380044]]}},{"type":"Feature","id":477729065,"properties":{"kind":"run","name":"Mapped ski run","subtype":"unknown","pisteType":"sled","featured":false},"geometry":{"type":"LineString","coordinates":[[11.3150063,47.3954712],[11.3151032,47.3956435],[11.3154358,47.3960647],[11.3156587,47.3963094],[11.3158394,47.3963625],[11.3163156,47.3964102],[11.3165099,47.3964721],[11.3166804,47.3965513],[11.3167717,47.3965708],[11.3168547,47.3965559],[11.316883,47.3965305],[11.3168949,47.3963552],[11.3168949,47.3961809],[11.3170345,47.3960436],[11.3173237,47.3960504],[11.3174207,47.3960831],[11.3174241,47.3961657],[11.3174539,47.396443],[11.317512,47.3965605],[11.3175718,47.3966731],[11.3176337,47.3967949],[11.317666,47.3968201],[11.3177086,47.3968284],[11.3177384,47.3968174],[11.3177718,47.3967961],[11.3179035,47.3966021],[11.3179792,47.3964451],[11.3182275,47.3963313],[11.318506,47.3962493],[11.3186225,47.396215],[11.3190219,47.3962166],[11.3193196,47.3961938],[11.3193517,47.3962121],[11.3193548,47.396242],[11.3193146,47.3963171],[11.319157,47.396435],[11.3190825,47.3966292],[11.3190235,47.3967241],[11.3190037,47.3967771],[11.3190166,47.3968077],[11.3190462,47.3968232],[11.3191446,47.3968098],[11.3193205,47.3967809],[11.3195502,47.3967579],[11.3198883,47.3967256],[11.3201565,47.3967837],[11.3202072,47.3968335],[11.3202102,47.3968926],[11.3201824,47.3969429],[11.3199317,47.3971346],[11.3198234,47.3972174],[11.319765,47.3972936],[11.3198623,47.3973443],[11.3199689,47.3973542],[11.3203882,47.397393],[11.3207774,47.3973229],[11.3208397,47.3972625],[11.3210502,47.3972634],[11.3210856,47.3972194],[11.3211172,47.3971614],[11.3211862,47.3971388],[11.3212783,47.3971302],[11.3213293,47.397148],[11.3213366,47.3971884],[11.3213058,47.3972593],[11.3213197,47.3973834],[11.3212796,47.3974309],[11.3211221,47.3974664],[11.320868,47.3979399],[11.3208339,47.3980033],[11.3208219,47.3980547],[11.320827,47.3981061],[11.3208658,47.3982572],[11.3209019,47.398271],[11.3209414,47.3982756],[11.3210273,47.3982437],[11.3210642,47.3981009],[11.3212522,47.3980197],[11.3216442,47.397949],[11.3218957,47.3979799],[11.3221494,47.3979614],[11.3225169,47.3978368],[11.3226476,47.3978494],[11.3227595,47.3978412],[11.3230318,47.3977569],[11.3232028,47.3976564],[11.3233644,47.3974882],[11.3235387,47.3972365],[11.3237829,47.3969798],[11.3238224,47.3968777],[11.3238858,47.396778],[11.3242186,47.3965843],[11.3245422,47.3963385],[11.3248924,47.39614],[11.3257225,47.395618],[11.3261044,47.3952693],[11.3264322,47.3949535],[11.3264792,47.3949045],[11.3265033,47.3948591],[11.3265268,47.3947778],[11.3265676,47.394707],[11.3268239,47.3945812],[11.3271829,47.3943983],[11.3272651,47.3943525],[11.3275681,47.394244],[11.3276742,47.3942214],[11.3277774,47.39421],[11.3279571,47.3942032],[11.3280385,47.3941939],[11.3281334,47.3941873],[11.3282883,47.3941895],[11.3283802,47.3942],[11.3284439,47.394224],[11.3284801,47.3942585],[11.3285187,47.3943156],[11.3286002,47.3943847],[11.3286545,47.3944331],[11.3286809,47.3944824]]}},{"type":"Feature","id":552908954,"properties":{"kind":"lift","name":"Übungslift","subtype":"platter","status":"active"},"geometry":{"type":"LineString","coordinates":[[11.2539389,47.4554783],[11.2529063,47.4553601]]}},{"type":"Feature","id":552908955,"properties":{"kind":"run","name":"Mapped ski run","subtype":"novice","pisteType":"downhill","featured":false},"geometry":{"type":"LineString","coordinates":[[11.2529063,47.4553601],[11.252955,47.4555003],[11.2531055,47.4555525],[11.2532518,47.455569],[11.2534429,47.4555718],[11.2536218,47.4555663],[11.2537681,47.4555525],[11.2539389,47.4554783]]}},{"type":"Feature","id":554006959,"properties":{"kind":"run","name":"Ski touring route","subtype":"unknown","pisteType":"skitour","featured":false},"geometry":{"type":"LineString","coordinates":[[11.3286002,47.3943847],[11.328926,47.3946646],[11.3293551,47.3952892],[11.3303636,47.3955797],[11.3307499,47.3958121],[11.3317799,47.3957831],[11.332488,47.3959864],[11.3327884,47.3966401],[11.3337325,47.3966982],[11.3340329,47.3967708],[11.334909,47.396662],[11.3355564,47.3968579],[11.336286,47.3968579],[11.3366507,47.3970613],[11.3372516,47.3970468],[11.3374876,47.3983249],[11.3371872,47.3987316],[11.3373803,47.3993998],[11.3381099,47.3996176],[11.3379811,47.400155],[11.3396977,47.4002422],[11.3393304,47.400729],[11.340084,47.4009103],[11.3406848,47.4018253],[11.3412856,47.4026676],[11.3415646,47.4036117],[11.3422297,47.4045121],[11.3417791,47.4052963],[11.3419508,47.4062984],[11.3419508,47.407039],[11.3416933,47.4083605],[11.3419509,47.4086751]]}},{"type":"Feature","id":827396718,"properties":{"kind":"run","name":"Riedboden","subtype":"easy","pisteType":"nordic","featured":false},"geometry":{"type":"LineString","coordinates":[[11.2507267,47.4049528],[11.2513483,47.4049798],[11.2519422,47.4050732],[11.2525356,47.4050567],[11.2530025,47.4050785],[11.2536663,47.4051826],[11.254233,47.4053415],[11.2546459,47.4053908],[11.2552126,47.4055606],[11.2558494,47.4057214],[11.2562334,47.4057916],[11.2566175,47.4058127],[11.2570534,47.405883],[11.2576554,47.4060305],[11.2582782,47.4061148],[11.2584348,47.4062676],[11.2585,47.4063311]]}},{"type":"Feature","id":852009096,"properties":{"kind":"run","name":"Dammkarabfahrt","subtype":"expert","pisteType":"downhill","featured":true},"geometry":{"type":"LineString","coordinates":[[11.3018467,47.430983],[11.3018895,47.4309466],[11.3019527,47.4309481],[11.3022057,47.4309542],[11.3025558,47.431026],[11.302714,47.4310826],[11.3030822,47.4312018],[11.303351,47.4312797],[11.3038231,47.4314524],[11.3039902,47.4315929],[11.3041145,47.4317091],[11.3044172,47.4318573],[11.3045098,47.4318924],[11.3045708,47.4318894],[11.3046317,47.431839],[11.3046453,47.4317931],[11.3046408,47.4315792],[11.3046024,47.4313744],[11.3045933,47.4312384],[11.3046024,47.4310979],[11.3047289,47.4309053],[11.305009,47.4308564],[11.3053049,47.4308564],[11.3057292,47.4309311],[11.3061829,47.4310283],[11.3073169,47.4313125],[11.3078861,47.4314317],[11.3087626,47.4316518],[11.3092686,47.4319727],[11.3097926,47.4322966],[11.3110847,47.4327917],[11.3120244,47.4334793],[11.3125168,47.4338307],[11.3127672,47.4344345],[11.3126768,47.435229],[11.3120172,47.4357974],[11.3105354,47.4360541],[11.3091439,47.4361519],[11.3086209,47.4363147],[11.3079784,47.436598],[11.3077615,47.4367936],[11.3075085,47.4371603],[11.3075175,47.4374842],[11.3074995,47.4377409],[11.3072374,47.4379548],[11.3065779,47.4383154],[11.3061713,47.4386332],[11.305864,47.4390671],[11.3057827,47.4394399],[11.3057375,47.4397027],[11.3053491,47.4402936],[11.3049913,47.4405918],[11.3040968,47.4408813],[11.3032599,47.441214],[11.3025315,47.4415036],[11.3021546,47.4418493],[11.3019884,47.4422425],[11.3019501,47.4426314],[11.3018937,47.4427556],[11.301669,47.4429295],[11.3011067,47.4433098],[11.3002826,47.4436814],[11.2998491,47.4439504]]}},{"type":"Feature","id":1060300543,"properties":{"kind":"run","name":"Mapped ski run","subtype":"intermediate","pisteType":"downhill","featured":false},"geometry":{"type":"LineString","coordinates":[[11.2374056,47.4515697],[11.2379309,47.4519486],[11.2385252,47.4520314],[11.2390055,47.4518956],[11.2398333,47.4514437],[11.2401166,47.4512425]]}},{"type":"Feature","id":1060300545,"properties":{"kind":"run","name":"Mapped ski run","subtype":"intermediate","pisteType":"downhill","featured":false},"geometry":{"type":"LineString","coordinates":[[11.2476405,47.4519256],[11.2476357,47.4518513],[11.2476327,47.4517659],[11.2475495,47.4515784],[11.2474231,47.4514805],[11.2472229,47.4514867],[11.2471305,47.4515358],[11.247114,47.4515446]]}},{"type":"Feature","id":1060300546,"properties":{"kind":"run","name":"Mapped ski run","subtype":"intermediate","pisteType":"downhill","featured":false},"geometry":{"type":"LineString","coordinates":[[11.2466631,47.4511626],[11.2468377,47.4511867],[11.247112,47.451318],[11.247152,47.4514201],[11.2471305,47.4515358]]}},{"type":"Feature","id":1060300547,"properties":{"kind":"run","name":"Mapped ski run","subtype":"intermediate","pisteType":"downhill","featured":false},"geometry":{"type":"LineString","coordinates":[[11.2476405,47.4519256],[11.2478206,47.4519472],[11.2480922,47.4520385]]}},{"type":"Feature","id":1138078627,"properties":{"kind":"run","name":"Mapped ski run","subtype":"easy","pisteType":"nordic","featured":false},"geometry":{"type":"LineString","coordinates":[[11.2649611,47.3978897],[11.2651168,47.3980536],[11.2652032,47.3981564],[11.2652583,47.3982691],[11.2652877,47.3983318],[11.2653336,47.3984091]]}},{"type":"Feature","id":1346173503,"properties":{"kind":"run","name":"Mapped ski run","subtype":"easy","pisteType":"nordic","featured":false},"geometry":{"type":"LineString","coordinates":[[11.2624521,47.3997109],[11.262651,47.3997541],[11.2627883,47.3997427],[11.262925,47.3996614],[11.2632968,47.3995066],[11.2637088,47.3993281],[11.2642206,47.3991066],[11.2644343,47.3989979],[11.2645078,47.3989017],[11.2645694,47.3988056],[11.2646878,47.3987498],[11.2649826,47.3986671],[11.2651363,47.3986091],[11.2652635,47.3984887],[11.2653336,47.3984091]]}},{"type":"Feature","id":1346173504,"properties":{"kind":"run","name":"Riedboden","subtype":"easy","pisteType":"nordic","featured":false},"geometry":{"type":"LineString","coordinates":[[11.2551343,47.4149143],[11.2551252,47.4150405],[11.2551158,47.4150957],[11.2550841,47.4151719],[11.2550349,47.4152557],[11.2550108,47.415342],[11.2550206,47.4154093],[11.255046,47.4154973],[11.255092,47.4156466],[11.2551052,47.4157066],[11.2550964,47.415811],[11.255073,47.4159935],[11.2550761,47.416175],[11.2550571,47.4162792],[11.2549999,47.416398],[11.2549682,47.4164284],[11.2548032,47.4165251],[11.2547449,47.4165756],[11.2547238,47.4166217],[11.2546905,47.4168011],[11.2546572,47.4169246],[11.2546216,47.4170243],[11.2544972,47.4172454],[11.2544021,47.4173529]]}},{"type":"Feature","id":1346173505,"properties":{"kind":"run","name":"Riedboden","subtype":"easy","pisteType":"nordic","featured":false},"geometry":{"type":"LineString","coordinates":[[11.2546889,47.4110695],[11.2546902,47.4111921],[11.2546508,47.4113195],[11.2546078,47.4114647],[11.2545889,47.4116331],[11.2545984,47.4118082],[11.2546359,47.4121582],[11.2546667,47.4123033],[11.2547059,47.412399],[11.2547809,47.4125224],[11.2548651,47.4126427],[11.2549619,47.4127533]]}},{"type":"Feature","id":1346173507,"properties":{"kind":"run","name":"Riedboden","subtype":"easy","pisteType":"nordic","featured":false},"geometry":{"type":"LineString","coordinates":[[11.2561031,47.4087897],[11.2560213,47.4088329],[11.2557316,47.4091191],[11.255553,47.4093704],[11.2552785,47.409613],[11.2552038,47.4096917],[11.2550973,47.4098717],[11.2550153,47.4100822],[11.2549153,47.4102707],[11.2548716,47.4103528],[11.2547956,47.4104611],[11.254718,47.410564],[11.2546968,47.4106056],[11.2546905,47.4106406],[11.2546921,47.4106964],[11.2546889,47.4107828],[11.2546727,47.4108671],[11.2546695,47.4109514],[11.2546889,47.4110695]]}},{"type":"Feature","id":1346173508,"properties":{"kind":"run","name":"Riedboden","subtype":"easy","pisteType":"nordic","featured":false},"geometry":{"type":"LineString","coordinates":[[11.2549619,47.4127533],[11.2551096,47.412875],[11.2552176,47.4130106],[11.2552968,47.4132657],[11.2552615,47.4133742],[11.255129,47.4134711],[11.2550927,47.4136248]]}},{"type":"Feature","id":1346173509,"properties":{"kind":"run","name":"Riedboden","subtype":"intermediate","pisteType":"nordic","featured":false},"geometry":{"type":"LineString","coordinates":[[11.2507599,47.4110635],[11.2506615,47.4109709],[11.2504878,47.41092],[11.250404,47.4108372],[11.2504335,47.4106677],[11.2505017,47.4105217],[11.2505247,47.4104253]]}},{"type":"Feature","id":1346173511,"properties":{"kind":"run","name":"Riedboden","subtype":"easy","pisteType":"nordic","featured":false},"geometry":{"type":"LineString","coordinates":[[11.2549619,47.4127533],[11.2550167,47.4128253],[11.2550333,47.4128747],[11.2550305,47.4129233]]}},{"type":"Feature","id":1346173512,"properties":{"kind":"run","name":"Riedboden","subtype":"easy","pisteType":"nordic","featured":false},"geometry":{"type":"LineString","coordinates":[[11.2496715,47.4080054],[11.2495653,47.4079104],[11.2493757,47.4078708],[11.24915,47.4079193],[11.2490022,47.4080056],[11.2489472,47.4081041],[11.2489899,47.4082474],[11.2491582,47.4087311],[11.2492724,47.4088821],[11.2494155,47.4089482],[11.2495509,47.4089576],[11.2496632,47.4089048],[11.2497323,47.4088177]]}},{"type":"Feature","id":1346173513,"properties":{"kind":"run","name":"Riedboden","subtype":"easy","pisteType":"nordic","featured":false},"geometry":{"type":"LineString","coordinates":[[11.2531066,47.4152912],[11.2534193,47.4152163],[11.253499,47.4152131],[11.2536084,47.4152343],[11.2537351,47.4152653]]}},{"type":"Feature","id":1346173514,"properties":{"kind":"run","name":"Riedboden","subtype":"easy","pisteType":"nordic","featured":false},"geometry":{"type":"LineString","coordinates":[[11.2585,47.4063311],[11.258488,47.406379],[11.2584848,47.4064099],[11.2584728,47.4064496],[11.2584394,47.406516],[11.2584249,47.4065373],[11.2583934,47.4065682],[11.2583292,47.4066087],[11.2582661,47.4066499],[11.2582084,47.4066985],[11.2581182,47.4067891],[11.2579941,47.4069002],[11.2578429,47.4070144],[11.2575361,47.407272],[11.2574743,47.4073297],[11.2573925,47.4074627],[11.2573468,47.407554],[11.2573175,47.4076372],[11.2572827,47.4077042],[11.2572505,47.4077506],[11.2572032,47.4077889],[11.2571507,47.4078261],[11.257003,47.4079408],[11.2568368,47.4080885],[11.2566219,47.4082771],[11.2564814,47.4084316],[11.2564507,47.4084714],[11.2564008,47.4085806],[11.2563697,47.408634],[11.2563173,47.4086843],[11.2562419,47.4087305],[11.2561031,47.4087897]]}},{"type":"Feature","id":1346173515,"properties":{"kind":"run","name":"Mapped ski run","subtype":"easy","pisteType":"nordic","featured":false},"geometry":{"type":"LineString","coordinates":[[11.2650547,47.3940508],[11.2650486,47.3939355],[11.2650143,47.3937786],[11.2649514,47.3935483],[11.2648961,47.3933582],[11.2648119,47.3931572],[11.2647289,47.393014],[11.2646196,47.392858]]}},{"type":"Feature","id":1346173517,"properties":{"kind":"run","name":"Riedboden","subtype":"easy","pisteType":"nordic","featured":false},"geometry":{"type":"LineString","coordinates":[[11.2586044,47.406228],[11.2584348,47.4062676],[11.2582806,47.4063285],[11.2581761,47.4064173],[11.2577926,47.4067666],[11.2572959,47.4072843],[11.2571992,47.4073353],[11.2570808,47.407379],[11.2568917,47.4074233],[11.2568153,47.4074656],[11.2567439,47.4075214],[11.2566948,47.4075898],[11.2566774,47.4076777],[11.2567264,47.407813],[11.2567175,47.4079083],[11.2566712,47.4080049],[11.2565139,47.4081917],[11.2562872,47.4085858],[11.2561031,47.4087897]]}},{"type":"Feature","id":1346173518,"properties":{"kind":"run","name":"Riedboden","subtype":"easy","pisteType":"nordic","featured":false},"geometry":{"type":"LineString","coordinates":[[11.2537351,47.4152653],[11.253817,47.4153008],[11.2542024,47.4155421],[11.2544295,47.4156763],[11.2545526,47.4157423],[11.2546582,47.4157833],[11.2547477,47.4158018],[11.2548404,47.4158105],[11.2549971,47.4158137],[11.2550964,47.415811]]}},{"type":"Feature","id":1346173519,"properties":{"kind":"run","name":"Riedboden","subtype":"easy","pisteType":"nordic","featured":false},"geometry":{"type":"LineString","coordinates":[[11.2586044,47.406228],[11.2585238,47.4062969],[11.2585,47.4063311]]}},{"type":"Feature","id":1346173520,"properties":{"kind":"run","name":"Mapped ski run","subtype":"easy","pisteType":"nordic","featured":false},"geometry":{"type":"LineString","coordinates":[[11.2580824,47.4269793],[11.2579519,47.4269828],[11.2578888,47.4270234],[11.2578506,47.4270901],[11.2578172,47.4272996],[11.2578507,47.4277291],[11.2578751,47.428123],[11.2578656,47.4283586],[11.2578156,47.4284562],[11.2577736,47.4289237],[11.2577816,47.4294556],[11.2577895,47.4298314],[11.2577738,47.4298907],[11.2576846,47.4299685],[11.2575963,47.4300147],[11.257444,47.430015],[11.25667,47.4300244],[11.2564083,47.4300097],[11.2558655,47.4298907],[11.2554005,47.4297125],[11.255292,47.4296098],[11.2552547,47.4295333],[11.2552753,47.4294343],[11.2554344,47.4292868],[11.255564,47.4291055],[11.2556753,47.4289157],[11.2557371,47.428676],[11.2557494,47.4285531],[11.255655,47.4283753],[11.2554067,47.4280125],[11.2553999,47.4279162],[11.2555238,47.4277485],[11.2557481,47.427454],[11.255795,47.4273654],[11.2557892,47.4272276],[11.2555759,47.4267552],[11.2553948,47.4262068],[11.2552686,47.425754],[11.2553992,47.425384],[11.2554292,47.4252856]]}},{"type":"Feature","id":1346173521,"properties":{"kind":"run","name":"Riedboden","subtype":"easy","pisteType":"nordic","featured":false},"geometry":{"type":"LineString","coordinates":[[11.2550927,47.4136248],[11.2551006,47.4137448],[11.2550936,47.413881],[11.2550555,47.4140099],[11.255019,47.414157],[11.255014,47.4142777],[11.2550317,47.414345],[11.2550714,47.4144266],[11.2551363,47.4145566],[11.2551523,47.414607],[11.2551603,47.4146672],[11.2551571,47.414795],[11.2551343,47.4149143]]}},{"type":"Feature","id":1346173522,"properties":{"kind":"run","name":"Riedboden","subtype":"easy","pisteType":"nordic","featured":false},"geometry":{"type":"LineString","coordinates":[[11.2556565,47.4256574],[11.2555827,47.4255449],[11.2554292,47.4252856],[11.2553214,47.4248683],[11.2549721,47.4236655],[11.2549786,47.423495],[11.2550867,47.4232148],[11.2553025,47.4225959],[11.2553542,47.4224371]]}},{"type":"Feature","id":1346173523,"properties":{"kind":"run","name":"Mapped ski run","subtype":"easy","pisteType":"nordic","featured":false},"geometry":{"type":"LineString","coordinates":[[11.2583355,47.4270063],[11.2585546,47.4269975]]}},{"type":"Feature","id":1346579152,"properties":{"kind":"run","name":"Riedboden","subtype":"easy","pisteType":"nordic","featured":false},"geometry":{"type":"LineString","coordinates":[[11.2506108,47.4026023],[11.2504953,47.4025199],[11.2502812,47.4019261],[11.2498201,47.4017426],[11.2497554,47.4016468],[11.2497505,47.4015619],[11.250718,47.4010168],[11.2512094,47.4006787],[11.2514123,47.4003268],[11.2515333,47.400246],[11.2517768,47.400242],[11.2521571,47.4000385],[11.2523125,47.3999242],[11.2529775,47.399853],[11.2534588,47.3996792],[11.2539035,47.3996752],[11.2544408,47.3995284],[11.2552708,47.3990861],[11.2557035,47.3989602],[11.2560947,47.3987494],[11.2565048,47.3985945],[11.2572155,47.3984841],[11.2581184,47.3984775],[11.2602013,47.3983709],[11.2613426,47.3985348],[11.2620288,47.3986183],[11.2621807,47.3986893],[11.2622045,47.3988036],[11.262136,47.3991336],[11.2621909,47.3992628],[11.2623813,47.3995344],[11.2624521,47.3997109],[11.2622376,47.4000626],[11.2620217,47.4004698],[11.2617534,47.4007511],[11.2616145,47.4009306],[11.2615842,47.4010827],[11.2617721,47.4013138],[11.2617973,47.4015384]]}},{"type":"Feature","id":1346579154,"properties":{"kind":"run","name":"Riedboden","subtype":"easy","pisteType":"nordic","featured":false},"geometry":{"type":"LineString","coordinates":[[11.2550305,47.4129233],[11.2546836,47.4133768],[11.2545741,47.4136102],[11.254602,47.413824],[11.254735,47.414138],[11.2547288,47.4143807],[11.2547705,47.4145189],[11.2551343,47.4149143]]}},{"type":"Feature","id":1346579155,"properties":{"kind":"run","name":"Riedboden","subtype":"easy","pisteType":"nordic","featured":false},"geometry":{"type":"LineString","coordinates":[[11.2583355,47.4270063],[11.2582233,47.4270066],[11.2580824,47.4269793],[11.2578524,47.4269582],[11.2572663,47.4269196],[11.2564405,47.4266977],[11.2559881,47.4262926],[11.2556565,47.4256574]]}}]}