{"type":"FeatureCollection","features":[{"type":"Feature","id":"building-1250580798","properties":{"kind":"building","name":"Alpine building","height":7.2},"geometry":{"type":"Polygon","coordinates":[[[11.2827174,47.4337637],[11.282743,47.4337366],[11.282707,47.433721],[11.2826814,47.4337481],[11.2827174,47.4337637]]]}},{"type":"Feature","id":"building-176176615","properties":{"kind":"building","name":"Alpine building","height":7.2},"geometry":{"type":"Polygon","coordinates":[[[11.2823668,47.4339114],[11.282291,47.4337807],[11.2823875,47.4337551],[11.2824076,47.4337897],[11.2824454,47.4337796],[11.2824759,47.4338323],[11.2824369,47.4338427],[11.2824621,47.4338861],[11.2823668,47.4339114]]]}},{"type":"Feature","id":"building-984913399","properties":{"kind":"building","name":"Alpine building","height":7.2},"geometry":{"type":"Polygon","coordinates":[[[11.2822342,47.4336887],[11.2822176,47.4336486],[11.2822454,47.4336434],[11.2822374,47.4336239],[11.2822706,47.4336176],[11.2822785,47.4336367],[11.2822928,47.433634],[11.282314,47.4336856],[11.2822665,47.4336945],[11.2822619,47.4336834],[11.2822342,47.4336887]]]}},{"type":"Feature","id":"building-202803120","properties":{"kind":"building","name":"Natur-Informationszentrum Bergwelt Karwendel","height":7.2},"geometry":{"type":"Polygon","coordinates":[[[11.2951679,47.4302731],[11.295212,47.430291],[11.2952555,47.4303087],[11.2953643,47.4301859],[11.2954229,47.4301198],[11.2954901,47.430044],[11.2954484,47.430027],[11.2954026,47.4300084],[11.2952548,47.4301751],[11.2951679,47.4302731]]]}},{"type":"Feature","id":"building-1250580793","properties":{"kind":"building","name":"Alpine building","height":7.2},"geometry":{"type":"Polygon","coordinates":[[[11.2957566,47.4303684],[11.295912,47.4303184],[11.2958838,47.4302783],[11.2958702,47.430259],[11.2958585,47.4302423],[11.2955465,47.4303426],[11.2956,47.4304188],[11.2957566,47.4303684]]]}},{"type":"Feature","id":"building-202803122","properties":{"kind":"building","name":"Alpine building","height":7.2},"geometry":{"type":"Polygon","coordinates":[[[11.2955465,47.4303426],[11.2958585,47.4302423],[11.2958399,47.4302159],[11.2958327,47.4302056],[11.2957838,47.43022],[11.2957374,47.4301512],[11.2955992,47.4301986],[11.2955301,47.4301668],[11.2954722,47.4301854],[11.2954736,47.4302389],[11.2955465,47.4303426]]]}},{"type":"Feature","id":"building-1250580789","properties":{"kind":"building","name":"Alpine building","height":7.2},"geometry":{"type":"Polygon","coordinates":[[[11.2955301,47.4301668],[11.2955456,47.4301623],[11.295847,47.4300665],[11.2959637,47.4301317],[11.2958618,47.430201],[11.2958399,47.4302159],[11.2958585,47.4302423],[11.2955465,47.4303426],[11.2954736,47.4302389],[11.2954722,47.4301854],[11.2955301,47.4301668]]]}},{"type":"Feature","id":"building-984856106","properties":{"kind":"building","name":"Alpine building","height":7.2},"geometry":{"type":"Polygon","coordinates":[[[11.2960081,47.4300966],[11.2959637,47.4301317],[11.2958618,47.430201],[11.2958399,47.4302159],[11.2958585,47.4302423],[11.2958817,47.4302277],[11.2959757,47.4301684],[11.2960423,47.4301176],[11.2960081,47.4300966]]]}},{"type":"Feature","id":"building-302137628","properties":{"kind":"building","name":"Alpine building","height":7.2},"geometry":{"type":"Polygon","coordinates":[[[11.2959757,47.4301684],[11.2958817,47.4302277],[11.2958585,47.4302423],[11.2958838,47.4302783],[11.2960064,47.4302001],[11.2961058,47.4301685],[11.2960858,47.4301592],[11.2960673,47.4301506],[11.2959818,47.4301762],[11.2959757,47.4301684]]]}},{"type":"Feature","id":"building-1250580799","properties":{"kind":"building","name":"Alpine building","height":7.2},"geometry":{"type":"Polygon","coordinates":[[[11.2960281,47.4302313],[11.2960558,47.4302712],[11.2961553,47.4302396],[11.2961058,47.4301685],[11.2960064,47.4302001],[11.2960281,47.4302313]]]}},{"type":"Feature","id":"building-848353041","properties":{"kind":"building","name":"Alpine building","height":7.2},"geometry":{"type":"Polygon","coordinates":[[[11.2960651,47.4301006],[11.2961748,47.4300188],[11.2961406,47.4299978],[11.2961134,47.430018],[11.2960308,47.4300796],[11.2960081,47.4300966],[11.2960423,47.4301176],[11.2960651,47.4301006]]]}},{"type":"Feature","id":"building-1250580788","properties":{"kind":"building","name":"Alpine building","height":7.2},"geometry":{"type":"Polygon","coordinates":[[[11.2961748,47.4300188],[11.2961406,47.4299978],[11.2960308,47.4300796],[11.2960651,47.4301006],[11.2961028,47.4301238],[11.2962125,47.430042],[11.2961748,47.4300188]]]}},{"type":"Feature","id":"building-1250580795","properties":{"kind":"building","name":"Alpine building","height":7.2},"geometry":{"type":"Polygon","coordinates":[[[11.3018219,47.4310785],[11.3018243,47.4310986],[11.3018713,47.4310959],[11.3018689,47.4310759],[11.3018219,47.4310785]]]}},{"type":"Feature","id":"building-302137024","properties":{"kind":"building","name":"Alpine building","height":7.2},"geometry":{"type":"Polygon","coordinates":[[[11.3017699,47.4310773],[11.3018737,47.4310715],[11.3018625,47.4309808],[11.3018467,47.430983],[11.3017588,47.4309866],[11.3017699,47.4310773]]]}},{"type":"Feature","id":"pylon-mittenwald-karwendel-0","properties":{"kind":"pylon","name":"Lift tower","height":13},"geometry":{"type":"Polygon","coordinates":[[[11.278109004734318,47.4136898],[11.27810045086568,47.41370377444232],[11.2780798,47.41370956284585],[11.278059149134322,47.41370377444232],[11.278050595265682,47.4136898],[11.278059149134322,47.41367582555768],[11.2780798,47.41367003715415],[11.27810045086568,47.41367582555768],[11.278109004734318,47.4136898]]]}},{"type":"Feature","id":"pylon-mittenwald-karwendel-1","properties":{"kind":"pylon","name":"Lift tower","height":13},"geometry":{"type":"Polygon","coordinates":[[[11.27724170463516,47.413511],[11.277233150795563,47.41352497444232],[11.2772125,47.41353076284585],[11.277191849204435,47.41352497444232],[11.27718329536484,47.413511],[11.277191849204435,47.41349702555768],[11.2772125,47.41349123715415],[11.277233150795563,47.41349702555768],[11.27724170463516,47.413511]]]}},{"type":"Feature","id":"pylon-mittenwald-karwendel-2","properties":{"kind":"pylon","name":"Lift tower","height":13},"geometry":{"type":"Polygon","coordinates":[[[11.234721525185703,47.4505303],[11.234712965326993,47.450544274442315],[11.2346923,47.45055006284585],[11.234671634673008,47.450544274442315],[11.234663074814298,47.4505303],[11.234671634673008,47.45051632555768],[11.2346923,47.450510537154145],[11.234712965326993,47.45051632555768],[11.234721525185703,47.4505303]]]}},{"type":"Feature","id":"pylon-mittenwald-karwendel-3","properties":{"kind":"pylon","name":"Lift tower","height":13},"geometry":{"type":"Polygon","coordinates":[[[11.232044025277002,47.4506946],[11.23203546539155,47.45070857444232],[11.2320148,47.45071436284585],[11.231994134608449,47.45070857444232],[11.231985574722998,47.4506946],[11.231994134608449,47.45068062555768],[11.2320148,47.450674837154146],[11.23203546539155,47.45068062555768],[11.232044025277002,47.4506946]]]}},{"type":"Feature","id":"pylon-mittenwald-karwendel-4","properties":{"kind":"pylon","name":"Lift tower","height":13},"geometry":{"type":"Polygon","coordinates":[[[11.230441025331684,47.450793],[11.230432465430216,47.450806974442315],[11.2304118,47.45081276284585],[11.230391134569786,47.450806974442315],[11.230382574668317,47.450793],[11.230391134569786,47.45077902555768],[11.2304118,47.450773237154145],[11.230432465430216,47.45077902555768],[11.230441025331684,47.450793]]]}},{"type":"Feature","id":"pylon-mittenwald-karwendel-5","properties":{"kind":"pylon","name":"Lift tower","height":13},"geometry":{"type":"Polygon","coordinates":[[[11.281284616485232,47.4348665],[11.281276059174829,47.434880474442316],[11.2812554,47.43488626284585],[11.28123474082517,47.434880474442316],[11.281226183514766,47.4348665],[11.28123474082517,47.43485252555768],[11.2812554,47.434846737154146],[11.281276059174829,47.43485252555768],[11.281284616485232,47.4348665]]]}},{"type":"Feature","id":"pylon-mittenwald-karwendel-6","properties":{"kind":"pylon","name":"Lift tower","height":13},"geometry":{"type":"Polygon","coordinates":[[[11.256061822235989,47.4452213],[11.25605326324123,47.44523527444232],[11.2560326,47.44524106284585],[11.25601193675877,47.44523527444232],[11.25600337776401,47.4452213],[11.25601193675877,47.44520732555768],[11.2560326,47.44520153715415],[11.25605326324123,47.44520732555768],[11.256061822235989,47.4452213]]]}},{"type":"Feature","id":"pylon-mittenwald-karwendel-7","properties":{"kind":"pylon","name":"Lift tower","height":13},"geometry":{"type":"Polygon","coordinates":[[[11.255210622386928,47.445493],[11.255202063347959,47.44550697444232],[11.2551814,47.44551276284585],[11.25516073665204,47.44550697444232],[11.255152177613072,47.445493],[11.25516073665204,47.44547902555768],[11.2551814,47.44547323715415],[11.255202063347959,47.44547902555768],[11.255210622386928,47.445493]]]}},{"type":"Feature","id":"pylon-mittenwald-karwendel-8","properties":{"kind":"pylon","name":"Lift tower","height":13},"geometry":{"type":"Polygon","coordinates":[[[11.255021222420536,47.4455535],[11.255012663371724,47.44556747444232],[11.254992,47.445573262845855],[11.254971336628275,47.44556747444232],[11.254962777579463,47.4455535],[11.254971336628275,47.445539525557685],[11.254992,47.44553373715415],[11.255012663371724,47.445539525557685],[11.255021222420536,47.4455535]]]}},{"type":"Feature","id":"pylon-mittenwald-karwendel-9","properties":{"kind":"pylon","name":"Lift tower","height":13},"geometry":{"type":"Polygon","coordinates":[[[11.253817522634032,47.4459378],[11.253808963522689,47.44595177444232],[11.2537883,47.445957562845855],[11.253767636477312,47.44595177444232],[11.253759077365968,47.4459378],[11.253767636477312,47.445923825557685],[11.2537883,47.44591803715415],[11.253808963522689,47.445923825557685],[11.253817522634032,47.4459378]]]}},{"type":"Feature","id":"pylon-mittenwald-karwendel-10","properties":{"kind":"pylon","name":"Lift tower","height":13},"geometry":{"type":"Polygon","coordinates":[[[11.249635223375716,47.4472728],[11.249626664047138,47.44728677444232],[11.249606,47.44729256284585],[11.249585335952862,47.44728677444232],[11.249576776624284,47.4472728],[11.249585335952862,47.44725882555768],[11.249606,47.44725303715415],[11.249626664047138,47.44725882555768],[11.249635223375716,47.4472728]]]}},{"type":"Feature","id":"pylon-mittenwald-karwendel-11","properties":{"kind":"pylon","name":"Lift tower","height":13},"geometry":{"type":"Polygon","coordinates":[[[11.251822222987865,47.4465747],[11.251813663772886,47.44658867444232],[11.251793,47.44659446284585],[11.251772336227113,47.44658867444232],[11.251763777012133,47.4465747],[11.251772336227113,47.44656072555768],[11.251793,47.44655493715415],[11.251813663772886,47.44656072555768],[11.251822222987865,47.4465747]]]}},{"type":"Feature","id":"pylon-mittenwald-karwendel-12","properties":{"kind":"pylon","name":"Lift tower","height":13},"geometry":{"type":"Polygon","coordinates":[[[11.248190123632012,47.4477341],[11.248181564228366,47.447748074442316],[11.2481609,47.44775386284585],[11.248140235771634,47.447748074442316],[11.248131676367988,47.4477341],[11.248140235771634,47.44772012555768],[11.2481609,47.447714337154146],[11.248181564228366,47.44772012555768],[11.248190123632012,47.4477341]]]}},{"type":"Feature","id":"pylon-mittenwald-karwendel-13","properties":{"kind":"pylon","name":"Lift tower","height":13},"geometry":{"type":"Polygon","coordinates":[[[11.247304123789137,47.4480169],[11.24729556433947,47.44803087444232],[11.2472749,47.44803666284585],[11.247254235660531,47.44803087444232],[11.247245676210865,47.4480169],[11.247254235660531,47.44800292555768],[11.2472749,47.44799713715415],[11.24729556433947,47.44800292555768],[11.247304123789137,47.4480169]]]}},{"type":"Feature","id":"pylon-mittenwald-karwendel-14","properties":{"kind":"pylon","name":"Lift tower","height":13},"geometry":{"type":"Polygon","coordinates":[[[11.245191224183351,47.4487264],[11.245182664618222,47.448740374442316],[11.245162,47.44874616284585],[11.24514133538178,47.448740374442316],[11.24513277581665,47.4487264],[11.24514133538178,47.44871242555768],[11.245162,47.448706637154146],[11.245182664618222,47.44871242555768],[11.245191224183351,47.4487264]]]}},{"type":"Feature","id":"pylon-mittenwald-karwendel-15","properties":{"kind":"pylon","name":"Lift tower","height":13},"geometry":{"type":"Polygon","coordinates":[[[11.244455224308258,47.4489512],[11.244446664706544,47.44896517444232],[11.244426,47.448970962845856],[11.244405335293457,47.44896517444232],[11.244396775691744,47.4489512],[11.244405335293457,47.448937225557685],[11.244426,47.44893143715415],[11.244446664706544,47.448937225557685],[11.244455224308258,47.4489512]]]}},{"type":"Feature","id":"pylon-mittenwald-karwendel-16","properties":{"kind":"pylon","name":"Lift tower","height":13},"geometry":{"type":"Polygon","coordinates":[[[11.242371724683597,47.4496267],[11.24236316497195,47.44964067444232],[11.2423425,47.449646462845855],[11.242321835028049,47.44964067444232],[11.242313275316402,47.4496267],[11.242321835028049,47.449612725557685],[11.2423425,47.44960693715415],[11.24236316497195,47.449612725557685],[11.242371724683597,47.4496267]]]}},{"type":"Feature","id":"pylon-mittenwald-karwendel-17","properties":{"kind":"pylon","name":"Lift tower","height":13},"geometry":{"type":"Polygon","coordinates":[[[11.24062332499577,47.4501885],[11.240614765192689,47.45020247444232],[11.2405941,47.450208262845855],[11.24057343480731,47.45020247444232],[11.240564875004228,47.4501885],[11.24057343480731,47.450174525557685],[11.2405941,47.45016873715415],[11.240614765192689,47.450174525557685],[11.24062332499577,47.4501885]]]}},{"type":"Feature","id":"pylon-mittenwald-karwendel-18","properties":{"kind":"pylon","name":"Lift tower","height":13},"geometry":{"type":"Polygon","coordinates":[[[11.23991322511952,47.4504112],[11.239904665280195,47.450425174442316],[11.239884,47.45043096284585],[11.239863334719805,47.450425174442316],[11.23985477488048,47.4504112],[11.239863334719805,47.45039722555768],[11.239884,47.450391437154146],[11.239904665280195,47.45039722555768],[11.23991322511952,47.4504112]]]}},{"type":"Feature","id":"pylon-mittenwald-karwendel-19","properties":{"kind":"pylon","name":"Lift tower","height":13},"geometry":{"type":"Polygon","coordinates":[[[11.290233714904211,47.4320187],[11.290225158056879,47.43203267444232],[11.2902045,47.43203846284585],[11.29018384194312,47.43203267444232],[11.290175285095788,47.4320187],[11.29018384194312,47.43200472555768],[11.2902045,47.43199893715415],[11.290225158056879,47.43200472555768],[11.290233714904211,47.4320187]]]}},{"type":"Feature","id":"marker-mittenwald-karwendel-summit","properties":{"kind":"marker","markerType":"summit","name":"Upper mountain · 2244 m","height":26},"geometry":{"type":"Polygon","coordinates":[[[11.28609296884696,47.439],[11.286075213377138,47.43903696098425],[11.286028728953658,47.43905980412877],[11.285971271046341,47.43905980412877],[11.28592478662286,47.43903696098425],[11.28590703115304,47.439],[11.28592478662286,47.43896303901575],[11.285971271046341,47.43894019587123],[11.286028728953658,47.43894019587123],[11.286075213377138,47.43896303901575],[11.28609296884696,47.439]]]}},{"type":"Feature","id":"marker-mittenwald-karwendel-base","properties":{"kind":"marker","markerType":"base","name":"Base · 933 m","height":18},"geometry":{"type":"Polygon","coordinates":[[[11.290092961779761,47.435],[11.290075207659655,47.43503696098425],[11.290028726769773,47.43505980412877],[11.289971273230226,47.43505980412877],[11.289924792340344,47.43503696098425],[11.289907038220237,47.435],[11.289924792340344,47.434963039015756],[11.289971273230226,47.434940195871235],[11.290028726769773,47.434940195871235],[11.290075207659655,47.434963039015756],[11.290092961779761,47.435]]]}},{"type":"Feature","id":"marker-mittenwald-karwendel-peak","properties":{"kind":"marker","markerType":"peak","name":"Peak · 2385 m","height":22},"geometry":{"type":"Polygon","coordinates":[[[11.294092972381131,47.441],[11.294075216236342,47.44103696098425],[11.294028730045776,47.44105980412877],[11.293971269954222,47.44105980412877],[11.293924783763655,47.44103696098425],[11.293907027618866,47.441],[11.293924783763655,47.440963039015756],[11.293971269954222,47.440940195871235],[11.294028730045776,47.440940195871235],[11.294075216236342,47.440963039015756],[11.294092972381131,47.441]]]}}]}