{"type":"FeatureCollection","features":[{"type":"Feature","id":23446889,"properties":{"kind":"lift","name":"Funivia Rifugio Sapienza - Montagnola","subtype":"gondola","status":"active"},"geometry":{"type":"LineString","coordinates":[[14.9989711,37.7010488],[14.999004,37.7016948],[14.9990365,37.7023057],[14.9990977,37.7034578],[14.9991643,37.7047096],[14.9992136,37.7056357],[14.9992632,37.7065684],[14.9993282,37.7077901],[14.9993909,37.7089685],[14.9994317,37.7097364],[14.9994669,37.7103979],[14.9994978,37.7109791],[14.9995432,37.711832],[14.9996285,37.7134357],[14.9996824,37.7144492],[14.9997608,37.7159229],[14.9998382,37.7173771],[14.999872,37.7180116]]}},{"type":"Feature","id":64749067,"properties":{"kind":"run","name":"Sentiero a piste sci","subtype":"easy","pisteType":"downhill","featured":false},"geometry":{"type":"LineString","coordinates":[[14.9946551,37.7126823],[14.9948084,37.7126452],[14.9949059,37.7125058],[14.9950634,37.7122877],[14.9951215,37.7122299],[14.9952453,37.712172],[14.9953915,37.7121898],[14.9956222,37.7123233],[14.9961893,37.712616],[14.9965234,37.7127044],[14.9969261,37.7126738],[14.9972395,37.7125188],[14.997369,37.7124821]]}},{"type":"Feature","id":64749068,"properties":{"kind":"run","name":"Pista Sci Montagnola - Piccolo Rifugio","subtype":"intermediate","pisteType":"downhill","featured":false},"geometry":{"type":"LineString","coordinates":[[14.9992089,37.7181643],[14.9989738,37.7179308],[14.9988914,37.7177823],[14.9985641,37.717203],[14.9986671,37.7167187],[14.9985527,37.7161756],[14.9985027,37.7153272],[14.998476,37.714873],[14.9983405,37.714502],[14.9980129,37.7141929],[14.9976357,37.7136019],[14.9973573,37.7130337],[14.997369,37.7124821],[14.9976124,37.7122015],[14.9978458,37.7119278],[14.9982799,37.7110591],[14.9985588,37.7101029],[14.9985071,37.7096898],[14.9984756,37.7094381],[14.9984559,37.7088688],[14.9985193,37.7082904],[14.9987682,37.707791],[14.9989705,37.7073853],[14.9988177,37.7062678],[14.9987426,37.7059134],[14.998728,37.705626],[14.9987143,37.7052104],[14.9988516,37.7047306],[14.9988269,37.7041408],[14.9989505,37.7038438],[14.9994952,37.7034817],[14.9996371,37.7031425],[14.9995192,37.7026328],[14.9993837,37.7023259],[14.9993745,37.7023049],[14.9995086,37.7019867],[14.9996556,37.7017019],[14.9998784,37.7011427]]}},{"type":"Feature","id":64882346,"properties":{"kind":"lift","name":"sciovia Piano dell'Omino - Capannina","subtype":"platter","status":"active"},"geometry":{"type":"LineString","coordinates":[[14.9980777,37.7081083],[14.9979239,37.7085769],[14.9977497,37.7091075],[14.9975983,37.7095687],[14.9974253,37.710096],[14.9972205,37.7107199],[14.9970927,37.7111091],[14.9968414,37.7118746],[14.9964935,37.7129418]]}},{"type":"Feature","id":64882347,"properties":{"kind":"run","name":"Mapped ski run","subtype":"intermediate","pisteType":"downhill","featured":false},"geometry":{"type":"LineString","coordinates":[[14.9997678,37.7088109],[14.9996736,37.7088758],[14.9990954,37.7086998],[14.9988729,37.7085895],[14.9985965,37.7083557],[14.9985193,37.7082904],[14.9982844,37.7080642],[14.9981842,37.7079999],[14.9980777,37.7081083]]}},{"type":"Feature","id":64882349,"properties":{"kind":"lift","name":"sciovia Piano dell'Omino - Piccolo Rifugio","subtype":"platter","status":"active"},"geometry":{"type":"LineString","coordinates":[[14.9959434,37.7126025],[14.9962533,37.7131956],[14.9966812,37.7140145],[14.9970206,37.714664],[14.9973266,37.7152496],[14.997691,37.715947],[14.9980262,37.7165884],[14.9983414,37.7171915],[14.9987735,37.7180185]]}},{"type":"Feature","id":64882350,"properties":{"kind":"lift","name":"sciovia Piccolo Rifugio - Montagnola","subtype":"platter","status":"active"},"geometry":{"type":"LineString","coordinates":[[14.9979841,37.7186282],[15.000148,37.7189377],[15.001118,37.7190764],[15.0018623,37.7191829],[15.0028574,37.7193252],[15.0034899,37.7194157],[15.0040577,37.7194969]]}},{"type":"Feature","id":64882508,"properties":{"kind":"lift","name":"Seggiovia Monti Silvestri - Capannina","subtype":"chair_lift","status":"active"},"geometry":{"type":"LineString","coordinates":[[15.0000445,37.7009087],[15.0000403,37.7010267],[15.0000381,37.7010911],[15.0000141,37.7017755],[14.9999806,37.7027317],[14.999963,37.7032347],[14.9999488,37.7036418],[14.9999191,37.7044905],[14.9998896,37.7053332],[14.9998598,37.7061841],[14.9998447,37.7066134],[14.9998175,37.7073902],[14.999796,37.7080066],[14.9997754,37.7085938],[14.9997678,37.7088109]]}},{"type":"Feature","id":132647379,"properties":{"kind":"lift","name":"Pouchoz-Tanaurpi","subtype":"chair_lift","status":"active"},"geometry":{"type":"LineString","coordinates":[[15.0355333,37.7982845],[15.0351243,37.7979549],[15.0342162,37.7972231],[15.0334162,37.7965783],[15.0323967,37.7957567],[15.031443,37.7949881],[15.0305553,37.7942726],[15.0295221,37.79344],[15.0287781,37.7928403],[15.0278938,37.7921276],[15.0252654,37.7900092]]}},{"type":"Feature","id":140130294,"properties":{"kind":"lift","name":"Anfiteatro","subtype":"platter","status":"active"},"geometry":{"type":"LineString","coordinates":[[15.0249474,37.784972],[15.0132019,37.783185]]}},{"type":"Feature","id":140130296,"properties":{"kind":"lift","name":"Monte Conca","subtype":"platter","status":"active"},"geometry":{"type":"LineString","coordinates":[[15.0363429,37.7932385],[15.0243162,37.7869175],[15.0239263,37.7867126]]}},{"type":"Feature","id":334872052,"properties":{"kind":"lift","name":"Coccinelle","subtype":"platter","status":"active"},"geometry":{"type":"LineString","coordinates":[[15.0257373,37.7894679],[15.0140808,37.78914]]}},{"type":"Feature","id":749853953,"properties":{"kind":"run","name":"Mapped ski run","subtype":"intermediate","pisteType":"downhill","featured":false},"geometry":{"type":"LineString","coordinates":[[15.0226423,37.7876256],[15.0242704,37.7880008],[15.0254077,37.7888233],[15.0255525,37.7892472],[15.0273335,37.7896966],[15.0290769,37.7903579],[15.029385,37.7913331]]}},{"type":"Feature","id":749853954,"properties":{"kind":"run","name":"Mapped ski run","subtype":"intermediate","pisteType":"downhill","featured":false},"geometry":{"type":"LineString","coordinates":[[15.0243162,37.7869175],[15.0241363,37.7870258],[15.0231171,37.7872589],[15.0226423,37.7876256],[15.022991,37.7883018],[15.0228462,37.7886516],[15.0226871,37.7891457]]}},{"type":"Feature","id":749853955,"properties":{"kind":"run","name":"Mapped ski run","subtype":"intermediate","pisteType":"downhill","featured":false},"geometry":{"type":"LineString","coordinates":[[15.0243162,37.7869175],[15.024308,37.7867184],[15.0237206,37.7860698],[15.023675,37.7857136],[15.0240076,37.7853575],[15.02478,37.7851604]]}},{"type":"Feature","id":749853956,"properties":{"kind":"run","name":"Mapped ski run","subtype":"intermediate","pisteType":"downhill","featured":false},"geometry":{"type":"LineString","coordinates":[[15.0140808,37.78914],[15.0140029,37.7888657],[15.0146842,37.7871148],[15.0170445,37.7865298],[15.018729,37.7861058],[15.020172,37.785224],[15.0219744,37.7851858],[15.0245655,37.7851349],[15.02478,37.7851604],[15.0249474,37.784972]]}},{"type":"Feature","id":749853957,"properties":{"kind":"run","name":"Mapped ski run","subtype":"intermediate","pisteType":"downhill","featured":false},"geometry":{"type":"LineString","coordinates":[[15.0132019,37.783185],[15.0160038,37.7842997],[15.0172698,37.7856564],[15.0179082,37.7875981]]}},{"type":"Feature","id":749853958,"properties":{"kind":"run","name":"Mapped ski run","subtype":"intermediate","pisteType":"downhill","featured":false},"geometry":{"type":"LineString","coordinates":[[15.0132019,37.783185],[15.0137508,37.7812132],[15.0166476,37.7806112],[15.0192976,37.7811369],[15.0213039,37.7820951],[15.0226343,37.7830533]]}},{"type":"Feature","id":749853959,"properties":{"kind":"run","name":"Mapped ski run","subtype":"intermediate","pisteType":"downhill","featured":false},"geometry":{"type":"LineString","coordinates":[[15.0132019,37.783185],[15.0140083,37.7829091],[15.0194049,37.7833077],[15.0215936,37.7829091],[15.0226343,37.7830533],[15.0233316,37.7841895],[15.0249195,37.784694],[15.025008,37.7848551],[15.0249474,37.784972]]}},{"type":"Feature","id":749853960,"properties":{"kind":"run","name":"Mapped ski run","subtype":"intermediate","pisteType":"downhill","featured":false},"geometry":{"type":"LineString","coordinates":[[15.0140808,37.78914],[15.0140887,37.7890225],[15.0162935,37.7878694],[15.0179082,37.7875981],[15.0201291,37.7884884],[15.0214112,37.7890437],[15.0226871,37.7891457],[15.0242221,37.7892684],[15.0250804,37.7891963],[15.0255525,37.7892472],[15.0257373,37.7894679],[15.0255874,37.7898471]]}},{"type":"Feature","id":749853961,"properties":{"kind":"run","name":"Mapped ski run","subtype":"easy","pisteType":"downhill","featured":false},"geometry":{"type":"LineString","coordinates":[[15.0252654,37.7900092],[15.0255874,37.7898471],[15.026384,37.790235],[15.027827,37.7910871]]}},{"type":"Feature","id":749853962,"properties":{"kind":"run","name":"Mapped ski run","subtype":"easy","pisteType":"downhill","featured":false},"geometry":{"type":"LineString","coordinates":[[15.027827,37.7910871],[15.028519,37.7918586],[15.0302088,37.7935712],[15.0310457,37.7955169],[15.0331539,37.797577],[15.0355333,37.7982845]]}},{"type":"Feature","id":749853963,"properties":{"kind":"run","name":"Mapped ski run","subtype":"easy","pisteType":"downhill","featured":false},"geometry":{"type":"LineString","coordinates":[[15.027827,37.7910871],[15.0278914,37.7910743],[15.029385,37.7913331],[15.0306326,37.7915491],[15.0328213,37.7922359],[15.0344038,37.79316],[15.0358039,37.7934949],[15.0362438,37.7932967],[15.0363429,37.7932385]]}},{"type":"Feature","id":749853964,"properties":{"kind":"run","name":"Mapped ski run","subtype":"intermediate","pisteType":"downhill","featured":false},"geometry":{"type":"LineString","coordinates":[[15.0040577,37.7194969],[15.0018793,37.7187855],[15.0005221,37.7184588],[14.9994439,37.7183909],[14.9992089,37.7181643],[14.9979841,37.7186282]]}},{"type":"Feature","id":749853965,"properties":{"kind":"run","name":"Mapped ski run","subtype":"intermediate","pisteType":"downhill","featured":false},"geometry":{"type":"LineString","coordinates":[[14.9981842,37.7079999],[14.9977434,37.7069965],[14.9981886,37.7059185]]}},{"type":"Feature","id":749853966,"properties":{"kind":"run","name":"Mapped ski run","subtype":"intermediate","pisteType":"downhill","featured":false},"geometry":{"type":"LineString","coordinates":[[14.9958658,37.7075227],[14.9970996,37.7076925],[14.9980777,37.7081083]]}},{"type":"Feature","id":749853967,"properties":{"kind":"run","name":"Mapped ski run","subtype":"intermediate","pisteType":"downhill","featured":false},"geometry":{"type":"LineString","coordinates":[[14.9979841,37.7186282],[14.9973893,37.7186455],[14.9969065,37.718463],[14.9952865,37.7167826],[14.9949324,37.7146863],[14.9946551,37.7126823],[14.9946159,37.710311],[14.9949807,37.7090548],[14.9958658,37.7075227],[14.9967992,37.7062538],[14.9981886,37.7059185],[14.9987426,37.7059134]]}},{"type":"Feature","id":749853968,"properties":{"kind":"run","name":"Mapped ski run","subtype":"easy","pisteType":"downhill","featured":false},"geometry":{"type":"LineString","coordinates":[[15.0040577,37.7194969],[15.0039017,37.7201689],[15.0030507,37.720541],[15.0018847,37.7204913],[15.0005366,37.7204122],[14.9992937,37.7202452],[14.9981779,37.7206356],[14.9978507,37.7202622],[14.9978317,37.7193296],[14.9979841,37.7186282]]}}]}