{"type":"FeatureCollection","features":[{"type":"Feature","id":"building-624287745","properties":{"kind":"building","name":"Osservatorio vulcanologico INGV di Pizzi Dèneri","height":7.2},"geometry":{"type":"Polygon","coordinates":[[[15.01651,37.7659991],[15.0164993,37.7657319],[15.0169665,37.7657202],[15.0171662,37.7657954],[15.0169756,37.7659478],[15.0169772,37.7659874],[15.0167636,37.7659926],[15.0166626,37.7660751],[15.0166352,37.7660545],[15.0167089,37.7659941],[15.01651,37.7659991]]]}},{"type":"Feature","id":"pylon-mount-etna-0","properties":{"kind":"pylon","name":"Lift tower","height":13},"geometry":{"type":"Polygon","coordinates":[[[14.999353180201155,37.7077901],[14.999345863669632,37.707804074442315],[14.9993282,37.70780986284585],[14.99931053633037,37.707804074442315],[14.999303219798847,37.7077901],[14.99931053633037,37.70777612555768],[14.9993282,37.707770337154145],[14.999345863669632,37.70777612555768],[14.999353180201155,37.7077901]]]}},{"type":"Feature","id":"pylon-mount-etna-1","properties":{"kind":"pylon","name":"Lift tower","height":13},"geometry":{"type":"Polygon","coordinates":[[[14.999653482104346,37.7134357],[14.999646165015392,37.713449674442316],[14.9996285,37.71345546284585],[14.999610834984608,37.713449674442316],[14.999603517895654,37.7134357],[14.999610834984608,37.71342172555768],[14.9996285,37.713415937154146],[14.999646165015392,37.71342172555768],[14.999653482104346,37.7134357]]]}},{"type":"Feature","id":"pylon-mount-etna-2","properties":{"kind":"pylon","name":"Lift tower","height":13},"geometry":{"type":"Polygon","coordinates":[[[14.999456680857213,37.7097364],[14.999449364133534,37.709750374442315],[14.9994317,37.70975616284585],[14.999414035866467,37.709750374442315],[14.999406719142788,37.7097364],[14.999414035866467,37.70972242555768],[14.9994317,37.709716637154145],[14.999449364133534,37.70972242555768],[14.999456680857213,37.7097364]]]}},{"type":"Feature","id":"pylon-mount-etna-3","properties":{"kind":"pylon","name":"Lift tower","height":13},"geometry":{"type":"Polygon","coordinates":[[[14.999288179789374,37.7065684],[14.99928086337846,37.70658237444232],[14.9992632,37.706588162845854],[14.99924553662154,37.70658237444232],[14.999238220210625,37.7065684],[14.99924553662154,37.706554425557684],[14.9992632,37.70654863715415],[14.99928086337846,37.706554425557684],[14.999288179789374,37.7065684]]]}},{"type":"Feature","id":"pylon-mount-etna-4","properties":{"kind":"pylon","name":"Lift tower","height":13},"geometry":{"type":"Polygon","coordinates":[[[14.997450280978432,37.710096],[14.99744296421925,37.71010997444232],[14.9974253,37.71011576284585],[14.99740763578075,37.71010997444232],[14.997400319021567,37.710096],[14.99740763578075,37.71008202555768],[14.9974253,37.71007623715415],[14.99744296421925,37.71008202555768],[14.997450280978432,37.710096]]]}},{"type":"Feature","id":"pylon-mount-etna-5","properties":{"kind":"pylon","name":"Lift tower","height":13},"geometry":{"type":"Polygon","coordinates":[[[15.000063077943539,37.7010911],[15.000055762073256,37.70110507444232],[15.0000381,37.70111086284585],[15.000020437926743,37.70110507444232],[15.00001312205646,37.7010911],[15.000020437926743,37.70107712555768],[15.0000381,37.70107133715415],[15.000055762073256,37.70107712555768],[15.000063077943539,37.7010911]]]}},{"type":"Feature","id":"pylon-mount-etna-6","properties":{"kind":"pylon","name":"Lift tower","height":13},"geometry":{"type":"Polygon","coordinates":[[[14.999491881080205,37.7103979],[14.999484564291214,37.710411874442315],[14.9994669,37.71041766284585],[14.999449235708786,37.710411874442315],[14.999441918919795,37.7103979],[14.999449235708786,37.71038392555768],[14.9994669,37.710378137154144],[14.999484564291214,37.71038392555768],[14.999491881080205,37.7103979]]]}},{"type":"Feature","id":"pylon-mount-etna-7","properties":{"kind":"pylon","name":"Lift tower","height":13},"geometry":{"type":"Polygon","coordinates":[[[14.999914579373073,37.7053332],[14.999907263084088,37.705347174442316],[14.9998896,37.70535296284585],[14.99987193691591,37.705347174442316],[14.999864620626926,37.7053332],[14.99987193691591,37.70531922555768],[14.9998896,37.705313437154146],[14.999907263084088,37.70531922555768],[14.999914579373073,37.7053332]]]}},{"type":"Feature","id":"pylon-mount-etna-8","properties":{"kind":"pylon","name":"Lift tower","height":13},"geometry":{"type":"Polygon","coordinates":[[[14.999238579475021,37.7056357],[14.999231263156178,37.70564967444232],[14.9992136,37.705655462845854],[14.99919593684382,37.70564967444232],[14.999188620524977,37.7056357],[14.99919593684382,37.705621725557684],[14.9992136,37.70561593715415],[14.999231263156178,37.705621725557684],[14.999238579475021,37.7056357]]]}},{"type":"Feature","id":"pylon-mount-etna-9","properties":{"kind":"pylon","name":"Lift tower","height":13},"geometry":{"type":"Polygon","coordinates":[[[14.999707382446063,37.7144492],[14.999700065257022,37.714463174442315],[14.9996824,37.71446896284585],[14.999664734742977,37.714463174442315],[14.999657417553935,37.7144492],[14.999664734742977,37.71443522555768],[14.9996824,37.714429437154145],[14.999700065257022,37.71443522555768],[14.999707382446063,37.7144492]]]}},{"type":"Feature","id":"pylon-mount-etna-10","properties":{"kind":"pylon","name":"Lift tower","height":13},"geometry":{"type":"Polygon","coordinates":[[[15.00017298395964,37.7189377],[15.000165666327282,37.718951674442316],[15.000148,37.71895746284585],[15.000130333672717,37.718951674442316],[15.000123016040359,37.7189377],[15.000130333672717,37.71892372555768],[15.000148,37.718917937154146],[15.000165666327282,37.71892372555768],[15.00017298395964,37.7189377]]]}},{"type":"Feature","id":"pylon-mount-etna-11","properties":{"kind":"pylon","name":"Lift tower","height":13},"geometry":{"type":"Polygon","coordinates":[[[14.999800380472058,37.7085938],[14.999793063861189,37.70860777444232],[14.9997754,37.708613562845855],[14.999757736138813,37.70860777444232],[14.999750419527944,37.7085938],[14.999757736138813,37.708579825557685],[14.9997754,37.70857403715415],[14.999793063861189,37.708579825557685],[14.999800380472058,37.7085938]]]}},{"type":"Feature","id":"pylon-mount-etna-12","properties":{"kind":"pylon","name":"Lift tower","height":13},"geometry":{"type":"Polygon","coordinates":[[[14.997774680645216,37.7091075],[14.99776736398363,37.70912147444232],[14.9977497,37.709127262845854],[14.99773203601637,37.70912147444232],[14.997724719354784,37.7091075],[14.99773203601637,37.709093525557684],[14.9977497,37.70908773715415],[14.99776736398363,37.709093525557684],[14.997774680645216,37.7091075]]]}},{"type":"Feature","id":"pylon-mount-etna-13","properties":{"kind":"pylon","name":"Lift tower","height":13},"geometry":{"type":"Polygon","coordinates":[[[14.999973778803056,37.7036418],[14.999966462681028,37.70365577444232],[14.9999488,37.70366156284585],[14.999931137318972,37.70365577444232],[14.999923821196944,37.7036418],[14.999931137318972,37.70362782555768],[14.9999488,37.70362203715415],[14.999966462681028,37.70362782555768],[14.999973778803056,37.7036418]]]}},{"type":"Feature","id":"pylon-mount-etna-14","properties":{"kind":"pylon","name":"Lift tower","height":13},"geometry":{"type":"Polygon","coordinates":[[[14.996866381578029,37.7118746],[14.996859064643228,37.71188857444232],[14.9968414,37.711894362845854],[14.99682373535677,37.71188857444232],[14.99681641842197,37.7118746],[14.99682373535677,37.711860625557684],[14.9968414,37.71185483715415],[14.996859064643228,37.711860625557684],[14.996866381578029,37.7118746]]]}},{"type":"Feature","id":"pylon-mount-etna-15","properties":{"kind":"pylon","name":"Lift tower","height":13},"geometry":{"type":"Polygon","coordinates":[[[15.001887284042336,37.7191829],[15.001879966385758,37.71919687444232],[15.0018623,37.71920266284585],[15.001844633614244,37.71919687444232],[15.001837315957665,37.7191829],[15.001844633614244,37.71916892555768],[15.0018623,37.71916313715415],[15.001879966385758,37.71916892555768],[15.001887284042336,37.7191829]]]}},{"type":"Feature","id":"pylon-mount-etna-16","properties":{"kind":"pylon","name":"Lift tower","height":13},"geometry":{"type":"Polygon","coordinates":[[[14.999842480066365,37.7073902],[14.999835163574321,37.70740417444232],[14.9998175,37.70740996284585],[14.99979983642568,37.70740417444232],[14.999792519933637,37.7073902],[14.99979983642568,37.70737622555768],[14.9998175,37.70737043715415],[14.999835163574321,37.70737622555768],[14.999842480066365,37.7073902]]]}},{"type":"Feature","id":"pylon-mount-etna-17","properties":{"kind":"pylon","name":"Lift tower","height":13},"geometry":{"type":"Polygon","coordinates":[[[14.999061478352814,37.7023057],[14.999054162362658,37.702319674442315],[14.9990365,37.70232546284585],[14.999018837637344,37.702319674442315],[14.999011521647187,37.7023057],[14.999018837637344,37.70229172555768],[14.9990365,37.702285937154144],[14.999054162362658,37.70229172555768],[14.999061478352814,37.7023057]]]}},{"type":"Feature","id":"pylon-mount-etna-18","properties":{"kind":"pylon","name":"Lift tower","height":13},"geometry":{"type":"Polygon","coordinates":[[[15.000005578496365,37.7027317],[14.999998262464164,37.70274567444232],[14.9999806,37.70275146284585],[14.999962937535837,37.70274567444232],[14.999955621503636,37.7027317],[14.999962937535837,37.70271772555768],[14.9999806,37.70271193715415],[14.999998262464164,37.70271772555768],[15.000005578496365,37.7027317]]]}},{"type":"Feature","id":"pylon-mount-etna-19","properties":{"kind":"pylon","name":"Lift tower","height":13},"geometry":{"type":"Polygon","coordinates":[[[14.999522781276134,37.7109791],[14.999515464429757,37.71099307444232],[14.9994978,37.710998862845855],[14.999480135570243,37.71099307444232],[14.999472818723866,37.7109791],[14.999480135570243,37.710965125557685],[14.9994978,37.71095933715415],[14.999515464429757,37.710965125557685],[14.999522781276134,37.7109791]]]}},{"type":"Feature","id":"pylon-mount-etna-20","properties":{"kind":"pylon","name":"Lift tower","height":13},"geometry":{"type":"Polygon","coordinates":[[[14.999884779659851,37.7061841],[14.999877463286872,37.70619807444232],[14.9998598,37.706203862845854],[14.999842136713127,37.70619807444232],[14.999834820340148,37.7061841],[14.999842136713127,37.70617012555768],[14.9998598,37.70616433715415],[14.999877463286872,37.70617012555768],[14.999884779659851,37.7061841]]]}},{"type":"Feature","id":"pylon-mount-etna-21","properties":{"kind":"pylon","name":"Lift tower","height":13},"geometry":{"type":"Polygon","coordinates":[[[14.999785782942977,37.7159229],[14.999778465608394,37.71593687444232],[14.9997608,37.715942662845855],[14.999743134391608,37.71593687444232],[14.999735817057024,37.7159229],[14.999743134391608,37.715908925557684],[14.9997608,37.71590313715415],[14.999778465608394,37.715908925557684],[14.999785782942977,37.7159229]]]}},{"type":"Feature","id":"pylon-mount-etna-22","properties":{"kind":"pylon","name":"Lift tower","height":13},"geometry":{"type":"Polygon","coordinates":[[[14.999568181563667,37.711832],[14.999560864633073,37.71184597444232],[14.9995432,37.71185176284585],[14.999525535366926,37.71184597444232],[14.999518218436332,37.711832],[14.999525535366926,37.71181802555768],[14.9995432,37.71181223715415],[14.999560864633073,37.71181802555768],[14.999568181563667,37.711832]]]}},{"type":"Feature","id":"pylon-mount-etna-23","properties":{"kind":"pylon","name":"Lift tower","height":13},"geometry":{"type":"Polygon","coordinates":[[[14.99986318343335,37.7173771],[14.999855865955139,37.71739107444232],[14.9998382,37.71739686284585],[14.99982053404486,37.71739107444232],[14.999813216566649,37.7173771],[14.99982053404486,37.71736312555768],[14.9998382,37.71735733715415],[14.999855865955139,37.71736312555768],[14.99986318343335,37.7173771]]]}},{"type":"Feature","id":"pylon-mount-etna-24","properties":{"kind":"pylon","name":"Lift tower","height":13},"geometry":{"type":"Polygon","coordinates":[[[15.003514884120849,37.7194157],[15.003507566441273,37.71942967444232],[15.0034899,37.71943546284585],[15.003472233558727,37.71942967444232],[15.003464915879151,37.7194157],[15.003472233558727,37.71940172555768],[15.0034899,37.71939593715415],[15.003507566441273,37.71940172555768],[15.003514884120849,37.7194157]]]}},{"type":"Feature","id":"pylon-mount-etna-25","properties":{"kind":"pylon","name":"Lift tower","height":13},"geometry":{"type":"Polygon","coordinates":[[[14.997245481188754,37.7107199],[14.99723816436797,37.71073387444232],[14.9972205,37.71073966284585],[14.997202835632029,37.71073387444232],[14.997195518811244,37.7107199],[14.997202835632029,37.71070592555768],[14.9972205,37.71070013715415],[14.99723816436797,37.71070592555768],[14.997245481188754,37.7107199]]]}},{"type":"Feature","id":"pylon-mount-etna-26","properties":{"kind":"pylon","name":"Lift tower","height":13},"geometry":{"type":"Polygon","coordinates":[[[14.99918927916291,37.7047096],[14.99918196293548,37.70472357444232],[14.9991643,37.70472936284585],[14.99914663706452,37.70472357444232],[14.999139320837092,37.7047096],[14.99914663706452,37.70469562555768],[14.9991643,37.70468983715415],[14.99918196293548,37.70469562555768],[14.99918927916291,37.7047096]]]}},{"type":"Feature","id":"pylon-mount-etna-27","properties":{"kind":"pylon","name":"Lift tower","height":13},"geometry":{"type":"Polygon","coordinates":[[[14.997623280800681,37.7095687],[14.99761596409356,37.709582674442316],[14.9975983,37.70958846284585],[14.99758063590644,37.709582674442316],[14.997573319199319,37.7095687],[14.99758063590644,37.70955472555768],[14.9975983,37.709548937154146],[14.99761596409356,37.70955472555768],[14.997623280800681,37.7095687]]]}},{"type":"Feature","id":"pylon-mount-etna-28","properties":{"kind":"pylon","name":"Lift tower","height":13},"geometry":{"type":"Polygon","coordinates":[[[14.999944079089069,37.7044905],[14.99993676288327,37.70450447444232],[14.9999191,37.70451026284585],[14.99990143711673,37.70450447444232],[14.99989412091093,37.7044905],[14.99990143711673,37.70447652555768],[14.9999191,37.704470737154146],[14.99993676288327,37.70447652555768],[14.999944079089069,37.7044905]]]}},{"type":"Feature","id":"pylon-mount-etna-29","properties":{"kind":"pylon","name":"Lift tower","height":13},"geometry":{"type":"Polygon","coordinates":[[[15.001142984006417,37.7190764],[15.00113566636036,37.71909037444232],[15.001118,37.71909616284585],[15.00110033363964,37.71909037444232],[15.001093015993582,37.7190764],[15.00110033363964,37.71906242555768],[15.001118,37.71905663715415],[15.00113566636036,37.71906242555768],[15.001142984006417,37.7190764]]]}},{"type":"Feature","id":"pylon-mount-etna-30","properties":{"kind":"pylon","name":"Lift tower","height":13},"geometry":{"type":"Polygon","coordinates":[[[14.999820980274128,37.7080066],[14.999813663721232,37.708020574442315],[14.999796,37.70802636284585],[14.999778336278768,37.708020574442315],[14.999771019725872,37.7080066],[14.999778336278768,37.70799262555768],[14.999796,37.707986837154145],[14.999813663721232,37.70799262555768],[14.999820980274128,37.7080066]]]}},{"type":"Feature","id":"pylon-mount-etna-31","properties":{"kind":"pylon","name":"Lift tower","height":13},"geometry":{"type":"Polygon","coordinates":[[[14.99794888046636,37.7085769],[14.997941563857161,37.708590874442315],[14.9979239,37.70859666284585],[14.997906236142839,37.708590874442315],[14.99789891953364,37.7085769],[14.997906236142839,37.70856292555768],[14.9979239,37.708557137154145],[14.997941563857161,37.70856292555768],[14.99794888046636,37.7085769]]]}},{"type":"Feature","id":"pylon-mount-etna-32","properties":{"kind":"pylon","name":"Lift tower","height":13},"geometry":{"type":"Polygon","coordinates":[[[14.99902897814696,37.7016948],[14.999021662217096,37.70170877444232],[14.999004,37.70171456284585],[14.998986337782902,37.70170877444232],[14.998979021853039,37.7016948],[14.998986337782902,37.70168082555768],[14.999004,37.701675037154146],[14.999021662217096,37.70168082555768],[14.99902897814696,37.7016948]]]}},{"type":"Feature","id":"pylon-mount-etna-33","properties":{"kind":"pylon","name":"Lift tower","height":13},"geometry":{"type":"Polygon","coordinates":[[[14.999415880598361,37.7089685],[14.9994085639505,37.708982474442315],[14.9993909,37.70898826284585],[14.9993732360495,37.708982474442315],[14.999365919401638,37.7089685],[14.9993732360495,37.70895452555768],[14.9993909,37.708948737154145],[14.9994085639505,37.70895452555768],[14.999415880598361,37.7089685]]]}},{"type":"Feature","id":"pylon-mount-etna-34","properties":{"kind":"pylon","name":"Lift tower","height":13},"geometry":{"type":"Polygon","coordinates":[[[15.00006527792184,37.7010267],[15.000057962057912,37.70104067444232],[15.0000403,37.70104646284585],[15.000022637942088,37.70104067444232],[15.000015322078161,37.7010267],[15.000022637942088,37.70101272555768],[15.0000403,37.70100693715415],[15.000057962057912,37.70101272555768],[15.00006527792184,37.7010267]]]}},{"type":"Feature","id":"pylon-mount-etna-35","properties":{"kind":"pylon","name":"Lift tower","height":13},"geometry":{"type":"Polygon","coordinates":[[[14.999987978665867,37.7032347],[14.999980662584019,37.70324867444232],[14.999963,37.703254462845855],[14.99994533741598,37.70324867444232],[14.999938021334131,37.7032347],[14.99994533741598,37.703220725557685],[14.999963,37.70321493715415],[14.999980662584019,37.703220725557685],[14.999987978665867,37.7032347]]]}},{"type":"Feature","id":"pylon-mount-etna-36","properties":{"kind":"pylon","name":"Lift tower","height":13},"geometry":{"type":"Polygon","coordinates":[[[14.99711768131996,37.7111091],[14.997110364460745,37.71112307444232],[14.9970927,37.711128862845854],[14.997075035539254,37.71112307444232],[14.99706771868004,37.7111091],[14.997075035539254,37.711095125557684],[14.9970927,37.71108933715415],[14.997110364460745,37.711095125557684],[14.99711768131996,37.7111091]]]}},{"type":"Feature","id":"pylon-mount-etna-37","properties":{"kind":"pylon","name":"Lift tower","height":13},"geometry":{"type":"Polygon","coordinates":[[[15.002882384090327,37.7193252],[15.002875066419692,37.71933917444232],[15.0028574,37.71934496284585],[15.002839733580307,37.71933917444232],[15.002832415909673,37.7193252],[15.002839733580307,37.71931122555768],[15.0028574,37.71930543715415],[15.002875066419692,37.71931122555768],[15.002882384090327,37.7193252]]]}},{"type":"Feature","id":"pylon-mount-etna-38","properties":{"kind":"pylon","name":"Lift tower","height":13},"geometry":{"type":"Polygon","coordinates":[[[14.999869679804544,37.7066134],[14.999862363389186,37.70662737444232],[14.9998447,37.706633162845854],[14.999827036610816,37.70662737444232],[14.999819720195458,37.7066134],[14.999827036610816,37.706599425557684],[14.9998447,37.70659363715415],[14.999862363389186,37.706599425557684],[14.999869679804544,37.7066134]]]}},{"type":"Feature","id":"pylon-mount-etna-39","properties":{"kind":"pylon","name":"Lift tower","height":13},"geometry":{"type":"Polygon","coordinates":[[[14.99912267874105,37.7034578],[14.999115362637182,37.70347177444232],[14.9990977,37.703477562845855],[14.999080037362818,37.70347177444232],[14.99907272125895,37.7034578],[14.999080037362818,37.703443825557684],[14.9990977,37.70343803715415],[14.999115362637182,37.703443825557684],[14.99912267874105,37.7034578]]]}},{"type":"Feature","id":"pylon-mount-etna-40","properties":{"kind":"pylon","name":"Lift tower","height":13},"geometry":{"type":"Polygon","coordinates":[[[15.000039078174153,37.7017755],[15.000031762236326,37.701789474442315],[15.0000141,37.70179526284585],[14.999996437763674,37.701789474442315],[14.999989121825847,37.7017755],[14.999996437763674,37.70176152555768],[15.0000141,37.701755737154144],[15.000031762236326,37.70176152555768],[15.000039078174153,37.7017755]]]}},{"type":"Feature","id":"pylon-mount-etna-41","properties":{"kind":"pylon","name":"Lift tower","height":13},"geometry":{"type":"Polygon","coordinates":[[[15.027918808687751,37.7921276],[15.027911483812696,37.79214157444232],[15.0278938,37.79214736284585],[15.027876116187302,37.79214157444232],[15.027868791312248,37.7921276],[15.027876116187302,37.79211362555768],[15.0278938,37.79210783715415],[15.027911483812696,37.79211362555768],[15.027918808687751,37.7921276]]]}},{"type":"Feature","id":"pylon-mount-etna-42","properties":{"kind":"pylon","name":"Lift tower","height":13},"geometry":{"type":"Polygon","coordinates":[[[15.028803108928987,37.7928403],[15.028795783983277,37.79285427444232],[15.0287781,37.792860062845854],[15.028760416016723,37.79285427444232],[15.028753091071014,37.7928403],[15.028760416016723,37.792826325557684],[15.0287781,37.79282053715415],[15.028795783983277,37.792826325557684],[15.028803108928987,37.7928403]]]}},{"type":"Feature","id":"pylon-mount-etna-43","properties":{"kind":"pylon","name":"Lift tower","height":13},"geometry":{"type":"Polygon","coordinates":[[[15.02954710913198,37.79344],[15.029539784126815,37.793453974442315],[15.0295221,37.79345976284585],[15.029504415873184,37.793453974442315],[15.029497090868018,37.79344],[15.029504415873184,37.79342602555768],[15.0295221,37.793420237154145],[15.029539784126815,37.79342602555768],[15.02954710913198,37.79344]]]}},{"type":"Feature","id":"pylon-mount-etna-44","properties":{"kind":"pylon","name":"Lift tower","height":13},"geometry":{"type":"Polygon","coordinates":[[[15.03058030941382,37.7942726],[15.030572984326106,37.79428657444232],[15.0305553,37.79429236284585],[15.030537615673893,37.79428657444232],[15.03053029058618,37.7942726],[15.030537615673893,37.79425862555768],[15.0305553,37.79425283715415],[15.030572984326106,37.79425862555768],[15.03058030941382,37.7942726]]]}},{"type":"Feature","id":"pylon-mount-etna-45","properties":{"kind":"pylon","name":"Lift tower","height":13},"geometry":{"type":"Polygon","coordinates":[[[15.03146800965603,37.7949881],[15.031460684497373,37.795002074442316],[15.031443,37.79500786284585],[15.031425315502625,37.795002074442316],[15.03141799034397,37.7949881],[15.031425315502625,37.79497412555768],[15.031443,37.794968337154145],[15.031460684497373,37.79497412555768],[15.03146800965603,37.7949881]]]}},{"type":"Feature","id":"pylon-mount-etna-46","properties":{"kind":"pylon","name":"Lift tower","height":13},"geometry":{"type":"Polygon","coordinates":[[[15.032421709916223,37.7957567],[15.032414384681358,37.795770674442316],[15.0323967,37.79577646284585],[15.032379015318641,37.795770674442316],[15.032371690083776,37.7957567],[15.032379015318641,37.79574272555768],[15.0323967,37.795736937154146],[15.032414384681358,37.79574272555768],[15.032421709916223,37.7957567]]]}},{"type":"Feature","id":"pylon-mount-etna-47","properties":{"kind":"pylon","name":"Lift tower","height":13},"geometry":{"type":"Polygon","coordinates":[[[15.03344121019437,37.7965783],[15.033433884878038,37.79659227444232],[15.0334162,37.79659806284585],[15.033398515121961,37.79659227444232],[15.033391189805629,37.7965783],[15.033398515121961,37.79656432555768],[15.0334162,37.79655853715415],[15.033433884878038,37.79656432555768],[15.03344121019437,37.7965783]]]}},{"type":"Feature","id":"pylon-mount-etna-48","properties":{"kind":"pylon","name":"Lift tower","height":13},"geometry":{"type":"Polygon","coordinates":[[[15.034241210412672,37.7972231],[15.0342338850324,37.797237074442315],[15.0342162,37.79724286284585],[15.0341985149676,37.797237074442315],[15.034191189587327,37.7972231],[15.0341985149676,37.79720912555768],[15.0342162,37.797203337154144],[15.0342338850324,37.79720912555768],[15.034241210412672,37.7972231]]]}},{"type":"Feature","id":"pylon-mount-etna-49","properties":{"kind":"pylon","name":"Lift tower","height":13},"geometry":{"type":"Polygon","coordinates":[[[15.035149310660435,37.7979549],[15.035141985207595,37.79796887444232],[15.0351243,37.79797466284585],[15.035106614792404,37.79796887444232],[15.035099289339565,37.7979549],[15.035106614792404,37.79794092555768],[15.0351243,37.79793513715415],[15.035141985207595,37.79794092555768],[15.035149310660435,37.7979549]]]}},{"type":"Feature","id":"pylon-mount-etna-50","properties":{"kind":"pylon","name":"Lift tower","height":13},"geometry":{"type":"Polygon","coordinates":[[[14.996278282023393,37.7131956],[14.99627096495815,37.71320957444232],[14.9962533,37.71321536284585],[14.996235635041849,37.71320957444232],[14.996228317976605,37.7131956],[14.996235635041849,37.71318162555768],[14.9962533,37.71317583715415],[14.99627096495815,37.71318162555768],[14.996278282023393,37.7131956]]]}},{"type":"Feature","id":"pylon-mount-etna-51","properties":{"kind":"pylon","name":"Lift tower","height":13},"geometry":{"type":"Polygon","coordinates":[[[14.996706182299494,37.7140145],[14.996698865153382,37.714028474442316],[14.9966812,37.71403426284585],[14.996663534846617,37.714028474442316],[14.996656217700504,37.7140145],[14.996663534846617,37.71400052555768],[14.9966812,37.713994737154145],[14.996698865153382,37.71400052555768],[14.996706182299494,37.7140145]]]}},{"type":"Feature","id":"pylon-mount-etna-52","properties":{"kind":"pylon","name":"Lift tower","height":13},"geometry":{"type":"Polygon","coordinates":[[[14.99704558251849,37.714664],[14.997038265308236,37.71467797444232],[14.9970206,37.71468376284585],[14.997002934691766,37.71467797444232],[14.996995617481511,37.714664],[14.997002934691766,37.71465002555768],[14.9970206,37.71464423715415],[14.997038265308236,37.71465002555768],[14.99704558251849,37.714664]]]}},{"type":"Feature","id":"pylon-mount-etna-53","properties":{"kind":"pylon","name":"Lift tower","height":13},"geometry":{"type":"Polygon","coordinates":[[[14.997351582715943,37.7152496],[14.997344265447856,37.71526357444232],[14.9973266,37.71526936284585],[14.997308934552143,37.71526357444232],[14.997301617284055,37.7152496],[14.997308934552143,37.71523562555768],[14.9973266,37.71522983715415],[14.997344265447856,37.71523562555768],[14.997351582715943,37.7152496]]]}},{"type":"Feature","id":"pylon-mount-etna-54","properties":{"kind":"pylon","name":"Lift tower","height":13},"geometry":{"type":"Polygon","coordinates":[[[14.997715982951103,37.715947],[14.99770866561414,37.71596097444232],[14.997691,37.71596676284585],[14.99767333438586,37.71596097444232],[14.997666017048896,37.715947],[14.99767333438586,37.71593302555768],[14.997691,37.71592723715415],[14.99770866561414,37.71593302555768],[14.997715982951103,37.715947]]]}},{"type":"Feature","id":"pylon-mount-etna-55","properties":{"kind":"pylon","name":"Lift tower","height":13},"geometry":{"type":"Polygon","coordinates":[[[14.998051183167387,37.7165884],[14.998043865767075,37.71660237444232],[14.9980262,37.71660816284585],[14.998008534232925,37.71660237444232],[14.998001216832613,37.7165884],[14.998008534232925,37.71657442555768],[14.9980262,37.71656863715415],[14.998043865767075,37.71657442555768],[14.998051183167387,37.7165884]]]}},{"type":"Feature","id":"pylon-mount-etna-56","properties":{"kind":"pylon","name":"Lift tower","height":13},"geometry":{"type":"Polygon","coordinates":[[[14.99836638337076,37.7171915],[14.998359065910881,37.717205474442316],[14.9983414,37.71721126284585],[14.998323734089118,37.717205474442316],[14.998316416629239,37.7171915],[14.998323734089118,37.71717752555768],[14.9983414,37.717171737154146],[14.998359065910881,37.71717752555768],[14.99836638337076,37.7171915]]]}},{"type":"Feature","id":"pylon-mount-etna-57","properties":{"kind":"pylon","name":"Lift tower","height":13},"geometry":{"type":"Polygon","coordinates":[[[15.102857319801968,37.824937],[15.102849991671636,37.82495097444232],[15.1028323,37.82495676284585],[15.102814608328362,37.82495097444232],[15.10280728019803,37.824937],[15.102814608328362,37.82492302555768],[15.1028323,37.824917237154146],[15.102849991671636,37.82492302555768],[15.102857319801968,37.824937]]]}},{"type":"Feature","id":"pylon-mount-etna-58","properties":{"kind":"pylon","name":"Lift tower","height":13},"geometry":{"type":"Polygon","coordinates":[[[15.100734319465086,37.8239433],[15.100726991433424,37.82395727444232],[15.1007093,37.823963062845856],[15.100691608566576,37.82395727444232],[15.100684280534914,37.8239433],[15.100691608566576,37.823929325557685],[15.1007093,37.82392353715415],[15.100726991433424,37.823929325557685],[15.100734319465086,37.8239433]]]}},{"type":"Feature","id":"pylon-mount-etna-59","properties":{"kind":"pylon","name":"Lift tower","height":13},"geometry":{"type":"Polygon","coordinates":[[[15.099233719229174,37.8232474],[15.09922639126661,37.82326137444232],[15.0992087,37.82326716284585],[15.09919100873339,37.82326137444232],[15.099183680770826,37.8232474],[15.09919100873339,37.82323342555768],[15.0992087,37.82322763715415],[15.09922639126661,37.82323342555768],[15.099233719229174,37.8232474]]]}},{"type":"Feature","id":"pylon-mount-etna-60","properties":{"kind":"pylon","name":"Lift tower","height":13},"geometry":{"type":"Polygon","coordinates":[[[15.092911718219034,37.8202674],[15.09290439055233,37.82028137444232],[15.0928867,37.82028716284585],[15.092869009447668,37.82028137444232],[15.092861681780965,37.8202674],[15.092869009447668,37.82025342555768],[15.0928867,37.82024763715415],[15.09290439055233,37.82025342555768],[15.092911718219034,37.8202674]]]}},{"type":"Feature","id":"pylon-mount-etna-61","properties":{"kind":"pylon","name":"Lift tower","height":13},"geometry":{"type":"Polygon","coordinates":[[[15.096315418764119,37.8218755],[15.096308090937766,37.821889474442315],[15.0962904,37.82189526284585],[15.096272709062236,37.821889474442315],[15.096265381235883,37.8218755],[15.096272709062236,37.82186152555768],[15.0962904,37.821855737154145],[15.096308090937766,37.82186152555768],[15.096315418764119,37.8218755]]]}},{"type":"Feature","id":"pylon-mount-etna-62","properties":{"kind":"pylon","name":"Lift tower","height":13},"geometry":{"type":"Polygon","coordinates":[[[15.094915318536465,37.8212039],[15.09490799077679,37.82121787444232],[15.0948903,37.82122366284585],[15.09487260922321,37.82121787444232],[15.094865281463534,37.8212039],[15.09487260922321,37.82118992555768],[15.0948903,37.82118413715415],[15.09490799077679,37.82118992555768],[15.094915318536465,37.8212039]]]}},{"type":"Feature","id":"pylon-mount-etna-63","properties":{"kind":"pylon","name":"Lift tower","height":13},"geometry":{"type":"Polygon","coordinates":[[[15.09076861788006,37.8192673],[15.090761290312642,37.81928127444232],[15.0907436,37.81928706284585],[15.090725909687357,37.81928127444232],[15.090718582119939,37.8192673],[15.090725909687357,37.81925332555768],[15.0907436,37.81924753715415],[15.090761290312642,37.81925332555768],[15.09076861788006,37.8192673]]]}},{"type":"Feature","id":"marker-mount-etna-summit","properties":{"kind":"marker","markerType":"summit","name":"Upper mountain · 2500 m","height":26},"geometry":{"type":"Polygon","coordinates":[[[15.006079548203983,37.769],[15.006064355848894,37.769036960984245],[15.006024581746903,37.769059804128766],[15.005975418253097,37.769059804128766],[15.005935644151107,37.769036960984245],[15.005920451796017,37.769],[15.005935644151107,37.76896303901575],[15.005975418253097,37.76894019587123],[15.006024581746903,37.76894019587123],[15.006064355848894,37.76896303901575],[15.006079548203983,37.769]]]}},{"type":"Feature","id":"marker-mount-etna-base","properties":{"kind":"marker","markerType":"base","name":"Base · 1806 m","height":18},"geometry":{"type":"Polygon","coordinates":[[[15.010079543901474,37.765],[15.010064352368092,37.76503696098425],[15.010024580417355,37.76505980412877],[15.009975419582645,37.76505980412877],[15.009935647631908,37.76503696098425],[15.009920456098525,37.765],[15.009935647631908,37.764963039015754],[15.009975419582645,37.76494019587123],[15.010024580417355,37.76494019587123],[15.010064352368092,37.764963039015754],[15.010079543901474,37.765]]]}},{"type":"Feature","id":"marker-mount-etna-peak","properties":{"kind":"marker","markerType":"peak","name":"Peak · 3357 m","height":22},"geometry":{"type":"Polygon","coordinates":[[[15.014079550355557,37.771],[15.014064357589554,37.77103696098425],[15.014024582411775,37.77105980412877],[15.013975417588224,37.77105980412877],[15.013935642410445,37.77103696098425],[15.013920449644441,37.771],[15.013935642410445,37.770963039015754],[15.013975417588224,37.77094019587123],[15.014024582411775,37.77094019587123],[15.014064357589554,37.770963039015754],[15.014079550355557,37.771]]]}},{"type":"Feature","id":"marker-mount-etna-featured-run","properties":{"kind":"marker","markerType":"featured-run","name":"Powder · Mount Etna","height":20},"geometry":{"type":"Polygon","coordinates":[[[15.013079540675152,37.762],[15.013064349757943,37.76203696098425],[15.013024579420366,37.76205980412877],[15.012975420579634,37.76205980412877],[15.012935650242056,37.76203696098425],[15.012920459324848,37.762],[15.012935650242056,37.761963039015754],[15.012975420579634,37.76194019587123],[15.013024579420366,37.76194019587123],[15.013064349757943,37.761963039015754],[15.013079540675152,37.762]]]}}]}