{"type":"FeatureCollection","features":[{"type":"Feature","id":244637208,"properties":{"kind":"lift","name":"University Tow","subtype":"rope_tow","status":"active"},"geometry":{"type":"LineString","coordinates":[[146.584375,-42.6817389],[146.5814352,-42.6827982]]}},{"type":"Feature","id":244637209,"properties":{"kind":"lift","name":"Mawson Tow","subtype":"rope_tow","status":"active"},"geometry":{"type":"LineString","coordinates":[[146.5850939,-42.6825945],[146.5819102,-42.6844017]]}},{"type":"Feature","id":244637211,"properties":{"kind":"lift","name":"Rodway Tow","subtype":"rope_tow","status":"active"},"geometry":{"type":"LineString","coordinates":[[146.571039,-42.6798011],[146.5687966,-42.6801245]]}},{"type":"Feature","id":244637259,"properties":{"kind":"run","name":"Mapped ski run","subtype":"expert","pisteType":"downhill"},"geometry":{"type":"LineString","coordinates":[[146.5690112,-42.6801481],[146.5695047,-42.6801797],[146.5701807,-42.6801954],[146.5706956,-42.6800771],[146.5709317,-42.6798563]]}},{"type":"Feature","id":244637763,"properties":{"kind":"run","name":"Mapped ski run","subtype":"intermediate","pisteType":"downhill"},"geometry":{"type":"LineString","coordinates":[[146.5822506,-42.6842178],[146.5829265,-42.6839891],[146.5838277,-42.6836421],[146.5842891,-42.6831452],[146.5849757,-42.6827982],[146.584965,-42.6826247]]}},{"type":"Feature","id":244637764,"properties":{"kind":"run","name":"Mapped ski run","subtype":"intermediate","pisteType":"downhill"},"geometry":{"type":"LineString","coordinates":[[146.5815854,-42.6827667],[146.5823472,-42.6826641],[146.582896,-42.6823721],[146.5837204,-42.68253],[146.5846539,-42.6828613],[146.5849757,-42.6827982]]}},{"type":"Feature","id":244637765,"properties":{"kind":"run","name":"Mapped ski run","subtype":"intermediate","pisteType":"downhill"},"geometry":{"type":"LineString","coordinates":[[146.5823793,-42.6840364],[146.5826261,-42.6832004],[146.5826797,-42.6825458],[146.582896,-42.6823721],[146.5830338,-42.6822615],[146.5837097,-42.6823482],[146.5842676,-42.6817725]]}},{"type":"Feature","id":244637766,"properties":{"kind":"run","name":"Mapped ski run","subtype":"intermediate","pisteType":"downhill"},"geometry":{"type":"LineString","coordinates":[[146.5839028,-42.6834213],[146.5840209,-42.6827351],[146.5841174,-42.6821274],[146.5843105,-42.6819145],[146.5842998,-42.6817488]]}},{"type":"Feature","id":244637870,"properties":{"kind":"run","name":"Down the road","subtype":"intermediate","pisteType":"downhill"},"geometry":{"type":"LineString","coordinates":[[146.5854786,-42.6826607],[146.5864778,-42.6817571],[146.5863879,-42.6812842],[146.5865328,-42.6809942]]}},{"type":"Feature","id":244637927,"properties":{"kind":"run","name":"Lake Track","subtype":"easy","pisteType":"nordic"},"geometry":{"type":"LineString","coordinates":[[146.5936232,-42.6851642],[146.5937142,-42.6850302],[146.5939033,-42.6847519],[146.5937642,-42.6833935],[146.593475,-42.682809],[146.5926074,-42.6817088],[146.5924114,-42.6812831],[146.5921618,-42.6807184]]}},{"type":"Feature","id":469846737,"properties":{"kind":"run","name":"Lake Track","subtype":"easy","pisteType":"nordic"},"geometry":{"type":"LineString","coordinates":[[146.5921618,-42.6807184],[146.5920981,-42.6796065],[146.591861,-42.6791825],[146.5912522,-42.6786972],[146.5904648,-42.678563],[146.5897782,-42.6789968]]}},{"type":"Feature","id":583367893,"properties":{"kind":"run","name":"Down the road","subtype":"intermediate","pisteType":"downhill"},"geometry":{"type":"LineString","coordinates":[[146.5891193,-42.6808507],[146.5894563,-42.6802352],[146.5897031,-42.6798092],[146.5897138,-42.6794543],[146.5897782,-42.6789968],[146.5901644,-42.678634]]}},{"type":"Feature","id":583367895,"properties":{"kind":"run","name":"Down the road","subtype":"intermediate","pisteType":"downhill"},"geometry":{"type":"LineString","coordinates":[[146.5865328,-42.6809942],[146.5866828,-42.6812809],[146.5868477,-42.6813618],[146.5870627,-42.6807921],[146.5871277,-42.6796785],[146.5870477,-42.6790831],[146.5871027,-42.6790372],[146.5871577,-42.6789912],[146.5872827,-42.6790978],[146.5885876,-42.6800497],[146.5891193,-42.6808507]]}}]}