{"type":"FeatureCollection","features":[{"type":"Feature","id":"building-335047810","properties":{"kind":"building","name":"Wellington Ski and Outdoor Club","height":7.2},"geometry":{"type":"Polygon","coordinates":[[[146.5907778,-42.68531],[146.5908328,-42.6852393],[146.5910225,-42.685319],[146.5909676,-42.6853897],[146.5907778,-42.68531]]]}},{"type":"Feature","id":"building-335047811","properties":{"kind":"building","name":"Viet Vo Tasmania","height":7.2},"geometry":{"type":"Polygon","coordinates":[[[146.584606,-42.6801696],[146.5846975,-42.6801255],[146.5848392,-42.6802846],[146.5847477,-42.6803286],[146.584606,-42.6801696]]]}},{"type":"Feature","id":"building-335047812","properties":{"kind":"building","name":"Oldina Ski Club Lodge","height":7.2},"geometry":{"type":"Polygon","coordinates":[[[146.5854992,-42.6802013],[146.5855614,-42.6801305],[146.585755,-42.6802226],[146.5856928,-42.6802933],[146.5854992,-42.6802013]]]}},{"type":"Feature","id":"building-335047813","properties":{"kind":"building","name":"Mount Mawson Ski Club Lodge","height":7.2},"geometry":{"type":"Polygon","coordinates":[[[146.5861379,-42.6806531],[146.5862336,-42.6806058],[146.5863001,-42.6806785],[146.5862045,-42.6807258],[146.5861379,-42.6806531]]]}},{"type":"Feature","id":"building-335047814","properties":{"kind":"building","name":"Resort building","height":7.2},"geometry":{"type":"Polygon","coordinates":[[[146.5852607,-42.6820247],[146.5852627,-42.6819362],[146.5853475,-42.6819373],[146.5853455,-42.6820257],[146.5852607,-42.6820247]]]}},{"type":"Feature","id":"building-335047815","properties":{"kind":"building","name":"Belt Issue hut","height":7.2},"geometry":{"type":"Polygon","coordinates":[[[146.585343,-42.6827618],[146.5854136,-42.6827459],[146.5854417,-42.6828136],[146.5853711,-42.6828294],[146.585343,-42.6827618]]]}},{"type":"Feature","id":"building-404514482","properties":{"kind":"building","name":"Eucalypt Hut","height":7.2},"geometry":{"type":"Polygon","coordinates":[[[146.5996885,-42.6875488],[146.5997355,-42.6875256],[146.5997877,-42.6875826],[146.5997408,-42.6876059],[146.5996885,-42.6875488]]]}},{"type":"Feature","id":"building-404514483","properties":{"kind":"building","name":"Fagus Hut","height":7.2},"geometry":{"type":"Polygon","coordinates":[[[146.5997663,-42.6876136],[146.5998068,-42.6875959],[146.5998489,-42.6876481],[146.5998084,-42.6876657],[146.5997663,-42.6876136]]]}},{"type":"Feature","id":"building-404514484","properties":{"kind":"building","name":"Pandani Hut","height":7.2},"geometry":{"type":"Polygon","coordinates":[[[146.6001134,-42.6877719],[146.6001031,-42.6878187],[146.6001557,-42.687825],[146.600166,-42.6877782],[146.6001134,-42.6877719]]]}},{"type":"Feature","id":"building-404514485","properties":{"kind":"building","name":"Telopea Hut (Yellow and Red)","height":4.1},"geometry":{"type":"Polygon","coordinates":[[[146.5999731,-42.6877623],[146.5999656,-42.68781],[146.600077,-42.6878194],[146.6000845,-42.6877718],[146.5999731,-42.6877623]]]}},{"type":"Feature","id":"building-404514616","properties":{"kind":"building","name":"Hobart Walking Club Hut","height":7.2},"geometry":{"type":"Polygon","coordinates":[[[146.5913182,-42.6818667],[146.5914306,-42.6818731],[146.591468,-42.6818352],[146.5915204,-42.6818566],[146.5914834,-42.6818961],[146.5915677,-42.6819403],[146.5915222,-42.6819719],[146.5914233,-42.6819191],[146.5913133,-42.6819129],[146.5913182,-42.6818667]]]}},{"type":"Feature","id":"building-451480655","properties":{"kind":"building","name":"Woodshed","height":7.2},"geometry":{"type":"Polygon","coordinates":[[[146.5997616,-42.6877806],[146.5998196,-42.6877503],[146.5998813,-42.6878142],[146.5998233,-42.6878445],[146.5997616,-42.6877806]]]}},{"type":"Feature","id":"building-451480656","properties":{"kind":"building","name":"Day Shelter","height":7.2},"geometry":{"type":"Polygon","coordinates":[[[146.5927459,-42.685585],[146.5928985,-42.6855656],[146.5929118,-42.6856219],[146.5928557,-42.6856286],[146.5928029,-42.6856357],[146.5927591,-42.6856413],[146.5927459,-42.685585]]]}},{"type":"Feature","id":"building-451480887","properties":{"kind":"building","name":"Tow Shed","height":7.2},"geometry":{"type":"Polygon","coordinates":[[[146.5850862,-42.6825733],[146.5851447,-42.6825386],[146.5851737,-42.682565],[146.5851152,-42.6825997],[146.5850862,-42.6825733]]]}},{"type":"Feature","id":"building-451480888","properties":{"kind":"building","name":"Shelter (Seasonal)","height":7.2},"geometry":{"type":"Polygon","coordinates":[[[146.5852144,-42.6822753],[146.5852721,-42.6822727],[146.5853278,-42.6822895],[146.585376,-42.6823235],[146.5853921,-42.6823787],[146.5853885,-42.6824111],[146.5853767,-42.6824255],[146.585419,-42.6824398],[146.5854505,-42.6824729],[146.5854578,-42.6825108],[146.5854391,-42.6825542],[146.5854082,-42.6825774],[146.5853569,-42.6825899],[146.5853566,-42.6825044],[146.5853438,-42.6825028],[146.5853418,-42.6824374],[146.5852144,-42.6822753]]]}},{"type":"Feature","id":"building-451480890","properties":{"kind":"building","name":"Tow shed","height":7.2},"geometry":{"type":"Polygon","coordinates":[[[146.5844019,-42.6817054],[146.5844704,-42.6816826],[146.5844907,-42.6817154],[146.5844221,-42.6817383],[146.5844019,-42.6817054]]]}},{"type":"Feature","id":"building-451480891","properties":{"kind":"building","name":"Rodway Day Shelter","height":7.2},"geometry":{"type":"Polygon","coordinates":[[[146.5711417,-42.680072],[146.5711756,-42.679995],[146.5712373,-42.6800097],[146.5712034,-42.6800867],[146.5711417,-42.680072]]]}},{"type":"Feature","id":"building-451480892","properties":{"kind":"building","name":"Rodway tow shed","height":7.2},"geometry":{"type":"Polygon","coordinates":[[[146.5711569,-42.6797591],[146.5712213,-42.6797414],[146.5712404,-42.6797791],[146.571176,-42.6797967],[146.5711569,-42.6797591]]]}},{"type":"Feature","id":"building-478050008","properties":{"kind":"building","name":"Ski Hut","height":7.2},"geometry":{"type":"Polygon","coordinates":[[[146.5905565,-42.6792191],[146.5906234,-42.679115],[146.5906729,-42.6791321],[146.590606,-42.6792363],[146.5905565,-42.6792191]]]}},{"type":"Feature","id":"building-478050009","properties":{"kind":"building","name":"Alpine Ski Club of Southern Tasmania","height":7.2},"geometry":{"type":"Polygon","coordinates":[[[146.5934691,-42.6863849],[146.5935159,-42.6863499],[146.5936312,-42.6864332],[146.5935843,-42.6864683],[146.5934691,-42.6863849]]]}},{"type":"Feature","id":"building-639855561","properties":{"kind":"building","name":"Resort building","height":7.2},"geometry":{"type":"Polygon","coordinates":[[[146.5997501,-42.6877228],[146.5998074,-42.6876948],[146.5998374,-42.6877281],[146.5997801,-42.6877561],[146.5997501,-42.6877228]]]}},{"type":"Feature","id":"building-674010706","properties":{"kind":"building","name":"Resort building","height":7.2},"geometry":{"type":"Polygon","coordinates":[[[146.5928029,-42.6856357],[146.5928119,-42.6856721],[146.5928647,-42.685665],[146.5928557,-42.6856286],[146.5928029,-42.6856357]]]}},{"type":"Feature","id":"building-674010707","properties":{"kind":"building","name":"Uni Ski Lodge","height":7.2},"geometry":{"type":"Polygon","coordinates":[[[146.5842655,-42.6805934],[146.5842802,-42.6805408],[146.5843334,-42.6805488],[146.5843187,-42.6806014],[146.5842655,-42.6805934]]]}},{"type":"Feature","id":"pylon-mount-mawson-0","properties":{"kind":"pylon","name":"Lift tower","height":13},"geometry":{"type":"Polygon","coordinates":[[[146.58292058230688,-42.68227265826262],[146.58291270826044,-42.6822586838203],[146.58289369863073,-42.68225289541677],[146.58287468900102,-42.6822586838203],[146.58286681495457,-42.68227265826262],[146.58287468900102,-42.68228663270494],[146.58289369863073,-42.68229242110847],[146.58291270826044,-42.68228663270494],[146.58292058230688,-42.68227265826262]]]}},{"type":"Feature","id":"pylon-mount-mawson-1","properties":{"kind":"pylon","name":"Lift tower","height":13},"geometry":{"type":"Polygon","coordinates":[[[146.58381504925276,-42.68333568920793],[146.58380717507157,-42.68332171476561],[146.5837881651166,-42.68331592636208],[146.58376915516163,-42.68332171476561],[146.58376128098044,-42.68333568920793],[146.58376915516163,-42.68334966365025],[146.5837881651166,-42.68335545205378],[146.58380717507157,-42.68334966365025],[146.58381504925276,-42.68333568920793]]]}},{"type":"Feature","id":"pylon-mount-mawson-2","properties":{"kind":"pylon","name":"Lift tower","height":13},"geometry":{"type":"Polygon","coordinates":[[[146.58250931469013,-42.68407687841585],[146.582501440415,-42.68406290397353],[146.58248243023323,-42.68405711557],[146.58246342005145,-42.68406290397353],[146.58245554577633,-42.68407687841585],[146.58246342005145,-42.68409085285817],[146.58248243023323,-42.684096641261704],[146.582501440415,-42.68409085285817],[146.58250931469013,-42.68407687841585]]]}},{"type":"Feature","id":"pylon-mount-mawson-3","properties":{"kind":"pylon","name":"Lift tower","height":13},"geometry":{"type":"Polygon","coordinates":[[[146.5694471194911,-42.68003455880498],[146.5694392457283,-42.68002058436266],[146.56942023678332,-42.680014795959124],[146.56940122783834,-42.68002058436266],[146.56939335407554,-42.68003455880498],[146.56940122783834,-42.680048533247295],[146.56942023678332,-42.68005432165083],[146.5694392457283,-42.680048533247295],[146.5694471194911,-42.68003455880498]]]}},{"type":"Feature","id":"marker-mount-mawson-summit zone \u00b7 1287 m","properties":{"kind":"marker","name":"Summit zone \u00b7 1287 m","height":26},"geometry":{"type":"Polygon","coordinates":[[[146.57688553033486,-42.676],[146.57686919549445,-42.675963039015755],[146.576826430327,-42.675940195871235],[146.57677356967298,-42.675940195871235],[146.57673080450553,-42.675963039015755],[146.57671446966512,-42.676],[146.57673080450553,-42.67603696098425],[146.57677356967298,-42.67605980412877],[146.576826430327,-42.67605980412877],[146.57686919549445,-42.67603696098425],[146.57688553033486,-42.676]]]}},{"type":"Feature","id":"marker-mount-mawson-resort base \u00b7 1215 m","properties":{"kind":"marker","name":"Resort base \u00b7 1215 m","height":18},"geometry":{"type":"Polygon","coordinates":[[[146.5828855385942,-42.682],[146.5828692021764,-42.681963039015756],[146.58282643287927,-42.681940195871235],[146.5827735671207,-42.681940195871235],[146.5827307978236,-42.681963039015756],[146.58271446140577,-42.682],[146.5827307978236,-42.68203696098425],[146.5827735671207,-42.68205980412877],[146.58282643287927,-42.68205980412877],[146.5828692021764,-42.68203696098425],[146.5828855385942,-42.682]]]}}]}