{"type":"FeatureCollection","features":[{"type":"Feature","id":"building-136016373","properties":{"kind":"building","name":"Alpine building","height":7.2},"geometry":{"type":"Polygon","coordinates":[[[-111.8594667,41.2156435],[-111.859136,41.215791],[-111.8591573,41.2158179],[-111.8588697,41.2159461],[-111.8588168,41.2158789],[-111.8587545,41.2159067],[-111.8586773,41.2158087],[-111.8587415,41.2157801],[-111.8586928,41.2157183],[-111.8589487,41.2156042],[-111.8589742,41.2156365],[-111.8593274,41.2154791],[-111.8593417,41.2154973],[-111.8594193,41.2154627],[-111.8595214,41.2155923],[-111.8594511,41.2156237],[-111.8594667,41.2156435]]]}},{"type":"Feature","id":"building-136016413","properties":{"kind":"building","name":"Alpine building","height":7.2},"geometry":{"type":"Polygon","coordinates":[[[-111.859627,41.2158564],[-111.8595726,41.2158923],[-111.8596007,41.2159163],[-111.8594745,41.2159997],[-111.8595231,41.2160413],[-111.8593139,41.2161796],[-111.8592684,41.2161407],[-111.8591501,41.2162188],[-111.8591179,41.2161912],[-111.8590619,41.2162282],[-111.8589428,41.2161262],[-111.8590096,41.2160821],[-111.8589839,41.21606],[-111.8590032,41.2160473],[-111.8589795,41.216027],[-111.8592839,41.2158258],[-111.8593068,41.2158454],[-111.8594239,41.215768],[-111.8594588,41.2157979],[-111.8595152,41.2157606],[-111.859627,41.2158564]]]}},{"type":"Feature","id":"building-136016356","properties":{"kind":"building","name":"Grizzly Center","height":7.2},"geometry":{"type":"Polygon","coordinates":[[[-111.8582583,41.2159901],[-111.8582738,41.2159697],[-111.8583085,41.2159858],[-111.8583942,41.2158854],[-111.8583561,41.2158615],[-111.8583704,41.2158427],[-111.8582718,41.2158003],[-111.8582938,41.2157713],[-111.8582068,41.2157339],[-111.8581825,41.2157658],[-111.8581105,41.2157347],[-111.858124,41.215717],[-111.8580849,41.2157001],[-111.858105,41.2156736],[-111.8579562,41.2156095],[-111.8579382,41.2156332],[-111.8578876,41.2156114],[-111.857827,41.2156911],[-111.8577785,41.2156702],[-111.8576925,41.2157833],[-111.8577542,41.2158099],[-111.8576876,41.2158974],[-111.8576082,41.2158633],[-111.8575352,41.2159592],[-111.8576151,41.2159936],[-111.8575551,41.2160726],[-111.8575929,41.2160889],[-111.8575658,41.2161245],[-111.8577146,41.2161886],[-111.8577441,41.2161499],[-111.8577918,41.2161704],[-111.8578461,41.216099],[-111.8578994,41.2161219],[-111.8579843,41.2160103],[-111.8579297,41.2159868],[-111.8580075,41.2158845],[-111.858015,41.2158877],[-111.857996,41.2159128],[-111.8580309,41.2159278],[-111.8580142,41.2159499],[-111.8581087,41.2159906],[-111.8581269,41.2159667],[-111.8581564,41.2159794],[-111.8581754,41.2159544],[-111.8582583,41.2159901]]]}},{"type":"Feature","id":"building-136274029","properties":{"kind":"building","name":"Alpine building","height":7.2},"geometry":{"type":"Polygon","coordinates":[[[-111.8538722,41.2131717],[-111.8537434,41.2132342],[-111.8537665,41.2132611],[-111.8536948,41.2132959],[-111.8535868,41.2131698],[-111.8535478,41.2131887],[-111.8535051,41.2131389],[-111.8535231,41.2131302],[-111.8534489,41.2130437],[-111.8535144,41.213012],[-111.8535472,41.2130503],[-111.8535863,41.2130313],[-111.8535677,41.2130095],[-111.8536009,41.2129934],[-111.8536537,41.213055],[-111.8537374,41.2130143],[-111.8538722,41.2131717]]]}},{"type":"Feature","id":"building-846772012","properties":{"kind":"building","name":"Alpine building","height":7.2},"geometry":{"type":"Polygon","coordinates":[[[-111.860103,41.217385],[-111.8601331,41.2173651],[-111.8600175,41.2172666],[-111.8599875,41.2172866],[-111.860103,41.217385]]]}},{"type":"Feature","id":"building-136016447","properties":{"kind":"building","name":"Earl's Lodge","height":7.2},"geometry":{"type":"Polygon","coordinates":[[[-111.8572551,41.2159807],[-111.8571283,41.2160403],[-111.8571831,41.2160495],[-111.8571649,41.2161172],[-111.8571503,41.2161716],[-111.8570758,41.2161592],[-111.8571644,41.2162658],[-111.8571414,41.2162767],[-111.857161,41.2163002],[-111.8570232,41.216365],[-111.8570071,41.2163457],[-111.8569861,41.2163556],[-111.8568899,41.2162398],[-111.8568668,41.2162481],[-111.8568416,41.2162515],[-111.8568159,41.2162481],[-111.8567936,41.2162405],[-111.8567714,41.2162289],[-111.8567543,41.2162133],[-111.8566062,41.216283],[-111.8565888,41.2162621],[-111.8565489,41.2162809],[-111.8564647,41.2161796],[-111.8565024,41.2161619],[-111.8564909,41.2161481],[-111.8565413,41.2161244],[-111.8565209,41.2161025],[-111.8563845,41.2160834],[-111.8564429,41.2158725],[-111.8565968,41.2159019],[-111.8565294,41.2158209],[-111.8567097,41.2157361],[-111.8567264,41.2157561],[-111.8567436,41.215748],[-111.856851,41.2158772],[-111.8568766,41.2158696],[-111.8569006,41.215867],[-111.8569253,41.2158679],[-111.8569506,41.2158764],[-111.856973,41.2158906],[-111.8569914,41.2159112],[-111.8571434,41.2158397],[-111.8571539,41.2158524],[-111.8571906,41.2158351],[-111.8572766,41.2159386],[-111.857236,41.2159577],[-111.8572551,41.2159807]]]}},{"type":"Feature","id":"building-64126639","properties":{"kind":"building","name":"John Paul Lodge","height":7.2},"geometry":{"type":"Polygon","coordinates":[[[-111.8794715,41.2043879],[-111.879584,41.2045206],[-111.8796626,41.2044827],[-111.8796957,41.2045062],[-111.8798854,41.2044256],[-111.8799158,41.2044549],[-111.8799964,41.2044192],[-111.87998,41.2043926],[-111.8799927,41.2043734],[-111.8800812,41.2043304],[-111.8800589,41.2042936],[-111.8800152,41.2042471],[-111.8799634,41.2042216],[-111.8799068,41.2042015],[-111.8798418,41.2042037],[-111.8797892,41.2042191],[-111.8797456,41.2042429],[-111.8797094,41.2042732],[-111.8796979,41.2042999],[-111.8796741,41.2042959],[-111.8796639,41.204322],[-111.8796484,41.2042996],[-111.8794715,41.2043879]]]}},{"type":"Feature","id":"building-136016393","properties":{"kind":"building","name":"Alpine building","height":7.2},"geometry":{"type":"Polygon","coordinates":[[[-111.8545421,41.2180208],[-111.854379,41.2179743],[-111.854415,41.2179028],[-111.8545781,41.2179493],[-111.8545421,41.2180208]]]}},{"type":"Feature","id":"building-1118967877","properties":{"kind":"building","name":"Alpine building","height":7.2},"geometry":{"type":"Polygon","coordinates":[[[-111.8672244,41.1951938],[-111.8671442,41.1952363],[-111.8671075,41.1951972],[-111.8671877,41.1951546],[-111.8672244,41.1951938]]]}},{"type":"Feature","id":"building-64126723","properties":{"kind":"building","name":"Alpine building","height":7.2},"geometry":{"type":"Polygon","coordinates":[[[-111.8636813,41.1949808],[-111.8634387,41.195077],[-111.8631855,41.1947155],[-111.8634282,41.1946193],[-111.8636813,41.1949808]]]}},{"type":"Feature","id":"building-136016319","properties":{"kind":"building","name":"Alpine building","height":7.2},"geometry":{"type":"Polygon","coordinates":[[[-111.8841625,41.2053761],[-111.8840713,41.205357],[-111.8840902,41.2053056],[-111.8841815,41.2053246],[-111.8841625,41.2053761]]]}},{"type":"Feature","id":"building-1299889632","properties":{"kind":"building","name":"Alpine building","height":7.2},"geometry":{"type":"Polygon","coordinates":[[[-111.8822108,41.1997964],[-111.882135,41.1998171],[-111.8821622,41.1998574],[-111.8822058,41.1998463],[-111.8822417,41.1998749],[-111.8822796,41.1998476],[-111.8822108,41.1997964]]]}},{"type":"Feature","id":"building-1110840917","properties":{"kind":"building","name":"Alpine building","height":7.2},"geometry":{"type":"Polygon","coordinates":[[[-111.8774429,41.1957706],[-111.8773169,41.195685],[-111.8774033,41.195613],[-111.8775294,41.1956986],[-111.8774429,41.1957706]]]}},{"type":"Feature","id":"building-64126736","properties":{"kind":"building","name":"Needles Lodge","height":7.2},"geometry":{"type":"Polygon","coordinates":[[[-111.8735269,41.1932937],[-111.8734075,41.193346],[-111.8734958,41.1934602],[-111.8733799,41.193511],[-111.8734735,41.1936321],[-111.8735564,41.1935957],[-111.8736475,41.1937136],[-111.873799,41.1936473],[-111.8738814,41.193743],[-111.8739899,41.1936215],[-111.8740367,41.1936002],[-111.8739313,41.1934829],[-111.8738588,41.1934698],[-111.873911,41.193447],[-111.8738214,41.1933312],[-111.8736229,41.193418],[-111.8735269,41.1932937]]]}},{"type":"Feature","id":"building-1118967875","properties":{"kind":"building","name":"Alpine building","height":7.2},"geometry":{"type":"Polygon","coordinates":[[[-111.862943,41.19026],[-111.8628501,41.1902794],[-111.8628315,41.190229],[-111.8629245,41.1902096],[-111.862943,41.19026]]]}},{"type":"Feature","id":"pylon-snowbasin-0","properties":{"kind":"pylon","name":"Lift tower","height":13},"geometry":{"type":"Polygon","coordinates":[[[-111.85870472796374,41.2153137],[-111.85871242286501,41.21532767444232],[-111.858731,41.215333462845855],[-111.858749577135,41.21532767444232],[-111.85875727203627,41.2153137],[-111.858749577135,41.215299725557685],[-111.858731,41.21529393715415],[-111.85871242286501,41.215299725557685],[-111.85870472796374,41.2153137]]]}},{"type":"Feature","id":"pylon-snowbasin-1","properties":{"kind":"pylon","name":"Lift tower","height":13},"geometry":{"type":"Polygon","coordinates":[[[-111.87098873044954,41.2091235],[-111.87099642462273,41.209137474442315],[-111.871015,41.20914326284585],[-111.87103357537727,41.209137474442315],[-111.87104126955046,41.2091235],[-111.87103357537727,41.20910952555768],[-111.871015,41.209103737154145],[-111.87099642462273,41.20910952555768],[-111.87098873044954,41.2091235]]]}},{"type":"Feature","id":"pylon-snowbasin-2","properties":{"kind":"pylon","name":"Lift tower","height":13},"geometry":{"type":"Polygon","coordinates":[[[-111.8696247301735,41.209811],[-111.86963242442754,41.20982497444232],[-111.869651,41.209830762845854],[-111.86966957557247,41.20982497444232],[-111.86967726982651,41.209811],[-111.86966957557247,41.209797025557684],[-111.869651,41.20979123715415],[-111.86963242442754,41.209797025557684],[-111.8696247301735,41.209811]]]}},{"type":"Feature","id":"pylon-snowbasin-3","properties":{"kind":"pylon","name":"Lift tower","height":13},"geometry":{"type":"Polygon","coordinates":[[[-111.86057672834251,41.2143706],[-111.86058442313283,41.21438457444232],[-111.860603,41.214390362845855],[-111.86062157686716,41.21438457444232],[-111.86062927165749,41.2143706],[-111.86062157686716,41.214356625557684],[-111.860603,41.21435083715415],[-111.86058442313283,41.214356625557684],[-111.86057672834251,41.2143706]]]}},{"type":"Feature","id":"pylon-snowbasin-4","properties":{"kind":"pylon","name":"Lift tower","height":13},"geometry":{"type":"Polygon","coordinates":[[[-111.87605673147488,41.2065696],[-111.87606442534775,41.20658357444232],[-111.876083,41.206589362845854],[-111.87610157465224,41.20658357444232],[-111.87610926852511,41.2065696],[-111.87610157465224,41.206555625557684],[-111.876083,41.20654983715415],[-111.87606442534775,41.206555625557684],[-111.87605673147488,41.2065696]]]}},{"type":"Feature","id":"pylon-snowbasin-5","properties":{"kind":"pylon","name":"Lift tower","height":13},"geometry":{"type":"Polygon","coordinates":[[[-111.86390273124752,41.2071359],[-111.86391042518699,41.207149874442315],[-111.863929,41.20715566284585],[-111.86394757481301,41.207149874442315],[-111.86395526875248,41.2071359],[-111.86394757481301,41.20712192555768],[-111.863929,41.207116137154145],[-111.86391042518699,41.20712192555768],[-111.86390273124752,41.2071359]]]}},{"type":"Feature","id":"pylon-snowbasin-6","properties":{"kind":"pylon","name":"Lift tower","height":13},"geometry":{"type":"Polygon","coordinates":[[[-111.86505872924945,41.2121122],[-111.86506642377414,41.21212617444232],[-111.865085,41.21213196284585],[-111.86510357622585,41.21212617444232],[-111.86511127075053,41.2121122],[-111.86510357622585,41.21209822555768],[-111.865085,41.21209243715415],[-111.86506642377414,41.21209822555768],[-111.86505872924945,41.2121122]]]}},{"type":"Feature","id":"pylon-snowbasin-7","properties":{"kind":"pylon","name":"Lift tower","height":13},"geometry":{"type":"Polygon","coordinates":[[[-111.86853072995204,41.2103625],[-111.86853842427095,41.21037647444232],[-111.868557,41.210382262845854],[-111.86857557572904,41.21037647444232],[-111.86858327004795,41.2103625],[-111.86857557572904,41.210348525557684],[-111.868557,41.21034273715415],[-111.86853842427095,41.210348525557684],[-111.86853072995204,41.2103625]]]}},{"type":"Feature","id":"pylon-snowbasin-8","properties":{"kind":"pylon","name":"Lift tower","height":13},"geometry":{"type":"Polygon","coordinates":[[[-111.85871872847194,41.2140483],[-111.85872642322435,41.21406227444232],[-111.858745,41.214068062845854],[-111.85876357677564,41.21406227444232],[-111.85877127152806,41.2140483],[-111.85876357677564,41.214034325557684],[-111.858745,41.21402853715415],[-111.85872642322435,41.214034325557684],[-111.85871872847194,41.2140483]]]}},{"type":"Feature","id":"pylon-snowbasin-9","properties":{"kind":"pylon","name":"Lift tower","height":13},"geometry":{"type":"Polygon","coordinates":[[[-111.87739473174557,41.2058953],[-111.87740242553916,41.20590927444232],[-111.877421,41.205915062845854],[-111.87743957446084,41.20590927444232],[-111.87744726825443,41.2058953],[-111.87743957446084,41.205881325557684],[-111.877421,41.20587553715415],[-111.87740242553916,41.205881325557684],[-111.87739473174557,41.2058953]]]}},{"type":"Feature","id":"pylon-snowbasin-10","properties":{"kind":"pylon","name":"Lift tower","height":13},"geometry":{"type":"Polygon","coordinates":[[[-111.87726173171859,41.2059625],[-111.87726942552008,41.205976474442316],[-111.877288,41.20598226284585],[-111.8773065744799,41.205976474442316],[-111.8773142682814,41.2059625],[-111.8773065744799,41.20594852555768],[-111.877288,41.205942737154146],[-111.87726942552008,41.20594852555768],[-111.87726173171859,41.2059625]]]}},{"type":"Feature","id":"pylon-snowbasin-11","properties":{"kind":"pylon","name":"Lift tower","height":13},"geometry":{"type":"Polygon","coordinates":[[[-111.86480573173101,41.2059316],[-111.86481342552887,41.20594557444232],[-111.864832,41.20595136284585],[-111.86485057447115,41.20594557444232],[-111.864858268269,41.2059316],[-111.86485057447115,41.20591762555768],[-111.864832,41.20591183715415],[-111.86481342552887,41.20591762555768],[-111.86480573173101,41.2059316]]]}},{"type":"Feature","id":"pylon-snowbasin-12","properties":{"kind":"pylon","name":"Lift tower","height":13},"geometry":{"type":"Polygon","coordinates":[[[-111.86761772976726,41.2108227],[-111.86762542414029,41.21083667444232],[-111.867644,41.210842462845854],[-111.86766257585971,41.21083667444232],[-111.86767027023274,41.2108227],[-111.86766257585971,41.21080872555768],[-111.867644,41.21080293715415],[-111.86762542414029,41.21080872555768],[-111.86761772976726,41.2108227]]]}},{"type":"Feature","id":"pylon-snowbasin-13","properties":{"kind":"pylon","name":"Lift tower","height":13},"geometry":{"type":"Polygon","coordinates":[[[-111.87266673078884,41.2082784],[-111.87267442486265,41.208292374442316],[-111.872693,41.20829816284585],[-111.87271157513734,41.208292374442316],[-111.87271926921116,41.2082784],[-111.87271157513734,41.20826442555768],[-111.872693,41.208258637154145],[-111.87267442486265,41.20826442555768],[-111.87266673078884,41.2082784]]]}},{"type":"Feature","id":"pylon-snowbasin-14","properties":{"kind":"pylon","name":"Lift tower","height":13},"geometry":{"type":"Polygon","coordinates":[[[-111.86063872949983,41.2114887],[-111.86064642395118,41.211502674442315],[-111.860665,41.21150846284585],[-111.86068357604881,41.211502674442315],[-111.86069127050017,41.2114887],[-111.86068357604881,41.21147472555768],[-111.860665,41.211468937154144],[-111.86064642395118,41.21147472555768],[-111.86063872949983,41.2114887]]]}},{"type":"Feature","id":"pylon-snowbasin-15","properties":{"kind":"pylon","name":"Lift tower","height":13},"geometry":{"type":"Polygon","coordinates":[[[-111.8644937315642,41.2063471],[-111.86450142541091,41.20636107444232],[-111.86452,41.206366862845854],[-111.86453857458909,41.20636107444232],[-111.8645462684358,41.2063471],[-111.86453857458909,41.206333125557684],[-111.86452,41.20632733715415],[-111.86450142541091,41.206333125557684],[-111.8644937315642,41.2063471]]]}},{"type":"Feature","id":"pylon-snowbasin-16","properties":{"kind":"pylon","name":"Lift tower","height":13},"geometry":{"type":"Polygon","coordinates":[[[-111.87393673104596,41.207638],[-111.87394442504446,41.20765197444232],[-111.873963,41.207657762845855],[-111.87398157495555,41.20765197444232],[-111.87398926895405,41.207638],[-111.87398157495555,41.207624025557685],[-111.873963,41.20761823715415],[-111.87394442504446,41.207624025557685],[-111.87393673104596,41.207638]]]}},{"type":"Feature","id":"pylon-snowbasin-17","properties":{"kind":"pylon","name":"Lift tower","height":13},"geometry":{"type":"Polygon","coordinates":[[[-111.85785372800892,41.2152012],[-111.85786142289695,41.21521517444232],[-111.85788,41.215220962845855],[-111.85789857710304,41.21521517444232],[-111.85790627199107,41.2152012],[-111.85789857710304,41.215187225557685],[-111.85788,41.21518143715415],[-111.85786142289695,41.215187225557685],[-111.85785372800892,41.2152012]]]}},{"type":"Feature","id":"pylon-snowbasin-18","properties":{"kind":"pylon","name":"Lift tower","height":13},"geometry":{"type":"Polygon","coordinates":[[[-111.85954472813363,41.2148907],[-111.85955242298513,41.214904674442316],[-111.859571,41.21491046284585],[-111.85958957701487,41.214904674442316],[-111.85959727186638,41.2148907],[-111.85958957701487,41.21487672555768],[-111.859571,41.214870937154146],[-111.85955242298513,41.21487672555768],[-111.85954472813363,41.2148907]]]}},{"type":"Feature","id":"pylon-snowbasin-19","properties":{"kind":"pylon","name":"Lift tower","height":13},"geometry":{"type":"Polygon","coordinates":[[[-111.86419872907558,41.2125452],[-111.8642064236512,41.21255917444232],[-111.864225,41.21256496284585],[-111.86424357634881,41.21255917444232],[-111.86425127092443,41.2125452],[-111.86424357634881,41.21253122555768],[-111.864225,41.21252543715415],[-111.8642064236512,41.21253122555768],[-111.86419872907558,41.2125452]]]}},{"type":"Feature","id":"pylon-snowbasin-20","properties":{"kind":"pylon","name":"Lift tower","height":13},"geometry":{"type":"Polygon","coordinates":[[[-111.85970272899871,41.2127366],[-111.85971042359685,41.21275057444232],[-111.859729,41.21275636284585],[-111.85974757640315,41.21275057444232],[-111.85975527100129,41.2127366],[-111.85974757640315,41.21272262555768],[-111.859729,41.21271683715415],[-111.85971042359685,41.21272262555768],[-111.85970272899871,41.2127366]]]}},{"type":"Feature","id":"pylon-snowbasin-21","properties":{"kind":"pylon","name":"Lift tower","height":13},"geometry":{"type":"Polygon","coordinates":[[[-111.86189473017241,41.2098137],[-111.86190242442676,41.209827674442316],[-111.861921,41.20983346284585],[-111.86193957557323,41.209827674442316],[-111.86194726982758,41.2098137],[-111.86193957557323,41.20979972555768],[-111.861921,41.209793937154146],[-111.86190242442676,41.20979972555768],[-111.86189473017241,41.2098137]]]}},{"type":"Feature","id":"pylon-snowbasin-22","properties":{"kind":"pylon","name":"Lift tower","height":13},"geometry":{"type":"Polygon","coordinates":[[[-111.87750673176821,41.2058389],[-111.87751442555518,41.20585287444232],[-111.877533,41.205858662845856],[-111.87755157444482,41.20585287444232],[-111.87755926823179,41.2058389],[-111.87755157444482,41.205824925557685],[-111.877533,41.20581913715415],[-111.87751442555518,41.205824925557685],[-111.87750673176821,41.2058389]]]}},{"type":"Feature","id":"pylon-snowbasin-23","properties":{"kind":"pylon","name":"Lift tower","height":13},"geometry":{"type":"Polygon","coordinates":[[[-111.86238472870836,41.2134596],[-111.86239242339153,41.21347357444232],[-111.862411,41.21347936284585],[-111.86242957660846,41.21347357444232],[-111.86243727129163,41.2134596],[-111.86242957660846,41.21344562555768],[-111.862411,41.21343983715415],[-111.86239242339153,41.21344562555768],[-111.86238472870836,41.2134596]]]}},{"type":"Feature","id":"pylon-snowbasin-24","properties":{"kind":"pylon","name":"Lift tower","height":13},"geometry":{"type":"Polygon","coordinates":[[[-111.86286172880492,41.2132192],[-111.8628694234598,41.213233174442315],[-111.862888,41.21323896284585],[-111.8629065765402,41.213233174442315],[-111.86291427119508,41.2132192],[-111.8629065765402,41.21320522555768],[-111.862888,41.213199437154145],[-111.8628694234598,41.21320522555768],[-111.86286172880492,41.2132192]]]}},{"type":"Feature","id":"pylon-snowbasin-25","properties":{"kind":"pylon","name":"Lift tower","height":13},"geometry":{"type":"Polygon","coordinates":[[[-111.8667637295946,41.2112527],[-111.8667714240182,41.21126667444232],[-111.86679,41.211272462845855],[-111.86680857598179,41.21126667444232],[-111.8668162704054,41.2112527],[-111.86680857598179,41.211238725557685],[-111.86679,41.21123293715415],[-111.8667714240182,41.211238725557685],[-111.8667637295946,41.2112527]]]}},{"type":"Feature","id":"pylon-snowbasin-26","properties":{"kind":"pylon","name":"Lift tower","height":13},"geometry":{"type":"Polygon","coordinates":[[[-111.87485273123127,41.2071764],[-111.8748604251755,41.20719037444232],[-111.874879,41.207196162845854],[-111.87489757482452,41.20719037444232],[-111.87490526876874,41.2071764],[-111.87489757482452,41.207162425557684],[-111.874879,41.20715663715415],[-111.8748604251755,41.207162425557684],[-111.87485273123127,41.2071764]]]}},{"type":"Feature","id":"pylon-snowbasin-27","properties":{"kind":"pylon","name":"Lift tower","height":13},"geometry":{"type":"Polygon","coordinates":[[[-111.87973873221966,41.2047143],[-111.8797464258744,41.20472827444232],[-111.879765,41.20473406284585],[-111.87978357412561,41.20472827444232],[-111.87979126778035,41.2047143],[-111.87978357412561,41.20470032555768],[-111.879765,41.20469453715415],[-111.8797464258744,41.20470032555768],[-111.87973873221966,41.2047143]]]}},{"type":"Feature","id":"pylon-snowbasin-28","properties":{"kind":"pylon","name":"Lift tower","height":13},"geometry":{"type":"Polygon","coordinates":[[[-111.86108272844504,41.2141153],[-111.86109042320534,41.21412927444232],[-111.861109,41.214135062845855],[-111.86112757679466,41.21412927444232],[-111.86113527155496,41.2141153],[-111.86112757679466,41.214101325557685],[-111.861109,41.21409553715415],[-111.86109042320534,41.214101325557685],[-111.86108272844504,41.2141153]]]}},{"type":"Feature","id":"pylon-snowbasin-29","properties":{"kind":"pylon","name":"Lift tower","height":13},"geometry":{"type":"Polygon","coordinates":[[[-111.87192773063944,41.2086505],[-111.87193542475701,41.208664474442315],[-111.871954,41.20867026284585],[-111.87197257524299,41.208664474442315],[-111.87198026936056,41.2086505],[-111.87197257524299,41.20863652555768],[-111.871954,41.208630737154145],[-111.87193542475701,41.20863652555768],[-111.87192773063944,41.2086505]]]}},{"type":"Feature","id":"pylon-snowbasin-30","properties":{"kind":"pylon","name":"Lift tower","height":13},"geometry":{"type":"Polygon","coordinates":[[[-111.87148273054935,41.2088749],[-111.8714904246933,41.208888874442316],[-111.871509,41.20889466284585],[-111.8715275753067,41.208888874442316],[-111.87153526945066,41.2088749],[-111.8715275753067,41.20886092555768],[-111.871509,41.208855137154146],[-111.8714904246933,41.20886092555768],[-111.87148273054935,41.2088749]]]}},{"type":"Feature","id":"pylon-snowbasin-31","properties":{"kind":"pylon","name":"Lift tower","height":13},"geometry":{"type":"Polygon","coordinates":[[[-111.86751273317982,41.2023222],[-111.86752042655333,41.202336174442316],[-111.867539,41.20234196284585],[-111.86755757344666,41.202336174442316],[-111.86756526682016,41.2023222],[-111.86755757344666,41.20230822555768],[-111.867539,41.202302437154145],[-111.86752042655333,41.20230822555768],[-111.86751273317982,41.2023222]]]}},{"type":"Feature","id":"pylon-snowbasin-32","properties":{"kind":"pylon","name":"Lift tower","height":13},"geometry":{"type":"Polygon","coordinates":[[[-111.87227173572683,41.1959754],[-111.87227942835435,41.19598937444232],[-111.872298,41.195995162845854],[-111.87231657164565,41.19598937444232],[-111.87232426427317,41.1959754],[-111.87231657164565,41.195961425557684],[-111.872298,41.19595563715415],[-111.87227942835435,41.195961425557684],[-111.87227173572683,41.1959754]]]}},{"type":"Feature","id":"pylon-snowbasin-33","properties":{"kind":"pylon","name":"Lift tower","height":13},"geometry":{"type":"Polygon","coordinates":[[[-111.8736707364754,41.1941097],[-111.87367842888366,41.19412367444232],[-111.873697,41.19412946284585],[-111.87371557111635,41.19412367444232],[-111.87372326352461,41.1941097],[-111.87371557111635,41.19409572555768],[-111.873697,41.194089937154146],[-111.87367842888366,41.19409572555768],[-111.8736707364754,41.1941097]]]}},{"type":"Feature","id":"pylon-snowbasin-34","properties":{"kind":"pylon","name":"Lift tower","height":13},"geometry":{"type":"Polygon","coordinates":[[[-111.86593473233515,41.2044266],[-111.86594242595605,41.204440574442316],[-111.865961,41.20444636284585],[-111.86597957404395,41.204440574442316],[-111.86598726766485,41.2044266],[-111.86597957404395,41.20441262555768],[-111.865961,41.204406837154146],[-111.86594242595605,41.20441262555768],[-111.86593473233515,41.2044266]]]}},{"type":"Feature","id":"pylon-snowbasin-35","properties":{"kind":"pylon","name":"Lift tower","height":13},"geometry":{"type":"Polygon","coordinates":[[[-111.86830073360193,41.2012705],[-111.86830842685181,41.20128447444232],[-111.868327,41.20129026284585],[-111.86834557314818,41.20128447444232],[-111.86835326639806,41.2012705],[-111.86834557314818,41.20125652555768],[-111.868327,41.20125073715415],[-111.86830842685181,41.20125652555768],[-111.86830073360193,41.2012705]]]}},{"type":"Feature","id":"pylon-snowbasin-36","properties":{"kind":"pylon","name":"Lift tower","height":13},"geometry":{"type":"Polygon","coordinates":[[[-111.86650073263813,41.2036718],[-111.8665084261703,41.20368577444232],[-111.866527,41.203691562845854],[-111.86654557382971,41.20368577444232],[-111.86655326736188,41.2036718],[-111.86654557382971,41.203657825557684],[-111.866527,41.20365203715415],[-111.8665084261703,41.203657825557684],[-111.86650073263813,41.2036718]]]}},{"type":"Feature","id":"pylon-snowbasin-37","properties":{"kind":"pylon","name":"Lift tower","height":13},"geometry":{"type":"Polygon","coordinates":[[[-111.8560050280131,41.2151908],[-111.8560127228999,41.21520477444232],[-111.8560313,41.215210562845854],[-111.85604987710009,41.21520477444232],[-111.8560575719869,41.2151908],[-111.85604987710009,41.215176825557684],[-111.8560313,41.21517103715415],[-111.8560127228999,41.215176825557684],[-111.8560050280131,41.2151908]]]}},{"type":"Feature","id":"pylon-snowbasin-38","properties":{"kind":"pylon","name":"Lift tower","height":13},"geometry":{"type":"Polygon","coordinates":[[[-111.8555134282627,41.2145693],[-111.8555211230764,41.21458327444232],[-111.8555397,41.21458906284585],[-111.85555827692359,41.21458327444232],[-111.85556597173729,41.2145693],[-111.85555827692359,41.21455532555768],[-111.8555397,41.21454953715415],[-111.8555211230764,41.21455532555768],[-111.8555134282627,41.2145693]]]}},{"type":"Feature","id":"pylon-snowbasin-39","properties":{"kind":"pylon","name":"Lift tower","height":13},"geometry":{"type":"Polygon","coordinates":[[[-111.85505972849307,41.2139957],[-111.8550674232393,41.214009674442316],[-111.855086,41.21401546284585],[-111.8551045767607,41.214009674442316],[-111.85511227150693,41.2139957],[-111.8551045767607,41.21398172555768],[-111.855086,41.213975937154146],[-111.8550674232393,41.21398172555768],[-111.85505972849307,41.2139957]]]}},{"type":"Feature","id":"pylon-snowbasin-40","properties":{"kind":"pylon","name":"Lift tower","height":13},"geometry":{"type":"Polygon","coordinates":[[[-111.85440542882525,41.2131686],[-111.85441312347417,41.21318257444232],[-111.8544317,41.213188362845855],[-111.85445027652584,41.21318257444232],[-111.85445797117477,41.2131686],[-111.85445027652584,41.213154625557685],[-111.8544317,41.21314883715415],[-111.85441312347417,41.213154625557685],[-111.85440542882525,41.2131686]]]}},{"type":"Feature","id":"pylon-snowbasin-41","properties":{"kind":"pylon","name":"Lift tower","height":13},"geometry":{"type":"Polygon","coordinates":[[[-111.85388402908995,41.2125094],[-111.85389172366135,41.21252337444232],[-111.8539103,41.212529162845854],[-111.85392887633864,41.21252337444232],[-111.85393657091004,41.2125094],[-111.85392887633864,41.212495425557684],[-111.8539103,41.21248963715415],[-111.85389172366135,41.212495425557684],[-111.85388402908995,41.2125094]]]}},{"type":"Feature","id":"pylon-snowbasin-42","properties":{"kind":"pylon","name":"Lift tower","height":13},"geometry":{"type":"Polygon","coordinates":[[[-111.85349432928784,41.2120166],[-111.85350202380128,41.212030574442316],[-111.8535206,41.21203636284585],[-111.85353917619871,41.212030574442316],[-111.85354687071215,41.2120166],[-111.85353917619871,41.21200262555768],[-111.8535206,41.211996837154146],[-111.85350202380128,41.21200262555768],[-111.85349432928784,41.2120166]]]}},{"type":"Feature","id":"pylon-snowbasin-43","properties":{"kind":"pylon","name":"Lift tower","height":13},"geometry":{"type":"Polygon","coordinates":[[[-111.86306503111913,41.2074557],[-111.8630727250962,41.207469674442315],[-111.8630913,41.20747546284585],[-111.86310987490378,41.207469674442315],[-111.86311756888085,41.2074557],[-111.86310987490378,41.20744172555768],[-111.8630913,41.207435937154145],[-111.8630727250962,41.20744172555768],[-111.86306503111913,41.2074557]]]}},{"type":"Feature","id":"pylon-snowbasin-44","properties":{"kind":"pylon","name":"Lift tower","height":13},"geometry":{"type":"Polygon","coordinates":[[[-111.8636675313177,41.2069611],[-111.8636752252366,41.20697507444232],[-111.8636938,41.20698086284585],[-111.86371237476338,41.20697507444232],[-111.86372006868228,41.2069611],[-111.86371237476338,41.20694712555768],[-111.8636938,41.20694133715415],[-111.8636752252366,41.20694712555768],[-111.8636675313177,41.2069611]]]}},{"type":"Feature","id":"pylon-snowbasin-45","properties":{"kind":"pylon","name":"Lift tower","height":13},"geometry":{"type":"Polygon","coordinates":[[[-111.86449313158985,41.2062832],[-111.86450082542906,41.20629717444232],[-111.8645194,41.206302962845854],[-111.86453797457095,41.20629717444232],[-111.86454566841016,41.2062832],[-111.86453797457095,41.20626922555768],[-111.8645194,41.20626343715415],[-111.86450082542906,41.20626922555768],[-111.86449313158985,41.2062832]]]}},{"type":"Feature","id":"pylon-snowbasin-46","properties":{"kind":"pylon","name":"Lift tower","height":13},"geometry":{"type":"Polygon","coordinates":[[[-111.86520783182537,41.2056965],[-111.86521552559559,41.20571047444232],[-111.8652341,41.205716262845854],[-111.8652526744044,41.20571047444232],[-111.86526036817462,41.2056965],[-111.8652526744044,41.205682525557684],[-111.8652341,41.20567673715415],[-111.86521552559559,41.205682525557684],[-111.86520783182537,41.2056965]]]}},{"type":"Feature","id":"pylon-snowbasin-47","properties":{"kind":"pylon","name":"Lift tower","height":13},"geometry":{"type":"Polygon","coordinates":[[[-111.86578383201525,41.2052235],[-111.86579152572986,41.20523747444232],[-111.8658101,41.205243262845855],[-111.86582867427015,41.20523747444232],[-111.86583636798476,41.2052235],[-111.86582867427015,41.205209525557684],[-111.8658101,41.20520373715415],[-111.86579152572986,41.205209525557684],[-111.86578383201525,41.2052235]]]}},{"type":"Feature","id":"pylon-snowbasin-48","properties":{"kind":"pylon","name":"Lift tower","height":13},"geometry":{"type":"Polygon","coordinates":[[[-111.86677603234226,41.2044089],[-111.86678372596108,41.204422874442315],[-111.8668023,41.20442866284585],[-111.86682087403892,41.204422874442315],[-111.86682856765775,41.2044089],[-111.86682087403892,41.20439492555768],[-111.8668023,41.204389137154145],[-111.86678372596108,41.20439492555768],[-111.86677603234226,41.2044089]]]}},{"type":"Feature","id":"pylon-snowbasin-49","properties":{"kind":"pylon","name":"Lift tower","height":13},"geometry":{"type":"Polygon","coordinates":[[[-111.86742463255604,41.2038763],[-111.86743232611225,41.203890274442315],[-111.8674509,41.20389606284585],[-111.86746947388774,41.203890274442315],[-111.86747716744395,41.2038763],[-111.86746947388774,41.20386232555768],[-111.8674509,41.203856537154145],[-111.86743232611225,41.20386232555768],[-111.86742463255604,41.2038763]]]}},{"type":"Feature","id":"pylon-snowbasin-50","properties":{"kind":"pylon","name":"Lift tower","height":13},"geometry":{"type":"Polygon","coordinates":[[[-111.86779743267887,41.2035703],[-111.8678051261991,41.20358427444232],[-111.8678237,41.203590062845855],[-111.8678422738009,41.20358427444232],[-111.86784996732113,41.2035703],[-111.8678422738009,41.203556325557685],[-111.8678237,41.20355053715415],[-111.8678051261991,41.203556325557685],[-111.86779743267887,41.2035703]]]}},{"type":"Feature","id":"pylon-snowbasin-51","properties":{"kind":"pylon","name":"Lift tower","height":13},"geometry":{"type":"Polygon","coordinates":[[[-111.86819563281016,41.2032432],[-111.86820332629193,41.20325717444232],[-111.8682219,41.203262962845855],[-111.86824047370806,41.20325717444232],[-111.86824816718983,41.2032432],[-111.86824047370806,41.203229225557685],[-111.8682219,41.20322343715415],[-111.86820332629193,41.203229225557685],[-111.86819563281016,41.2032432]]]}},{"type":"Feature","id":"pylon-snowbasin-52","properties":{"kind":"pylon","name":"Lift tower","height":13},"geometry":{"type":"Polygon","coordinates":[[[-111.86884843302526,41.2027073],[-111.86885612644404,41.20272127444232],[-111.8688747,41.20272706284585],[-111.86889327355597,41.20272127444232],[-111.86890096697475,41.2027073],[-111.86889327355597,41.20269332555768],[-111.8688747,41.20268753715415],[-111.86885612644404,41.20269332555768],[-111.86884843302526,41.2027073]]]}},{"type":"Feature","id":"pylon-snowbasin-53","properties":{"kind":"pylon","name":"Lift tower","height":13},"geometry":{"type":"Polygon","coordinates":[[[-111.86956423326119,41.2021195],[-111.86957192661087,41.20213347444232],[-111.8695905,41.202139262845854],[-111.86960907338913,41.20213347444232],[-111.86961676673882,41.2021195],[-111.86960907338913,41.202105525557684],[-111.8695905,41.20209973715415],[-111.86957192661087,41.202105525557684],[-111.86956423326119,41.2021195]]]}},{"type":"Feature","id":"pylon-snowbasin-54","properties":{"kind":"pylon","name":"Lift tower","height":13},"geometry":{"type":"Polygon","coordinates":[[[-111.8699451333867,41.2018068],[-111.86995282669962,41.20182077444232],[-111.8699714,41.20182656284585],[-111.86998997330038,41.20182077444232],[-111.8699976666133,41.2018068],[-111.86998997330038,41.20179282555768],[-111.8699714,41.20178703715415],[-111.86995282669962,41.20179282555768],[-111.8699451333867,41.2018068]]]}},{"type":"Feature","id":"pylon-snowbasin-55","properties":{"kind":"pylon","name":"Lift tower","height":13},"geometry":{"type":"Polygon","coordinates":[[[-111.8702722334945,41.2015382],[-111.87027992677585,41.20155217444232],[-111.8702985,41.201557962845854],[-111.87031707322416,41.20155217444232],[-111.8703247665055,41.2015382],[-111.87031707322416,41.201524225557684],[-111.8702985,41.20151843715415],[-111.87027992677585,41.201524225557684],[-111.8702722334945,41.2015382]]]}},{"type":"Feature","id":"pylon-snowbasin-56","properties":{"kind":"pylon","name":"Lift tower","height":13},"geometry":{"type":"Polygon","coordinates":[[[-111.87115543378555,41.200813],[-111.87116312698164,41.200826974442315],[-111.8711817,41.20083276284585],[-111.87120027301835,41.200826974442315],[-111.87120796621444,41.200813],[-111.87120027301835,41.20079902555768],[-111.8711817,41.200793237154144],[-111.87116312698164,41.20079902555768],[-111.87115543378555,41.200813]]]}},{"type":"Feature","id":"pylon-snowbasin-57","properties":{"kind":"pylon","name":"Lift tower","height":13},"geometry":{"type":"Polygon","coordinates":[[[-111.87193413404218,41.2001736],[-111.87194182716311,41.20018757444232],[-111.8719604,41.20019336284585],[-111.8719789728369,41.20018757444232],[-111.87198666595783,41.2001736],[-111.8719789728369,41.20015962555768],[-111.8719604,41.20015383715415],[-111.87194182716311,41.20015962555768],[-111.87193413404218,41.2001736]]]}},{"type":"Feature","id":"pylon-snowbasin-58","properties":{"kind":"pylon","name":"Lift tower","height":13},"geometry":{"type":"Polygon","coordinates":[[[-111.87236023418255,41.1998238],[-111.87236792726237,41.199837774442315],[-111.8723865,41.19984356284585],[-111.87240507273764,41.199837774442315],[-111.87241276581746,41.1998238],[-111.87240507273764,41.19980982555768],[-111.8723865,41.199804037154145],[-111.87236792726237,41.19980982555768],[-111.87236023418255,41.1998238]]]}},{"type":"Feature","id":"pylon-snowbasin-59","properties":{"kind":"pylon","name":"Lift tower","height":13},"geometry":{"type":"Polygon","coordinates":[[[-111.87281843433357,41.1994475],[-111.87282612736915,41.199461474442316],[-111.8728447,41.19946726284585],[-111.87286327263085,41.199461474442316],[-111.87287096566644,41.1994475],[-111.87286327263085,41.19943352555768],[-111.8728447,41.199427737154146],[-111.87282612736915,41.19943352555768],[-111.87281843433357,41.1994475]]]}},{"type":"Feature","id":"pylon-snowbasin-60","properties":{"kind":"pylon","name":"Lift tower","height":13},"geometry":{"type":"Polygon","coordinates":[[[-111.87378493465204,41.1986539],[-111.87379262759436,41.198667874442314],[-111.8738112,41.19867366284585],[-111.87382977240566,41.198667874442314],[-111.87383746534798,41.1986539],[-111.87382977240566,41.19863992555768],[-111.8738112,41.198634137154144],[-111.87379262759436,41.19863992555768],[-111.87378493465204,41.1986539]]]}},{"type":"Feature","id":"pylon-snowbasin-61","properties":{"kind":"pylon","name":"Lift tower","height":13},"geometry":{"type":"Polygon","coordinates":[[[-111.87454363490204,41.1980309],[-111.87455132777112,41.19804487444232],[-111.8745699,41.19805066284585],[-111.87458847222888,41.19804487444232],[-111.87459616509796,41.1980309],[-111.87458847222888,41.19801692555768],[-111.8745699,41.19801113715415],[-111.87455132777112,41.19801692555768],[-111.87454363490204,41.1980309]]]}},{"type":"Feature","id":"pylon-snowbasin-62","properties":{"kind":"pylon","name":"Lift tower","height":13},"geometry":{"type":"Polygon","coordinates":[[[-111.87534183516505,41.1973755],[-111.8753495279571,41.19738947444232],[-111.8753681,41.19739526284585],[-111.87538667204291,41.19738947444232],[-111.87539436483496,41.1973755],[-111.87538667204291,41.19736152555768],[-111.8753681,41.19735573715415],[-111.8753495279571,41.19736152555768],[-111.87534183516505,41.1973755]]]}},{"type":"Feature","id":"pylon-snowbasin-63","properties":{"kind":"pylon","name":"Lift tower","height":13},"geometry":{"type":"Polygon","coordinates":[[[-111.8757863353115,41.1970105],[-111.87579402806065,41.197024474442316],[-111.8758126,41.19703026284585],[-111.87583117193935,41.197024474442316],[-111.8758388646885,41.1970105],[-111.87583117193935,41.19699652555768],[-111.8758126,41.196990737154145],[-111.87579402806065,41.19699652555768],[-111.8757863353115,41.1970105]]]}},{"type":"Feature","id":"pylon-snowbasin-64","properties":{"kind":"pylon","name":"Lift tower","height":13},"geometry":{"type":"Polygon","coordinates":[[[-111.8763709355041,41.1965305],[-111.87637862819685,41.19654447444232],[-111.8763972,41.196550262845854],[-111.87641577180315,41.19654447444232],[-111.8764234644959,41.1965305],[-111.87641577180315,41.19651652555768],[-111.8763972,41.19651073715415],[-111.87637862819685,41.19651652555768],[-111.8763709355041,41.1965305]]]}},{"type":"Feature","id":"pylon-snowbasin-65","properties":{"kind":"pylon","name":"Lift tower","height":13},"geometry":{"type":"Polygon","coordinates":[[[-111.87707043573457,41.1959561],[-111.87707812835981,41.195970074442315],[-111.8770967,41.19597586284585],[-111.87711527164018,41.195970074442315],[-111.87712296426542,41.1959561],[-111.87711527164018,41.19594212555768],[-111.8770967,41.195936337154144],[-111.87707812835981,41.19594212555768],[-111.87707043573457,41.1959561]]]}},{"type":"Feature","id":"pylon-snowbasin-66","properties":{"kind":"pylon","name":"Lift tower","height":13},"geometry":{"type":"Polygon","coordinates":[[[-111.86316513492689,41.197969],[-111.86317282778869,41.19798297444232],[-111.8631914,41.19798876284585],[-111.86320997221132,41.19798297444232],[-111.86321766507312,41.197969],[-111.86320997221132,41.19795502555768],[-111.8631914,41.19794923715415],[-111.86317282778869,41.19795502555768],[-111.86316513492689,41.197969]]]}},{"type":"Feature","id":"pylon-snowbasin-67","properties":{"kind":"pylon","name":"Lift tower","height":13},"geometry":{"type":"Polygon","coordinates":[[[-111.86212873475304,41.1984022],[-111.86213642766577,41.198416174442315],[-111.862155,41.19842196284585],[-111.86217357233423,41.198416174442315],[-111.86218126524696,41.1984022],[-111.86217357233423,41.19838822555768],[-111.862155,41.198382437154144],[-111.86213642766577,41.19838822555768],[-111.86212873475304,41.1984022]]]}},{"type":"Feature","id":"pylon-snowbasin-68","properties":{"kind":"pylon","name":"Lift tower","height":13},"geometry":{"type":"Polygon","coordinates":[[[-111.86149192995671,41.2103509],[-111.86149962427426,41.21036487444232],[-111.8615182,41.210370662845854],[-111.86153677572575,41.21036487444232],[-111.8615444700433,41.2103509],[-111.86153677572575,41.210336925557684],[-111.8615182,41.21033113715415],[-111.86149962427426,41.210336925557684],[-111.86149192995671,41.2103509]]]}},{"type":"Feature","id":"pylon-snowbasin-69","properties":{"kind":"pylon","name":"Lift tower","height":13},"geometry":{"type":"Polygon","coordinates":[[[-111.86228043037892,41.2092994],[-111.86228812457279,41.20931337444232],[-111.8623067,41.20931916284585],[-111.86232527542722,41.20931337444232],[-111.8623329696211,41.2092994],[-111.86232527542722,41.20928542555768],[-111.8623067,41.20927963715415],[-111.86228812457279,41.20928542555768],[-111.86228043037892,41.2092994]]]}},{"type":"Feature","id":"pylon-snowbasin-70","properties":{"kind":"pylon","name":"Lift tower","height":13},"geometry":{"type":"Polygon","coordinates":[[[-111.8697369343704,41.1993557],[-111.86974462739519,41.199369674442316],[-111.8697632,41.19937546284585],[-111.8697817726048,41.199369674442316],[-111.8697894656296,41.1993557],[-111.8697817726048,41.19934172555768],[-111.8697632,41.199335937154146],[-111.86974462739519,41.19934172555768],[-111.8697369343704,41.1993557]]]}},{"type":"Feature","id":"pylon-snowbasin-71","properties":{"kind":"pylon","name":"Lift tower","height":13},"geometry":{"type":"Polygon","coordinates":[[[-111.87120723515721,41.197395],[-111.87121492795156,41.19740897444232],[-111.8712335,41.19741476284585],[-111.87125207204845,41.19740897444232],[-111.87125976484279,41.197395],[-111.87125207204845,41.19738102555768],[-111.8712335,41.19737523715415],[-111.87121492795156,41.19738102555768],[-111.87120723515721,41.197395]]]}},{"type":"Feature","id":"pylon-snowbasin-72","properties":{"kind":"pylon","name":"Lift tower","height":13},"geometry":{"type":"Polygon","coordinates":[[[-111.86541082932074,41.2119347],[-111.86541852382454,41.21194867444232],[-111.8654371,41.21195446284585],[-111.86545567617544,41.21194867444232],[-111.86546337067925,41.2119347],[-111.86545567617544,41.21192072555768],[-111.8654371,41.21191493715415],[-111.86541852382454,41.21192072555768],[-111.86541082932074,41.2119347]]]}},{"type":"Feature","id":"pylon-snowbasin-73","properties":{"kind":"pylon","name":"Lift tower","height":13},"geometry":{"type":"Polygon","coordinates":[[[-111.87858343198599,41.2052964],[-111.87859112570916,41.20531037444232],[-111.8786097,41.205316162845854],[-111.87862827429083,41.20531037444232],[-111.87863596801401,41.2052964],[-111.87862827429083,41.205282425557684],[-111.8786097,41.20527663715415],[-111.87859112570916,41.205282425557684],[-111.87858343198599,41.2052964]]]}},{"type":"Feature","id":"pylon-snowbasin-74","properties":{"kind":"pylon","name":"Lift tower","height":13},"geometry":{"type":"Polygon","coordinates":[[[-111.87017973946651,41.1866529],[-111.8701874309987,41.18666687444232],[-111.870206,41.18667266284585],[-111.8702245690013,41.18666687444232],[-111.87023226053348,41.1866529],[-111.8702245690013,41.18663892555768],[-111.870206,41.186633137154146],[-111.8701874309987,41.18663892555768],[-111.87017973946651,41.1866529]]]}},{"type":"Feature","id":"pylon-snowbasin-75","properties":{"kind":"pylon","name":"Lift tower","height":13},"geometry":{"type":"Polygon","coordinates":[[[-111.86860913929041,41.187092],[-111.86861683087417,41.18710597444232],[-111.8686354,41.18711176284585],[-111.86865396912583,41.18710597444232],[-111.86866166070959,41.187092],[-111.86865396912583,41.18707802555768],[-111.8686354,41.18707223715415],[-111.86861683087417,41.18707802555768],[-111.86860913929041,41.187092]]]}},{"type":"Feature","id":"pylon-snowbasin-76","properties":{"kind":"pylon","name":"Lift tower","height":13},"geometry":{"type":"Polygon","coordinates":[[[-111.86674253908113,41.1876138],[-111.8667502307262,41.18762777444232],[-111.8667688,41.18763356284585],[-111.86678736927381,41.18762777444232],[-111.86679506091888,41.1876138],[-111.86678736927381,41.18759982555768],[-111.8667688,41.18759403715415],[-111.8667502307262,41.18759982555768],[-111.86674253908113,41.1876138]]]}},{"type":"Feature","id":"pylon-snowbasin-77","properties":{"kind":"pylon","name":"Lift tower","height":13},"geometry":{"type":"Polygon","coordinates":[[[-111.86404873877916,41.1883667],[-111.86405643051266,41.18838067444232],[-111.864075,41.188386462845855],[-111.86409356948734,41.18838067444232],[-111.86410126122084,41.1883667],[-111.86409356948734,41.188352725557685],[-111.864075,41.18834693715415],[-111.86405643051266,41.188352725557685],[-111.86404873877916,41.1883667]]]}},{"type":"Feature","id":"pylon-snowbasin-78","properties":{"kind":"pylon","name":"Lift tower","height":13},"geometry":{"type":"Polygon","coordinates":[[[-111.86251103860673,41.1887966],[-111.86251873039073,41.18881057444232],[-111.8625373,41.188816362845856],[-111.86255586960927,41.18881057444232],[-111.86256356139327,41.1887966],[-111.86255586960927,41.188782625557685],[-111.8625373,41.18877683715415],[-111.86251873039073,41.188782625557685],[-111.86251103860673,41.1887966]]]}},{"type":"Feature","id":"pylon-snowbasin-79","properties":{"kind":"pylon","name":"Lift tower","height":13},"geometry":{"type":"Polygon","coordinates":[[[-111.86062563839535,41.1893236],[-111.86063333024126,41.18933757444232],[-111.8606519,41.189343362845854],[-111.86067046975873,41.18933757444232],[-111.86067816160464,41.1893236],[-111.86067046975873,41.189309625557684],[-111.8606519,41.18930383715415],[-111.86063333024126,41.189309625557684],[-111.86062563839535,41.1893236]]]}},{"type":"Feature","id":"pylon-snowbasin-80","properties":{"kind":"pylon","name":"Lift tower","height":13},"geometry":{"type":"Polygon","coordinates":[[[-111.85821333812488,41.1899979],[-111.85822103005002,41.19001187444232],[-111.8582396,41.190017662845854],[-111.85825816994999,41.19001187444232],[-111.85826586187513,41.1899979],[-111.85825816994999,41.189983925557684],[-111.8582396,41.18997813715415],[-111.85822103005002,41.189983925557684],[-111.85821333812488,41.1899979]]]}},{"type":"Feature","id":"pylon-snowbasin-81","properties":{"kind":"pylon","name":"Lift tower","height":13},"geometry":{"type":"Polygon","coordinates":[[[-111.85678673796492,41.1903967],[-111.85679442993691,41.19041067444232],[-111.856813,41.19041646284585],[-111.8568315700631,41.19041067444232],[-111.85683926203508,41.1903967],[-111.8568315700631,41.19038272555768],[-111.856813,41.19037693715415],[-111.85679442993691,41.19038272555768],[-111.85678673796492,41.1903967]]]}},{"type":"Feature","id":"pylon-snowbasin-82","properties":{"kind":"pylon","name":"Lift tower","height":13},"geometry":{"type":"Polygon","coordinates":[[[-111.8544442377023,41.1910514],[-111.8544519297512,41.19106537444232],[-111.8544705,41.19107116284585],[-111.8544890702488,41.19106537444232],[-111.85449676229771,41.1910514],[-111.8544890702488,41.19103742555768],[-111.8544705,41.19103163715415],[-111.8544519297512,41.19103742555768],[-111.8544442377023,41.1910514]]]}},{"type":"Feature","id":"pylon-snowbasin-83","properties":{"kind":"pylon","name":"Lift tower","height":13},"geometry":{"type":"Polygon","coordinates":[[[-111.85403953765693,41.1911645],[-111.85404722971913,41.19117847444232],[-111.8540658,41.19118426284585],[-111.85408437028087,41.19117847444232],[-111.85409206234307,41.1911645],[-111.85408437028087,41.19115052555768],[-111.8540658,41.19114473715415],[-111.85404722971913,41.19115052555768],[-111.85403953765693,41.1911645]]]}},{"type":"Feature","id":"pylon-snowbasin-84","properties":{"kind":"pylon","name":"Lift tower","height":13},"geometry":{"type":"Polygon","coordinates":[[[-111.85339173758432,41.1913455],[-111.85339942966779,41.191359474442315],[-111.853418,41.19136526284585],[-111.85343657033222,41.191359474442315],[-111.85344426241569,41.1913455],[-111.85343657033222,41.19133152555768],[-111.853418,41.191325737154145],[-111.85339942966779,41.19133152555768],[-111.85339173758432,41.1913455]]]}},{"type":"Feature","id":"pylon-snowbasin-85","properties":{"kind":"pylon","name":"Lift tower","height":13},"geometry":{"type":"Polygon","coordinates":[[[-111.85183283740949,41.1917813],[-111.85184052954416,41.19179527444232],[-111.8518591,41.191801062845855],[-111.85187767045583,41.19179527444232],[-111.85188536259051,41.1917813],[-111.85187767045583,41.191767325557684],[-111.8518591,41.19176153715415],[-111.85184052954416,41.191767325557684],[-111.85183283740949,41.1917813]]]}},{"type":"Feature","id":"pylon-snowbasin-86","properties":{"kind":"pylon","name":"Lift tower","height":13},"geometry":{"type":"Polygon","coordinates":[[[-111.85023343723017,41.1922283],[-111.85024112941736,41.192242274442314],[-111.8502597,41.19224806284585],[-111.85027827058263,41.192242274442314],[-111.85028596276982,41.1922283],[-111.85027827058263,41.19221432555768],[-111.8502597,41.192208537154144],[-111.85024112941736,41.19221432555768],[-111.85023343723017,41.1922283]]]}},{"type":"Feature","id":"pylon-snowbasin-87","properties":{"kind":"pylon","name":"Lift tower","height":13},"geometry":{"type":"Polygon","coordinates":[[[-111.84827413701049,41.1927759],[-111.84828182926202,41.19278987444232],[-111.8483004,41.19279566284585],[-111.84831897073798,41.19278987444232],[-111.8483266629895,41.1927759],[-111.84831897073798,41.19276192555768],[-111.8483004,41.19275613715415],[-111.84828182926202,41.19276192555768],[-111.84827413701049,41.1927759]]]}},{"type":"Feature","id":"pylon-snowbasin-88","properties":{"kind":"pylon","name":"Lift tower","height":13},"geometry":{"type":"Polygon","coordinates":[[[-111.84634883679462,41.193314],[-111.84635652910939,41.19332797444232],[-111.8463751,41.19333376284585],[-111.84639367089062,41.19332797444232],[-111.84640136320539,41.193314],[-111.84639367089062,41.19330002555768],[-111.8463751,41.19329423715415],[-111.84635652910939,41.19330002555768],[-111.84634883679462,41.193314]]]}},{"type":"Feature","id":"pylon-snowbasin-89","properties":{"kind":"pylon","name":"Lift tower","height":13},"geometry":{"type":"Polygon","coordinates":[[[-111.84452443659,41.193824],[-111.8445321289647,41.19383797444232],[-111.8445507,41.19384376284585],[-111.8445692710353,41.19383797444232],[-111.84457696340999,41.193824],[-111.8445692710353,41.19381002555768],[-111.8445507,41.19380423715415],[-111.8445321289647,41.19381002555768],[-111.84452443659,41.193824]]]}},{"type":"Feature","id":"pylon-snowbasin-90","properties":{"kind":"pylon","name":"Lift tower","height":13},"geometry":{"type":"Polygon","coordinates":[[[-111.84241793635383,41.1944127],[-111.8424256287977,41.19442667444232],[-111.8424442,41.19443246284585],[-111.8424627712023,41.19442667444232],[-111.84247046364618,41.1944127],[-111.8424627712023,41.19439872555768],[-111.8424442,41.19439293715415],[-111.8424256287977,41.19439872555768],[-111.84241793635383,41.1944127]]]}},{"type":"Feature","id":"pylon-snowbasin-91","properties":{"kind":"pylon","name":"Lift tower","height":13},"geometry":{"type":"Polygon","coordinates":[[[-111.87306993690326,41.1930432],[-111.87307762918621,41.193057174442316],[-111.8730962,41.19306296284585],[-111.8731147708138,41.193057174442316],[-111.87312246309675,41.1930432],[-111.8731147708138,41.19302922555768],[-111.8730962,41.193023437154146],[-111.87307762918621,41.19302922555768],[-111.87306993690326,41.1930432]]]}},{"type":"Feature","id":"pylon-snowbasin-92","properties":{"kind":"pylon","name":"Lift tower","height":13},"geometry":{"type":"Polygon","coordinates":[[[-111.87208313668478,41.1935878],[-111.8720908290317,41.19360177444232],[-111.8721094,41.193607562845855],[-111.8721279709683,41.19360177444232],[-111.87213566331522,41.1935878],[-111.8721279709683,41.193573825557685],[-111.8721094,41.19356803715415],[-111.8720908290317,41.193573825557685],[-111.87208313668478,41.1935878]]]}},{"type":"Feature","id":"pylon-snowbasin-93","properties":{"kind":"pylon","name":"Lift tower","height":13},"geometry":{"type":"Polygon","coordinates":[[[-111.86086663427726,41.1995878],[-111.86087432732933,41.19960177444232],[-111.8608929,41.199607562845856],[-111.86091147267067,41.19960177444232],[-111.86091916572273,41.1995878],[-111.86091147267067,41.199573825557685],[-111.8608929,41.19956803715415],[-111.86087432732933,41.199573825557685],[-111.86086663427726,41.1995878]]]}},{"type":"Feature","id":"pylon-snowbasin-94","properties":{"kind":"pylon","name":"Lift tower","height":13},"geometry":{"type":"Polygon","coordinates":[[[-111.86182293448256,41.1990762],[-111.8618306274745,41.19909017444232],[-111.8618492,41.19909596284585],[-111.86186777252549,41.19909017444232],[-111.86187546551743,41.1990762],[-111.86186777252549,41.19906222555768],[-111.8618492,41.19905643715415],[-111.8618306274745,41.19906222555768],[-111.86182293448256,41.1990762]]]}},{"type":"Feature","id":"pylon-snowbasin-95","properties":{"kind":"pylon","name":"Lift tower","height":13},"geometry":{"type":"Polygon","coordinates":[[[-111.86298323473162,41.1984556],[-111.86299092765061,41.19846957444232],[-111.8630095,41.198475362845855],[-111.8630280723494,41.19846957444232],[-111.86303576526839,41.1984556],[-111.8630280723494,41.198441625557685],[-111.8630095,41.19843583715415],[-111.86299092765061,41.198441625557685],[-111.86298323473162,41.1984556]]]}},{"type":"Feature","id":"pylon-snowbasin-96","properties":{"kind":"pylon","name":"Lift tower","height":13},"geometry":{"type":"Polygon","coordinates":[[[-111.86373193489233,41.1980551],[-111.86373962776426,41.198069074442316],[-111.8637582,41.19807486284585],[-111.86377677223575,41.198069074442316],[-111.86378446510768,41.1980551],[-111.86377677223575,41.19804112555768],[-111.8637582,41.198035337154145],[-111.86373962776426,41.19804112555768],[-111.86373193489233,41.1980551]]]}},{"type":"Feature","id":"pylon-snowbasin-97","properties":{"kind":"pylon","name":"Lift tower","height":13},"geometry":{"type":"Polygon","coordinates":[[[-111.8644748350518,41.1976577],[-111.86448252787702,41.19767167444232],[-111.8645011,41.19767746284585],[-111.86451967212298,41.19767167444232],[-111.8645273649482,41.1976577],[-111.86451967212298,41.19764372555768],[-111.8645011,41.19763793715415],[-111.86448252787702,41.19764372555768],[-111.8644748350518,41.1976577]]]}},{"type":"Feature","id":"pylon-snowbasin-98","properties":{"kind":"pylon","name":"Lift tower","height":13},"geometry":{"type":"Polygon","coordinates":[[[-111.86485603513363,41.1974538],[-111.86486372793487,41.197467774442316],[-111.8648823,41.19747356284585],[-111.86490087206514,41.197467774442316],[-111.86490856486638,41.1974538],[-111.86490087206514,41.19743982555768],[-111.8648823,41.197434037154146],[-111.86486372793487,41.19743982555768],[-111.86485603513363,41.1974538]]]}},{"type":"Feature","id":"pylon-snowbasin-99","properties":{"kind":"pylon","name":"Lift tower","height":13},"geometry":{"type":"Polygon","coordinates":[[[-111.86623023542859,41.1967187],[-111.86623792814345,41.196732674442316],[-111.8662565,41.19673846284585],[-111.86627507185656,41.196732674442316],[-111.86628276457142,41.1967187],[-111.86627507185656,41.19670472555768],[-111.8662565,41.196698937154146],[-111.86623792814345,41.19670472555768],[-111.86623023542859,41.1967187]]]}},{"type":"Feature","id":"pylon-snowbasin-100","properties":{"kind":"pylon","name":"Lift tower","height":13},"geometry":{"type":"Polygon","coordinates":[[[-111.86786533577954,41.195844],[-111.86787302839161,41.19585797444232],[-111.8678916,41.19586376284585],[-111.86791017160837,41.19585797444232],[-111.86791786422044,41.195844],[-111.86791017160837,41.19583002555768],[-111.8678916,41.19582423715415],[-111.86787302839161,41.19583002555768],[-111.86786533577954,41.195844]]]}},{"type":"Feature","id":"pylon-snowbasin-101","properties":{"kind":"pylon","name":"Lift tower","height":13},"geometry":{"type":"Polygon","coordinates":[[[-111.86710973561738,41.1962482],[-111.86711742827694,41.19626217444232],[-111.867136,41.19626796284585],[-111.86715457172306,41.19626217444232],[-111.86716226438263,41.1962482],[-111.86715457172306,41.19623422555768],[-111.867136,41.19622843715415],[-111.86711742827694,41.19623422555768],[-111.86710973561738,41.1962482]]]}},{"type":"Feature","id":"pylon-snowbasin-102","properties":{"kind":"pylon","name":"Lift tower","height":13},"geometry":{"type":"Polygon","coordinates":[[[-111.86850553591694,41.1955016],[-111.86851322848877,41.19551557444232],[-111.8685318,41.19552136284585],[-111.86855037151123,41.19551557444232],[-111.86855806408306,41.1955016],[-111.86855037151123,41.19548762555768],[-111.8685318,41.19548183715415],[-111.86851322848877,41.19548762555768],[-111.86850553591694,41.1955016]]]}},{"type":"Feature","id":"pylon-snowbasin-103","properties":{"kind":"pylon","name":"Lift tower","height":13},"geometry":{"type":"Polygon","coordinates":[[[-111.86970453617428,41.1948602],[-111.86971222867074,41.19487417444232],[-111.8697308,41.19487996284585],[-111.86974937132926,41.19487417444232],[-111.86975706382572,41.1948602],[-111.86974937132926,41.19484622555768],[-111.8697308,41.19484043715415],[-111.86971222867074,41.19484622555768],[-111.86970453617428,41.1948602]]]}},{"type":"Feature","id":"pylon-snowbasin-104","properties":{"kind":"pylon","name":"Lift tower","height":13},"geometry":{"type":"Polygon","coordinates":[[[-111.87007133625299,41.194664],[-111.8700790287264,41.19467797444232],[-111.8700976,41.194683762845855],[-111.8701161712736,41.19467797444232],[-111.870123863747,41.194664],[-111.8701161712736,41.194650025557685],[-111.8700976,41.19464423715415],[-111.8700790287264,41.194650025557685],[-111.87007133625299,41.194664]]]}},{"type":"Feature","id":"pylon-snowbasin-105","properties":{"kind":"pylon","name":"Lift tower","height":13},"geometry":{"type":"Polygon","coordinates":[[[-111.87105423646396,41.1941382],[-111.87106192887558,41.194152174442316],[-111.8710805,41.19415796284585],[-111.87109907112443,41.194152174442316],[-111.87110676353605,41.1941382],[-111.87109907112443,41.19412422555768],[-111.8710805,41.194118437154145],[-111.87106192887558,41.19412422555768],[-111.87105423646396,41.1941382]]]}},{"type":"Feature","id":"pylon-snowbasin-106","properties":{"kind":"pylon","name":"Lift tower","height":13},"geometry":{"type":"Polygon","coordinates":[[[-111.87186823965183,41.1861908],[-111.87187593112974,41.18620477444232],[-111.8718945,41.18621056284585],[-111.87191306887026,41.18620477444232],[-111.87192076034816,41.1861908],[-111.87191306887026,41.18617682555768],[-111.8718945,41.186171037154146],[-111.87187593112974,41.18617682555768],[-111.87186823965183,41.1861908]]]}},{"type":"Feature","id":"pylon-snowbasin-107","properties":{"kind":"pylon","name":"Lift tower","height":13},"geometry":{"type":"Polygon","coordinates":[[[-111.8558323291214,41.2124311],[-111.8558400236836,41.21244507444232],[-111.8558586,41.212450862845856],[-111.85587717631641,41.21244507444232],[-111.85588487087861,41.2124311],[-111.85587717631641,41.212417125557685],[-111.8558586,41.21241133715415],[-111.8558400236836,41.212417125557685],[-111.8558323291214,41.2124311]]]}},{"type":"Feature","id":"pylon-snowbasin-108","properties":{"kind":"pylon","name":"Lift tower","height":13},"geometry":{"type":"Polygon","coordinates":[[[-111.85638352940687,41.2117202],[-111.85639122388545,41.21173417444232],[-111.8564098,41.211739962845854],[-111.85642837611454,41.21173417444232],[-111.85643607059312,41.2117202],[-111.85642837611454,41.211706225557684],[-111.8564098,41.21170043715415],[-111.85639122388545,41.211706225557684],[-111.85638352940687,41.2117202]]]}},{"type":"Feature","id":"pylon-snowbasin-109","properties":{"kind":"pylon","name":"Lift tower","height":13},"geometry":{"type":"Polygon","coordinates":[[[-111.85703152974254,41.2108843],[-111.8570392241228,41.210898274442314],[-111.8570578,41.21090406284585],[-111.85707637587721,41.210898274442314],[-111.85708407025747,41.2108843],[-111.85707637587721,41.21087032555768],[-111.8570578,41.210864537154144],[-111.8570392241228,41.21087032555768],[-111.85703152974254,41.2108843]]]}},{"type":"Feature","id":"pylon-snowbasin-110","properties":{"kind":"pylon","name":"Lift tower","height":13},"geometry":{"type":"Polygon","coordinates":[[[-111.85754633000914,41.2102203],[-111.85755402431133,41.21023427444232],[-111.8575726,41.210240062845855],[-111.85759117568867,41.21023427444232],[-111.85759886999085,41.2102203],[-111.85759117568867,41.210206325557685],[-111.8575726,41.21020053715415],[-111.85755402431133,41.210206325557685],[-111.85754633000914,41.2102203]]]}},{"type":"Feature","id":"pylon-snowbasin-111","properties":{"kind":"pylon","name":"Lift tower","height":13},"geometry":{"type":"Polygon","coordinates":[[[-111.8582233303597,41.2093472],[-111.8582310245592,41.20936117444232],[-111.8582496,41.209366962845856],[-111.85826817544078,41.20936117444232],[-111.85827586964028,41.2093472],[-111.85826817544078,41.209333225557685],[-111.8582496,41.20932743715415],[-111.8582310245592,41.209333225557685],[-111.8582233303597,41.2093472]]]}},{"type":"Feature","id":"pylon-snowbasin-112","properties":{"kind":"pylon","name":"Lift tower","height":13},"geometry":{"type":"Polygon","coordinates":[[[-111.85884083067951,41.2085507],[-111.85884852478534,41.20856467444232],[-111.8588671,41.208570462845856],[-111.85888567521465,41.20856467444232],[-111.85889336932048,41.2085507],[-111.85888567521465,41.208536725557686],[-111.8588671,41.20853093715415],[-111.85884852478534,41.208536725557686],[-111.85884083067951,41.2085507]]]}},{"type":"Feature","id":"pylon-snowbasin-113","properties":{"kind":"pylon","name":"Lift tower","height":13},"geometry":{"type":"Polygon","coordinates":[[[-111.85949113101633,41.2077118],[-111.85949882502351,41.207725774442316],[-111.8595174,41.20773156284585],[-111.8595359749765,41.207725774442316],[-111.85954366898368,41.2077118],[-111.8595359749765,41.20769782555768],[-111.8595174,41.207692037154146],[-111.85949882502351,41.20769782555768],[-111.85949113101633,41.2077118]]]}},{"type":"Feature","id":"pylon-snowbasin-114","properties":{"kind":"pylon","name":"Lift tower","height":13},"geometry":{"type":"Polygon","coordinates":[[[-111.85985513120482,41.2072423],[-111.8598628251568,41.207256274442315],[-111.8598814,41.20726206284585],[-111.85989997484322,41.207256274442315],[-111.85990766879519,41.2072423],[-111.85989997484322,41.20722832555768],[-111.8598814,41.207222537154145],[-111.8598628251568,41.20722832555768],[-111.85985513120482,41.2072423]]]}},{"type":"Feature","id":"pylon-snowbasin-115","properties":{"kind":"pylon","name":"Lift tower","height":13},"geometry":{"type":"Polygon","coordinates":[[[-111.86060043159073,41.206281],[-111.86060812542968,41.206294974442315],[-111.8606267,41.20630076284585],[-111.86064527457032,41.206294974442315],[-111.86065296840927,41.206281],[-111.86064527457032,41.20626702555768],[-111.8606267,41.206261237154145],[-111.86060812542968,41.20626702555768],[-111.86060043159073,41.206281]]]}},{"type":"Feature","id":"pylon-snowbasin-116","properties":{"kind":"pylon","name":"Lift tower","height":13},"geometry":{"type":"Polygon","coordinates":[[[-111.86120133190194,41.2055058],[-111.86120902564973,41.205519774442315],[-111.8612276,41.20552556284585],[-111.86124617435028,41.205519774442315],[-111.86125386809807,41.2055058],[-111.86124617435028,41.20549182555768],[-111.8612276,41.205486037154145],[-111.86120902564973,41.20549182555768],[-111.86120133190194,41.2055058]]]}},{"type":"Feature","id":"pylon-snowbasin-117","properties":{"kind":"pylon","name":"Lift tower","height":13},"geometry":{"type":"Polygon","coordinates":[[[-111.86173653217902,41.2048155],[-111.86174422584567,41.20482947444232],[-111.8617628,41.204835262845855],[-111.86178137415432,41.20482947444232],[-111.86178906782096,41.2048155],[-111.86178137415432,41.204801525557684],[-111.8617628,41.20479573715415],[-111.86174422584567,41.204801525557684],[-111.86173653217902,41.2048155]]]}},{"type":"Feature","id":"pylon-snowbasin-118","properties":{"kind":"pylon","name":"Lift tower","height":13},"geometry":{"type":"Polygon","coordinates":[[[-111.86211723237614,41.2043245],[-111.86212492598504,41.20433847444232],[-111.8621435,41.20434426284585],[-111.86216207401496,41.20433847444232],[-111.86216976762387,41.2043245],[-111.86216207401496,41.20431052555768],[-111.8621435,41.204304737154146],[-111.86212492598504,41.20431052555768],[-111.86211723237614,41.2043245]]]}},{"type":"Feature","id":"pylon-snowbasin-119","properties":{"kind":"pylon","name":"Lift tower","height":13},"geometry":{"type":"Polygon","coordinates":[[[-111.86315343291272,41.2029877],[-111.86316112636446,41.20300167444232],[-111.8631797,41.203007462845854],[-111.86319827363555,41.20300167444232],[-111.86320596708728,41.2029877],[-111.86319827363555,41.20297372555768],[-111.8631797,41.20296793715415],[-111.86316112636446,41.20297372555768],[-111.86315343291272,41.2029877]]]}},{"type":"Feature","id":"pylon-snowbasin-120","properties":{"kind":"pylon","name":"Lift tower","height":13},"geometry":{"type":"Polygon","coordinates":[[[-111.8635718331293,41.2024481],[-111.86357952651761,41.202462074442316],[-111.8635981,41.20246786284585],[-111.8636166734824,41.202462074442316],[-111.86362436687071,41.2024481],[-111.8636166734824,41.20243412555768],[-111.8635981,41.202428337154146],[-111.86357952651761,41.20243412555768],[-111.8635718331293,41.2024481]]]}},{"type":"Feature","id":"pylon-snowbasin-121","properties":{"kind":"pylon","name":"Lift tower","height":13},"geometry":{"type":"Polygon","coordinates":[[[-111.86381013325267,41.2021407],[-111.86381782660484,41.20215467444232],[-111.8638364,41.20216046284585],[-111.86385497339515,41.20215467444232],[-111.86386266674732,41.2021407],[-111.86385497339515,41.20212672555768],[-111.8638364,41.20212093715415],[-111.86381782660484,41.20212672555768],[-111.86381013325267,41.2021407]]]}},{"type":"Feature","id":"pylon-snowbasin-122","properties":{"kind":"pylon","name":"Lift tower","height":13},"geometry":{"type":"Polygon","coordinates":[[[-111.8642995335061,41.2015093],[-111.86430722678405,41.201523274442316],[-111.8643258,41.20152906284585],[-111.86434437321596,41.201523274442316],[-111.86435206649391,41.2015093],[-111.86434437321596,41.20149532555768],[-111.8643258,41.201489537154146],[-111.86430722678405,41.20149532555768],[-111.8642995335061,41.2015093]]]}},{"type":"Feature","id":"marker-snowbasin-summit","properties":{"kind":"marker","markerType":"summit","name":"Upper mountain · 2850 m","height":26},"geometry":{"type":"Polygon","coordinates":[[[-111.86891641139164,41.211999999999996],[-111.8689323753953,41.21203696098424],[-111.86897416969948,41.212059804128764],[-111.86902583030052,41.212059804128764],[-111.8690676246047,41.21203696098424],[-111.86908358860836,41.211999999999996],[-111.8690676246047,41.21196303901575],[-111.86902583030052,41.21194019587123],[-111.86897416969948,41.21194019587123],[-111.8689323753953,41.21196303901575],[-111.86891641139164,41.211999999999996]]]}},{"type":"Feature","id":"marker-snowbasin-base","properties":{"kind":"marker","markerType":"base","name":"Base · 1948 m","height":18},"geometry":{"type":"Polygon","coordinates":[[[-111.86491641650194,41.208],[-111.86493237952962,41.208036960984245],[-111.86497417127865,41.208059804128766],[-111.86502582872134,41.208059804128766],[-111.86506762047037,41.208036960984245],[-111.86508358349805,41.208],[-111.86506762047037,41.20796303901575],[-111.86502582872134,41.20794019587123],[-111.86497417127865,41.20794019587123],[-111.86493237952962,41.20796303901575],[-111.86491641650194,41.208]]]}},{"type":"Feature","id":"marker-snowbasin-peak","properties":{"kind":"marker","markerType":"peak","name":"Peak · 2885 m","height":22},"geometry":{"type":"Polygon","coordinates":[[[-111.86091640883609,41.214],[-111.86093237332781,41.214036960984245],[-111.86097416890976,41.214059804128766],[-111.86102583109022,41.214059804128766],[-111.86106762667217,41.214036960984245],[-111.86108359116389,41.214],[-111.86106762667217,41.21396303901575],[-111.86102583109022,41.21394019587123],[-111.86097416890976,41.21394019587123],[-111.86093237332781,41.21396303901575],[-111.86091640883609,41.214]]]}}]}