{"type":"FeatureCollection","features":[{"type":"Feature","id":258882727,"properties":{"kind":"lift","name":"Goose T-bar","subtype":"t-bar","status":"active"},"geometry":{"type":"LineString","coordinates":[[-4.975696,56.8308795],[-4.9754489,56.8304711],[-4.9748356,56.8294576],[-4.9743268,56.8286165],[-4.9737595,56.8276789],[-4.9737219,56.8276168],[-4.9731679,56.8267011],[-4.9727221,56.8259643],[-4.9721262,56.8249794],[-4.971599,56.824108],[-4.9710394,56.8231828],[-4.9707411,56.8226898]]}},{"type":"Feature","id":258882728,"properties":{"kind":"lift","name":"Summit Button","subtype":"platter","status":"active"},"geometry":{"type":"LineString","coordinates":[[-4.970545,56.8232839],[-4.9644279,56.8218964],[-4.9642531,56.8218568]]}},{"type":"Feature","id":258882731,"properties":{"kind":"lift","name":"Quad Chair","subtype":"chair_lift","status":"active"},"geometry":{"type":"LineString","coordinates":[[-4.9775199,56.8352339],[-4.9774265,56.8347158],[-4.9773037,56.8340344],[-4.9771418,56.8331367],[-4.9769726,56.8321978],[-4.9768059,56.8312729],[-4.9766341,56.8303197],[-4.976454,56.8293206],[-4.9763196,56.8285747],[-4.9761433,56.827597],[-4.9759949,56.8267734]]}},{"type":"Feature","id":259221840,"properties":{"kind":"lift","name":"Alpha Button","subtype":"platter","status":"active"},"geometry":{"type":"LineString","coordinates":[[-4.9700036,56.8364304],[-4.9701074,56.8314915]]}},{"type":"Feature","id":259222780,"properties":{"kind":"lift","name":"Rob Roy T-bar","subtype":"t-bar","status":"active"},"geometry":{"type":"LineString","coordinates":[[-4.9560752,56.8378269],[-4.9598581,56.8356211]]}},{"type":"Feature","id":259222781,"properties":{"kind":"lift","name":"Rope Tow","subtype":"rope_tow","status":"active"},"geometry":{"type":"LineString","coordinates":[[-4.972665,56.8376247],[-4.9723288,56.836926]]}},{"type":"Feature","id":259222782,"properties":{"kind":"lift","name":"Linnhe Button","subtype":"platter","status":"active"},"geometry":{"type":"LineString","coordinates":[[-4.9717769,56.8374358],[-4.9707199,56.8359413]]}},{"type":"Feature","id":259222783,"properties":{"kind":"lift","name":"Lochy Button","subtype":"platter","status":"active"},"geometry":{"type":"LineString","coordinates":[[-4.9713523,56.8379513],[-4.9706621,56.8367549]]}},{"type":"Feature","id":860440455,"properties":{"kind":"lift","name":"Nevis Range Gondola","subtype":"gondola","status":"active"},"geometry":{"type":"LineString","coordinates":[[-4.9986721,56.8521247],[-4.9977986,56.8516062],[-4.9962818,56.8507059],[-4.9949307,56.8499039],[-4.9931015,56.8488181],[-4.9918622,56.8480824],[-4.9911937,56.8476855],[-4.9900038,56.8469792],[-4.9892423,56.8465271],[-4.9880456,56.8458167],[-4.986339,56.8448035],[-4.9852936,56.8441829],[-4.9838466,56.8433238],[-4.9833562,56.8430326],[-4.9802503,56.8411886],[-4.9776259,56.8396303],[-4.9745322,56.8377934],[-4.9732934,56.8370578],[-4.9725885,56.8366392]]}},{"type":"Feature","id":986907783,"properties":{"kind":"run","name":"Lochy","subtype":"novice","pisteType":"downhill","featured":false},"geometry":{"type":"LineString","coordinates":[[-4.9705901,56.8367591],[-4.9705169,56.8372083],[-4.9707934,56.837742],[-4.9713523,56.8379513]]}},{"type":"Feature","id":986907784,"properties":{"kind":"run","name":"Abhron","subtype":"novice","pisteType":"downhill","featured":false},"geometry":{"type":"LineString","coordinates":[[-4.9707199,56.8359413],[-4.9706621,56.8367549],[-4.9717769,56.8374358],[-4.9713523,56.8379513]]}},{"type":"Feature","id":986907785,"properties":{"kind":"run","name":"Claistig","subtype":"novice","pisteType":"downhill","featured":false},"geometry":{"type":"LineString","coordinates":[[-4.9707199,56.8359413],[-4.9710048,56.836043],[-4.9712338,56.8364092],[-4.9717956,56.8367182],[-4.9718748,56.8367858],[-4.9723288,56.836926],[-4.9717769,56.8374358],[-4.972665,56.8376247]]}},{"type":"Feature","id":986907786,"properties":{"kind":"run","name":"Alpha","subtype":"easy","pisteType":"downhill","featured":false},"geometry":{"type":"LineString","coordinates":[[-4.9701074,56.8314915],[-4.9702364,56.8315703],[-4.9715372,56.8322047],[-4.9716363,56.8333071],[-4.9716631,56.8336199],[-4.9716391,56.8344883],[-4.9707199,56.8359413],[-4.9700036,56.8364304]]}},{"type":"Feature","id":986907787,"properties":{"kind":"run","name":"Yockies","subtype":"easy","pisteType":"downhill","featured":false},"geometry":{"type":"LineString","coordinates":[[-4.9695,56.8321628],[-4.9696972,56.8338214],[-4.9694775,56.8357669],[-4.9694538,56.8359763],[-4.9700036,56.8364304]]}},{"type":"Feature","id":986907788,"properties":{"kind":"run","name":"Flight","subtype":"advanced","pisteType":"downhill","featured":false},"geometry":{"type":"LineString","coordinates":[[-4.9615576,56.8280572],[-4.9617416,56.8282683],[-4.9626724,56.828951],[-4.9643588,56.8304099],[-4.9648501,56.8306908],[-4.9656103,56.8311253],[-4.96703,56.8321779],[-4.9681887,56.8325895],[-4.9687284,56.8325797]]}},{"type":"Feature","id":986907789,"properties":{"kind":"run","name":"Alpha Traverse","subtype":"easy","pisteType":"downhill","featured":false},"geometry":{"type":"LineString","coordinates":[[-4.9702364,56.8315703],[-4.9735781,56.8308264],[-4.9747136,56.8308549],[-4.974943,56.8308606],[-4.975291,56.8308693],[-4.9755929,56.8308769],[-4.975696,56.8308795]]}},{"type":"Feature","id":986907790,"properties":{"kind":"run","name":"Macpherson's","subtype":"easy","pisteType":"downhill","featured":false},"geometry":{"type":"LineString","coordinates":[[-4.9702364,56.8315703],[-4.9699777,56.8317784],[-4.9695,56.8321628],[-4.9687284,56.8325797],[-4.9678796,56.8330086],[-4.9652669,56.834202],[-4.9603919,56.8356604],[-4.9596623,56.8358423]]}},{"type":"Feature","id":986907791,"properties":{"kind":"run","name":"Rob Roy's Return","subtype":"novice","pisteType":"downhill","featured":false},"geometry":{"type":"LineString","coordinates":[[-4.9596623,56.8358423],[-4.9600898,56.8359896],[-4.9637162,56.8362298],[-4.9677167,56.8364166],[-4.9717956,56.8367182]]}},{"type":"Feature","id":986907792,"properties":{"kind":"run","name":"Rob Roy","subtype":"easy","pisteType":"downhill","featured":false},"geometry":{"type":"LineString","coordinates":[[-4.9596623,56.8358423],[-4.959014,56.8363551],[-4.9576877,56.8372645],[-4.9561577,56.8379334]]}},{"type":"Feature","id":986907793,"properties":{"kind":"run","name":"Blair's","subtype":"easy","pisteType":"downhill","featured":false},"geometry":{"type":"LineString","coordinates":[[-4.9595873,56.8355636],[-4.9582538,56.8359461],[-4.9572944,56.8365243],[-4.9560585,56.8374406],[-4.9560752,56.8378269]]}},{"type":"Feature","id":986907794,"properties":{"kind":"run","name":"Squiggle","subtype":"easy","pisteType":"downhill","featured":false},"geometry":{"type":"LineString","coordinates":[[-4.9595873,56.8355636],[-4.9572293,56.8356703],[-4.9559772,56.8362752],[-4.9554243,56.8369869],[-4.9560752,56.8378269],[-4.9561577,56.8379334]]}},{"type":"Feature","id":987217196,"properties":{"kind":"run","name":"High Road","subtype":"easy","pisteType":"downhill","featured":false},"geometry":{"type":"LineString","coordinates":[[-4.9625117,56.8344811],[-4.9644428,56.8350797],[-4.9662131,56.8351854],[-4.9683374,56.8355023],[-4.9694775,56.8357669]]}},{"type":"Feature","id":987217197,"properties":{"kind":"run","name":"Summit Run","subtype":"easy","pisteType":"downhill","featured":false},"geometry":{"type":"LineString","coordinates":[[-4.9644279,56.8218964],[-4.9656678,56.8219884],[-4.9663473,56.8220388],[-4.9686003,56.8225731],[-4.9701238,56.8229018],[-4.9706602,56.8231132],[-4.970545,56.8232839]]}},{"type":"Feature","id":987217198,"properties":{"kind":"run","name":"Spectre","subtype":"easy","pisteType":"downhill","featured":false},"geometry":{"type":"LineString","coordinates":[[-4.9656678,56.8219884],[-4.9664653,56.8218861],[-4.9683857,56.822256],[-4.9690724,56.8224791],[-4.9697483,56.8225965],[-4.9707411,56.8226898]]}},{"type":"Feature","id":987217199,"properties":{"kind":"run","name":"Spider","subtype":"easy","pisteType":"downhill","featured":false},"geometry":{"type":"LineString","coordinates":[[-4.9644279,56.8218964],[-4.9646102,56.8220983],[-4.9646306,56.822121],[-4.9651027,56.8223441],[-4.9657357,56.8224732],[-4.9675167,56.8228666],[-4.9690402,56.8232659],[-4.9697376,56.8233657],[-4.970482,56.8233175]]}},{"type":"Feature","id":987217200,"properties":{"kind":"run","name":"Lemming Ridge","subtype":"advanced","pisteType":"downhill","featured":false},"geometry":{"type":"LineString","coordinates":[[-4.9646102,56.8220983],[-4.964432,56.8235646],[-4.9634127,56.8250829],[-4.9632934,56.8252771],[-4.9627703,56.8261285],[-4.962066,56.8268529],[-4.9619572,56.8269649],[-4.9611026,56.8275418],[-4.9607448,56.8278889],[-4.960387,56.8283871],[-4.9602195,56.8289353],[-4.9601552,56.8292014],[-4.9600264,56.8297336],[-4.9600026,56.8307157],[-4.9599364,56.8314276]]}},{"type":"Feature","id":987217201,"properties":{"kind":"run","name":"Nid Ridge","subtype":"advanced","pisteType":"downhill","featured":false},"geometry":{"type":"LineString","coordinates":[[-4.9599364,56.8314276],[-4.9597738,56.8320503],[-4.9594486,56.8328066],[-4.9596437,56.8333048],[-4.9608959,56.8345503],[-4.9608796,56.8352175],[-4.9595873,56.8355636]]}},{"type":"Feature","id":987217202,"properties":{"kind":"run","name":"Nid Wall","subtype":"unknown","pisteType":"downhill","featured":false},"geometry":{"type":"LineString","coordinates":[[-4.9599364,56.8314276],[-4.9621968,56.8320859],[-4.9628798,56.8326375],[-4.9629611,56.8333137],[-4.9626684,56.8341143],[-4.9625117,56.8344811],[-4.9608796,56.8352175]]}},{"type":"Feature","id":987217203,"properties":{"kind":"run","name":"Mapped ski run","subtype":"intermediate","pisteType":"downhill","featured":false},"geometry":{"type":"LineString","coordinates":[[-4.9648501,56.8306908],[-4.9662566,56.8308723],[-4.9672466,56.8310921],[-4.9684235,56.8313731],[-4.9699777,56.8317784]]}},{"type":"Feature","id":987217204,"properties":{"kind":"run","name":"Inside Edge","subtype":"intermediate","pisteType":"downhill","featured":false},"geometry":{"type":"LineString","coordinates":[[-4.9707411,56.8226898],[-4.9706483,56.8229025],[-4.9706602,56.8231132],[-4.9707616,56.8233388],[-4.9709285,56.82371],[-4.9714602,56.824719],[-4.9728818,56.826748],[-4.9736294,56.8287186],[-4.9749832,56.8305704],[-4.9755929,56.8308769]]}},{"type":"Feature","id":987217205,"properties":{"kind":"run","name":"The Goose","subtype":"intermediate","pisteType":"downhill","featured":false},"geometry":{"type":"LineString","coordinates":[[-4.9707616,56.8233388],[-4.970363,56.8236218],[-4.9693813,56.8253398],[-4.9697554,56.826461],[-4.9706498,56.8272173],[-4.9712515,56.8285787],[-4.9710401,56.8295752],[-4.9711269,56.8297076],[-4.9712677,56.8299222],[-4.971723,56.8302692],[-4.9724711,56.8305806],[-4.9735781,56.8308264]]}},{"type":"Feature","id":987217206,"properties":{"kind":"run","name":"Warrens","subtype":"advanced","pisteType":"downhill","featured":false},"geometry":{"type":"LineString","coordinates":[[-4.9652508,56.8286499],[-4.9677226,56.829771],[-4.968221,56.8299766],[-4.9696415,56.8305628],[-4.9698529,56.8306073]]}},{"type":"Feature","id":987217207,"properties":{"kind":"run","name":"Mapped ski run","subtype":"intermediate","pisteType":"downhill","featured":false},"geometry":{"type":"LineString","coordinates":[[-4.9698529,56.8306073],[-4.9701074,56.8314915]]}},{"type":"Feature","id":987217208,"properties":{"kind":"run","name":"Upper Traverse","subtype":"unknown","pisteType":"downhill","featured":false},"geometry":{"type":"LineString","coordinates":[[-4.968221,56.8299766],[-4.9702595,56.8295574],[-4.9710401,56.8295752]]}},{"type":"Feature","id":987217209,"properties":{"kind":"run","name":"Link","subtype":"easy","pisteType":"downhill","featured":false},"geometry":{"type":"LineString","coordinates":[[-4.9711269,56.8297076],[-4.9698529,56.8306073]]}},{"type":"Feature","id":987217210,"properties":{"kind":"run","name":"Mapped ski run","subtype":"intermediate","pisteType":"downhill","featured":false},"geometry":{"type":"LineString","coordinates":[[-4.9615576,56.8280572],[-4.9617036,56.8280494],[-4.9624538,56.8280093],[-4.9631856,56.8281071],[-4.9637873,56.828383],[-4.9649581,56.8286054],[-4.9652508,56.8286499]]}},{"type":"Feature","id":987217211,"properties":{"kind":"run","name":"Switch","subtype":"intermediate","pisteType":"downhill","featured":false},"geometry":{"type":"LineString","coordinates":[[-4.9651027,56.8223441],[-4.9648563,56.8237428],[-4.9648104,56.8244381],[-4.9648003,56.8245912],[-4.9648937,56.8250001],[-4.9648068,56.8255385],[-4.9647816,56.8256951],[-4.9645201,56.8262164],[-4.9636421,56.8267684],[-4.9631997,56.8272468],[-4.9639687,56.8279255],[-4.9652508,56.8286499]]}},{"type":"Feature","id":987217212,"properties":{"kind":"run","name":"Ed's 2","subtype":"advanced","pisteType":"downhill","featured":false},"geometry":{"type":"LineString","coordinates":[[-4.9648068,56.8255385],[-4.9630443,56.8264924],[-4.962066,56.8268529]]}},{"type":"Feature","id":987217213,"properties":{"kind":"run","name":"Ed's1","subtype":"advanced","pisteType":"downhill","featured":false},"geometry":{"type":"LineString","coordinates":[[-4.9648104,56.8244381],[-4.9638476,56.8250921],[-4.9632934,56.8252771]]}},{"type":"Feature","id":987217214,"properties":{"kind":"run","name":"Mapped ski run","subtype":"advanced","pisteType":"downhill","featured":false},"geometry":{"type":"LineString","coordinates":[[-4.9615576,56.8280572],[-4.9612137,56.8285468],[-4.9601552,56.8292014]]}},{"type":"Feature","id":987217447,"properties":{"kind":"run","name":"Cats Alley","subtype":"intermediate","pisteType":"downhill","featured":false},"geometry":{"type":"LineString","coordinates":[[-4.9707411,56.8226898],[-4.9713009,56.8229455],[-4.9717305,56.8236917],[-4.972403,56.8246014],[-4.9727953,56.8253885],[-4.9736172,56.8262778],[-4.9736486,56.8268605],[-4.9737396,56.8271119],[-4.9738112,56.8273098],[-4.9751735,56.829343],[-4.9757091,56.830261],[-4.975701,56.8305457],[-4.9758311,56.8307014],[-4.975696,56.8308795]]}},{"type":"Feature","id":987322431,"properties":{"kind":"run","name":"Side Winder","subtype":"intermediate","pisteType":"downhill","featured":false},"geometry":{"type":"LineString","coordinates":[[-4.9713009,56.8229455],[-4.9723655,56.8239736],[-4.9729672,56.8243206],[-4.9738128,56.8247477],[-4.9745608,56.8250503],[-4.974756,56.8252817],[-4.9744958,56.8257622],[-4.9745283,56.8260558],[-4.9750812,56.8263761],[-4.9755882,56.8265426],[-4.9762196,56.8267499]]}},{"type":"Feature","id":987322432,"properties":{"kind":"run","name":"Quad Traverse","subtype":"intermediate","pisteType":"downhill","featured":false},"geometry":{"type":"LineString","coordinates":[[-4.9737396,56.8271119],[-4.9762196,56.8267499]]}},{"type":"Feature","id":987322433,"properties":{"kind":"run","name":"Easy Rider","subtype":"easy","pisteType":"downhill","featured":false},"geometry":{"type":"LineString","coordinates":[[-4.9755882,56.8265426],[-4.9748048,56.8271592],[-4.9748536,56.8277019],[-4.9752113,56.8282269],[-4.9755366,56.8288319],[-4.9759594,56.8293391],[-4.9762521,56.8300153],[-4.976431,56.8305046],[-4.9763297,56.8306787],[-4.9763171,56.8307004],[-4.975696,56.8308795]]}},{"type":"Feature","id":987322434,"properties":{"kind":"run","name":"The Fairway","subtype":"easy","pisteType":"downhill","featured":false},"geometry":{"type":"LineString","coordinates":[[-4.9762196,56.8267499],[-4.9764958,56.8270324],[-4.9766515,56.8276753],[-4.9766515,56.8283725],[-4.9765666,56.8288992],[-4.9768072,56.8294878],[-4.9771314,56.8304825],[-4.9771496,56.8309048],[-4.9771561,56.8310556],[-4.9766015,56.8316625],[-4.9764188,56.8324585],[-4.9769284,56.8335629],[-4.9771055,56.8340301],[-4.9771117,56.834202],[-4.9769391,56.8345458],[-4.97697,56.8347582],[-4.977161,56.834947],[-4.9772493,56.8350809],[-4.9772544,56.8350889],[-4.9773766,56.8352745],[-4.9774792,56.8353074],[-4.9775323,56.8353016],[-4.9775199,56.8352339]]}},{"type":"Feature","id":987322435,"properties":{"kind":"run","name":"Far West","subtype":"easy","pisteType":"downhill","featured":false},"geometry":{"type":"LineString","coordinates":[[-4.9763297,56.8306787],[-4.9771496,56.8309048],[-4.9779312,56.8313703],[-4.9783872,56.8324491],[-4.9786337,56.8333728],[-4.9785104,56.8339392],[-4.9781724,56.8347037],[-4.977769,56.8352875],[-4.9775323,56.8353016]]}},{"type":"Feature","id":987322436,"properties":{"kind":"run","name":"Bunny Hop","subtype":"novice","pisteType":"downhill","featured":false},"geometry":{"type":"LineString","coordinates":[[-4.9747136,56.8308549],[-4.974227,56.8315347],[-4.9739091,56.8318941],[-4.9731374,56.8325133],[-4.9722755,56.8332517],[-4.9716631,56.8336199]]}},{"type":"Feature","id":987322437,"properties":{"kind":"run","name":"Rabbit Run","subtype":"easy","pisteType":"downhill","featured":false},"geometry":{"type":"LineString","coordinates":[[-4.974943,56.8308606],[-4.9741131,56.8322375],[-4.9732675,56.8338211],[-4.973034,56.8355741]]}},{"type":"Feature","id":987322438,"properties":{"kind":"run","name":"Quad","subtype":"novice","pisteType":"downhill","featured":false},"geometry":{"type":"LineString","coordinates":[[-4.9772493,56.8350809],[-4.9762978,56.8349587],[-4.9760213,56.8350432],[-4.9755172,56.8352389],[-4.9733788,56.8355325],[-4.973034,56.8355741],[-4.9726742,56.8359777],[-4.9723062,56.8363107],[-4.9721053,56.8365055]]}},{"type":"Feature","id":987322439,"properties":{"kind":"run","name":"Allt Snechda","subtype":"easy","pisteType":"downhill","featured":false},"geometry":{"type":"LineString","coordinates":[[-4.975291,56.8308693],[-4.97522,56.8318567],[-4.975673,56.8330649],[-4.9761543,56.8344899],[-4.9764941,56.8348307],[-4.9768565,56.8350324],[-4.9772544,56.8350889]]}},{"type":"Feature","id":987933397,"properties":{"kind":"run","name":"Back Corries","subtype":"expert","pisteType":"downhill","featured":false},"geometry":{"type":"LineString","coordinates":[[-4.964262,56.8205524],[-4.9639144,56.8219157],[-4.9629295,56.8249698],[-4.9623544,56.8260491],[-4.9617107,56.8267536],[-4.9606199,56.8276259],[-4.9601014,56.8283079],[-4.9599029,56.8287605],[-4.9598146,56.8296115],[-4.9596492,56.8302754],[-4.9594948,56.8311625],[-4.9593734,56.8320858],[-4.9591859,56.8327617],[-4.9590204,56.8337634],[-4.955976,56.8355797],[-4.9554466,56.8364185],[-4.9553583,56.8366478],[-4.955237,56.8369857],[-4.9547663,56.8362771],[-4.9529853,56.8344459],[-4.9502817,56.8324033],[-4.9487152,56.8302667],[-4.9480501,56.8293275],[-4.9478355,56.8285409],[-4.9476853,56.8275312],[-4.9476638,56.8269912],[-4.9474278,56.8249247],[-4.9471059,56.8233748],[-4.9466124,56.8215312],[-4.9464193,56.8205331],[-4.9464193,56.8199107],[-4.9467626,56.819394],[-4.9531999,56.8181022],[-4.9563113,56.8175972],[-4.9585214,56.8171157],[-4.9591222,56.8174798],[-4.9597874,56.8177968],[-4.9612465,56.8182548],[-4.9629202,56.8191004],[-4.9637785,56.8198285],[-4.964262,56.8205524]]}},{"type":"Feature","id":1051892697,"properties":{"kind":"lift","name":"Magic Carpet","subtype":"magic_carpet","status":"active"},"geometry":{"type":"LineString","coordinates":[[-4.9713299,56.8363559],[-4.9709112,56.8357717]]}},{"type":"Feature","id":1051892699,"properties":{"kind":"run","name":"Dry Slope","subtype":"novice","pisteType":"downhill","featured":false},"geometry":{"type":"LineString","coordinates":[[-4.9696407,56.8364664],[-4.9696648,56.8362176],[-4.9696613,56.8360888],[-4.9697036,56.8360876],[-4.9697085,56.8360338],[-4.9697675,56.836038],[-4.9697779,56.8358032],[-4.9700397,56.8357918],[-4.9700246,56.8363943],[-4.9698911,56.8363965],[-4.9699003,56.8364623],[-4.9696407,56.8364664]]}}]}