{"type":"FeatureCollection","features":[{"type":"Feature","id":"building-258882730","properties":{"kind":"building","name":"Alpine building","height":7.2},"geometry":{"type":"Polygon","coordinates":[[[-4.9644405,56.8216926],[-4.9644115,56.8216628],[-4.9643165,56.8216905],[-4.9643456,56.8217203],[-4.9644405,56.8216926]]]}},{"type":"Feature","id":"building-258882729","properties":{"kind":"building","name":"Alpine building","height":7.2},"geometry":{"type":"Polygon","coordinates":[[[-4.9593642,56.8254568],[-4.9593455,56.8254104],[-4.959206,56.8254266],[-4.9592281,56.8254742],[-4.9593642,56.8254568]]]}},{"type":"Feature","id":"building-258882724","properties":{"kind":"building","name":"Alpine building","height":7.2},"geometry":{"type":"Polygon","coordinates":[[[-4.9705222,56.8233302],[-4.9705491,56.8233037],[-4.9705078,56.8232901],[-4.970482,56.8233175],[-4.9705222,56.8233302]]]}},{"type":"Feature","id":"building-1046341366","properties":{"kind":"building","name":"Alpine building","height":7.2},"geometry":{"type":"Polygon","coordinates":[[[-4.9617769,56.8280339],[-4.9618107,56.8280181],[-4.9617678,56.8279907],[-4.961734,56.8280065],[-4.9617769,56.8280339]]]}},{"type":"Feature","id":"building-1046341310","properties":{"kind":"building","name":"Alpine building","height":7.2},"geometry":{"type":"Polygon","coordinates":[[[-4.973663,56.8274162],[-4.9736585,56.827399],[-4.9736201,56.827402],[-4.9736246,56.8274192],[-4.973663,56.8274162]]]}},{"type":"Feature","id":"building-1046341309","properties":{"kind":"building","name":"Alpine building","height":7.2},"geometry":{"type":"Polygon","coordinates":[[[-4.9732932,56.8285641],[-4.9733376,56.8285349],[-4.9732955,56.8285157],[-4.973251,56.8285448],[-4.9732932,56.8285641]]]}},{"type":"Feature","id":"pylon-nevis-range-0","properties":{"kind":"pylon","name":"Lift tower","height":13},"geometry":{"type":"Polygon","coordinates":[[[-4.9930653605773365,56.8488181],[-4.993075945569167,56.84883207444232],[-4.9931015,56.848837862845855],[-4.993127054430833,56.84883207444232],[-4.993137639422663,56.8488181],[-4.993127054430833,56.848804125557685],[-4.9931015,56.84879833715415],[-4.993075945569167,56.848804125557685],[-4.9930653605773365,56.8488181]]]}},{"type":"Feature","id":"pylon-nevis-range-1","properties":{"kind":"pylon","name":"Lift tower","height":13},"geometry":{"type":"Polygon","coordinates":[[[-4.991157561671032,56.8476855],[-4.991168146342526,56.847699474442315],[-4.9911937,56.84770526284585],[-4.991219253657475,56.847699474442315],[-4.991229838328969,56.8476855],[-4.991219253657475,56.84767152555768],[-4.9911937,56.847665737154145],[-4.991168146342526,56.84767152555768],[-4.991157561671032,56.8476855]]]}},{"type":"Feature","id":"pylon-nevis-range-2","properties":{"kind":"pylon","name":"Lift tower","height":13},"geometry":{"type":"Polygon","coordinates":[[[-4.989967662353029,56.8469792],[-4.989978246824771,56.84699317444232],[-4.9900038,56.84699896284585],[-4.990029353175229,56.84699317444232],[-4.990039937646971,56.8469792],[-4.990029353175229,56.84696522555768],[-4.9900038,56.84695943715415],[-4.989978246824771,56.84696522555768],[-4.989967662353029,56.8469792]]]}},{"type":"Feature","id":"pylon-nevis-range-3","properties":{"kind":"pylon","name":"Lift tower","height":13},"geometry":{"type":"Polygon","coordinates":[[[-4.986302864453671,56.8448035],[-4.986313448310149,56.844817474442316],[-4.986339,56.84482326284585],[-4.986364551689851,56.844817474442316],[-4.9863751355463295,56.8448035],[-4.986364551689851,56.84478952555768],[-4.986339,56.844783737154145],[-4.986313448310149,56.84478952555768],[-4.986302864453671,56.8448035]]]}},{"type":"Feature","id":"pylon-nevis-range-4","properties":{"kind":"pylon","name":"Lift tower","height":13},"geometry":{"type":"Polygon","coordinates":[[[-4.9880094634754615,56.8458167],[-4.98802004761845,56.84583067444232],[-4.9880456,56.84583646284585],[-4.988071152381551,56.84583067444232],[-4.988081736524539,56.8458167],[-4.988071152381551,56.84580272555768],[-4.9880456,56.84579693715415],[-4.98802004761845,56.84580272555768],[-4.9880094634754615,56.8458167]]]}},{"type":"Feature","id":"pylon-nevis-range-5","properties":{"kind":"pylon","name":"Lift tower","height":13},"geometry":{"type":"Polygon","coordinates":[[[-4.989206162789556,56.8465271],[-4.989216747133442,56.84654107444232],[-4.9892423,56.846546862845855],[-4.989267852866558,56.84654107444232],[-4.9892784372104435,56.8465271],[-4.989267852866558,56.846513125557685],[-4.9892423,56.84650733715415],[-4.989216747133442,56.846513125557685],[-4.989206162789556,56.8465271]]]}},{"type":"Feature","id":"pylon-nevis-range-6","properties":{"kind":"pylon","name":"Lift tower","height":13},"geometry":{"type":"Polygon","coordinates":[[[-4.985257465052807,56.8441829],[-4.985268048733802,56.84419687444232],[-4.9852936,56.84420266284585],[-4.985319151266198,56.84419687444232],[-4.985329734947194,56.8441829],[-4.985319151266198,56.84416892555768],[-4.9852936,56.84416313715415],[-4.985268048733802,56.84416892555768],[-4.985257465052807,56.8441829]]]}},{"type":"Feature","id":"pylon-nevis-range-7","properties":{"kind":"pylon","name":"Lift tower","height":13},"geometry":{"type":"Polygon","coordinates":[[[-4.983320066163259,56.8430326],[-4.98333064951901,56.84304657444232],[-4.9833562,56.84305236284585],[-4.983381750480991,56.84304657444232],[-4.983392333836742,56.8430326],[-4.983381750480991,56.84301862555768],[-4.9833562,56.84301283715415],[-4.98333064951901,56.84301862555768],[-4.983320066163259,56.8430326]]]}},{"type":"Feature","id":"pylon-nevis-range-8","properties":{"kind":"pylon","name":"Lift tower","height":13},"geometry":{"type":"Polygon","coordinates":[[[-4.980214167943207,56.8411886],[-4.980224750777623,56.84120257444232],[-4.9802503,56.841208362845855],[-4.980275849222377,56.84120257444232],[-4.980286432056793,56.8411886],[-4.980275849222377,56.841174625557684],[-4.9802503,56.84116883715415],[-4.980224750777623,56.841174625557684],[-4.980214167943207,56.8411886]]]}},{"type":"Feature","id":"pylon-nevis-range-9","properties":{"kind":"pylon","name":"Lift tower","height":13},"geometry":{"type":"Polygon","coordinates":[[[-4.977589769447213,56.8396303],[-4.977600351841116,56.83964427444232],[-4.9776259,56.839650062845855],[-4.977651448158883,56.83964427444232],[-4.9776620305527866,56.8396303],[-4.977651448158883,56.839616325557685],[-4.9776259,56.83961053715415],[-4.977600351841116,56.839616325557685],[-4.977589769447213,56.8396303]]]}},{"type":"Feature","id":"pylon-nevis-range-10","properties":{"kind":"pylon","name":"Lift tower","height":13},"geometry":{"type":"Polygon","coordinates":[[[-4.974496071219917,56.8377934],[-4.974506653094608,56.83780737444232],[-4.9745322,56.837813162845855],[-4.974557746905392,56.83780737444232],[-4.974568328780082,56.8377934],[-4.974557746905392,56.837779425557684],[-4.9745322,56.83777363715415],[-4.974506653094608,56.837779425557684],[-4.974496071219917,56.8377934]]]}},{"type":"Feature","id":"pylon-nevis-range-11","properties":{"kind":"pylon","name":"Lift tower","height":13},"geometry":{"type":"Polygon","coordinates":[[[-4.973257271929751,56.8370578],[-4.973267853596536,56.837071774442315],[-4.9732934,56.83707756284585],[-4.973318946403465,56.837071774442315],[-4.973329528070249,56.8370578],[-4.973318946403465,56.83704382555768],[-4.9732934,56.837038037154144],[-4.973267853596536,56.83704382555768],[-4.973257271929751,56.8370578]]]}},{"type":"Feature","id":"pylon-nevis-range-12","properties":{"kind":"pylon","name":"Lift tower","height":13},"geometry":{"type":"Polygon","coordinates":[[[-4.970988772371015,56.8366005],[-4.970999353908557,56.83661447444232],[-4.9710249,56.836620262845855],[-4.971050446091443,56.83661447444232],[-4.971061027628984,56.8366005],[-4.971050446091443,56.836586525557685],[-4.9710249,56.83658073715415],[-4.970999353908557,56.836586525557685],[-4.970988772371015,56.8366005]]]}},{"type":"Feature","id":"pylon-nevis-range-13","properties":{"kind":"pylon","name":"Lift tower","height":13},"geometry":{"type":"Polygon","coordinates":[[[-4.970447672319682,56.8366537],[-4.970458253872258,56.83666767444232],[-4.9704838,56.83667346284585],[-4.970509346127742,56.83666767444232],[-4.970519927680319,56.8366537],[-4.970509346127742,56.83663972555768],[-4.9704838,56.83663393715415],[-4.970458253872258,56.83663972555768],[-4.970447672319682,56.8366537]]]}},{"type":"Feature","id":"pylon-nevis-range-14","properties":{"kind":"pylon","name":"Lift tower","height":13},"geometry":{"type":"Polygon","coordinates":[[[-4.968983572180635,56.8367978],[-4.968994153773937,56.83681177444232],[-4.9690197,56.83681756284585],[-4.969045246226062,56.83681177444232],[-4.969055827819364,56.8367978],[-4.969045246226062,56.83678382555768],[-4.9690197,56.83677803715415],[-4.968994153773937,56.83678382555768],[-4.968983572180635,56.8367978]]]}},{"type":"Feature","id":"pylon-nevis-range-15","properties":{"kind":"pylon","name":"Lift tower","height":13},"geometry":{"type":"Polygon","coordinates":[[[-4.967561872045737,56.8369376],[-4.96757245367855,56.83695157444232],[-4.967598,56.83695736284585],[-4.967623546321449,56.83695157444232],[-4.967634127954263,56.8369376],[-4.967623546321449,56.83692362555768],[-4.967598,56.83691783715415],[-4.96757245367855,56.83692362555768],[-4.967561872045737,56.8369376]]]}},{"type":"Feature","id":"pylon-nevis-range-16","properties":{"kind":"pylon","name":"Lift tower","height":13},"geometry":{"type":"Polygon","coordinates":[[[-4.9658603718841094,56.8371051],[-4.965870953564262,56.83711907444232],[-4.9658965,56.837124862845855],[-4.965922046435739,56.83711907444232],[-4.965932628115891,56.8371051],[-4.965922046435739,56.837091125557684],[-4.9658965,56.83708533715415],[-4.965870953564262,56.837091125557684],[-4.9658603718841094,56.8371051]]]}},{"type":"Feature","id":"pylon-nevis-range-17","properties":{"kind":"pylon","name":"Lift tower","height":13},"geometry":{"type":"Polygon","coordinates":[[[-4.9642137717278825,56.837267],[-4.964224353453793,56.837280974442315],[-4.9642499,56.83728676284585],[-4.964275446546208,56.837280974442315],[-4.964286028272118,56.837267],[-4.964275446546208,56.83725302555768],[-4.9642499,56.837247237154145],[-4.964224353453793,56.83725302555768],[-4.9642137717278825,56.837267]]]}},{"type":"Feature","id":"pylon-nevis-range-18","properties":{"kind":"pylon","name":"Lift tower","height":13},"geometry":{"type":"Polygon","coordinates":[[[-4.96283717159713,56.8374025],[-4.962847753361337,56.83741647444232],[-4.9628733,56.837422262845855],[-4.962898846638663,56.83741647444232],[-4.96290942840287,56.8374025],[-4.962898846638663,56.837388525557685],[-4.9628733,56.83738273715415],[-4.962847753361337,56.837388525557685],[-4.96283717159713,56.8374025]]]}},{"type":"Feature","id":"pylon-nevis-range-19","properties":{"kind":"pylon","name":"Lift tower","height":13},"geometry":{"type":"Polygon","coordinates":[[[-4.961444171464928,56.8375395],[-4.961454753267856,56.837553474442316],[-4.9614803,56.83755926284585],[-4.961505846732144,56.837553474442316],[-4.961516428535072,56.8375395],[-4.961505846732144,56.83752552555768],[-4.9614803,56.837519737154146],[-4.961454753267856,56.83752552555768],[-4.961444171464928,56.8375395]]]}},{"type":"Feature","id":"pylon-nevis-range-20","properties":{"kind":"pylon","name":"Lift tower","height":13},"geometry":{"type":"Polygon","coordinates":[[[-4.959926371320759,56.8376889],[-4.959936953165913,56.83770287444232],[-4.9599625,56.837708662845856],[-4.959988046834086,56.83770287444232],[-4.95999862867924,56.8376889],[-4.959988046834086,56.837674925557685],[-4.9599625,56.83766913715415],[-4.959936953165913,56.837674925557685],[-4.959926371320759,56.8376889]]]}},{"type":"Feature","id":"pylon-nevis-range-21","properties":{"kind":"pylon","name":"Lift tower","height":13},"geometry":{"type":"Polygon","coordinates":[[[-4.958604971195311,56.8378189],[-4.958615553077208,56.83783287444232],[-4.9586411,56.837838662845854],[-4.958666646922793,56.83783287444232],[-4.95867722880469,56.8378189],[-4.958666646922793,56.837804925557684],[-4.9586411,56.83779913715415],[-4.958615553077208,56.837804925557684],[-4.958604971195311,56.8378189]]]}},{"type":"Feature","id":"pylon-nevis-range-22","properties":{"kind":"pylon","name":"Lift tower","height":13},"geometry":{"type":"Polygon","coordinates":[[[-4.9573936710803785,56.837938],[-4.957404252995938,56.83795197444232],[-4.9574298,56.83795776284585],[-4.957455347004061,56.83795197444232],[-4.957465928919621,56.837938],[-4.957455347004061,56.83792402555768],[-4.9574298,56.83791823715415],[-4.957404252995938,56.83792402555768],[-4.9573936710803785,56.837938]]]}},{"type":"Feature","id":"pylon-nevis-range-23","properties":{"kind":"pylon","name":"Lift tower","height":13},"geometry":{"type":"Polygon","coordinates":[[[-4.977267574846891,56.8340344],[-4.977278155659265,56.83404837444232],[-4.9773037,56.83405416284585],[-4.977329244340735,56.83404837444232],[-4.977339825153109,56.8340344],[-4.977329244340735,56.83402042555768],[-4.9773037,56.83401463715415],[-4.977278155659265,56.83402042555768],[-4.977267574846891,56.8340344]]]}},{"type":"Feature","id":"pylon-nevis-range-24","properties":{"kind":"pylon","name":"Lift tower","height":13},"geometry":{"type":"Polygon","coordinates":[[[-4.976936476618663,56.8321978],[-4.976947056912097,56.83221177444232],[-4.9769726,56.832217562845855],[-4.9769981430879024,56.83221177444232],[-4.977008723381337,56.8321978],[-4.9769981430879024,56.832183825557685],[-4.9769726,56.83217803715415],[-4.976947056912097,56.832183825557685],[-4.976936476618663,56.8321978]]]}},{"type":"Feature","id":"pylon-nevis-range-25","properties":{"kind":"pylon","name":"Lift tower","height":13},"geometry":{"type":"Polygon","coordinates":[[[-4.977105675712931,56.8331367],[-4.977116256271648,56.833150674442315],[-4.9771418,56.83315646284585],[-4.977167343728352,56.833150674442315],[-4.977177924287069,56.8331367],[-4.977167343728352,56.83312272555768],[-4.9771418,56.833116937154145],[-4.977116256271648,56.83312272555768],[-4.977105675712931,56.8331367]]]}},{"type":"Feature","id":"pylon-nevis-range-26","properties":{"kind":"pylon","name":"Lift tower","height":13},"geometry":{"type":"Polygon","coordinates":[[[-4.977390374189489,56.8347158],[-4.977400955194412,56.834729774442316],[-4.9774265,56.83473556284585],[-4.977452044805588,56.834729774442316],[-4.977462625810511,56.8347158],[-4.977452044805588,56.83470182555768],[-4.9774265,56.834696037154146],[-4.977400955194412,56.83470182555768],[-4.977390374189489,56.8347158]]]}},{"type":"Feature","id":"pylon-nevis-range-27","properties":{"kind":"pylon","name":"Lift tower","height":13},"geometry":{"type":"Polygon","coordinates":[[[-4.976769777510836,56.8312729],[-4.9767803575429586,56.83128687444232],[-4.9768059,56.831292662845854],[-4.976831442457041,56.83128687444232],[-4.976842022489163,56.8312729],[-4.976831442457041,56.831258925557684],[-4.9768059,56.83125313715415],[-4.9767803575429586,56.831258925557684],[-4.976769777510836,56.8312729]]]}},{"type":"Feature","id":"pylon-nevis-range-28","properties":{"kind":"pylon","name":"Lift tower","height":13},"geometry":{"type":"Polygon","coordinates":[[[-4.976597978430252,56.8303197],[-4.976608558193084,56.830333674442315],[-4.9766341,56.83033946284585],[-4.976659641806916,56.830333674442315],[-4.976670221569748,56.8303197],[-4.976659641806916,56.83030572555768],[-4.9766341,56.830299937154145],[-4.976608558193084,56.83030572555768],[-4.976597978430252,56.8303197]]]}},{"type":"Feature","id":"pylon-nevis-range-29","properties":{"kind":"pylon","name":"Lift tower","height":13},"geometry":{"type":"Polygon","coordinates":[[[-4.976417879393881,56.8293206],[-4.976428458874473,56.82933457444232],[-4.976454,56.829340362845855],[-4.976479541125528,56.82933457444232],[-4.97649012060612,56.8293206],[-4.976479541125528,56.829306625557685],[-4.976454,56.82930083715415],[-4.976428458874473,56.829306625557685],[-4.976417879393881,56.8293206]]]}},{"type":"Feature","id":"pylon-nevis-range-30","properties":{"kind":"pylon","name":"Lift tower","height":13},"geometry":{"type":"Polygon","coordinates":[[[-4.976283480113257,56.8285747],[-4.976294059383148,56.828588674442315],[-4.9763196,56.82859446284585],[-4.976345140616852,56.828588674442315],[-4.976355719886743,56.8285747],[-4.976345140616852,56.82856072555768],[-4.9763196,56.828554937154145],[-4.976294059383148,56.82856072555768],[-4.976283480113257,56.8285747]]]}},{"type":"Feature","id":"pylon-nevis-range-31","properties":{"kind":"pylon","name":"Lift tower","height":13},"geometry":{"type":"Polygon","coordinates":[[[-4.97610718105614,56.827597],[-4.976117760049867,56.827610974442315],[-4.9761433,56.82761676284585],[-4.976168839950134,56.827610974442315],[-4.976179418943861,56.827597],[-4.976168839950134,56.82758302555768],[-4.9761433,56.827577237154145],[-4.976117760049867,56.82758302555768],[-4.97610718105614,56.827597]]]}},{"type":"Feature","id":"pylon-nevis-range-32","properties":{"kind":"pylon","name":"Lift tower","height":13},"geometry":{"type":"Polygon","coordinates":[[[-4.958890383080283,56.8254979],[-4.958900961481152,56.82551187444232],[-4.9589265,56.825517662845854],[-4.958952038518847,56.82551187444232],[-4.958962616919716,56.8254979],[-4.958952038518847,56.825483925557684],[-4.9589265,56.82547813715415],[-4.958900961481152,56.825483925557684],[-4.958890383080283,56.8254979]]]}},{"type":"Feature","id":"pylon-nevis-range-33","properties":{"kind":"pylon","name":"Lift tower","height":13},"geometry":{"type":"Polygon","coordinates":[[[-4.9570475827864815,56.8258026],[-4.9570581612734035,56.82581657444232],[-4.9570837,56.825822362845855],[-4.957109238726597,56.82581657444232],[-4.957119817213519,56.8258026],[-4.957109238726597,56.825788625557685],[-4.9570837,56.82578283715415],[-4.9570581612734035,56.825788625557685],[-4.9570475827864815,56.8258026]]]}},{"type":"Feature","id":"pylon-nevis-range-34","properties":{"kind":"pylon","name":"Lift tower","height":13},"geometry":{"type":"Polygon","coordinates":[[[-4.955538882545996,56.826052],[-4.955549461103355,56.826065974442315],[-4.955575,56.82607176284585],[-4.955600538896644,56.826065974442315],[-4.955611117454003,56.826052],[-4.955600538896644,56.82603802555768],[-4.955575,56.826032237154145],[-4.955549461103355,56.82603802555768],[-4.955538882545996,56.826052]]]}},{"type":"Feature","id":"pylon-nevis-range-35","properties":{"kind":"pylon","name":"Lift tower","height":13},"geometry":{"type":"Polygon","coordinates":[[[-4.953600982236948,56.8263725],[-4.953611560884824,56.826386474442316],[-4.9536371,56.82639226284585],[-4.9536626391151755,56.826386474442316],[-4.953673217763052,56.8263725],[-4.9536626391151755,56.82635852555768],[-4.9536371,56.826352737154146],[-4.953611560884824,56.82635852555768],[-4.953600982236948,56.8263725]]]}},{"type":"Feature","id":"pylon-nevis-range-36","properties":{"kind":"pylon","name":"Lift tower","height":13},"geometry":{"type":"Polygon","coordinates":[[[-4.9519067819668505,56.8266526],[-4.9519173606938365,56.82666657444232],[-4.9519429,56.826672362845855],[-4.951968439306163,56.82666657444232],[-4.951979018033149,56.8266526],[-4.951968439306163,56.826638625557685],[-4.9519429,56.82663283715415],[-4.9519173606938365,56.826638625557685],[-4.9519067819668505,56.8266526]]]}},{"type":"Feature","id":"pylon-nevis-range-37","properties":{"kind":"pylon","name":"Lift tower","height":13},"geometry":{"type":"Polygon","coordinates":[[[-4.950951781814587,56.8268105],[-4.95096236058617,56.82682447444232],[-4.9509879,56.82683026284585],[-4.95101343941383,56.82682447444232],[-4.9510240181854135,56.8268105],[-4.95101343941383,56.82679652555768],[-4.9509879,56.82679073715415],[-4.95096236058617,56.82679652555768],[-4.950951781814587,56.8268105]]]}},{"type":"Feature","id":"pylon-nevis-range-38","properties":{"kind":"pylon","name":"Lift tower","height":13},"geometry":{"type":"Polygon","coordinates":[[[-4.949877681643325,56.8269881],[-4.94988826046507,56.82700207444232],[-4.9499138,56.82700786284585],[-4.9499393395349305,56.82700207444232],[-4.949949918356675,56.8269881],[-4.9499393395349305,56.82697412555768],[-4.9499138,56.82696833715415],[-4.94988826046507,56.82697412555768],[-4.949877681643325,56.8269881]]]}},{"type":"Feature","id":"pylon-nevis-range-39","properties":{"kind":"pylon","name":"Lift tower","height":13},"geometry":{"type":"Polygon","coordinates":[[[-4.948524381427605,56.8272118],[-4.948534960312533,56.82722577444232],[-4.9485605,56.82723156284585],[-4.948586039687467,56.82722577444232],[-4.948596618572395,56.8272118],[-4.948586039687467,56.82719782555768],[-4.9485605,56.82719203715415],[-4.948534960312533,56.82719782555768],[-4.948524381427605,56.8272118]]]}},{"type":"Feature","id":"pylon-nevis-range-40","properties":{"kind":"pylon","name":"Lift tower","height":13},"geometry":{"type":"Polygon","coordinates":[[[-4.948070581355184,56.8272869],[-4.9480811602613235,56.827300874442315],[-4.9481067,56.82730666284585],[-4.948132239738677,56.827300874442315],[-4.948142818644817,56.8272869],[-4.948132239738677,56.82727292555768],[-4.9481067,56.827267137154145],[-4.9480811602613235,56.82727292555768],[-4.948070581355184,56.8272869]]]}},{"type":"Feature","id":"pylon-nevis-range-41","properties":{"kind":"pylon","name":"Lift tower","height":13},"geometry":{"type":"Polygon","coordinates":[[[-4.975412778284222,56.8304711],[-4.9754233580898255,56.830485074442315],[-4.9754489,56.83049086284585],[-4.975474441910174,56.830485074442315],[-4.975485021715778,56.8304711],[-4.975474441910174,56.83045712555768],[-4.9754489,56.830451337154145],[-4.9754233580898255,56.83045712555768],[-4.975412778284222,56.8304711]]]}},{"type":"Feature","id":"pylon-nevis-range-42","properties":{"kind":"pylon","name":"Lift tower","height":13},"geometry":{"type":"Polygon","coordinates":[[[-4.974799479261748,56.8294576],[-4.97481005878104,56.829471574442316],[-4.9748356,56.82947736284585],[-4.974861141218959,56.829471574442316],[-4.974871720738252,56.8294576],[-4.974861141218959,56.82944362555768],[-4.9748356,56.829437837154146],[-4.97481005878104,56.82944362555768],[-4.974799479261748,56.8294576]]]}},{"type":"Feature","id":"pylon-nevis-range-43","properties":{"kind":"pylon","name":"Lift tower","height":13},"geometry":{"type":"Polygon","coordinates":[[[-4.9742906800729445,56.8286165],[-4.974301259354643,56.82863047444232],[-4.9743268,56.828636262845855],[-4.974352340645357,56.82863047444232],[-4.974362919927056,56.8286165],[-4.974352340645357,56.828602525557685],[-4.9743268,56.82859673715415],[-4.974301259354643,56.828602525557685],[-4.9742906800729445,56.8286165]]]}},{"type":"Feature","id":"pylon-nevis-range-44","properties":{"kind":"pylon","name":"Lift tower","height":13},"geometry":{"type":"Polygon","coordinates":[[[-4.973723380977158,56.8276789],[-4.973733959994019,56.82769287444232],[-4.9737595,56.827698662845854],[-4.973785040005981,56.82769287444232],[-4.973795619022842,56.8276789],[-4.973785040005981,56.827664925557684],[-4.9737595,56.82765913715415],[-4.973733959994019,56.827664925557684],[-4.973723380977158,56.8276789]]]}},{"type":"Feature","id":"pylon-nevis-range-45","properties":{"kind":"pylon","name":"Lift tower","height":13},"geometry":{"type":"Polygon","coordinates":[[[-4.973131781920082,56.8267011],[-4.973142360660766,56.82671507444232],[-4.9731679,56.82672086284585],[-4.973193439339234,56.82671507444232],[-4.973204018079918,56.8267011],[-4.973193439339234,56.82668712555768],[-4.9731679,56.82668133715415],[-4.973142360660766,56.82668712555768],[-4.973131781920082,56.8267011]]]}},{"type":"Feature","id":"pylon-nevis-range-46","properties":{"kind":"pylon","name":"Lift tower","height":13},"geometry":{"type":"Polygon","coordinates":[[[-4.972685982630562,56.8259643],[-4.972696561163152,56.82597827444232],[-4.9727221,56.825984062845855],[-4.972747638836848,56.82597827444232],[-4.972758217369439,56.8259643],[-4.972747638836848,56.825950325557685],[-4.9727221,56.82594453715415],[-4.972696561163152,56.825950325557685],[-4.972685982630562,56.8259643]]]}},{"type":"Feature","id":"pylon-nevis-range-47","properties":{"kind":"pylon","name":"Lift tower","height":13},"geometry":{"type":"Polygon","coordinates":[[[-4.972090083580227,56.8249794],[-4.972100661834666,56.824993374442315],[-4.9721262,56.82499916284585],[-4.9721517381653335,56.824993374442315],[-4.972162316419773,56.8249794],[-4.9721517381653335,56.82496542555768],[-4.9721262,56.824959637154144],[-4.972100661834666,56.82496542555768],[-4.972090083580227,56.8249794]]]}},{"type":"Feature","id":"pylon-nevis-range-48","properties":{"kind":"pylon","name":"Lift tower","height":13},"geometry":{"type":"Polygon","coordinates":[[[-4.971562884420401,56.824108],[-4.9715734624287595,56.82412197444232],[-4.971599,56.824127762845855],[-4.971624537571241,56.82412197444232],[-4.971635115579599,56.824108],[-4.971624537571241,56.824094025557685],[-4.971599,56.82408823715415],[-4.9715734624287595,56.824094025557685],[-4.971562884420401,56.824108]]]}},{"type":"Feature","id":"pylon-nevis-range-49","properties":{"kind":"pylon","name":"Lift tower","height":13},"geometry":{"type":"Polygon","coordinates":[[[-4.971003285312396,56.8231828],[-4.971013863059495,56.823196774442316],[-4.9710394,56.82320256284585],[-4.971064936940506,56.823196774442316],[-4.9710755146876044,56.8231828],[-4.971064936940506,56.82316882555768],[-4.9710394,56.823163037154146],[-4.971013863059495,56.82316882555768],[-4.971003285312396,56.8231828]]]}},{"type":"Feature","id":"marker-nevis-range-summit","properties":{"kind":"marker","markerType":"summit","name":"Upper mountain · 1190 m","height":26},"geometry":{"type":"Polygon","coordinates":[[[-4.961885087123498,56.824],[-4.9619070335300375,56.824036960984245],[-4.961964489968288,56.824059804128765],[-4.962035510031711,56.824059804128765],[-4.962092966469962,56.824036960984245],[-4.962114912876501,56.824],[-4.962092966469962,56.82396303901575],[-4.962035510031711,56.82394019587123],[-4.961964489968288,56.82394019587123],[-4.9619070335300375,56.82396303901575],[-4.961885087123498,56.824]]]}},{"type":"Feature","id":"marker-nevis-range-base","properties":{"kind":"marker","markerType":"base","name":"Base · 91 m","height":18},"geometry":{"type":"Polygon","coordinates":[[[-4.957885099392684,56.82],[-4.957907043456018,56.82003696098425],[-4.957964493759675,56.82005980412877],[-4.958035506240325,56.82005980412877],[-4.958092956543982,56.82003696098425],[-4.958114900607316,56.82],[-4.958092956543982,56.819963039015754],[-4.958035506240325,56.81994019587123],[-4.957964493759675,56.81994019587123],[-4.957907043456018,56.819963039015754],[-4.957885099392684,56.82]]]}},{"type":"Feature","id":"marker-nevis-range-peak","properties":{"kind":"marker","markerType":"peak","name":"Peak · 1221 m","height":22},"geometry":{"type":"Polygon","coordinates":[[[-4.953885080987713,56.826],[-4.953907028566083,56.82603696098425],[-4.953964488072227,56.82605980412877],[-4.954035511927774,56.82605980412877],[-4.954092971433918,56.82603696098425],[-4.954114919012288,56.826],[-4.954092971433918,56.825963039015754],[-4.954035511927774,56.82594019587123],[-4.953964488072227,56.82594019587123],[-4.953907028566083,56.825963039015754],[-4.953885080987713,56.826]]]}},{"type":"Feature","id":"marker-nevis-range-featured-run","properties":{"kind":"marker","markerType":"featured-run","name":"Powder · Coire Dubh","height":20},"geometry":{"type":"Polygon","coordinates":[[[-4.954885108592488,56.817],[-4.954907050898815,56.81703696098425],[-4.954964496602571,56.81705980412877],[-4.955035503397429,56.81705980412877],[-4.955092949101185,56.81703696098425],[-4.955114891407512,56.817],[-4.955092949101185,56.816963039015754],[-4.955035503397429,56.81694019587123],[-4.954964496602571,56.81694019587123],[-4.954907050898815,56.816963039015754],[-4.954885108592488,56.817]]]}}]}