{"type":"FeatureCollection","features":[{"type":"Feature","id":44976166,"properties":{"kind":"lift","name":"Pic du Midi 1","subtype":"cable_car","status":"active"},"geometry":{"type":"LineString","coordinates":[[0.1790585,42.9095376],[0.1786815,42.9098048],[0.1783094,42.9100815],[0.1722966,42.9143773],[0.1699335,42.9160837],[0.1641258,42.9202339]]}},{"type":"Feature","id":44976167,"properties":{"kind":"lift","name":"Turon 1","subtype":"platter","status":"active"},"geometry":{"type":"LineString","coordinates":[[0.177301,42.9098309],[0.1766768,42.909689],[0.1759068,42.909514],[0.17513,42.9093374],[0.1746187,42.9091701],[0.174252,42.9090501],[0.17376,42.9088891]]}},{"type":"Feature","id":44976169,"properties":{"kind":"lift","name":"Cortail","subtype":"platter","status":"active"},"geometry":{"type":"LineString","coordinates":[[0.1775071,42.9093343],[0.17664,42.9091841],[0.1756604,42.9090145],[0.1745602,42.9088239],[0.173739,42.9086817],[0.1734293,42.9086281]]}},{"type":"Feature","id":44976170,"properties":{"kind":"lift","name":"Chapelle","subtype":"chair_lift","status":"active"},"geometry":{"type":"LineString","coordinates":[[0.1768454,42.9101675],[0.1766791,42.9101145],[0.1757652,42.9098227],[0.1748552,42.9095321],[0.1744397,42.9093994],[0.1740414,42.9092723],[0.1735708,42.909122],[0.1723921,42.9087456],[0.1709474,42.9082844],[0.1700741,42.9080055],[0.1685516,42.9075194],[0.166901,42.9069923],[0.1661037,42.9067378],[0.1656288,42.9065861],[0.1648955,42.906352],[0.1637773,42.9059949],[0.1631273,42.9057874]]}},{"type":"Feature","id":44976200,"properties":{"kind":"lift","name":"Tremplin","subtype":"magic_carpet","status":"active"},"geometry":{"type":"LineString","coordinates":[[0.1780823,42.909069],[0.1772503,42.9087146]]}},{"type":"Feature","id":59187805,"properties":{"kind":"lift","name":"Espade","subtype":"chair_lift","status":"active"},"geometry":{"type":"LineString","coordinates":[[0.1628365,42.9061598],[0.1625995,42.9061642],[0.1623966,42.9061679],[0.161504,42.9061843],[0.1599525,42.9062129],[0.1584947,42.9062397],[0.1569549,42.9062681],[0.1559781,42.9062861],[0.1549309,42.9063053],[0.1529776,42.9063413],[0.1514498,42.9063694],[0.1499678,42.9063967],[0.1485579,42.9064227],[0.147465,42.9064428],[0.1470816,42.9064498],[0.1468148,42.9064548]]}},{"type":"Feature","id":70806001,"properties":{"kind":"lift","name":"Pic du Midi 2","subtype":"cable_car","status":"active"},"geometry":{"type":"LineString","coordinates":[[0.1640922,42.9204341],[0.1429184,42.9355307],[0.1414313,42.9365239]]}},{"type":"Feature","id":108656733,"properties":{"kind":"lift","name":"Tournaboup","subtype":"chair_lift","status":"active"},"geometry":{"type":"LineString","coordinates":[[0.1029658,42.9032195],[0.102296,42.902803],[0.1012164,42.9021317],[0.1006903,42.9018046],[0.0999015,42.9013141],[0.0991888,42.9008709],[0.09854,42.9004675],[0.0974483,42.8997886],[0.0960585,42.8989245],[0.0950992,42.898328],[0.0941685,42.8977492],[0.0937311,42.8974772],[0.0935121,42.897341]]}},{"type":"Feature","id":108656734,"properties":{"kind":"lift","name":"Piquette","subtype":"chair_lift","status":"active"},"geometry":{"type":"LineString","coordinates":[[0.0809142,42.8949506],[0.0811077,42.8949366],[0.0819244,42.8948776],[0.0827127,42.8948207],[0.0842313,42.8947111],[0.0857802,42.8945992],[0.087466,42.8944775],[0.088969,42.894369],[0.0903018,42.8942728],[0.0915167,42.894185],[0.0927583,42.8940954],[0.0942443,42.8939881],[0.0944629,42.8939723]]}},{"type":"Feature","id":108656736,"properties":{"kind":"lift","name":"Sud","subtype":"chair_lift","status":"active"},"geometry":{"type":"LineString","coordinates":[[0.1714826,42.909107],[0.1710513,42.9093536],[0.169796,42.9100712],[0.1694134,42.9102899],[0.168254,42.9109527],[0.1679453,42.9111292],[0.1667722,42.9117998],[0.1656532,42.9124395],[0.1648119,42.9129205],[0.163638,42.9135915],[0.1623115,42.9143498],[0.1619254,42.9145705],[0.1616078,42.914752],[0.1612291,42.9149685],[0.1610398,42.9150767]]}},{"type":"Feature","id":108656737,"properties":{"kind":"lift","name":"Campana","subtype":"platter","status":"active"},"geometry":{"type":"LineString","coordinates":[[0.1226141,42.9063599],[0.1224553,42.9059884],[0.1222347,42.9054724],[0.1219924,42.9049056],[0.1216301,42.9040581],[0.1213922,42.9035017],[0.1211499,42.9029349],[0.120864,42.9022662],[0.1206818,42.9018399],[0.1203726,42.9011166],[0.1200249,42.9003032],[0.1195843,42.8992725],[0.1195244,42.8991323]]}},{"type":"Feature","id":108656738,"properties":{"kind":"lift","name":"Béarnais","subtype":"chair_lift","status":"active"},"geometry":{"type":"LineString","coordinates":[[0.1637945,42.9070666],[0.1628574,42.907317],[0.1621171,42.9075147],[0.1610949,42.9077879],[0.1602552,42.9080122],[0.1589583,42.9083587],[0.1573751,42.9087817],[0.1565567,42.9090004],[0.1548892,42.9094459],[0.1533336,42.9098615],[0.1520171,42.9102132],[0.1504766,42.9106248],[0.1493951,42.9109138],[0.1483057,42.9112048],[0.1476231,42.9113872]]}},{"type":"Feature","id":108656740,"properties":{"kind":"lift","name":"Caoubère","subtype":"chair_lift","status":"active"},"geometry":{"type":"LineString","coordinates":[[0.1036513,42.9035694],[0.1044681,42.9033238],[0.1056619,42.9029648],[0.1069985,42.9025629],[0.1086857,42.9020555],[0.1102253,42.9015926],[0.1117755,42.9011264],[0.112854,42.9008021],[0.1146946,42.9002486],[0.1161534,42.8998099],[0.1177271,42.8993367],[0.1187416,42.8990316],[0.1191127,42.89892]]}},{"type":"Feature","id":108656741,"properties":{"kind":"lift","name":"Tourmalet","subtype":"chair_lift","status":"active"},"geometry":{"type":"LineString","coordinates":[[0.132192,42.906044],[0.1323901,42.9060371],[0.1328436,42.9060214],[0.13475,42.905955],[0.136949,42.9058785],[0.1380368,42.9058406],[0.1393927,42.9057934],[0.1399799,42.905773],[0.1414057,42.9057234],[0.1435298,42.9056495],[0.1441782,42.9056269],[0.1461793,42.9055573],[0.1470618,42.9055265],[0.1471542,42.9055233],[0.1473526,42.9055164]]}},{"type":"Feature","id":108656756,"properties":{"kind":"lift","name":"Quatre Termes","subtype":"chair_lift","status":"active"},"geometry":{"type":"LineString","coordinates":[[0.1641612,42.892705],[0.1645667,42.8921488],[0.1650186,42.8915621],[0.1656761,42.890712],[0.1662212,42.8899971],[0.1672689,42.8886652],[0.1680646,42.8876508],[0.1689177,42.8865478],[0.169682,42.8855648],[0.1704399,42.884501]]}},{"type":"Feature","id":108656763,"properties":{"kind":"lift","name":"Pourteilh","subtype":"chair_lift","status":"active"},"geometry":{"type":"LineString","coordinates":[[0.1654675,42.9072917],[0.1653923,42.9066378],[0.1652813,42.9056718],[0.1651777,42.9047709],[0.1650275,42.9034643],[0.1649049,42.902398],[0.1648188,42.9016487],[0.1647731,42.9012507],[0.164661,42.9002759],[0.1645806,42.8995766],[0.1645516,42.899324],[0.1644462,42.8984066],[0.1643239,42.8973433],[0.1642228,42.8964629],[0.1642072,42.8963275],[0.1641248,42.8956105],[0.1640808,42.8952279]]}},{"type":"Feature","id":118632549,"properties":{"kind":"lift","name":"Panoramic","subtype":"chair_lift","status":"active"},"geometry":{"type":"LineString","coordinates":[[0.1474302,42.9084107],[0.1474335,42.9087544],[0.1474443,42.9098815],[0.1474508,42.9105533],[0.1474553,42.9110229],[0.1472851,42.9114297],[0.1474738,42.9129574],[0.1474827,42.9138836],[0.1474893,42.914571],[0.1474978,42.9154501],[0.1475084,42.916554],[0.1475097,42.916692],[0.1475114,42.9168672]]}},{"type":"Feature","id":118632550,"properties":{"kind":"lift","name":"Toue","subtype":"platter","status":"active"},"geometry":{"type":"LineString","coordinates":[[0.1315791,42.9064615],[0.1315161,42.9066451],[0.1312946,42.9073425],[0.1309679,42.9083708],[0.1306537,42.90936],[0.130431,42.9100612],[0.1301206,42.9110382],[0.1300579,42.9112355],[0.1299257,42.9116518]]}},{"type":"Feature","id":146647692,"properties":{"kind":"run","name":"Tournaboup","subtype":"novice","pisteType":"downhill","featured":false},"geometry":{"type":"LineString","coordinates":[[0.0985944,42.900849],[0.0986505,42.9008548],[0.0987056,42.90086],[0.0989896,42.9008337],[0.0997983,42.9006903],[0.1002945,42.9005705],[0.1006432,42.9004634],[0.1009141,42.9003268],[0.101145,42.900138],[0.1013164,42.9000144],[0.1015561,42.8999317],[0.1017094,42.8998592],[0.1018448,42.899758],[0.1020151,42.8996195],[0.1021694,42.8994515],[0.1024939,42.8991685],[0.1028077,42.8989789],[0.1029807,42.8988208],[0.1033267,42.898583],[0.1037478,42.8983315],[0.1043876,42.8978626]]}},{"type":"Feature","id":146647693,"properties":{"kind":"lift","name":"Étoile 2","subtype":"drag_lift","status":"active"},"geometry":{"type":"LineString","coordinates":[[0.0785827,42.8943607],[0.0784794,42.8935631],[0.07839,42.8928718],[0.0782845,42.8920575],[0.0781712,42.8911819],[0.0780415,42.8901798],[0.0776021,42.8896129],[0.0756732,42.887124],[0.0753242,42.8866737],[0.0752242,42.8865447]]}},{"type":"Feature","id":146648547,"properties":{"kind":"lift","name":"Adour","subtype":"chair_lift","status":"active"},"geometry":{"type":"LineString","coordinates":[[0.1658961,42.9074406],[0.1661251,42.9075923],[0.1666623,42.9079482],[0.16716,42.9082779],[0.1675824,42.9085578],[0.167756,42.9086728]]}},{"type":"Feature","id":146649240,"properties":{"kind":"lift","name":"Baby 1","subtype":"drag_lift","status":"active"},"geometry":{"type":"LineString","coordinates":[[0.1706129,42.9086481],[0.1695644,42.9090244],[0.1689784,42.9092348],[0.1687515,42.9093162]]}},{"type":"Feature","id":146649243,"properties":{"kind":"lift","name":"Baby 2","subtype":"drag_lift","status":"active"},"geometry":{"type":"LineString","coordinates":[[0.1706374,42.9086876],[0.1697631,42.9090013],[0.1690036,42.9092738],[0.168776,42.9093555]]}},{"type":"Feature","id":147878727,"properties":{"kind":"run","name":"Tournaboup","subtype":"easy","pisteType":"downhill","featured":false},"geometry":{"type":"LineString","coordinates":[[0.0912074,42.8952392],[0.0912364,42.8956089],[0.091434,42.8955837],[0.0916549,42.8956532],[0.0918796,42.8959542],[0.0921433,42.8961688],[0.0925348,42.8963756],[0.0929887,42.8965379],[0.0934494,42.896591],[0.0936942,42.8967231],[0.0939938,42.8968012],[0.0943221,42.8970831],[0.0947445,42.8972802],[0.0949248,42.8974192],[0.0953519,42.8975937],[0.0959662,42.8977438],[0.0965615,42.8977752],[0.0975037,42.8982814],[0.0983405,42.8987726],[0.098826,42.8989377],[0.0993624,42.8989436],[0.0999351,42.8988894],[0.1002753,42.8987974],[0.1004247,42.8987278],[0.1005422,42.8986281],[0.1006547,42.8985665],[0.1007364,42.8984931],[0.1007512,42.8984619]]}},{"type":"Feature","id":148733250,"properties":{"kind":"run","name":"Caoubère","subtype":"intermediate","pisteType":"downhill","featured":false},"geometry":{"type":"LineString","coordinates":[[0.1195244,42.8991323],[0.1195177,42.8991176],[0.119349,42.8991486],[0.1192112,42.8992313],[0.1190633,42.8992616],[0.1188245,42.8993142],[0.1186348,42.8993445],[0.1185577,42.8994623],[0.1184972,42.8997469],[0.1186427,42.9001304],[0.1186312,42.9005749],[0.1187208,42.901025],[0.1187809,42.9015665],[0.118824,42.902211],[0.1190186,42.9027059],[0.1192262,42.9030226],[0.1193485,42.9032424],[0.1192399,42.903821],[0.1191584,42.9041897],[0.1193144,42.9045911],[0.1198287,42.9049226],[0.1203561,42.9052524],[0.1209869,42.9056777],[0.1215517,42.9059927],[0.1221643,42.9061573],[0.1223375,42.906302],[0.1226141,42.9063599]]}},{"type":"Feature","id":148733253,"properties":{"kind":"run","name":"Bastan","subtype":"easy","pisteType":"downhill","featured":false},"geometry":{"type":"LineString","coordinates":[[0.1318857,42.9060043],[0.1311416,42.9061334],[0.1302266,42.9064175],[0.129839,42.9065884],[0.1294461,42.906667],[0.1285891,42.9065835],[0.1268533,42.9067777],[0.1264581,42.9068143],[0.1260171,42.9068123],[0.124855,42.9065046],[0.1239248,42.9063733],[0.1233239,42.9063379],[0.1226141,42.9063599],[0.1217186,42.9066552],[0.1197901,42.9069381],[0.1186421,42.9070462],[0.1174459,42.9071385],[0.1163757,42.9070815],[0.115099,42.9072328],[0.1142782,42.9071424],[0.1137552,42.9070344],[0.1130605,42.9067849],[0.1128164,42.9067495],[0.1122048,42.9067279],[0.111706,42.9066434],[0.111089,42.9066414],[0.1106921,42.9065648],[0.1102817,42.9063782],[0.1098016,42.906166],[0.1091284,42.9059204],[0.1086026,42.9058222],[0.1075807,42.9054705],[0.1067975,42.9052406],[0.1062342,42.9048516],[0.1058185,42.9044017],[0.1055959,42.9040553],[0.1054641,42.903414],[0.1053008,42.9029793],[0.1048556,42.9023977],[0.1044796,42.9020481],[0.1043759,42.9020178],[0.1041622,42.9020206],[0.1039297,42.9021057],[0.1036936,42.9023282],[0.1035998,42.9025424],[0.1035211,42.9029076],[0.1034536,42.9031191],[0.1032624,42.9033964]]}},{"type":"Feature","id":148733254,"properties":{"kind":"run","name":"Iris","subtype":"intermediate","pisteType":"downhill","featured":false},"geometry":{"type":"LineString","coordinates":[[0.1230707,42.9003784],[0.1231104,42.9010249],[0.1231782,42.9015916],[0.1232891,42.9021011],[0.1234099,42.9026823],[0.1235411,42.903182],[0.1238146,42.9037805],[0.1239564,42.9040993],[0.1241775,42.9046189],[0.1242974,42.9050434],[0.1243613,42.9054056],[0.1241831,42.9058054],[0.1239036,42.9060425],[0.1233239,42.9063379]]}},{"type":"Feature","id":172805640,"properties":{"kind":"run","name":"Mapped ski run","subtype":"novice","pisteType":"downhill","featured":false},"geometry":{"type":"LineString","coordinates":[[0.1657618,42.9083819],[0.1661815,42.90843],[0.1669969,42.908624],[0.1675713,42.9086975],[0.1676801,42.9087295],[0.1679734,42.9088156],[0.1681833,42.9089914],[0.1685922,42.9093602]]}},{"type":"Feature","id":172805644,"properties":{"kind":"run","name":"Mapped ski run","subtype":"novice","pisteType":"downhill","featured":false},"geometry":{"type":"LineString","coordinates":[[0.1685922,42.9093602],[0.168605,42.909326],[0.1684843,42.9091463],[0.1682377,42.9087306],[0.1680488,42.9085907],[0.1676488,42.9084508],[0.1671191,42.9083133],[0.166757,42.9081905],[0.1665692,42.90811],[0.1661481,42.9079037],[0.1658812,42.9077819],[0.1655097,42.9075982],[0.1652879,42.9074572],[0.1652271,42.9073017],[0.165244,42.9071794],[0.1652152,42.9070506]]}},{"type":"Feature","id":172805675,"properties":{"kind":"run","name":"Mapped ski run","subtype":"novice","pisteType":"downhill","featured":false},"geometry":{"type":"LineString","coordinates":[[0.1676801,42.9087295],[0.167567,42.9086198],[0.1674476,42.9085628],[0.1668937,42.9083231],[0.1667167,42.9082455],[0.1664338,42.9081286],[0.1662514,42.9080206],[0.1661481,42.9079037]]}},{"type":"Feature","id":172805677,"properties":{"kind":"run","name":"Mapped ski run","subtype":"novice","pisteType":"downhill","featured":false},"geometry":{"type":"LineString","coordinates":[[0.1665692,42.90811],[0.1667114,42.9080726],[0.1670721,42.9080923],[0.1677145,42.9081227],[0.1685822,42.9081728],[0.1688585,42.9081178]]}},{"type":"Feature","id":180717426,"properties":{"kind":"run","name":"Panoramic","subtype":"intermediate","pisteType":"downhill","featured":false},"geometry":{"type":"LineString","coordinates":[[0.1460106,42.9145519],[0.1464444,42.9133067],[0.1468823,42.9121494],[0.1468922,42.9112151],[0.1469099,42.9095353],[0.1470927,42.9087214],[0.1471351,42.9085328],[0.1472069,42.9083665],[0.1472684,42.9083025],[0.1473306,42.908265],[0.147415,42.9082611]]}},{"type":"Feature","id":180717501,"properties":{"kind":"lift","name":"Castillon","subtype":"chair_lift","status":"active"},"geometry":{"type":"LineString","coordinates":[[0.1006362,42.8983911],[0.1004939,42.8982818],[0.099957,42.8978725],[0.0992061,42.8973],[0.0980784,42.8964402],[0.097233,42.8957956],[0.0962248,42.8950269],[0.095329,42.8943439],[0.0952585,42.8942902],[0.0951472,42.8942053],[0.0950139,42.8941037]]}},{"type":"Feature","id":180717503,"properties":{"kind":"run","name":"Néouvielle","subtype":"intermediate","pisteType":"downhill","featured":false},"geometry":{"type":"LineString","coordinates":[[0.0948066,42.8940093],[0.095231,42.8940549],[0.0959085,42.8943765],[0.0966326,42.8948589],[0.0977756,42.8956792],[0.0987495,42.8962476],[0.0992181,42.8964954],[0.0994098,42.8965172],[0.0999001,42.8967095],[0.1004496,42.8969572],[0.1007748,42.8974691],[0.1008995,42.8977735],[0.1008772,42.8982254],[0.1008437,42.8983875],[0.1008134,42.898432],[0.1007512,42.8984619]]}},{"type":"Feature","id":180717504,"properties":{"kind":"run","name":"Castillon","subtype":"intermediate","pisteType":"downhill","featured":false},"geometry":{"type":"LineString","coordinates":[[0.0948066,42.8940093],[0.0948345,42.894307],[0.094834,42.8945673],[0.0955561,42.8953201],[0.0961545,42.8958741],[0.0964836,42.8961616],[0.0969575,42.8965295],[0.0972773,42.8968209],[0.0978446,42.8972192],[0.0985819,42.8973893],[0.0993144,42.8975107],[0.0997974,42.8978541],[0.1004717,42.8983759],[0.1005249,42.8984732],[0.1006152,42.8984786],[0.1007116,42.8984686],[0.1007512,42.8984619]]}},{"type":"Feature","id":186395132,"properties":{"kind":"lift","name":"Carrières","subtype":"platter","status":"active"},"geometry":{"type":"LineString","coordinates":[[0.1807118,42.908995],[0.1807157,42.9088658],[0.1807332,42.9082822],[0.1807484,42.907773],[0.1807667,42.9071643],[0.1807827,42.9066309],[0.1808117,42.9056635]]}},{"type":"Feature","id":202007529,"properties":{"kind":"run","name":"Mapped ski run","subtype":"easy","pisteType":"downhill","featured":false},"geometry":{"type":"LineString","coordinates":[[0.0813799,42.8943437],[0.0810947,42.8944125],[0.0808766,42.8944478],[0.0804032,42.894495],[0.0799741,42.8944714],[0.0797173,42.8944802],[0.0794524,42.8945007],[0.0792941,42.8945053],[0.0791347,42.8944894],[0.0789682,42.8944648]]}},{"type":"Feature","id":202007533,"properties":{"kind":"run","name":"Tournaboup","subtype":"novice","pisteType":"downhill","featured":false},"geometry":{"type":"LineString","coordinates":[[0.1036137,42.9019458],[0.1035438,42.9021999],[0.1035118,42.9024213],[0.103493,42.9025991],[0.103438,42.9029135]]}},{"type":"Feature","id":202007534,"properties":{"kind":"run","name":"Tournaboup","subtype":"novice","pisteType":"downhill","featured":false},"geometry":{"type":"LineString","coordinates":[[0.1043394,42.8992967],[0.1042856,42.8994839],[0.1042441,42.8997266],[0.1041958,42.9000793],[0.1041247,42.9003465],[0.1040375,42.9006088],[0.1038873,42.90132],[0.1038189,42.9015065],[0.1037406,42.901607],[0.1036981,42.9017098],[0.1036492,42.9018341],[0.1036137,42.9019458]]}},{"type":"Feature","id":202007535,"properties":{"kind":"run","name":"Piquette","subtype":"easy","pisteType":"downhill","featured":false},"geometry":{"type":"LineString","coordinates":[[0.0825203,42.8938698],[0.0824481,42.8938637],[0.0823875,42.893868]]}},{"type":"Feature","id":202030285,"properties":{"kind":"run","name":"Tournaboup","subtype":"novice","pisteType":"downhill","featured":false},"geometry":{"type":"LineString","coordinates":[[0.1047255,42.8981822],[0.1046021,42.8983404],[0.1045378,42.8984553],[0.1044841,42.898639],[0.1044425,42.8988876],[0.1043647,42.8991732]]}},{"type":"Feature","id":202030286,"properties":{"kind":"run","name":"Tournaboup","subtype":"novice","pisteType":"downhill","featured":false},"geometry":{"type":"LineString","coordinates":[[0.1043647,42.8991732],[0.1043394,42.8992967]]}},{"type":"Feature","id":202347094,"properties":{"kind":"run","name":"4 termes","subtype":"easy","pisteType":"downhill","featured":false},"geometry":{"type":"LineString","coordinates":[[0.1704758,42.8844451],[0.1706931,42.8845158],[0.1708647,42.8846574],[0.1709519,42.8848028],[0.1708647,42.8849659],[0.1704841,42.8851171],[0.1700876,42.885158],[0.1696658,42.8852902],[0.1693457,42.885454],[0.1690489,42.8856832],[0.1688102,42.8859761],[0.1686868,42.8863337],[0.1688919,42.8867944],[0.1689067,42.8869882],[0.168843,42.8871169],[0.1686479,42.8872102],[0.1684427,42.8872731],[0.1680433,42.8875264],[0.1678097,42.8877035],[0.1675358,42.8879374],[0.1672599,42.8883284],[0.1669962,42.8885835],[0.1668314,42.8887416],[0.1667284,42.8888246],[0.1666805,42.8890281],[0.1666508,42.8893663],[0.1665303,42.8898338],[0.1665142,42.8900224],[0.1665679,42.8902543],[0.1666939,42.8905294],[0.1667181,42.8906689],[0.1666135,42.8907888],[0.1661414,42.8910698],[0.1647829,42.8917383],[0.1635906,42.8926517],[0.163101,42.8933095]]}},{"type":"Feature","id":203289494,"properties":{"kind":"run","name":"Coume l'Ayse","subtype":"advanced","pisteType":"downhill","featured":false},"geometry":{"type":"LineString","coordinates":[[0.1475114,42.9168672],[0.1475136,42.9168945],[0.1474235,42.9171948],[0.1473223,42.9173297],[0.1471974,42.9174263],[0.1469979,42.917439],[0.146718,42.9174061],[0.1464447,42.9173601],[0.1459361,42.9172998],[0.1454127,42.9172716],[0.1451326,42.9172041],[0.1448265,42.9171006],[0.1444578,42.9169042],[0.1442052,42.9167136],[0.144005,42.916601],[0.143866,42.9164467],[0.1437693,42.9162822],[0.1438111,42.9161122],[0.143903,42.9159467],[0.1439695,42.9157233],[0.1438306,42.9155404],[0.1434289,42.9152829],[0.1429051,42.9150552],[0.1424826,42.9148945],[0.1420278,42.9147347],[0.1414727,42.9145786],[0.1411863,42.9145387],[0.1404215,42.9144702],[0.1400795,42.9143064],[0.1393121,42.9139763],[0.1387925,42.9139079],[0.1380818,42.9138616],[0.1374413,42.9137794],[0.1367104,42.9136705],[0.136139,42.9135324],[0.1353627,42.9132498],[0.1346503,42.9128734],[0.1344924,42.9127324],[0.1342913,42.9125638],[0.1340826,42.9121145],[0.1339608,42.9118645]]}},{"type":"Feature","id":203289499,"properties":{"kind":"run","name":"Tourmalet","subtype":"easy","pisteType":"downhill","featured":false},"geometry":{"type":"LineString","coordinates":[[0.1472797,42.9060858],[0.1469211,42.9056727],[0.1468674,42.9053544],[0.1466676,42.9050067],[0.1465957,42.9047968],[0.1464455,42.904359],[0.1462531,42.9041504],[0.145364,42.9033267],[0.1449114,42.9032915],[0.1436986,42.9037723],[0.143421,42.9037898],[0.1431963,42.9038167],[0.1428311,42.9037615],[0.1423311,42.9037956],[0.1419968,42.9039029],[0.1417597,42.9040783],[0.1408163,42.9041671],[0.1396733,42.9044155],[0.1390243,42.9044312],[0.1379272,42.9043055],[0.1370783,42.9040785],[0.1366486,42.9042275],[0.1364422,42.9045933],[0.1362693,42.9049326],[0.1358447,42.9052994],[0.135566,42.9056611],[0.1353585,42.9058632],[0.1350988,42.9060904],[0.1346681,42.9062277],[0.1342683,42.9062905],[0.1338732,42.9062077],[0.1336476,42.9060995],[0.1332909,42.9060608],[0.132547,42.9058217],[0.1323153,42.9058002],[0.1321503,42.9057833],[0.1319936,42.9058778],[0.1318857,42.9060043]]}},{"type":"Feature","id":203289502,"properties":{"kind":"run","name":"Toue","subtype":"easy","pisteType":"downhill","featured":false},"geometry":{"type":"LineString","coordinates":[[0.1299257,42.9116518],[0.1300657,42.9117944],[0.1318359,42.911985],[0.1327707,42.9120203],[0.1339608,42.9118645],[0.134026,42.9117905],[0.1341198,42.911654],[0.1340801,42.9115375],[0.1340123,42.9114375],[0.133861,42.9113249],[0.1336585,42.911154],[0.1330617,42.9099419],[0.1322463,42.9069695],[0.1320034,42.9065132],[0.1319048,42.9064176],[0.1317768,42.9063559],[0.1316379,42.9063817],[0.1315914,42.9064193]]}},{"type":"Feature","id":205818106,"properties":{"kind":"run","name":"Prés","subtype":"easy","pisteType":"downhill","featured":false},"geometry":{"type":"LineString","coordinates":[[0.0806631,42.8949715],[0.0801073,42.8948952],[0.0795809,42.8949526],[0.0777934,42.8955027],[0.076009,42.896169],[0.0755575,42.8961686],[0.0749071,42.8962245],[0.0744664,42.8963301],[0.0740131,42.8963906],[0.0732882,42.8964682],[0.0720696,42.8965284],[0.0706962,42.8966541]]}},{"type":"Feature","id":205818107,"properties":{"kind":"run","name":"Ricao","subtype":"advanced","pisteType":"downhill","featured":false},"geometry":{"type":"LineString","coordinates":[[0.0751554,42.8865706],[0.0750407,42.8865806],[0.0749912,42.8866621],[0.0749033,42.8867457],[0.07481,42.8868068],[0.0747482,42.8868922],[0.0746853,42.8870105],[0.074641,42.8871322],[0.074662,42.8872522],[0.074725,42.8874235],[0.0748753,42.8875738],[0.0750412,42.8876946],[0.0751294,42.8877712],[0.0751654,42.88789],[0.0752799,42.8881315],[0.0754537,42.8884032],[0.0756719,42.8886747],[0.0761157,42.8890974],[0.0763407,42.8892581],[0.0765887,42.8894086],[0.0768959,42.8895508],[0.077013,42.8896233],[0.0770244,42.8897446],[0.0769128,42.8898581],[0.0763666,42.8902023],[0.0762576,42.890324],[0.0762024,42.8905053],[0.0761878,42.8906754],[0.0761411,42.8908101],[0.0760271,42.8909329],[0.0752672,42.8913998],[0.0752209,42.8915024],[0.0752852,42.8916086],[0.0754576,42.8917007],[0.0757164,42.8917891],[0.0760249,42.8919042],[0.0763397,42.8919812],[0.0766431,42.8921174],[0.0768278,42.8922329],[0.0766667,42.8923429],[0.0762187,42.8925143],[0.0759404,42.89257],[0.0754763,42.8926496],[0.0752214,42.8927241],[0.0750839,42.8927899],[0.0749812,42.8928912],[0.0749511,42.8930343],[0.0749956,42.8931663],[0.0751353,42.8932794],[0.0754883,42.8933789],[0.0759941,42.8934246],[0.0763971,42.8934887],[0.07696,42.8935931],[0.0775166,42.8937508],[0.0778052,42.8938446],[0.078013,42.8939776],[0.0781612,42.8940668],[0.0782402,42.8941385],[0.0782852,42.8941766],[0.0783448,42.8943024],[0.0783795,42.8943295],[0.0784304,42.8943748],[0.0784435,42.8943834],[0.0784582,42.8943924],[0.0784691,42.8943972],[0.0784877,42.8944069],[0.0785161,42.8944133],[0.0785445,42.8944192]]}},{"type":"Feature","id":205818109,"properties":{"kind":"run","name":"Famose","subtype":"intermediate","pisteType":"downhill","featured":false},"geometry":{"type":"LineString","coordinates":[[0.0752242,42.8865447],[0.0754268,42.8866185],[0.0757565,42.8867544],[0.0759454,42.886772],[0.0769522,42.8864917],[0.0770917,42.8866288],[0.0772199,42.8867764],[0.0772999,42.8869977],[0.0775788,42.8879725],[0.0778363,42.8881493],[0.0789883,42.8885592],[0.0790888,42.8886906],[0.0790868,42.8895467],[0.0792501,42.8897835],[0.0792555,42.8899549],[0.0794253,42.8900743],[0.0795877,42.8902497],[0.0796945,42.8903961],[0.0797825,42.8905323],[0.0798053,42.8907051],[0.079807,42.8909333],[0.0797508,42.8911432],[0.0796268,42.8913878],[0.0795045,42.8915056],[0.0795089,42.8917347],[0.0797014,42.8918961],[0.0798677,42.8920492],[0.0799793,42.8922649],[0.0801454,42.8923942],[0.0802608,42.8925552],[0.0802519,42.8928493],[0.0801262,42.8931133],[0.0797169,42.8937409],[0.079409,42.8940428],[0.0791987,42.8941992],[0.0790496,42.8942855],[0.0789189,42.8943318],[0.0787101,42.8944015],[0.0785873,42.8944171]]}},{"type":"Feature","id":221380154,"properties":{"kind":"run","name":"Béarnais","subtype":"easy","pisteType":"downhill","featured":false},"geometry":{"type":"LineString","coordinates":[[0.1476231,42.9113872],[0.1484036,42.9113211],[0.1493381,42.9110591],[0.1499611,42.9109746],[0.1504111,42.9109957],[0.1505957,42.9110084],[0.1508379,42.9109281],[0.1511437,42.9106366],[0.1517032,42.910155],[0.1522599,42.9099268],[0.1529291,42.9095634],[0.1532752,42.9092804],[0.1538203,42.9091304],[0.1541895,42.9091409],[0.1545587,42.9092571],[0.1548708,42.9093107],[0.1550716,42.9092652],[0.155635,42.9090741],[0.1563132,42.9089331],[0.1564068,42.9089098],[0.1571413,42.9087272],[0.1578379,42.9084818],[0.1586476,42.9082622]]}},{"type":"Feature","id":221380155,"properties":{"kind":"run","name":"Espade","subtype":"easy","pisteType":"downhill","featured":false},"geometry":{"type":"LineString","coordinates":[[0.1466495,42.9064579],[0.1466229,42.9064509],[0.1466108,42.9064375],[0.1466133,42.9064214],[0.1466313,42.9064029],[0.1472797,42.9060858],[0.1485321,42.9060536],[0.148899,42.9060373],[0.1493952,42.9059728],[0.1500341,42.9059314],[0.1507137,42.9059529],[0.1511329,42.9060418],[0.1516528,42.9059945],[0.1523188,42.9059376],[0.1526091,42.9059181],[0.1528846,42.9059203],[0.1531492,42.9058557],[0.153464,42.9057347],[0.1540822,42.9055999],[0.1547436,42.9055102],[0.1550134,42.9054282],[0.1553657,42.9053212],[0.1562272,42.9051317],[0.1566059,42.9050273],[0.1570046,42.9049798],[0.1576805,42.9050227],[0.1581765,42.9050583],[0.1588705,42.9051789],[0.1594638,42.9053576],[0.1606783,42.9056726],[0.1614699,42.9059061],[0.1619445,42.9059835],[0.1623099,42.906016],[0.1625665,42.9060056],[0.162885,42.9060134],[0.163062,42.9060704],[0.1630868,42.9061714]]}},{"type":"Feature","id":221380159,"properties":{"kind":"run","name":"Sapin","subtype":"intermediate","pisteType":"downhill","featured":false},"geometry":{"type":"LineString","coordinates":[[0.1770568,42.9051834],[0.1773417,42.9056743],[0.1775504,42.9060066],[0.1777126,42.9062427],[0.1778886,42.9065039],[0.1780041,42.9067326],[0.1781635,42.9069817],[0.1782339,42.9071037],[0.1783556,42.9073125],[0.1784725,42.9075183],[0.179149,42.9082519],[0.1794354,42.9084771],[0.1798449,42.9088187]]}},{"type":"Feature","id":221380160,"properties":{"kind":"run","name":"Coupe du Monde","subtype":"advanced","pisteType":"downhill","featured":false},"geometry":{"type":"LineString","coordinates":[[0.173378,42.9012424],[0.1733951,42.9012193],[0.1734032,42.9012192],[0.1749387,42.9021429],[0.1749945,42.9023756],[0.1745637,42.9028076]]}},{"type":"Feature","id":221380161,"properties":{"kind":"run","name":"Prade Verde","subtype":"advanced","pisteType":"downhill","featured":false},"geometry":{"type":"LineString","coordinates":[[0.173378,42.9012424],[0.1733951,42.9012193],[0.1733919,42.9012145],[0.1733064,42.9011759],[0.1728657,42.9011787],[0.1723098,42.9010301],[0.1692879,42.9001676],[0.1689876,42.9001634],[0.168896,42.9003702],[0.1688369,42.9018656],[0.1688439,42.9037064],[0.169321,42.9061947],[0.168117,42.907643],[0.1681016,42.9076798],[0.168105,42.9077176],[0.1681172,42.9077397],[0.1681407,42.9077576],[0.1681748,42.9077675],[0.1682043,42.9077718],[0.1682244,42.9077644],[0.1682448,42.9077479],[0.1682755,42.9077075]]}},{"type":"Feature","id":221380162,"properties":{"kind":"run","name":"Gentianes","subtype":"intermediate","pisteType":"downhill","featured":false},"geometry":{"type":"LineString","coordinates":[[0.1610398,42.9150767],[0.1609133,42.9151397],[0.1608665,42.9151369],[0.1608443,42.9151302],[0.1608265,42.9151156],[0.1608189,42.9151002],[0.1608179,42.9150817],[0.1608256,42.9150615],[0.1608494,42.91502],[0.1609138,42.9149198],[0.1609336,42.914902],[0.1609627,42.9148903],[0.1615629,42.9147116],[0.1629817,42.9143305],[0.1636523,42.9140182],[0.1643765,42.9138689],[0.1647466,42.9137255],[0.1650926,42.9135064],[0.1661126,42.9128372],[0.1665033,42.9126473],[0.1667159,42.9123833],[0.1670887,42.9121238],[0.1673845,42.9119455],[0.1677819,42.9116905],[0.1679818,42.9115986]]}},{"type":"Feature","id":221380164,"properties":{"kind":"run","name":"Sapin","subtype":"easy","pisteType":"downhill","featured":false},"geometry":{"type":"LineString","coordinates":[[0.174577,42.9029231],[0.1745637,42.9028076],[0.1753467,42.9029979],[0.1765202,42.903217],[0.1772873,42.9032534],[0.1781148,42.9032013],[0.1788014,42.9030903],[0.1791903,42.9031011],[0.1796839,42.9033211],[0.1796651,42.9035549],[0.1795082,42.9036656],[0.1789139,42.9039863],[0.1787586,42.9040044],[0.1783644,42.9042529],[0.1776776,42.9046945],[0.1771618,42.9050493],[0.1770568,42.9051834],[0.1770297,42.9052181],[0.1764729,42.9055152],[0.1759396,42.9057337],[0.1752611,42.9059093],[0.1747158,42.9060118],[0.174245,42.9061344],[0.1738705,42.9063098],[0.1735515,42.9064279],[0.1733215,42.9064513],[0.1731208,42.9064718],[0.172699,42.9064681],[0.1722775,42.9064417],[0.1714412,42.9063348],[0.1706227,42.9062403],[0.1696865,42.9061842],[0.169556,42.9061839],[0.169321,42.9061947],[0.1690897,42.9062237],[0.1689212,42.9062449],[0.1685526,42.9062446],[0.1679701,42.9062541],[0.1673161,42.9062072],[0.1669978,42.9061376],[0.1665131,42.9060405],[0.1660789,42.906036],[0.1654724,42.9060805],[0.1647778,42.9062133],[0.1644598,42.9062741],[0.1636895,42.9063004],[0.1630868,42.9061714]]}},{"type":"Feature","id":225932219,"properties":{"kind":"run","name":"Panoramic","subtype":"easy","pisteType":"downhill","featured":false},"geometry":{"type":"LineString","coordinates":[[0.1475114,42.9168672],[0.1475136,42.9168945],[0.1475234,42.9169007],[0.1475316,42.9169026],[0.1477361,42.9168704],[0.1478219,42.9166582],[0.1477361,42.9162772],[0.1465938,42.9148347],[0.1460106,42.9145519],[0.1455635,42.9143285],[0.1448473,42.9137962],[0.1440054,42.9132607],[0.1438281,42.9129927],[0.1437881,42.9127942],[0.1437691,42.9127],[0.1437398,42.9121665],[0.1436806,42.9117001],[0.1436993,42.9112738],[0.1442733,42.9104527],[0.1444235,42.9101973],[0.1442666,42.909884],[0.1426184,42.9096453],[0.1424132,42.9095353],[0.1423408,42.9093987],[0.142432,42.9092828],[0.1427123,42.9091807],[0.1430744,42.9091227],[0.143631,42.9089547],[0.1441768,42.9087043],[0.1443297,42.9085667],[0.1444396,42.9084548],[0.1446488,42.9083722],[0.1449211,42.9082946],[0.1450378,42.9082357],[0.1450981,42.9081724],[0.1450928,42.9081223],[0.1451001,42.9080746],[0.1451196,42.908023],[0.1451746,42.9079253],[0.1451907,42.9078909],[0.1452027,42.9078472],[0.1452114,42.9077971],[0.1452074,42.9077524],[0.145196,42.9077067],[0.1451417,42.9075456],[0.1451196,42.9074764],[0.1451142,42.9074071],[0.1451182,42.9073399],[0.1451363,42.9072264],[0.1452,42.9069715],[0.1452295,42.9068954],[0.1452671,42.9068418],[0.1452255,42.9066277],[0.1451383,42.9063711],[0.1450887,42.906156],[0.1449401,42.9058941],[0.1448339,42.9057023],[0.1446959,42.9054768],[0.144664,42.9053445],[0.1446357,42.9051553],[0.1446322,42.9049712],[0.1443421,42.9045421]]}},{"type":"Feature","id":225932229,"properties":{"kind":"run","name":"Sources","subtype":"advanced","pisteType":"downhill","featured":false},"geometry":{"type":"LineString","coordinates":[[0.1723098,42.9010301],[0.1723334,42.9010893],[0.1724842,42.9011745],[0.1727665,42.9013786],[0.1728409,42.9014736],[0.1728066,42.9015686],[0.1724456,42.9019704],[0.1721942,42.9025269],[0.1725357,42.9026266],[0.171921,42.9031465],[0.1714399,42.9040158],[0.1714603,42.9045847],[0.1712212,42.9048249],[0.1710527,42.905126],[0.1707228,42.9053252],[0.1703507,42.9055092],[0.1701614,42.9058131],[0.1696865,42.9061842],[0.169556,42.9061839],[0.169321,42.9061947]]}},{"type":"Feature","id":225932232,"properties":{"kind":"run","name":"Fusée","subtype":"novice","pisteType":"downhill","featured":false},"geometry":{"type":"LineString","coordinates":[[0.1733418,42.9086584],[0.1735122,42.908863],[0.1737384,42.9090473],[0.1746024,42.9093309],[0.1757383,42.9096217],[0.176425,42.9097651],[0.1769045,42.9099076],[0.177301,42.9098309]]}},{"type":"Feature","id":225932237,"properties":{"kind":"run","name":"Vallée des Indiens","subtype":"novice","pisteType":"downhill","featured":false},"geometry":{"type":"LineString","coordinates":[[0.1734293,42.9086281],[0.1736301,42.9085051],[0.1738925,42.9084414],[0.1741009,42.9084026],[0.1742423,42.9084047],[0.1749748,42.9084373],[0.1757093,42.9085093],[0.1763917,42.908677],[0.1765437,42.9087877],[0.1767205,42.9088758],[0.1768979,42.9089308],[0.1771004,42.9089654],[0.1775072,42.9091313],[0.1775819,42.9092558],[0.1775071,42.9093343]]}},{"type":"Feature","id":225932239,"properties":{"kind":"run","name":"Plaine","subtype":"novice","pisteType":"downhill","featured":false},"geometry":{"type":"LineString","coordinates":[[0.1686385,42.9093593],[0.1686579,42.9092837],[0.1687935,42.9091257],[0.1689968,42.9089362],[0.1692248,42.9088188],[0.1695268,42.9087195],[0.1698732,42.908713],[0.1701632,42.9087203],[0.1705264,42.9085607],[0.1707601,42.908587],[0.1708676,42.9086853],[0.1708432,42.9088198],[0.1709571,42.9089901],[0.1713419,42.9092597],[0.1717249,42.909355],[0.1720487,42.9093594],[0.1726478,42.9095741],[0.1734862,42.909782],[0.1737264,42.9098419],[0.1740683,42.9099273],[0.1745323,42.9100314],[0.1751868,42.9100629],[0.1754419,42.9100606],[0.1756149,42.9100496],[0.1758131,42.9100198],[0.1760361,42.9099783],[0.1762838,42.9099601],[0.1767652,42.9100457],[0.176935,42.9101584],[0.1769315,42.9101947]]}},{"type":"Feature","id":225932247,"properties":{"kind":"run","name":"La Coume","subtype":"intermediate","pisteType":"downhill","featured":false},"geometry":{"type":"LineString","coordinates":[[0.1475114,42.9168672],[0.1475136,42.9168945],[0.147723,42.9171922],[0.1483422,42.9172279],[0.1489759,42.9169924],[0.1496726,42.9169332],[0.1508743,42.9169902],[0.1519069,42.917],[0.1530737,42.9167231],[0.1542057,42.9163176],[0.1551908,42.9161978],[0.1562816,42.916173],[0.157,42.9160365],[0.1577404,42.9158977],[0.1580721,42.9157762],[0.1585342,42.9156027],[0.1591325,42.9155029],[0.1599914,42.9155333],[0.1602757,42.9154986],[0.1607166,42.9153463]]}},{"type":"Feature","id":225932249,"properties":{"kind":"run","name":"Pène Blanque","subtype":"novice","pisteType":"downhill","featured":false},"geometry":{"type":"LineString","coordinates":[[0.1857245,42.9086204],[0.1856018,42.9084972],[0.1854462,42.9083164],[0.1851941,42.9081632],[0.1849688,42.908065],[0.1847935,42.9080558],[0.1847674,42.908231],[0.1844023,42.9085284],[0.1837789,42.9087237],[0.1829655,42.9088729],[0.1822581,42.9089668],[0.1810843,42.9090794],[0.1807118,42.908995]]}},{"type":"Feature","id":226227587,"properties":{"kind":"run","name":"Espade","subtype":"intermediate","pisteType":"downhill","featured":false},"geometry":{"type":"LineString","coordinates":[[0.1475899,42.9073349],[0.148215,42.9073351],[0.1485959,42.9073582],[0.1491833,42.9073489],[0.1497538,42.9072442],[0.1502993,42.9071521],[0.1509091,42.9071071],[0.1513875,42.9070129],[0.1516928,42.9068963],[0.1521564,42.906781],[0.1527142,42.906732],[0.1530993,42.9066741],[0.1534987,42.906607],[0.153763,42.906496],[0.1540714,42.9062643],[0.1542676,42.9061271],[0.1545328,42.9058222],[0.1550134,42.9054282]]}},{"type":"Feature","id":226227615,"properties":{"kind":"run","name":"Tourmalet (via Col)","subtype":"easy","pisteType":"downhill","featured":false},"geometry":{"type":"LineString","coordinates":[[0.145297,42.9083884],[0.1452067,42.9083276],[0.1451612,42.9082868],[0.1451276,42.908245],[0.1451102,42.9082126],[0.1450981,42.9081724],[0.1450928,42.9081223],[0.1451001,42.9080746],[0.1451196,42.908023],[0.1451746,42.9079253],[0.1451907,42.9078909],[0.1452027,42.9078472],[0.1452114,42.9077971],[0.1452074,42.9077524],[0.145196,42.9077067],[0.1451417,42.9075456],[0.1451196,42.9074764],[0.1451142,42.9074071],[0.1451182,42.9073399],[0.1451363,42.9072264],[0.1452,42.9069715],[0.1452295,42.9068954],[0.1452671,42.9068418],[0.1453207,42.9067952],[0.1454354,42.9067244],[0.1455661,42.9066526],[0.1456205,42.906612],[0.1456694,42.9065619],[0.1457479,42.9064356],[0.145833,42.9063075],[0.1460101,42.906112],[0.146163,42.9059784],[0.146405,42.9058007],[0.1464728,42.9057357],[0.1465318,42.9056355],[0.1467025,42.9052952],[0.1467168,42.9052348],[0.1467082,42.9052013],[0.1466587,42.9051723],[0.1466466,42.9051149],[0.1466163,42.9050477]]}},{"type":"Feature","id":226227632,"properties":{"kind":"run","name":"Pourtheil","subtype":"advanced","pisteType":"downhill","featured":false},"geometry":{"type":"LineString","coordinates":[[0.1580977,42.900286],[0.1582497,42.9005044],[0.158436,42.9006464],[0.1589617,42.9008763],[0.1595034,42.9010229],[0.1599219,42.9012673],[0.1602357,42.9013694],[0.160625,42.901471],[0.1610508,42.9017978],[0.1616848,42.902343],[0.1620435,42.9025876],[0.1622098,42.9028607],[0.1625129,42.9033637],[0.1628562,42.9037487],[0.1631003,42.9040179],[0.1633283,42.9043342],[0.1635375,42.9047606],[0.1637253,42.9051063],[0.1639854,42.9053421],[0.164251,42.9055975],[0.1644736,42.905906],[0.1644598,42.9062741]]}},{"type":"Feature","id":237746261,"properties":{"kind":"run","name":"Pène Blanque","subtype":"novice","pisteType":"downhill","featured":false},"geometry":{"type":"LineString","coordinates":[[0.1829655,42.9088729],[0.1825117,42.9091475],[0.1822396,42.9094208],[0.1821929,42.9095376],[0.1821502,42.909773]]}},{"type":"Feature","id":238278972,"properties":{"kind":"run","name":"Castillon","subtype":"easy","pisteType":"downhill","featured":false},"geometry":{"type":"LineString","coordinates":[[0.0948066,42.8940093],[0.0946925,42.894149],[0.0945163,42.894235],[0.0941736,42.8943211],[0.0939843,42.8944837],[0.0936384,42.8944933],[0.0933871,42.8944407],[0.0928743,42.8943954],[0.0923525,42.8945028],[0.0920849,42.8946009],[0.0917128,42.8946941],[0.0914778,42.8948687],[0.0912074,42.8952392],[0.0912364,42.8956089],[0.0910346,42.8958072],[0.0908284,42.8958691],[0.0906031,42.8961591],[0.0907196,42.8964085],[0.0907612,42.896673],[0.0913078,42.8970743],[0.091873,42.8972392]]}},{"type":"Feature","id":238278995,"properties":{"kind":"run","name":"Mapped ski run","subtype":"novice","pisteType":"downhill","featured":false},"geometry":{"type":"LineString","coordinates":[[0.0914928,42.8958704],[0.091812,42.8960728],[0.0919914,42.8964278],[0.0920668,42.896961],[0.0920257,42.8972087],[0.0919448,42.8972272]]}},{"type":"Feature","id":244040281,"properties":{"kind":"run","name":"Pourteilh","subtype":"easy","pisteType":"downhill","featured":false},"geometry":{"type":"LineString","coordinates":[[0.1640787,42.8951347],[0.1641435,42.8949854],[0.1644241,42.8946247],[0.1646172,42.8944359],[0.164662,42.8941771],[0.1646909,42.8934444],[0.1645299,42.8932479],[0.1641652,42.8931379],[0.163618,42.8931536],[0.163101,42.8933095],[0.1626143,42.8935812],[0.1622844,42.8938642],[0.1615924,42.8949528],[0.1605641,42.8960263],[0.160085,42.8967822],[0.1598382,42.8970585],[0.1592293,42.8977902],[0.1588806,42.8986115],[0.1585722,42.8992619],[0.1580977,42.900286],[0.1573974,42.9010735],[0.156869,42.9015627],[0.1557237,42.9033742],[0.1558176,42.9038162],[0.1560616,42.9041561],[0.1570046,42.9049798]]}},{"type":"Feature","id":247657572,"properties":{"kind":"run","name":"La Verte","subtype":"expert","pisteType":"downhill","featured":false},"geometry":{"type":"LineString","coordinates":[[0.1641258,42.9202339],[0.1650342,42.9202433],[0.1661594,42.9200029],[0.1683552,42.9191884],[0.1694565,42.9183097],[0.1711945,42.9173354],[0.1726966,42.917304],[0.1744346,42.9168325],[0.1755504,42.9162354],[0.1764946,42.9156539],[0.1770739,42.9150725],[0.1779966,42.9145382],[0.1781683,42.9137367],[0.1781897,42.9131238],[0.1778035,42.9122123],[0.1775031,42.9119452],[0.1762786,42.9113297]]}},{"type":"Feature","id":247657573,"properties":{"kind":"run","name":"La Jaune","subtype":"expert","pisteType":"downhill","featured":false},"geometry":{"type":"LineString","coordinates":[[0.1641258,42.9202339],[0.1644763,42.9205466],[0.1648319,42.9207729],[0.1657355,42.9209052],[0.1662893,42.9211315],[0.1668198,42.9212894],[0.1684254,42.9214808],[0.1694817,42.9220574],[0.17049,42.9223668],[0.1721608,42.9224512],[0.1738221,42.9223316],[0.1747823,42.9223316],[0.1763284,42.9226129],[0.1778202,42.9227755],[0.1796076,42.9232967],[0.1830132,42.9245111],[0.1838555,42.9247773],[0.184844,42.9253234],[0.1859598,42.9270046],[0.1865032,42.9271315],[0.1876834,42.9274457],[0.1885632,42.92754],[0.1895717,42.9266449],[0.1909664,42.9259059],[0.1921466,42.9256231],[0.1936486,42.9258431],[0.1943567,42.926173],[0.1955369,42.9261888],[0.1964381,42.9266915],[0.1972964,42.9270529],[0.2012446,42.9270686]]}},{"type":"Feature","id":247657575,"properties":{"kind":"run","name":"La Blanche","subtype":"expert","pisteType":"downhill","featured":false},"geometry":{"type":"LineString","coordinates":[[0.1648319,42.9207729],[0.1651649,42.9217038],[0.1650164,42.922052],[0.1647008,42.9221588],[0.1639828,42.9223246],[0.1634268,42.9226937],[0.1629333,42.9235422],[0.1622681,42.9251449],[0.1623754,42.9260247],[0.1625042,42.927156],[0.16259,42.9278787],[0.1633625,42.9281301],[0.164135,42.9288686],[0.1643924,42.930204],[0.1650147,42.9310053],[0.1659159,42.9315394],[0.1685767,42.9323721],[0.170186,42.9318536],[0.1738338,42.9317908],[0.1767306,42.9313352],[0.1779966,42.9305025],[0.1806224,42.9289977],[0.1823572,42.9284131],[0.184085,42.9282067],[0.1865575,42.9280326],[0.1885632,42.92754]]}},{"type":"Feature","id":247657576,"properties":{"kind":"run","name":"Coume du Pic","subtype":"expert","pisteType":"downhill","featured":false},"geometry":{"type":"LineString","coordinates":[[0.1412364,42.936694],[0.1398924,42.9363925],[0.1376964,42.9356845],[0.1369541,42.935249],[0.1368823,42.935033],[0.1369651,42.9347662],[0.1378996,42.9340448],[0.1393334,42.9336029],[0.1399061,42.9333941],[0.1399426,42.933111],[0.1393163,42.9328911],[0.1388323,42.9326961],[0.1387358,42.9325468],[0.1388625,42.9324215],[0.1396344,42.9320471],[0.1397515,42.9319369],[0.1396907,42.9318058],[0.139418,42.9316352],[0.1393779,42.9312476],[0.1391547,42.930984],[0.1390027,42.9307688],[0.1390134,42.930685],[0.1391242,42.9305372],[0.1394525,42.9304093],[0.1415796,42.9298905],[0.1434017,42.9296617],[0.1455785,42.9292533],[0.1480147,42.9293186],[0.1491631,42.9294662],[0.1505923,42.9298797],[0.1517194,42.930197],[0.1525661,42.9305801],[0.1541033,42.9311143],[0.1551324,42.9314672],[0.1558228,42.9316865],[0.1570473,42.9321825],[0.1587408,42.9330504],[0.1597523,42.9336094],[0.1607775,42.9341473],[0.1613507,42.934214],[0.1620106,42.9341854],[0.1644379,42.9339011],[0.1663917,42.9334688],[0.1677294,42.9331458],[0.1690842,42.9326594],[0.1718589,42.9324496],[0.1738338,42.9317908]]}},{"type":"Feature","id":251239682,"properties":{"kind":"run","name":"Mapped ski run","subtype":"advanced","pisteType":"downhill","featured":false},"geometry":{"type":"LineString","coordinates":[[0.0770244,42.8897446],[0.0775282,42.8897269],[0.0780056,42.8897308],[0.078365,42.8898998],[0.0789336,42.8899627],[0.0792555,42.8899549]]}},{"type":"Feature","id":251239898,"properties":{"kind":"run","name":"Piquette","subtype":"easy","pisteType":"downhill","featured":false},"geometry":{"type":"LineString","coordinates":[[0.0912074,42.8952392],[0.090814,42.895174],[0.0903526,42.8951344],[0.0898265,42.895063],[0.0892762,42.8950169],[0.0885735,42.8949815],[0.0880049,42.8948165],[0.0876756,42.8945689],[0.0874108,42.894374],[0.0872665,42.8940937],[0.0871792,42.893882],[0.0869534,42.8932959],[0.0868174,42.8932075],[0.0865667,42.8932572],[0.0861821,42.8933759],[0.0857806,42.8934555],[0.0852155,42.8934925],[0.0847531,42.8934568],[0.0841274,42.8935668],[0.0836945,42.8935713],[0.0834097,42.8936211],[0.0830426,42.8937124],[0.0827282,42.8938466],[0.0824659,42.8938451],[0.082262,42.8939179],[0.0820476,42.8940107],[0.0818284,42.8941181],[0.0812995,42.8944383],[0.0811294,42.8946172],[0.0810551,42.8946546],[0.0806467,42.8948603],[0.0806631,42.8949715],[0.0809142,42.8949506]]}},{"type":"Feature","id":354654746,"properties":{"kind":"run","name":"La Violette","subtype":"expert","pisteType":"downhill","featured":false},"geometry":{"type":"LineString","coordinates":[[0.1641258,42.9202339],[0.1636692,42.9200232],[0.1635411,42.9199243],[0.1634649,42.9198304],[0.1633783,42.9197416],[0.1632986,42.919663],[0.1631843,42.9195971],[0.1631081,42.9195539],[0.1627963,42.9189933],[0.1624499,42.9187803],[0.1621867,42.9182932],[0.162159,42.9178265],[0.1623391,42.9172785],[0.1627271,42.9167407],[0.1628518,42.9165175],[0.1631605,42.9152079]]}},{"type":"Feature","id":354654747,"properties":{"kind":"run","name":"Sud","subtype":"intermediate","pisteType":"downhill","featured":false},"geometry":{"type":"LineString","coordinates":[[0.1671309,42.9146427],[0.16715,42.9142033],[0.1672715,42.9139639],[0.1673228,42.9137553],[0.1675096,42.9134851],[0.1677151,42.9131431],[0.1678365,42.9127702],[0.1678493,42.912508],[0.1678653,42.9121589],[0.167828,42.9118826],[0.1679818,42.9115986],[0.1683043,42.9113659],[0.1686524,42.9112411],[0.1688465,42.9110808],[0.1690529,42.9109071],[0.1692501,42.9105257],[0.1694796,42.9101349],[0.1696128,42.9100226],[0.1696446,42.9099922],[0.1702016,42.9094614],[0.1705954,42.9092358],[0.1711238,42.9090288],[0.1715299,42.9089983],[0.1715547,42.9090016],[0.1715697,42.9090122],[0.1715772,42.9090296],[0.1715774,42.9090488],[0.1715632,42.9090658],[0.1714826,42.909107]]}},{"type":"Feature","id":391398657,"properties":{"kind":"run","name":"Tour de France","subtype":"easy","pisteType":"downhill","featured":false},"geometry":{"type":"LineString","coordinates":[[0.1474992,42.9055853],[0.1473451,42.9057495],[0.1472797,42.9060858],[0.1473066,42.9065664],[0.147323,42.9067161],[0.1473552,42.906833],[0.1473981,42.9069332],[0.1474759,42.90711],[0.1474772,42.9071984],[0.1474719,42.9072397],[0.1474866,42.9072819],[0.1475175,42.9073114],[0.1475899,42.9073349],[0.147616,42.9073821],[0.1476388,42.9074194],[0.1476489,42.9074833],[0.1476284,42.9076804],[0.1475711,42.9078998],[0.147415,42.9082611],[0.1475211,42.9083797],[0.1477843,42.9089734],[0.1480204,42.9091934],[0.1482779,42.909217],[0.1497397,42.9090186],[0.1505771,42.9090725],[0.1509276,42.9091042],[0.151326,42.9091519],[0.1518952,42.9090685],[0.1523911,42.9089911],[0.1528424,42.9088481],[0.1535213,42.9086189],[0.1539076,42.9085802],[0.1540967,42.908561],[0.1544645,42.9085236],[0.1550378,42.9084432],[0.1556151,42.9083747],[0.1559566,42.908327],[0.1561887,42.9083482],[0.1566152,42.9083866],[0.1570908,42.9084194],[0.1575299,42.9082943],[0.1582101,42.9082374],[0.1586476,42.9082622]]}},{"type":"Feature","id":391409300,"properties":{"kind":"run","name":"Rateliers","subtype":"advanced","pisteType":"downhill","featured":false},"geometry":{"type":"LineString","coordinates":[[0.1745637,42.9028076],[0.1744354,42.9027892],[0.1741719,42.9028197],[0.1738489,42.9028304],[0.1736578,42.902851],[0.1734774,42.9028724],[0.1732015,42.902926],[0.1729107,42.9030195],[0.1726821,42.9030845],[0.1725215,42.9031273],[0.1721528,42.9032551],[0.1720328,42.9033358],[0.172013,42.9034756],[0.1720465,42.9035761],[0.1721178,42.9036913],[0.1721325,42.9037151],[0.1722548,42.9037903],[0.1723887,42.9041076],[0.1724092,42.9041782],[0.1724295,42.9042707],[0.1723927,42.9044366],[0.1723071,42.9046191],[0.1720936,42.9047776],[0.1720239,42.9048389],[0.1717927,42.9050388],[0.1716668,42.9052356],[0.1715431,42.9053471],[0.171526,42.9053637],[0.1714368,42.9054503],[0.1709443,42.9056103],[0.170579,42.9057164],[0.1701699,42.9058462],[0.1694802,42.9060498],[0.1690897,42.9062237]]}},{"type":"Feature","id":471506321,"properties":{"kind":"lift","name":"Sapins","subtype":"chair_lift","status":"active"},"geometry":{"type":"LineString","coordinates":[[0.1799199,42.9087003],[0.1797934,42.9085636],[0.1794599,42.9082029],[0.1785799,42.9072514],[0.1781461,42.9067824],[0.1778886,42.9065039],[0.1772873,42.9058538],[0.176396,42.9048901],[0.1754568,42.9038745],[0.1747507,42.903111],[0.1746783,42.9030327],[0.174577,42.9029231]]}},{"type":"Feature","id":547518705,"properties":{"kind":"run","name":"Tournaboup","subtype":"novice","pisteType":"downhill","featured":false},"geometry":{"type":"LineString","coordinates":[[0.0969581,42.9002578],[0.0967628,42.90036],[0.0962242,42.9007168],[0.0960754,42.9007954],[0.0959969,42.9007673]]}},{"type":"Feature","id":547518715,"properties":{"kind":"lift","name":"Laquette","subtype":"magic_carpet","status":"active"},"geometry":{"type":"LineString","coordinates":[[0.0919448,42.8972272],[0.0914928,42.8958704]]}},{"type":"Feature","id":675041130,"properties":{"kind":"run","name":"Goni","subtype":"intermediate","pisteType":"downhill","featured":false},"geometry":{"type":"LineString","coordinates":[[0.1789139,42.9039863],[0.1788648,42.904396],[0.1787187,42.904953],[0.1786429,42.9053812],[0.1784972,42.9058428],[0.1784492,42.90619],[0.1783959,42.9065477],[0.178424,42.9068755],[0.1784287,42.9070214],[0.1784461,42.9072639],[0.1784725,42.9075183]]}},{"type":"Feature","id":675041410,"properties":{"kind":"run","name":"Petit Sapin","subtype":"easy","pisteType":"downhill","featured":false},"geometry":{"type":"LineString","coordinates":[[0.1735515,42.9064279],[0.1732026,42.9066203],[0.1730076,42.906716],[0.1728284,42.9068651],[0.172702,42.9071063],[0.1727108,42.9072781],[0.1728686,42.9074261],[0.173036,42.9076331],[0.1733237,42.9078426],[0.1736198,42.9080149],[0.1741009,42.9084026]]}},{"type":"Feature","id":677740409,"properties":{"kind":"run","name":"Tourmalet","subtype":"intermediate","pisteType":"downhill","featured":false},"geometry":{"type":"LineString","coordinates":[[0.1465957,42.9047968],[0.1461882,42.9047036],[0.1458168,42.904644],[0.1452105,42.9047033],[0.1449918,42.9047016],[0.1443421,42.9045421],[0.1441414,42.9044217],[0.1439999,42.904336],[0.1438589,42.9043011],[0.1435409,42.9042691],[0.1432539,42.9042781],[0.1429219,42.9042479],[0.1425948,42.9042045],[0.1417597,42.9040783]]}},{"type":"Feature","id":677743768,"properties":{"kind":"run","name":"Caoubère","subtype":"easy","pisteType":"downhill","featured":false},"geometry":{"type":"LineString","coordinates":[[0.1191127,42.89892],[0.119241,42.8988802],[0.1193657,42.8988787],[0.1195823,42.8989372],[0.1196775,42.8989868],[0.119505,42.8990895],[0.1195177,42.8991176],[0.1195244,42.8991323],[0.1195197,42.899117],[0.119527,42.8991121],[0.1197375,42.8991533],[0.1202857,42.8992111],[0.1207333,42.8992727],[0.1213056,42.8995861],[0.1218024,42.899706],[0.1223112,42.8999515],[0.122667,42.9001148],[0.1229484,42.9002855],[0.1230707,42.9003784],[0.1237263,42.9008416],[0.124197,42.9011029],[0.1247254,42.9014802],[0.1252377,42.9020146],[0.1266575,42.9037811],[0.1268765,42.9039381],[0.1269892,42.9040039],[0.1270921,42.9040504],[0.1271259,42.9040532],[0.1271989,42.9040738],[0.1273499,42.9041317],[0.1275659,42.9041994],[0.127708,42.9042161],[0.1281774,42.904217],[0.1283893,42.9042406],[0.1287152,42.9043192],[0.1290951,42.9043938],[0.129501,42.904483],[0.129662,42.9045452],[0.1297612,42.9046041],[0.1298489,42.9046656],[0.1299235,42.9047367],[0.1300026,42.9048428],[0.1300995,42.9050055],[0.1301919,42.9051607],[0.1302797,42.905244],[0.130409,42.905332],[0.1306038,42.9054463],[0.130749,42.9055186],[0.1308737,42.9055643],[0.1309857,42.9055948],[0.1312452,42.9056287],[0.1313505,42.9056542],[0.1314229,42.9056827],[0.1314712,42.9057122],[0.1315188,42.9057524],[0.1316991,42.9058988],[0.1318857,42.9060043]]}},{"type":"Feature","id":678930031,"properties":{"kind":"run","name":"Tournaboup","subtype":"novice","pisteType":"downhill","featured":false},"geometry":{"type":"LineString","coordinates":[[0.0971536,42.899718],[0.0982413,42.9003445],[0.0984379,42.9005041],[0.0985024,42.9006138],[0.0985518,42.9007857]]}},{"type":"Feature","id":678931375,"properties":{"kind":"run","name":"Piquette","subtype":"easy","pisteType":"downhill","featured":false},"geometry":{"type":"LineString","coordinates":[[0.0823875,42.893868],[0.0823157,42.8939059],[0.0822486,42.8939526],[0.0820937,42.894072],[0.0819965,42.8941265],[0.0816518,42.8942334],[0.0813799,42.8943437]]}},{"type":"Feature","id":678931376,"properties":{"kind":"run","name":"Colonque","subtype":"easy","pisteType":"downhill","featured":false},"geometry":{"type":"LineString","coordinates":[[0.0825664,42.893886],[0.0825203,42.8938698]]}},{"type":"Feature","id":678931377,"properties":{"kind":"run","name":"Colonque","subtype":"easy","pisteType":"downhill","featured":false},"geometry":{"type":"LineString","coordinates":[[0.0826824,42.8957486],[0.0828175,42.8955864],[0.0830106,42.8953546],[0.0832708,42.8949695],[0.083355,42.894825],[0.0833595,42.8948048],[0.083347,42.8947715],[0.0832997,42.894733],[0.0831833,42.8947013],[0.0830106,42.8946551],[0.0829051,42.8946021],[0.0828068,42.8945097],[0.0827424,42.8943564],[0.0827066,42.8941899],[0.0826673,42.8939831],[0.0826174,42.8939151],[0.0825664,42.893886]]}},{"type":"Feature","id":678933655,"properties":{"kind":"run","name":"Mapped ski run","subtype":"novice","pisteType":"downhill","featured":false},"geometry":{"type":"LineString","coordinates":[[0.1005511,42.8987738],[0.1005265,42.8990654],[0.1005158,42.8991225],[0.1004581,42.8993208],[0.1003642,42.8995212],[0.1002328,42.8996666],[0.1000786,42.8997894],[0.0999753,42.8998762],[0.0997367,42.9000769],[0.0995073,42.9002541],[0.0993003,42.9003695],[0.0991252,42.9004511],[0.098834,42.900542],[0.0985708,42.9007466],[0.0985518,42.9007857]]}},{"type":"Feature","id":678933657,"properties":{"kind":"run","name":"Famose","subtype":"intermediate","pisteType":"downhill","featured":false},"geometry":{"type":"LineString","coordinates":[[0.0801262,42.8931133],[0.080304,42.8932713],[0.0807892,42.8935556],[0.0810584,42.8940465],[0.0811143,42.8942658],[0.0810947,42.8944125],[0.081075,42.8945404],[0.0810551,42.8946546]]}},{"type":"Feature","id":1028397869,"properties":{"kind":"run","name":"Coume Lounque","subtype":"intermediate","pisteType":"downhill","featured":false},"geometry":{"type":"LineString","coordinates":[[0.1440588,42.9108083],[0.1451704,42.9109696],[0.1459818,42.9110766],[0.1463925,42.9111313],[0.1467126,42.9111914],[0.1468922,42.9112151]]}},{"type":"Feature","id":1028398952,"properties":{"kind":"run","name":"Caoubère","subtype":"advanced","pisteType":"downhill","featured":false},"geometry":{"type":"LineString","coordinates":[[0.1186348,42.8993445],[0.1174993,42.899575],[0.116117,42.8996226],[0.1148161,42.8994797],[0.1131736,42.8992891],[0.1116613,42.8990508],[0.1107232,42.8989539],[0.1091317,42.8989316],[0.1079831,42.8991132],[0.106508,42.8995429],[0.1054068,42.8998965],[0.1043968,42.9005073],[0.1040629,42.9008028]]}},{"type":"Feature","id":1036129836,"properties":{"kind":"lift","name":"Étoile 1","subtype":"drag_lift","status":"active"},"geometry":{"type":"LineString","coordinates":[[0.0785331,42.8943632],[0.078399,42.8935724],[0.0783095,42.8928811],[0.0782041,42.8920668],[0.0780907,42.8911912],[0.077961,42.8901891],[0.0775319,42.8896356],[0.0756032,42.8871482],[0.0752532,42.8866968],[0.0751554,42.8865706]]}},{"type":"Feature","id":1234582863,"properties":{"kind":"run","name":"Carrieres","subtype":"novice","pisteType":"downhill","featured":false},"geometry":{"type":"LineString","coordinates":[[0.180746,42.905577],[0.1804985,42.9056146],[0.180209,42.9057377],[0.1799661,42.905984],[0.1798821,42.9062132],[0.1799148,42.9065039],[0.1799988,42.9068665],[0.1801016,42.907147],[0.1800035,42.9074857],[0.1800969,42.9080637],[0.180293,42.9082176],[0.1804939,42.9084297],[0.1805172,42.9087752],[0.1805452,42.9089702],[0.1806841,42.9090618],[0.1808126,42.9090721],[0.181018,42.9090327],[0.1811581,42.9089353],[0.1813403,42.9088839],[0.1815411,42.9086907],[0.1815738,42.9085983],[0.1815504,42.9084461],[0.1814734,42.908335],[0.181485,42.9081981],[0.1814547,42.908022],[0.1814033,42.9078886],[0.1813543,42.9077124],[0.1812585,42.9075722],[0.1813613,42.9071993],[0.1813753,42.9070745],[0.181366,42.9069325],[0.1813169,42.9067991],[0.1812259,42.9067273],[0.1810788,42.9066657],[0.1811138,42.9065751],[0.1812469,42.9064434],[0.1812959,42.9063476],[0.1813566,42.9062535],[0.1814267,42.9061834],[0.1813916,42.9060671],[0.1813356,42.9059406],[0.1812819,42.9058037],[0.1811021,42.9057165],[0.1808733,42.9055916],[0.180746,42.905577]]}},{"type":"Feature","id":1234582864,"properties":{"kind":"run","name":"Tremplin","subtype":"novice","pisteType":"downhill","featured":false},"geometry":{"type":"LineString","coordinates":[[0.1771896,42.9086847],[0.177255,42.9086333],[0.1774534,42.9086299],[0.1776846,42.9086727],[0.1779017,42.9087394],[0.1781726,42.9089942],[0.1781446,42.9091054],[0.1775795,42.9090421],[0.1773413,42.9089224],[0.1772129,42.9088163],[0.1771872,42.9087873],[0.1771896,42.9086847]]}},{"type":"Feature","id":1234582865,"properties":{"kind":"lift","name":"Turon 2","subtype":"magic_carpet","status":"active"},"geometry":{"type":"LineString","coordinates":[[0.1709912,42.9085599],[0.1728532,42.9081222]]}},{"type":"Feature","id":1234582866,"properties":{"kind":"run","name":"Turon 2","subtype":"novice","pisteType":"downhill","featured":false},"geometry":{"type":"LineString","coordinates":[[0.1729241,42.9081194],[0.1731623,42.9081297],[0.1733767,42.9081921],[0.1734876,42.9083574],[0.1734388,42.9084745],[0.1732666,42.9085602],[0.1730456,42.9085675],[0.172672,42.9085162],[0.1720322,42.9084478],[0.1717473,42.9084547],[0.171369,42.908547],[0.1709908,42.9086052]]}},{"type":"Feature","id":1234582867,"properties":{"kind":"run","name":"Baby","subtype":"novice","pisteType":"downhill","featured":false},"geometry":{"type":"LineString","coordinates":[[0.1686762,42.9093983],[0.1687933,42.9094322],[0.1689596,42.9094299],[0.1692184,42.9094119],[0.1693632,42.9093825],[0.169659,42.9093397],[0.1700657,42.909202],[0.1702845,42.9091117],[0.1704324,42.9090124],[0.1705803,42.9088838],[0.1707004,42.908789],[0.1707436,42.9087236],[0.1707599,42.9086426]]}},{"type":"Feature","id":1234582868,"properties":{"kind":"run","name":"Grenouilles","subtype":"easy","pisteType":"downhill","featured":false},"geometry":{"type":"LineString","coordinates":[[0.1586476,42.9082622],[0.158863,42.9080808],[0.1589776,42.9079844],[0.1591793,42.9077356],[0.1593492,42.9075386],[0.1596854,42.9073156],[0.1599863,42.9071653],[0.1604994,42.9069657],[0.1607967,42.9068412],[0.1611153,42.9067324],[0.1613913,42.9066779],[0.1617559,42.9066338],[0.1620567,42.9066805],[0.1624814,42.9067453],[0.1629521,42.9068231],[0.163306,42.9068542],[0.1635715,42.9069112],[0.1638794,42.9069475],[0.1640428,42.9069591],[0.1641031,42.9069993],[0.1642518,42.9070137],[0.1645401,42.9070352]]}},{"type":"Feature","id":1234582870,"properties":{"kind":"run","name":"Sapins","subtype":"easy","pisteType":"downhill","featured":false},"geometry":{"type":"LineString","coordinates":[[0.1647778,42.9062133],[0.1645767,42.9065795],[0.1645401,42.9070352],[0.1648572,42.9073448],[0.1652841,42.9075444],[0.1655829,42.9075962]]}},{"type":"Feature","id":1234582871,"properties":{"kind":"run","name":"Adour","subtype":"novice","pisteType":"downhill","featured":false},"geometry":{"type":"LineString","coordinates":[[0.1686385,42.9093593],[0.1685832,42.9091378],[0.1684165,42.9088341],[0.1681848,42.9085542],[0.1678311,42.9084113],[0.1675018,42.9082684],[0.16714,42.908045],[0.1669489,42.9079319],[0.1665423,42.9077324],[0.1663797,42.9076817],[0.1656577,42.9076377]]}},{"type":"Feature","id":1234582872,"properties":{"kind":"run","name":"Mapped ski run","subtype":"easy","pisteType":"downhill","featured":false},"geometry":{"type":"LineString","coordinates":[[0.1444235,42.9101973],[0.1447188,42.9097845],[0.1449523,42.9095724],[0.1453026,42.9093672],[0.1457929,42.9091893],[0.1462646,42.9089943],[0.1467036,42.9088438],[0.1470927,42.9087214]]}},{"type":"Feature","id":1234582873,"properties":{"kind":"run","name":"Pourteilh","subtype":"advanced","pisteType":"downhill","featured":false},"geometry":{"type":"LineString","coordinates":[[0.164108,42.89502],[0.1641857,42.8951478],[0.1641721,42.8953148],[0.1641647,42.8953936],[0.1641579,42.8954456],[0.164096,42.895522],[0.1639765,42.8955382],[0.1640013,42.8956324],[0.1640239,42.8957487],[0.1639977,42.8958462],[0.1640258,42.8959464],[0.164157,42.8960604],[0.1641095,42.8961419],[0.1638993,42.896296],[0.1637402,42.8964063],[0.1636322,42.8964708],[0.1635868,42.8965104],[0.1635669,42.8966769],[0.1635385,42.8967643],[0.1635863,42.8968278],[0.1635903,42.8969112],[0.1636093,42.897055],[0.1637089,42.8971523],[0.1639396,42.8972783],[0.1640581,42.897374],[0.1642625,42.8974054],[0.1644799,42.8975975],[0.1645471,42.8977738],[0.1646907,42.8980204],[0.1646808,42.8981707],[0.1646538,42.8983624],[0.164687,42.8983931],[0.1648022,42.8984751],[0.1648427,42.8985462],[0.1648033,42.8986353],[0.1647315,42.8987596],[0.1646431,42.8989712],[0.1646589,42.8990479],[0.1647395,42.8992154],[0.1648157,42.8993349],[0.1648994,42.8993448],[0.1650305,42.8993271],[0.1651098,42.8993072],[0.1652258,42.8993428],[0.1654214,42.8993329],[0.1655636,42.8994473],[0.165636,42.8995404],[0.1656763,42.8995705],[0.1658916,42.8996037],[0.1661491,42.8995659],[0.1663366,42.8995907],[0.1660326,42.8999145],[0.1657568,42.9002083],[0.165261,42.9004184],[0.1650763,42.9004722],[0.1647456,42.9005729],[0.1645126,42.9007486],[0.1644606,42.9008772],[0.1644164,42.901004],[0.1643249,42.9012415],[0.1641683,42.9013763],[0.1639189,42.9016048],[0.1639479,42.9017623],[0.1638822,42.9018604],[0.1640036,42.9021045],[0.1645157,42.9023317],[0.1644551,42.9026188],[0.1643828,42.9028354],[0.1644215,42.9030128],[0.1645526,42.9032391],[0.1647661,42.9034134],[0.1647659,42.9035203],[0.1646658,42.9036315],[0.1645121,42.9038687],[0.164581,42.9041568],[0.164679,42.9044771],[0.164666,42.9047315],[0.1646634,42.905147],[0.1646517,42.9055567],[0.1647022,42.9059213],[0.1647778,42.9062133]]}},{"type":"Feature","id":1234588888,"properties":{"kind":"run","name":"Colonque","subtype":"easy","pisteType":"downhill","featured":false},"geometry":{"type":"LineString","coordinates":[[0.0906031,42.8961591],[0.0903821,42.8964452],[0.0900042,42.8966742],[0.0894246,42.8969677],[0.0890694,42.897103],[0.0888592,42.8972133],[0.0886148,42.8970821],[0.0880665,42.8973215],[0.0877426,42.8973527],[0.0873164,42.8972008],[0.0870522,42.8970551],[0.0868164,42.8968636],[0.086501,42.8968636],[0.086126,42.8968865],[0.0859697,42.8969802],[0.0856244,42.8972106],[0.0851248,42.8976926],[0.0847538,42.8976781],[0.0843184,42.8973809],[0.0840464,42.8972541],[0.0838435,42.8970947],[0.0833934,42.8969606],[0.083057,42.8969642],[0.0828097,42.8968084],[0.0826396,42.8963178],[0.0826012,42.895888],[0.0826824,42.8957486]]}},{"type":"Feature","id":1239683790,"properties":{"kind":"run","name":"Tournaboup","subtype":"novice","pisteType":"downhill","featured":false},"geometry":{"type":"LineString","coordinates":[[0.0934416,42.8973164],[0.0932752,42.8974766],[0.0931512,42.8975842],[0.0929097,42.8976917],[0.0927236,42.8977396],[0.0924299,42.8977563],[0.0920938,42.8977443],[0.0919714,42.8977903],[0.0912863,42.898136],[0.0912327,42.8982893],[0.0913185,42.8983797],[0.0918375,42.8985771],[0.0922197,42.898697],[0.0926462,42.8987432],[0.0930592,42.8987196],[0.0935581,42.8987333],[0.0937539,42.8986881],[0.0941536,42.8985624],[0.0947785,42.8983246],[0.0952345,42.8981989],[0.0961196,42.8980299],[0.0967473,42.8980319],[0.0972113,42.8981498],[0.0975037,42.8982814],[0.0975868,42.8984131],[0.0976217,42.8985801],[0.0976191,42.8986753],[0.0973333,42.8993019],[0.0971536,42.899718],[0.0969581,42.9002578],[0.0970284,42.9003804],[0.0973665,42.9006012],[0.0976985,42.9007456]]}},{"type":"Feature","id":1239683791,"properties":{"kind":"run","name":"Tournaboup","subtype":"novice","pisteType":"downhill","featured":false},"geometry":{"type":"LineString","coordinates":[[0.0976985,42.9007456],[0.0979657,42.9008091],[0.098084,42.9008362],[0.0984063,42.9008492],[0.0985944,42.900849]]}},{"type":"Feature","id":1239683792,"properties":{"kind":"run","name":"Tournaboup","subtype":"novice","pisteType":"downhill","featured":false},"geometry":{"type":"LineString","coordinates":[[0.1043876,42.8978626],[0.1044586,42.8978487],[0.1045803,42.8978441],[0.1046628,42.8978602],[0.1047396,42.8979453],[0.1047434,42.8980242],[0.1047255,42.8981822]]}},{"type":"Feature","id":1239683795,"properties":{"kind":"run","name":"Tournaboup","subtype":"novice","pisteType":"downhill","featured":false},"geometry":{"type":"LineString","coordinates":[[0.0985518,42.9007857],[0.0985596,42.9008182],[0.0985944,42.900849]]}},{"type":"Feature","id":1283372476,"properties":{"kind":"run","name":"Couelya","subtype":"easy","pisteType":"downhill","featured":false},"geometry":{"type":"LineString","coordinates":[[0.1370783,42.9040785],[0.136998,42.9038987],[0.1369598,42.9038264],[0.1369146,42.9037585],[0.1368647,42.9037075],[0.1368009,42.9036642],[0.1366676,42.9036166],[0.1365006,42.9035639],[0.1363836,42.9035029],[0.1363011,42.903428],[0.1361504,42.9032242],[0.1361191,42.9031494],[0.1361098,42.9030127],[0.1360947,42.9029489],[0.1360718,42.9029159],[0.1360216,42.902875]]}},{"type":"Feature","id":1283372478,"properties":{"kind":"run","name":"Labach","subtype":"easy","pisteType":"downhill","featured":false},"geometry":{"type":"LineString","coordinates":[[0.1237263,42.9008416],[0.1239194,42.9008789],[0.1241461,42.9009205],[0.1242855,42.9009467],[0.1245216,42.9009801],[0.1246557,42.9009929],[0.1249239,42.9009801],[0.1251225,42.9009896],[0.1252433,42.901025],[0.1253155,42.9011039],[0.1253584,42.901209],[0.1254201,42.901268],[0.1255864,42.9013279],[0.1257661,42.901377],[0.1258292,42.9014033],[0.1259579,42.9014762],[0.1260557,42.9015471],[0.1262489,42.9016757],[0.1264232,42.9018289],[0.1266688,42.9020714],[0.1268168,42.9021709],[0.1270765,42.9023081],[0.127244,42.9023633],[0.1273794,42.90238],[0.12748,42.9023771],[0.1276396,42.9023486],[0.1280366,42.9021934],[0.1283759,42.9020892],[0.1286508,42.9020205],[0.1287809,42.9019861],[0.129084,42.901881],[0.1293294,42.9018161],[0.1295051,42.9017415],[0.1296647,42.9016766],[0.1298538,42.9016265],[0.1300912,42.9016049],[0.1304814,42.9016039],[0.1308985,42.9016167],[0.1312834,42.9016089],[0.1316026,42.9016138],[0.1317877,42.9016295],[0.1319714,42.9016747],[0.1320653,42.9017238],[0.1321699,42.9017985],[0.132304,42.9019154],[0.1324085,42.9019789]]}},{"type":"Feature","id":1283372479,"properties":{"kind":"run","name":"Ourdis","subtype":"easy","pisteType":"downhill","featured":false},"geometry":{"type":"LineString","coordinates":[[0.1417597,42.9040783],[0.1415261,42.903962],[0.1412789,42.9039475],[0.1409863,42.9039433],[0.1404919,42.9039121],[0.1400884,42.9039225],[0.1398356,42.9039142],[0.1395145,42.9038767],[0.1390713,42.9038122],[0.1388923,42.9037352],[0.1386622,42.9036457],[0.1384434,42.9035833],[0.1381422,42.9034501],[0.1379092,42.9033543],[0.1375967,42.9032836],[0.1373495,42.9032253],[0.1371251,42.9031275],[0.1368864,42.903013],[0.1365654,42.9029423],[0.1362711,42.9028909],[0.1360216,42.902875],[0.1359618,42.9028614],[0.1358988,42.9028525],[0.1357674,42.9028447],[0.1356715,42.90283],[0.13553,42.9027956],[0.1353081,42.9027376],[0.1352021,42.9027175],[0.1351163,42.9027116],[0.1350398,42.9027165],[0.1347817,42.9027803],[0.1347093,42.9027862],[0.1346335,42.9027838],[0.1345497,42.90277],[0.1344236,42.9027317],[0.1342667,42.9026718],[0.1341889,42.9026296],[0.1341373,42.9025917],[0.1340932,42.9025336],[0.1340155,42.9023645],[0.133983,42.9023181],[0.1339348,42.9022808],[0.1338657,42.9022504],[0.1337805,42.9022282],[0.1336129,42.902214],[0.1334855,42.9022027],[0.1333836,42.9021875],[0.1332977,42.9021664],[0.1331831,42.9021271],[0.1330221,42.9020563],[0.1328679,42.9019905],[0.1327439,42.9019429],[0.1326849,42.9019276],[0.1326057,42.9019198],[0.1325253,42.9019252],[0.1324589,42.9019473],[0.1324085,42.9019789],[0.1323851,42.9020131],[0.1323677,42.9020524],[0.132357,42.9021104],[0.1323355,42.9023142],[0.1322906,42.9025038],[0.1322376,42.902662],[0.1322182,42.9027057],[0.1321819,42.9027543],[0.1321337,42.9027966],[0.1320626,42.9028417],[0.1318232,42.9029812],[0.1317602,42.9030284],[0.1317032,42.9030755],[0.1315154,42.9032563],[0.1314276,42.9033152],[0.1313518,42.9033536],[0.1312914,42.9033732],[0.1312271,42.903384],[0.1311526,42.9033889],[0.1310883,42.9033845],[0.1309374,42.9033599],[0.130869,42.9033526],[0.1307845,42.9033511],[0.1307007,42.903357],[0.1305447,42.9033881],[0.130069,42.9035161],[0.1298156,42.9035952],[0.1294863,42.9037165],[0.1293696,42.9037475],[0.1292563,42.9037652],[0.1290438,42.9037809],[0.1288936,42.9037843],[0.1288111,42.9037819],[0.1287226,42.9037691],[0.1286146,42.9037357],[0.128396,42.9036601],[0.1281231,42.9035869],[0.1280507,42.9035712],[0.1279689,42.9035648],[0.1278978,42.9035653],[0.1278059,42.903577],[0.1276135,42.9036408],[0.1274809,42.9036965],[0.1273955,42.9037219],[0.1273144,42.9037342],[0.1272326,42.9037352],[0.1270334,42.9037111],[0.1269676,42.9037137],[0.1269018,42.9037163],[0.1266575,42.9037811]]}},{"type":"Feature","id":1283388482,"properties":{"kind":"run","name":"Panoramic","subtype":"easy","pisteType":"downhill","featured":false},"geometry":{"type":"LineString","coordinates":[[0.145297,42.9083884],[0.1453529,42.9084194],[0.1456104,42.9085383],[0.145709,42.9085761],[0.1457814,42.9085957],[0.1458511,42.9086031],[0.1459155,42.9086036],[0.1459819,42.9085933],[0.146047,42.9085736],[0.146118,42.9085397],[0.1461871,42.908497],[0.1464943,42.9082367],[0.1473076,42.9076178],[0.1474538,42.9074951],[0.1475664,42.9073722],[0.1475899,42.9073349]]}},{"type":"Feature","id":1283388483,"properties":{"kind":"run","name":"Tour de France","subtype":"easy","pisteType":"downhill","featured":false},"geometry":{"type":"LineString","coordinates":[[0.1540967,42.908561],[0.1541466,42.9085815],[0.1544282,42.9086876],[0.1545046,42.9087288],[0.1545596,42.908775],[0.1545891,42.9088182],[0.1546086,42.9088668],[0.1546159,42.9089228],[0.1546146,42.9090205],[0.1546206,42.9090716],[0.1546381,42.9091203],[0.1546635,42.9091566],[0.1547071,42.9091964],[0.1547822,42.9092533],[0.1548708,42.9093107]]}},{"type":"Feature","id":1283388485,"properties":{"kind":"run","name":"Maintenon","subtype":"easy","pisteType":"downhill","featured":false},"geometry":{"type":"LineString","coordinates":[[0.1558913,42.9078089],[0.1557465,42.9076822],[0.1556808,42.9076223],[0.1556372,42.9075712],[0.1556104,42.9075167],[0.1555909,42.9074455],[0.1555661,42.9073772],[0.1555359,42.9073305],[0.1554984,42.9072976],[0.1554421,42.9072598],[0.1553368,42.9071984],[0.1552644,42.9071454],[0.1551752,42.9070756],[0.1549955,42.9069214],[0.1548094,42.9068023],[0.154744,42.9067696],[0.1546924,42.9067522],[0.154631,42.9067411],[0.1545559,42.9067362],[0.1544641,42.9067382],[0.1543631,42.9067468],[0.1542039,42.9067728],[0.1541137,42.9067822],[0.154048,42.9067851],[0.1539987,42.9067799],[0.1539494,42.9067655],[0.1539149,42.9067458],[0.1538907,42.9067188],[0.153883,42.9066871],[0.1538877,42.9066569],[0.1539011,42.9066269],[0.153932,42.9065923],[0.1540098,42.9065511],[0.1541144,42.9065285],[0.1543464,42.9065069],[0.1547286,42.906501],[0.1551417,42.9065196],[0.1552221,42.9065324],[0.1553401,42.9065609],[0.1554582,42.9066051],[0.1556016,42.9066336],[0.1559155,42.9066581],[0.1561233,42.9067053],[0.1568422,42.9069499],[0.1569951,42.9070196],[0.1571238,42.9070982],[0.157329,42.9072426],[0.1574658,42.9072986],[0.157785,42.9073949],[0.1579325,42.9074607],[0.1580411,42.9075324],[0.1581444,42.9076208],[0.1582973,42.9077171],[0.1584676,42.9078084],[0.1586527,42.9079214],[0.1588471,42.9080668],[0.158863,42.9080808],[0.1590067,42.9082072],[0.1590966,42.9082662],[0.1592106,42.9083241]]}},{"type":"Feature","id":1283388486,"properties":{"kind":"run","name":"Sud","subtype":"easy","pisteType":"downhill","featured":false},"geometry":{"type":"LineString","coordinates":[[0.1609049,42.9119117],[0.1605168,42.9117974],[0.1603666,42.9117178],[0.1602137,42.9115872],[0.1600461,42.9114497],[0.1597832,42.9113102],[0.1595432,42.9112247],[0.1588994,42.9110607],[0.1586889,42.910989],[0.1583228,42.9108377],[0.1581109,42.910767],[0.1576133,42.9106511],[0.1574054,42.9105794],[0.1570983,42.9104301],[0.1568784,42.9103358],[0.1566209,42.9102661],[0.1563178,42.9101845],[0.1561925,42.9101163],[0.1562219,42.9100912],[0.1562474,42.9100563],[0.1562621,42.9100063],[0.1562588,42.9099434],[0.1562326,42.9098957],[0.1561817,42.9098407],[0.1561059,42.9097823],[0.1560556,42.9097386],[0.1560221,42.9097018],[0.1560026,42.90966],[0.1559919,42.9096114],[0.1559926,42.9095539],[0.1560147,42.9094911],[0.1560576,42.9094041],[0.156124,42.9093034],[0.1561984,42.9092087],[0.1563527,42.9090338],[0.1563795,42.9089965],[0.1564003,42.9089528],[0.1564068,42.9089098],[0.1564083,42.9088997],[0.1564077,42.9088462],[0.1563983,42.9087789],[0.1563611,42.9086618],[0.1563299,42.9085756],[0.1563067,42.9085289],[0.1562601,42.9084643],[0.1562125,42.908402],[0.1561951,42.9083683],[0.1561887,42.9083482],[0.1561857,42.9083322],[0.1561884,42.9082976],[0.1562005,42.9082588],[0.1562249,42.9082062],[0.156239,42.9081625],[0.1562427,42.9081159],[0.1562333,42.9080741],[0.1562139,42.9080395],[0.1561716,42.9079968],[0.1560623,42.9079268],[0.1558913,42.9078089]]}},{"type":"Feature","id":1283388487,"properties":{"kind":"run","name":"Sud","subtype":"easy","pisteType":"downhill","featured":false},"geometry":{"type":"LineString","coordinates":[[0.1618673,42.9123651],[0.1615041,42.9119633],[0.1611868,42.9113929],[0.1609849,42.9109324],[0.1607311,42.9104887],[0.1603908,42.9099395],[0.1599004,42.9093987],[0.1595313,42.9091494],[0.159139,42.9089381],[0.1589544,42.9087057],[0.1586476,42.9082622]]}},{"type":"Feature","id":1283388488,"properties":{"kind":"run","name":"Sud","subtype":"easy","pisteType":"downhill","featured":false},"geometry":{"type":"LineString","coordinates":[[0.1610398,42.9150767],[0.1609133,42.9151397],[0.1607166,42.9153463],[0.1609688,42.9153901],[0.161419,42.9153511],[0.1631605,42.9152079],[0.1640017,42.9151168],[0.1645763,42.9150387],[0.1652191,42.9149688],[0.1658094,42.9150434],[0.1663935,42.9150278],[0.1668381,42.9149496],[0.1671079,42.9147853],[0.1671309,42.9146427],[0.1670507,42.9146261],[0.1666617,42.9145161],[0.1664512,42.9144572],[0.1659484,42.9142645],[0.1658303,42.9142087],[0.1656854,42.9141144],[0.1654601,42.9139229],[0.1652643,42.9137864],[0.1651704,42.9136528],[0.1650926,42.9135064],[0.1649934,42.9133188],[0.1647882,42.9130693],[0.1647104,42.9130261],[0.1644972,42.9129407],[0.1641566,42.9129142],[0.1636344,42.9128585],[0.1631923,42.9127541],[0.1628879,42.9126784],[0.1626773,42.9126283],[0.1623715,42.9124977],[0.1622468,42.9124564],[0.1618673,42.9123651],[0.1616971,42.9123079],[0.1615763,42.9122413],[0.1613818,42.9121009],[0.1610667,42.9119594],[0.1609049,42.9119117]]}},{"type":"Feature","id":1283388490,"properties":{"kind":"run","name":"Maintenon","subtype":"easy","pisteType":"downhill","featured":false},"geometry":{"type":"LineString","coordinates":[[0.1586476,42.9082622],[0.1590134,42.9083035],[0.1592106,42.9083241],[0.1595445,42.9084665],[0.1597618,42.9085279],[0.1598858,42.908554],[0.1602372,42.908609],[0.1608413,42.9087111],[0.1610787,42.9087588],[0.1616849,42.9089032],[0.1619866,42.9089906],[0.1624373,42.9091571],[0.1626787,42.9092661],[0.162853,42.9093604],[0.1630193,42.9094125],[0.1631802,42.9094527],[0.1633827,42.9094842],[0.1636443,42.9095087],[0.1637998,42.9095353],[0.1641847,42.9096266],[0.1643524,42.9096404],[0.1645173,42.9096286],[0.1647949,42.9095775],[0.1650041,42.9095549],[0.1652791,42.9095466],[0.1654279,42.9095299],[0.1657826,42.9094577],[0.1660152,42.9094206],[0.1662661,42.9094085],[0.1670693,42.9094238],[0.1672692,42.9094402],[0.1674417,42.9094697],[0.1676025,42.9095171],[0.1677769,42.9095824],[0.1678956,42.9096399],[0.1681135,42.9097661],[0.1682489,42.9098137],[0.16867,42.909909],[0.1688303,42.9099648],[0.169293,42.9100284],[0.1694325,42.9100146],[0.1696446,42.9099922]]}},{"type":"Feature","id":1366343254,"properties":{"kind":"run","name":"Mapped ski run","subtype":"expert","pisteType":"downhill","featured":false},"geometry":{"type":"LineString","coordinates":[[0.1390134,42.930685],[0.1387358,42.9304288],[0.1383262,42.9303409],[0.1383078,42.9299233],[0.138348,42.929573],[0.1385228,42.9288852],[0.1377308,42.9270535],[0.1375615,42.9268456],[0.1371136,42.9265376],[0.1367968,42.9269496],[0.1364582,42.9269256],[0.1358956,42.9263976],[0.1345192,42.9258017],[0.1343936,42.9256258],[0.1345793,42.9252538],[0.1334694,42.9240459],[0.1327878,42.9227102],[0.1324219,42.9209583],[0.132269,42.9196944],[0.132198,42.9184785],[0.1319904,42.9180785],[0.1318484,42.9179145],[0.1322198,42.9177585],[0.1320122,42.9175105],[0.1315371,42.9173905],[0.1315098,42.9161425],[0.1313131,42.9148305],[0.1309581,42.9139825],[0.1307724,42.9134025],[0.130756,42.9127064],[0.1308598,42.9120744],[0.1311144,42.9119123]]}},{"type":"Feature","id":1470410367,"properties":{"kind":"lift","name":"Téléphérique de l'Hotelerie des Laquets","subtype":"cable_car","status":"active"},"geometry":{"type":"LineString","coordinates":[[0.1365544,42.9346269],[0.1413902,42.9364793]]}},{"type":"Feature","id":1479650792,"properties":{"kind":"run","name":"Bastan","subtype":"easy","pisteType":"downhill","featured":false},"geometry":{"type":"LineString","coordinates":[[0.1032624,42.9033964],[0.1029658,42.9032195]]}},{"type":"Feature","id":1479650793,"properties":{"kind":"run","name":"Bastan","subtype":"easy","pisteType":"downhill","featured":false},"geometry":{"type":"LineString","coordinates":[[0.1032624,42.9033964],[0.1034783,42.9036149],[0.1036513,42.9035694]]}},{"type":"Feature","id":1488007156,"properties":{"kind":"run","name":"Mapped ski run","subtype":"easy","pisteType":"downhill","featured":false},"geometry":{"type":"LineString","coordinates":[[0.1646909,42.8934444],[0.1647474,42.8933379],[0.1646013,42.8931397],[0.1644022,42.8929961],[0.1642726,42.8929178],[0.1640812,42.8928347]]}},{"type":"Feature","id":1546619974,"properties":{"kind":"run","name":"Sapins","subtype":"advanced","pisteType":"downhill","featured":false},"geometry":{"type":"LineString","coordinates":[[0.1721178,42.9036913],[0.1718209,42.9037904],[0.171572,42.903908],[0.1714649,42.9040304],[0.1714114,42.9041019],[0.1712759,42.9043834],[0.1712759,42.9045219],[0.1712601,42.9046788],[0.1712728,42.9049119],[0.1713641,42.9051173],[0.171526,42.9053637]]}}]}