{"type":"FeatureCollection","features":[{"type":"Feature","id":"building-392103361","properties":{"kind":"building","name":"Alpine building","height":7.2},"geometry":{"type":"Polygon","coordinates":[[[-116.1588797,51.4444672],[-116.158982,51.4444416],[-116.158921,51.4443468],[-116.1588187,51.4443724],[-116.1588797,51.4444672]]]}},{"type":"Feature","id":"building-262074682","properties":{"kind":"building","name":"Alpine building","height":7.2},"geometry":{"type":"Polygon","coordinates":[[[-116.1617681,51.4437257],[-116.1617399,51.4437638],[-116.1616597,51.4437407],[-116.161688,51.4437026],[-116.1617681,51.4437257]]]}},{"type":"Feature","id":"building-262074680","properties":{"kind":"building","name":"Alpine building","height":7.2},"geometry":{"type":"Polygon","coordinates":[[[-116.1616032,51.4436853],[-116.1615323,51.4435374],[-116.1616293,51.4435193],[-116.1617002,51.4436673],[-116.1616032,51.4436853]]]}},{"type":"Feature","id":"building-262074676","properties":{"kind":"building","name":"Alpine building","height":7.2},"geometry":{"type":"Polygon","coordinates":[[[-116.1629332,51.4436953],[-116.1624339,51.4433073],[-116.1626402,51.4432041],[-116.1631395,51.4435922],[-116.1629332,51.4436953]]]}},{"type":"Feature","id":"building-262074711","properties":{"kind":"building","name":"Alpine building","height":7.2},"geometry":{"type":"Polygon","coordinates":[[[-116.1615514,51.4435024],[-116.1616279,51.4432512],[-116.1617272,51.4432629],[-116.1616662,51.4434636],[-116.1616407,51.4434606],[-116.1616254,51.4435111],[-116.1615514,51.4435024]]]}},{"type":"Feature","id":"building-1237449869","properties":{"kind":"building","name":"Alpine building","height":7.2},"geometry":{"type":"Polygon","coordinates":[[[-116.1467323,51.4584427],[-116.146772,51.4584136],[-116.146737,51.4583816],[-116.1466809,51.4584223],[-116.1467323,51.4584427]]]}},{"type":"Feature","id":"building-262074718","properties":{"kind":"building","name":"Alpine building","height":7.2},"geometry":{"type":"Polygon","coordinates":[[[-116.1612847,51.4428478],[-116.1615976,51.4426433],[-116.1617392,51.4427274],[-116.1617537,51.4427742],[-116.1614715,51.4429588],[-116.161407,51.4429677],[-116.1613951,51.442927],[-116.1612948,51.4428815],[-116.1612847,51.4428478]]]}},{"type":"Feature","id":"building-262074706","properties":{"kind":"building","name":"Lake Louis Main Lodge","height":7.2},"geometry":{"type":"Polygon","coordinates":[[[-116.1618419,51.4416589],[-116.1622183,51.4415741],[-116.1623291,51.4417652],[-116.1624455,51.441739],[-116.1624993,51.4418318],[-116.1623829,51.441858],[-116.162425,51.4419305],[-116.1624624,51.4419221],[-116.162489,51.4419679],[-116.1624516,51.4419763],[-116.1624794,51.4420243],[-116.1622742,51.4420705],[-116.1622964,51.44211],[-116.1626345,51.4421866],[-116.1625494,51.4423326],[-116.162637,51.4423524],[-116.1625876,51.4424372],[-116.1625,51.4424173],[-116.1624488,51.4425051],[-116.1624774,51.4425116],[-116.1623507,51.4427291],[-116.1623221,51.4427227],[-116.1623013,51.4427582],[-116.1622683,51.4427508],[-116.1622503,51.4427816],[-116.1621462,51.442758],[-116.1621642,51.4427272],[-116.1620179,51.4426941],[-116.1620874,51.4425748],[-116.1620547,51.4425674],[-116.1619829,51.4424671],[-116.1620721,51.4423141],[-116.1620341,51.4422727],[-116.1620787,51.4421963],[-116.16217,51.4421817],[-116.1621893,51.4421486],[-116.1621599,51.4420963],[-116.162103,51.4421091],[-116.1620172,51.4419613],[-116.1619201,51.4419832],[-116.1618791,51.4419123],[-116.1619762,51.4418905],[-116.1618419,51.4416589]]]}},{"type":"Feature","id":"building-262074673","properties":{"kind":"building","name":"Alpine building","height":7.2},"geometry":{"type":"Polygon","coordinates":[[[-116.1615199,51.4412662],[-116.1617803,51.4413827],[-116.1617224,51.441433],[-116.1617705,51.4414545],[-116.1616817,51.4415317],[-116.1616336,51.4415101],[-116.1615923,51.441546],[-116.161527,51.4415168],[-116.161473,51.4415637],[-116.1613571,51.4415119],[-116.1614112,51.441465],[-116.1613319,51.4414295],[-116.161386,51.4413825],[-116.1613493,51.4413661],[-116.1614317,51.4412945],[-116.1614684,51.4413109],[-116.1615199,51.4412662]]]}},{"type":"Feature","id":"building-392103360","properties":{"kind":"building","name":"Alpine building","height":7.2},"geometry":{"type":"Polygon","coordinates":[[[-116.1430239,51.4483897],[-116.1428638,51.4482837],[-116.1426451,51.4484121],[-116.1428052,51.4485181],[-116.1430239,51.4483897]]]}},{"type":"Feature","id":"building-392103362","properties":{"kind":"building","name":"Whitehorn Lodge and Bistro","height":7.2},"geometry":{"type":"Polygon","coordinates":[[[-116.1399705,51.4507275],[-116.1401057,51.4506441],[-116.1401929,51.4505903],[-116.1399863,51.4504579],[-116.1398687,51.4503863],[-116.1396825,51.4504951],[-116.1396222,51.4504627],[-116.1395386,51.4505031],[-116.1396667,51.4505928],[-116.1397165,51.450562],[-116.1399705,51.4507275]]]}},{"type":"Feature","id":"building-1237449868","properties":{"kind":"building","name":"Alpine building","height":7.2},"geometry":{"type":"Polygon","coordinates":[[[-116.140522,51.4667516],[-116.1404578,51.4667363],[-116.1404926,51.4666793],[-116.1405569,51.4666946],[-116.140522,51.4667516]]]}},{"type":"Feature","id":"pylon-lake-louise-0","properties":{"kind":"pylon","name":"Lift tower","height":13},"geometry":{"type":"Polygon","coordinates":[[[-116.15383899024455,51.4467419],[-116.15384827781689,51.44675587444232],[-116.1538707,51.44676166284585],[-116.1538931221831,51.44675587444232],[-116.15390240975545,51.4467419],[-116.1538931221831,51.44672792555768],[-116.1538707,51.44672213715415],[-116.15384827781689,51.44672792555768],[-116.15383899024455,51.4467419]]]}},{"type":"Feature","id":"pylon-lake-louise-1","properties":{"kind":"pylon","name":"Lift tower","height":13},"geometry":{"type":"Polygon","coordinates":[[[-116.13111128070662,51.4604711],[-116.13112057107256,51.46048507444232],[-116.131143,51.46049086284585],[-116.13116542892743,51.46048507444232],[-116.13117471929337,51.4604711],[-116.13116542892743,51.46045712555768],[-116.131143,51.46045133715415],[-116.13112057107256,51.46045712555768],[-116.13111128070662,51.4604711]]]}},{"type":"Feature","id":"pylon-lake-louise-2","properties":{"kind":"pylon","name":"Lift tower","height":13},"geometry":{"type":"Polygon","coordinates":[[[-116.13074418072567,51.4604437],[-116.13075347108602,51.46045767444232],[-116.1307759,51.46046346284585],[-116.13079832891398,51.46045767444232],[-116.13080761927434,51.4604437],[-116.13079832891398,51.46042972555768],[-116.1307759,51.46042393715415],[-116.13075347108602,51.46042972555768],[-116.13074418072567,51.4604437]]]}},{"type":"Feature","id":"pylon-lake-louise-3","properties":{"kind":"pylon","name":"Lift tower","height":13},"geometry":{"type":"Polygon","coordinates":[[[-116.13031848074776,51.4604119],[-116.13032777110165,51.460425874442315],[-116.1303502,51.46043166284585],[-116.13037262889834,51.460425874442315],[-116.13038191925223,51.4604119],[-116.13037262889834,51.46039792555768],[-116.1303502,51.460392137154145],[-116.13032777110165,51.46039792555768],[-116.13031848074776,51.4604119]]]}},{"type":"Feature","id":"pylon-lake-louise-4","properties":{"kind":"pylon","name":"Lift tower","height":13},"geometry":{"type":"Polygon","coordinates":[[[-116.12969558078015,51.4603653],[-116.12970487112455,51.46037927444232],[-116.1297273,51.46038506284585],[-116.12974972887545,51.46037927444232],[-116.12975901921985,51.4603653],[-116.12974972887545,51.46035132555768],[-116.1297273,51.46034553715415],[-116.12970487112455,51.46035132555768],[-116.12969558078015,51.4603653]]]}},{"type":"Feature","id":"pylon-lake-louise-5","properties":{"kind":"pylon","name":"Lift tower","height":13},"geometry":{"type":"Polygon","coordinates":[[[-116.12830988085209,51.4602618],[-116.12831917117542,51.460275774442316],[-116.1283416,51.46028156284585],[-116.12836402882458,51.460275774442316],[-116.12837331914791,51.4602618],[-116.12836402882458,51.46024782555768],[-116.1283416,51.460242037154146],[-116.12831917117542,51.46024782555768],[-116.12830988085209,51.4602618]]]}},{"type":"Feature","id":"pylon-lake-louise-6","properties":{"kind":"pylon","name":"Lift tower","height":13},"geometry":{"type":"Polygon","coordinates":[[[-116.12683518092867,51.4601516],[-116.12684447122956,51.46016557444232],[-116.1268669,51.460171362845855],[-116.12688932877043,51.46016557444232],[-116.12689861907133,51.4601516],[-116.12688932877043,51.460137625557685],[-116.1268669,51.46013183715415],[-116.12684447122956,51.460137625557685],[-116.12683518092867,51.4601516]]]}},{"type":"Feature","id":"pylon-lake-louise-7","properties":{"kind":"pylon","name":"Lift tower","height":13},"geometry":{"type":"Polygon","coordinates":[[[-116.11777878139902,51.4594748],[-116.11778807156216,51.45948877444232],[-116.1178105,51.459494562845855],[-116.11783292843785,51.45948877444232],[-116.11784221860098,51.4594748],[-116.11783292843785,51.459460825557684],[-116.1178105,51.45945503715415],[-116.11778807156216,51.459460825557684],[-116.11777878139902,51.4594748]]]}},{"type":"Feature","id":"pylon-lake-louise-8","properties":{"kind":"pylon","name":"Lift tower","height":13},"geometry":{"type":"Polygon","coordinates":[[[-116.11900938133509,51.4595668],[-116.11901867151695,51.459580774442315],[-116.1190411,51.45958656284585],[-116.11906352848305,51.459580774442315],[-116.11907281866492,51.4595668],[-116.11906352848305,51.45955282555768],[-116.1190411,51.459547037154145],[-116.11901867151695,51.45955282555768],[-116.11900938133509,51.4595668]]]}},{"type":"Feature","id":"pylon-lake-louise-9","properties":{"kind":"pylon","name":"Lift tower","height":13},"geometry":{"type":"Polygon","coordinates":[[[-116.1203950812631,51.4596704],[-116.12040437146605,51.45968437444232],[-116.1204268,51.45969016284585],[-116.12044922853396,51.45968437444232],[-116.12045851873691,51.4596704],[-116.12044922853396,51.45965642555768],[-116.1204268,51.45965063715415],[-116.12040437146605,51.45965642555768],[-116.1203950812631,51.4596704]]]}},{"type":"Feature","id":"pylon-lake-louise-10","properties":{"kind":"pylon","name":"Lift tower","height":13},"geometry":{"type":"Polygon","coordinates":[[[-116.13553917972853,51.4618784],[-116.13554847038094,51.46189237444232],[-116.1355709,51.461898162845856],[-116.13559332961907,51.46189237444232],[-116.13560262027148,51.4618784],[-116.13559332961907,51.461864425557685],[-116.1355709,51.46185863715415],[-116.13554847038094,51.461864425557685],[-116.13553917972853,51.4618784]]]}},{"type":"Feature","id":"pylon-lake-louise-11","properties":{"kind":"pylon","name":"Lift tower","height":13},"geometry":{"type":"Polygon","coordinates":[[[-116.13588448011211,51.4613265],[-116.13589377065217,51.461340474442316],[-116.1359162,51.46134626284585],[-116.13593862934782,51.461340474442316],[-116.13594791988788,51.4613265],[-116.13593862934782,51.46131252555768],[-116.1359162,51.461306737154146],[-116.13589377065217,51.46131252555768],[-116.13588448011211,51.4613265]]]}},{"type":"Feature","id":"pylon-lake-louise-12","properties":{"kind":"pylon","name":"Lift tower","height":13},"geometry":{"type":"Polygon","coordinates":[[[-116.13707728138978,51.4594881],[-116.13708657155561,51.45950207444232],[-116.137109,51.459507862845854],[-116.13713142844438,51.45950207444232],[-116.13714071861021,51.4594881],[-116.13713142844438,51.45947412555768],[-116.137109,51.45946833715415],[-116.13708657155561,51.45947412555768],[-116.13707728138978,51.4594881]]]}},{"type":"Feature","id":"pylon-lake-louise-13","properties":{"kind":"pylon","name":"Lift tower","height":13},"geometry":{"type":"Polygon","coordinates":[[[-116.13745178178465,51.4589199],[-116.13746107183484,51.458933874442316],[-116.1374835,51.45893966284585],[-116.13750592816517,51.458933874442316],[-116.13751521821536,51.4589199],[-116.13750592816517,51.45890592555768],[-116.1374835,51.458900137154146],[-116.13746107183484,51.45890592555768],[-116.13745178178465,51.4589199]]]}},{"type":"Feature","id":"pylon-lake-louise-14","properties":{"kind":"pylon","name":"Lift tower","height":13},"geometry":{"type":"Polygon","coordinates":[[[-116.13805428247984,51.4579195],[-116.13806357232642,51.45793347444232],[-116.138086,51.457939262845855],[-116.13810842767359,51.45793347444232],[-116.13811771752016,51.4579195],[-116.13810842767359,51.457905525557685],[-116.138086,51.45789973715415],[-116.13806357232642,51.457905525557685],[-116.13805428247984,51.4579195]]]}},{"type":"Feature","id":"pylon-lake-louise-15","properties":{"kind":"pylon","name":"Lift tower","height":13},"geometry":{"type":"Polygon","coordinates":[[[-116.137718882085,51.4584877],[-116.13772817204722,51.45850167444232],[-116.1377506,51.45850746284585],[-116.13777302795279,51.45850167444232],[-116.13778231791501,51.4584877],[-116.13777302795279,51.45847372555768],[-116.1377506,51.45846793715415],[-116.13772817204722,51.45847372555768],[-116.137718882085,51.4584877]]]}},{"type":"Feature","id":"pylon-lake-louise-16","properties":{"kind":"pylon","name":"Lift tower","height":13},"geometry":{"type":"Polygon","coordinates":[[[-116.13851028294798,51.4572458],[-116.13851957265743,51.45725977444232],[-116.138542,51.457265562845855],[-116.13856442734257,51.45725977444232],[-116.13857371705203,51.4572458],[-116.13856442734257,51.457231825557685],[-116.138542,51.45722603715415],[-116.13851957265743,51.457231825557685],[-116.13851028294798,51.4572458]]]}},{"type":"Feature","id":"pylon-lake-louise-17","properties":{"kind":"pylon","name":"Lift tower","height":13},"geometry":{"type":"Polygon","coordinates":[[[-116.1388749833442,51.4566756],[-116.1388842729376,51.456689574442315],[-116.1389067,51.45669536284585],[-116.13892912706241,51.456689574442315],[-116.13893841665582,51.4566756],[-116.13892912706241,51.45666162555768],[-116.1389067,51.456655837154145],[-116.1388842729376,51.45666162555768],[-116.1388749833442,51.4566756]]]}},{"type":"Feature","id":"pylon-lake-louise-18","properties":{"kind":"pylon","name":"Lift tower","height":13},"geometry":{"type":"Polygon","coordinates":[[[-116.13932768383063,51.4559755],[-116.13933697328157,51.45598947444232],[-116.1393594,51.45599526284585],[-116.13938182671843,51.45598947444232],[-116.13939111616938,51.4559755],[-116.13938182671843,51.45596152555768],[-116.1393594,51.45595573715415],[-116.13933697328157,51.45596152555768],[-116.13932768383063,51.4559755]]]}},{"type":"Feature","id":"pylon-lake-louise-19","properties":{"kind":"pylon","name":"Lift tower","height":13},"geometry":{"type":"Polygon","coordinates":[[[-116.13990088444115,51.4550968],[-116.13991017371326,51.45511077444232],[-116.1399326,51.45511656284585],[-116.13995502628673,51.45511077444232],[-116.13996431555884,51.4550968],[-116.13995502628673,51.45508282555768],[-116.1399326,51.45507703715415],[-116.13991017371326,51.45508282555768],[-116.13990088444115,51.4550968]]]}},{"type":"Feature","id":"pylon-lake-louise-20","properties":{"kind":"pylon","name":"Lift tower","height":13},"geometry":{"type":"Polygon","coordinates":[[[-116.14039258498681,51.4543114],[-116.14040187409911,51.45432537444232],[-116.1404243,51.454331162845854],[-116.1404467259009,51.45432537444232],[-116.1404560150132,51.4543114],[-116.1404467259009,51.454297425557684],[-116.1404243,51.45429163715415],[-116.14040187409911,51.454297425557684],[-116.14039258498681,51.4543114]]]}},{"type":"Feature","id":"pylon-lake-louise-21","properties":{"kind":"pylon","name":"Lift tower","height":13},"geometry":{"type":"Polygon","coordinates":[[[-116.14084208545631,51.4536356],[-116.1408513744311,51.453649574442316],[-116.1408738,51.45365536284585],[-116.1408962255689,51.453649574442316],[-116.14090551454368,51.4536356],[-116.1408962255689,51.45362162555768],[-116.1408738,51.453615837154146],[-116.1408513744311,51.45362162555768],[-116.14084208545631,51.4536356]]]}},{"type":"Feature","id":"pylon-lake-louise-22","properties":{"kind":"pylon","name":"Lift tower","height":13},"geometry":{"type":"Polygon","coordinates":[[[-116.14191238569092,51.4532979],[-116.14192167459699,51.45331187444232],[-116.1419441,51.453317662845855],[-116.14196652540302,51.45331187444232],[-116.14197581430909,51.4532979],[-116.14196652540302,51.453283925557685],[-116.1419441,51.45327813715415],[-116.14192167459699,51.453283925557685],[-116.14191238569092,51.4532979]]]}},{"type":"Feature","id":"pylon-lake-louise-23","properties":{"kind":"pylon","name":"Lift tower","height":13},"geometry":{"type":"Polygon","coordinates":[[[-116.14387818644673,51.4522099],[-116.14388747513142,51.45222387444232],[-116.1439099,51.45222966284585],[-116.14393232486857,51.45222387444232],[-116.14394161355327,51.4522099],[-116.14393232486857,51.45219592555768],[-116.1439099,51.45219013715415],[-116.14388747513142,51.45219592555768],[-116.14387818644673,51.4522099]]]}},{"type":"Feature","id":"pylon-lake-louise-24","properties":{"kind":"pylon","name":"Lift tower","height":13},"geometry":{"type":"Polygon","coordinates":[[[-116.15854379204225,51.444153],[-116.15855307908807,51.44416697444232],[-116.1585755,51.44417276284585],[-116.15859792091193,51.44416697444232],[-116.15860720795774,51.444153],[-116.15859792091193,51.44413902555768],[-116.1585755,51.44413323715415],[-116.15855307908807,51.44413902555768],[-116.15854379204225,51.444153]]]}},{"type":"Feature","id":"pylon-lake-louise-25","properties":{"kind":"pylon","name":"Lift tower","height":13},"geometry":{"type":"Polygon","coordinates":[[[-116.15926159231569,51.4437592],[-116.15927087928141,51.44377317444232],[-116.1592933,51.443778962845855],[-116.1593157207186,51.44377317444232],[-116.15932500768432,51.4437592],[-116.1593157207186,51.443745225557684],[-116.1592933,51.44373943715415],[-116.15927087928141,51.443745225557684],[-116.15926159231569,51.4437592]]]}},{"type":"Feature","id":"pylon-lake-louise-26","properties":{"kind":"pylon","name":"Lift tower","height":13},"geometry":{"type":"Polygon","coordinates":[[[-116.16012009265103,51.4432762],[-116.16012937951854,51.44329017444232],[-116.1601518,51.44329596284585],[-116.16017422048145,51.44329017444232],[-116.16018350734896,51.4432762],[-116.16017422048145,51.44326222555768],[-116.1601518,51.44325643715415],[-116.16012937951854,51.44326222555768],[-116.16012009265103,51.4432762]]]}},{"type":"Feature","id":"pylon-lake-louise-27","properties":{"kind":"pylon","name":"Lift tower","height":13},"geometry":{"type":"Polygon","coordinates":[[[-116.15613059111736,51.445485],[-116.15613987843406,51.445498974442316],[-116.1561623,51.44550476284585],[-116.15618472156595,51.445498974442316],[-116.15619400888265,51.445485],[-116.15618472156595,51.44547102555768],[-116.1561623,51.445465237154146],[-116.15613987843406,51.44547102555768],[-116.15613059111736,51.445485]]]}},{"type":"Feature","id":"pylon-lake-louise-28","properties":{"kind":"pylon","name":"Lift tower","height":13},"geometry":{"type":"Polygon","coordinates":[[[-116.15994469316759,51.4425322],[-116.1599539798838,51.44254617444232],[-116.1599764,51.442551962845855],[-116.15999882011621,51.44254617444232],[-116.16000810683242,51.4425322],[-116.15999882011621,51.442518225557684],[-116.1599764,51.44251243715415],[-116.1599539798838,51.442518225557684],[-116.15994469316759,51.4425322]]]}},{"type":"Feature","id":"pylon-lake-louise-29","properties":{"kind":"pylon","name":"Lift tower","height":13},"geometry":{"type":"Polygon","coordinates":[[[-116.11667268899018,51.4485481],[-116.11668197692993,51.448562074442314],[-116.1167044,51.44856786284585],[-116.11672682307008,51.448562074442314],[-116.11673611100983,51.4485481],[-116.11672682307008,51.44853412555768],[-116.1167044,51.448528337154144],[-116.11668197692993,51.44853412555768],[-116.11667268899018,51.4485481]]]}},{"type":"Feature","id":"pylon-lake-louise-30","properties":{"kind":"pylon","name":"Lift tower","height":13},"geometry":{"type":"Polygon","coordinates":[[[-116.11723208871634,51.4489424],[-116.11724137673627,51.44895637444232],[-116.1172638,51.44896216284585],[-116.11728622326373,51.44895637444232],[-116.11729551128367,51.4489424],[-116.11728622326373,51.44892842555768],[-116.1172638,51.44892263715415],[-116.11724137673627,51.44892842555768],[-116.11723208871634,51.4489424]]]}},{"type":"Feature","id":"pylon-lake-louise-31","properties":{"kind":"pylon","name":"Lift tower","height":13},"geometry":{"type":"Polygon","coordinates":[[[-116.1179952883426,51.4494805],[-116.118004576472,51.44949447444232],[-116.118027,51.44950026284585],[-116.11804942352799,51.44949447444232],[-116.1180587116574,51.4494805],[-116.11804942352799,51.44946652555768],[-116.118027,51.44946073715415],[-116.118004576472,51.44946652555768],[-116.1179952883426,51.4494805]]]}},{"type":"Feature","id":"pylon-lake-louise-32","properties":{"kind":"pylon","name":"Lift tower","height":13},"geometry":{"type":"Polygon","coordinates":[[[-116.11881078794322,51.4500555],[-116.1188200761896,51.450069474442316],[-116.1188425,51.45007526284585],[-116.11886492381039,51.450069474442316],[-116.11887421205678,51.4500555],[-116.11886492381039,51.45004152555768],[-116.1188425,51.450035737154145],[-116.1188200761896,51.45004152555768],[-116.11881078794322,51.4500555]]]}},{"type":"Feature","id":"pylon-lake-louise-33","properties":{"kind":"pylon","name":"Lift tower","height":13},"geometry":{"type":"Polygon","coordinates":[[[-116.1195997875569,51.4506117],[-116.11960907591643,51.45062567444232],[-116.1196315,51.450631462845855],[-116.11965392408356,51.45062567444232],[-116.1196632124431,51.4506117],[-116.11965392408356,51.450597725557685],[-116.1196315,51.45059193715415],[-116.11960907591643,51.450597725557685],[-116.1195997875569,51.4506117]]]}},{"type":"Feature","id":"pylon-lake-louise-34","properties":{"kind":"pylon","name":"Lift tower","height":13},"geometry":{"type":"Polygon","coordinates":[[[-116.1198905874145,51.4508167],[-116.11989987581575,51.450830674442315],[-116.1199223,51.45083646284585],[-116.11994472418425,51.450830674442315],[-116.1199540125855,51.4508167],[-116.11994472418425,51.45080272555768],[-116.1199223,51.450796937154145],[-116.11989987581575,51.45080272555768],[-116.1198905874145,51.4508167]]]}},{"type":"Feature","id":"pylon-lake-louise-35","properties":{"kind":"pylon","name":"Lift tower","height":13},"geometry":{"type":"Polygon","coordinates":[[[-116.12019818726384,51.4510336],[-116.12020747570921,51.45104757444232],[-116.1202299,51.451053362845855],[-116.12025232429079,51.45104757444232],[-116.12026161273616,51.4510336],[-116.12025232429079,51.451019625557684],[-116.1202299,51.45101383715415],[-116.12020747570921,51.451019625557684],[-116.12019818726384,51.4510336]]]}},{"type":"Feature","id":"pylon-lake-louise-36","properties":{"kind":"pylon","name":"Lift tower","height":13},"geometry":{"type":"Polygon","coordinates":[[[-116.12078528697633,51.4514475],[-116.12079457550591,51.45146147444232],[-116.120817,51.45146726284585],[-116.1208394244941,51.45146147444232],[-116.12084871302368,51.4514475],[-116.1208394244941,51.45143352555768],[-116.120817,51.45142773715415],[-116.12079457550591,51.45143352555768],[-116.12078528697633,51.4514475]]]}},{"type":"Feature","id":"pylon-lake-louise-37","properties":{"kind":"pylon","name":"Lift tower","height":13},"geometry":{"type":"Polygon","coordinates":[[[-116.12150778662254,51.4519568],[-116.12151707525575,51.451970774442316],[-116.1215395,51.45197656284585],[-116.12156192474424,51.451970774442316],[-116.12157121337745,51.4519568],[-116.12156192474424,51.45194282555768],[-116.1215395,51.451937037154146],[-116.12151707525575,51.45194282555768],[-116.12150778662254,51.4519568]]]}},{"type":"Feature","id":"pylon-lake-louise-38","properties":{"kind":"pylon","name":"Lift tower","height":13},"geometry":{"type":"Polygon","coordinates":[[[-116.12260598608474,51.452731],[-116.12261527487546,51.45274497444232],[-116.1226377,51.45275076284585],[-116.12266012512454,51.45274497444232],[-116.12266941391526,51.452731],[-116.12266012512454,51.45271702555768],[-116.1226377,51.45271123715415],[-116.12261527487546,51.45271702555768],[-116.12260598608474,51.452731]]]}},{"type":"Feature","id":"pylon-lake-louise-39","properties":{"kind":"pylon","name":"Lift tower","height":13},"geometry":{"type":"Polygon","coordinates":[[[-116.1228269859765,51.4528868],[-116.12283627479893,51.45290077444232],[-116.1228587,51.452906562845854],[-116.12288112520106,51.45290077444232],[-116.12289041402349,51.4528868],[-116.12288112520106,51.452872825557684],[-116.1228587,51.45286703715415],[-116.12283627479893,51.452872825557684],[-116.1228269859765,51.4528868]]]}},{"type":"Feature","id":"pylon-lake-louise-40","properties":{"kind":"pylon","name":"Lift tower","height":13},"geometry":{"type":"Polygon","coordinates":[[[-116.12369128555322,51.4534961],[-116.12370057449962,51.45351007444232],[-116.123723,51.453515862845855],[-116.12374542550037,51.45351007444232],[-116.12375471444678,51.4534961],[-116.12374542550037,51.453482125557684],[-116.123723,51.45347633715415],[-116.12370057449962,51.453482125557684],[-116.12369128555322,51.4534961]]]}},{"type":"Feature","id":"pylon-lake-louise-41","properties":{"kind":"pylon","name":"Lift tower","height":13},"geometry":{"type":"Polygon","coordinates":[[[-116.12396738541797,51.4536908],[-116.12397667440399,51.453704774442315],[-116.1239991,51.45371056284585],[-116.12402152559602,51.453704774442315],[-116.12403081458204,51.4536908],[-116.12402152559602,51.45367682555768],[-116.1239991,51.453671037154145],[-116.12397667440399,51.45367682555768],[-116.12396738541797,51.4536908]]]}},{"type":"Feature","id":"pylon-lake-louise-42","properties":{"kind":"pylon","name":"Lift tower","height":13},"geometry":{"type":"Polygon","coordinates":[[[-116.12440028520601,51.4539959],[-116.1244095742541,51.45400987444232],[-116.124432,51.454015662845855],[-116.1244544257459,51.45400987444232],[-116.12446371479399,51.4539959],[-116.1244544257459,51.453981925557684],[-116.124432,51.45397613715415],[-116.1244095742541,51.453981925557684],[-116.12440028520601,51.4539959]]]}},{"type":"Feature","id":"pylon-lake-louise-43","properties":{"kind":"pylon","name":"Lift tower","height":13},"geometry":{"type":"Polygon","coordinates":[[[-116.12460778510436,51.4541422],[-116.12461707418223,51.45415617444232],[-116.1246395,51.45416196284585],[-116.12466192581778,51.45415617444232],[-116.12467121489564,51.4541422],[-116.12466192581778,51.45412822555768],[-116.1246395,51.45412243715415],[-116.12461707418223,51.45412822555768],[-116.12460778510436,51.4541422]]]}},{"type":"Feature","id":"pylon-lake-louise-44","properties":{"kind":"pylon","name":"Lift tower","height":13},"geometry":{"type":"Polygon","coordinates":[[[-116.12607338547542,51.4536081],[-116.1260826744446,51.453622074442315],[-116.1261051,51.45362786284585],[-116.1261275255554,51.453622074442315],[-116.12613681452459,51.4536081],[-116.1261275255554,51.45359412555768],[-116.1261051,51.453588337154144],[-116.1260826744446,51.45359412555768],[-116.12607338547542,51.4536081]]]}},{"type":"Feature","id":"pylon-lake-louise-45","properties":{"kind":"pylon","name":"Lift tower","height":13},"geometry":{"type":"Polygon","coordinates":[[[-116.12798198590897,51.452984],[-116.12799127475118,51.45299797444232],[-116.1280137,51.45300376284585],[-116.12803612524881,51.45299797444232],[-116.12804541409102,51.452984],[-116.12803612524881,51.45297002555768],[-116.1280137,51.45296423715415],[-116.12799127475118,51.45297002555768],[-116.12798198590897,51.452984]]]}},{"type":"Feature","id":"pylon-lake-louise-46","properties":{"kind":"pylon","name":"Lift tower","height":13},"geometry":{"type":"Polygon","coordinates":[[[-116.13067118651982,51.4521047],[-116.13068047518311,51.45211867444232],[-116.1307029,51.45212446284585],[-116.1307253248169,51.45211867444232],[-116.13073461348019,51.4521047],[-116.1307253248169,51.45209072555768],[-116.1307029,51.45208493715415],[-116.13068047518311,51.45209072555768],[-116.13067118651982,51.4521047]]]}},{"type":"Feature","id":"pylon-lake-louise-47","properties":{"kind":"pylon","name":"Lift tower","height":13},"geometry":{"type":"Polygon","coordinates":[[[-116.13361208718779,51.4511431],[-116.13362137565542,51.45115707444232],[-116.1336438,51.451162862845855],[-116.13366622434458,51.45115707444232],[-116.13367551281222,51.4511431],[-116.13366622434458,51.451129125557685],[-116.1336438,51.45112333715415],[-116.13362137565542,51.451129125557685],[-116.13361208718779,51.4511431]]]}},{"type":"Feature","id":"pylon-lake-louise-48","properties":{"kind":"pylon","name":"Lift tower","height":13},"geometry":{"type":"Polygon","coordinates":[[[-116.13610388775368,51.4503284],[-116.13611317605557,51.450342374442315],[-116.1361356,51.45034816284585],[-116.13615802394443,51.450342374442315],[-116.13616731224633,51.4503284],[-116.13615802394443,51.45031442555768],[-116.1361356,51.450308637154144],[-116.13611317605557,51.45031442555768],[-116.13610388775368,51.4503284]]]}},{"type":"Feature","id":"pylon-lake-louise-49","properties":{"kind":"pylon","name":"Lift tower","height":13},"geometry":{"type":"Polygon","coordinates":[[[-116.13757888808867,51.4498461],[-116.13758817629245,51.44986007444232],[-116.1376106,51.449865862845854],[-116.13763302370755,51.44986007444232],[-116.13764231191134,51.4498461],[-116.13763302370755,51.449832125557684],[-116.1376106,51.44982633715415],[-116.13758817629245,51.449832125557684],[-116.13757888808867,51.4498461]]]}},{"type":"Feature","id":"pylon-lake-louise-50","properties":{"kind":"pylon","name":"Lift tower","height":13},"geometry":{"type":"Polygon","coordinates":[[[-116.13870308834397,51.4494785],[-116.13871237647298,51.449492474442316],[-116.1387348,51.44949826284585],[-116.13875722352701,51.449492474442316],[-116.13876651165602,51.4494785],[-116.13875722352701,51.44946452555768],[-116.1387348,51.449458737154146],[-116.13871237647298,51.44946452555768],[-116.13870308834397,51.4494785]]]}},{"type":"Feature","id":"pylon-lake-louise-51","properties":{"kind":"pylon","name":"Lift tower","height":13},"geometry":{"type":"Polygon","coordinates":[[[-116.14232828916728,51.4482931],[-116.14233757705514,51.44830707444232],[-116.14236,51.44831286284585],[-116.14238242294485,51.44830707444232],[-116.14239171083271,51.4482931],[-116.14238242294485,51.44827912555768],[-116.14236,51.44827333715415],[-116.14233757705514,51.44827912555768],[-116.14232828916728,51.4482931]]]}},{"type":"Feature","id":"pylon-lake-louise-52","properties":{"kind":"pylon","name":"Lift tower","height":13},"geometry":{"type":"Polygon","coordinates":[[[-116.14598108999684,51.4470986],[-116.14599037764172,51.447112574442315],[-116.1460128,51.44711836284585],[-116.14603522235826,51.447112574442315],[-116.14604451000315,51.4470986],[-116.14603522235826,51.44708462555768],[-116.1460128,51.447078837154145],[-116.14599037764172,51.44708462555768],[-116.14598108999684,51.4470986]]]}},{"type":"Feature","id":"pylon-lake-louise-53","properties":{"kind":"pylon","name":"Lift tower","height":13},"geometry":{"type":"Polygon","coordinates":[[[-116.14818019049622,51.4463795],[-116.14818947799485,51.44639347444232],[-116.1482119,51.44639926284585],[-116.14823432200517,51.44639347444232],[-116.1482436095038,51.4463795],[-116.14823432200517,51.44636552555768],[-116.1482119,51.44635973715415],[-116.14818947799485,51.44636552555768],[-116.14818019049622,51.4463795]]]}},{"type":"Feature","id":"pylon-lake-louise-54","properties":{"kind":"pylon","name":"Lift tower","height":13},"geometry":{"type":"Polygon","coordinates":[[[-116.14907859070024,51.4460857],[-116.14908787813911,51.446099674442316],[-116.1491103,51.44610546284585],[-116.1491327218609,51.446099674442316],[-116.14914200929977,51.4460857],[-116.1491327218609,51.44607172555768],[-116.1491103,51.446065937154145],[-116.14908787813911,51.44607172555768],[-116.14907859070024,51.4460857]]]}},{"type":"Feature","id":"pylon-lake-louise-55","properties":{"kind":"pylon","name":"Lift tower","height":13},"geometry":{"type":"Polygon","coordinates":[[[-116.14973889085016,51.4458698],[-116.14974817824512,51.445883774442315],[-116.1497706,51.44588956284585],[-116.14979302175487,51.445883774442315],[-116.14980230914983,51.4458698],[-116.14979302175487,51.44585582555768],[-116.1497706,51.445850037154145],[-116.14974817824512,51.44585582555768],[-116.14973889085016,51.4458698]]]}},{"type":"Feature","id":"pylon-lake-louise-56","properties":{"kind":"pylon","name":"Lift tower","height":13},"geometry":{"type":"Polygon","coordinates":[[[-116.15683129246067,51.4435504],[-116.15684057938392,51.44356437444232],[-116.156863,51.44357016284585],[-116.15688542061608,51.44356437444232],[-116.15689470753934,51.4435504],[-116.15688542061608,51.44353642555768],[-116.156863,51.44353063715415],[-116.15684057938392,51.44353642555768],[-116.15683129246067,51.4435504]]]}},{"type":"Feature","id":"pylon-lake-louise-57","properties":{"kind":"pylon","name":"Lift tower","height":13},"geometry":{"type":"Polygon","coordinates":[[[-116.1585984928619,51.4429725],[-116.15860777966763,51.44298647444232],[-116.1586302,51.442992262845856],[-116.15865262033238,51.44298647444232],[-116.15866190713811,51.4429725],[-116.15865262033238,51.442958525557685],[-116.1586302,51.44295273715415],[-116.15860777966763,51.442958525557685],[-116.1585984928619,51.4429725]]]}},{"type":"Feature","id":"pylon-lake-louise-58","properties":{"kind":"pylon","name":"Lift tower","height":13},"geometry":{"type":"Polygon","coordinates":[[[-116.16085259337372,51.4422353],[-116.16086188002956,51.44224927444232],[-116.1608843,51.44225506284585],[-116.16090671997046,51.44224927444232],[-116.1609160066263,51.4422353],[-116.16090671997046,51.44222132555768],[-116.1608843,51.44221553715415],[-116.16086188002956,51.44222132555768],[-116.16085259337372,51.4422353]]]}},{"type":"Feature","id":"pylon-lake-louise-59","properties":{"kind":"pylon","name":"Lift tower","height":13},"geometry":{"type":"Polygon","coordinates":[[[-116.15534689212357,51.4440359],[-116.15535617914556,51.44404987444232],[-116.1553786,51.444055662845855],[-116.15540102085446,51.44404987444232],[-116.15541030787644,51.4440359],[-116.15540102085446,51.444021925557685],[-116.1553786,51.44401613715415],[-116.15535617914556,51.444021925557685],[-116.15534689212357,51.4440359]]]}},{"type":"Feature","id":"pylon-lake-louise-60","properties":{"kind":"pylon","name":"Lift tower","height":13},"geometry":{"type":"Polygon","coordinates":[[[-116.1559406922584,51.4438417],[-116.1559499792409,51.44385567444232],[-116.1559724,51.44386146284585],[-116.15599482075909,51.44385567444232],[-116.1560041077416,51.4438417],[-116.15599482075909,51.44382772555768],[-116.1559724,51.44382193715415],[-116.1559499792409,51.44382772555768],[-116.1559406922584,51.4438417]]]}},{"type":"Feature","id":"pylon-lake-louise-61","properties":{"kind":"pylon","name":"Lift tower","height":13},"geometry":{"type":"Polygon","coordinates":[[[-116.14712279025608,51.4467253],[-116.14713207782503,51.446739274442315],[-116.1471545,51.44674506284585],[-116.14717692217496,51.446739274442315],[-116.14718620974392,51.4467253],[-116.14717692217496,51.44671132555768],[-116.1471545,51.446705537154145],[-116.14713207782503,51.44671132555768],[-116.14712279025608,51.4467253]]]}},{"type":"Feature","id":"pylon-lake-louise-62","properties":{"kind":"pylon","name":"Lift tower","height":13},"geometry":{"type":"Polygon","coordinates":[[[-116.14482318973384,51.4474773],[-116.14483247745576,51.44749127444232],[-116.1448549,51.447497062845855],[-116.14487732254423,51.44749127444232],[-116.14488661026616,51.4474773],[-116.14487732254423,51.447463325557685],[-116.1448549,51.44745753715415],[-116.14483247745576,51.447463325557685],[-116.14482318973384,51.4474773]]]}},{"type":"Feature","id":"pylon-lake-louise-63","properties":{"kind":"pylon","name":"Lift tower","height":13},"geometry":{"type":"Polygon","coordinates":[[[-116.13991708861973,51.4490815],[-116.13992637666796,51.449095474442316],[-116.1399488,51.44910126284585],[-116.13997122333204,51.449095474442316],[-116.13998051138027,51.4490815],[-116.13997122333204,51.44906752555768],[-116.1399488,51.449061737154146],[-116.13992637666796,51.44906752555768],[-116.13991708861973,51.4490815]]]}},{"type":"Feature","id":"pylon-lake-louise-64","properties":{"kind":"pylon","name":"Lift tower","height":13},"geometry":{"type":"Polygon","coordinates":[[[-116.11564408977412,51.4474193],[-116.11565337748425,51.44743327444232],[-116.1156758,51.44743906284585],[-116.11569822251576,51.44743327444232],[-116.11570751022589,51.4474193],[-116.11569822251576,51.44740532555768],[-116.1156758,51.44739953715415],[-116.11565337748425,51.44740532555768],[-116.11564408977412,51.4474193]]]}},{"type":"Feature","id":"pylon-lake-louise-65","properties":{"kind":"pylon","name":"Lift tower","height":13},"geometry":{"type":"Polygon","coordinates":[[[-116.11482769038933,51.4465334],[-116.11483697791927,51.44654737444232],[-116.1148594,51.44655316284585],[-116.11488182208073,51.44654737444232],[-116.11489110961067,51.4465334],[-116.11488182208073,51.44651942555768],[-116.1148594,51.44651363715415],[-116.11483697791927,51.44651942555768],[-116.11482769038933,51.4465334]]]}},{"type":"Feature","id":"pylon-lake-louise-66","properties":{"kind":"pylon","name":"Lift tower","height":13},"geometry":{"type":"Polygon","coordinates":[[[-116.11409089094452,51.4457339],[-116.11410017831184,51.44574787444232],[-116.1141226,51.44575366284585],[-116.11414502168816,51.44574787444232],[-116.11415430905548,51.4457339],[-116.11414502168816,51.44571992555768],[-116.1141226,51.44571413715415],[-116.11410017831184,51.44571992555768],[-116.11409089094452,51.4457339]]]}},{"type":"Feature","id":"pylon-lake-louise-67","properties":{"kind":"pylon","name":"Lift tower","height":13},"geometry":{"type":"Polygon","coordinates":[[[-116.11346409141677,51.4450538],[-116.11347337864578,51.445067774442315],[-116.1134958,51.44507356284585],[-116.11351822135421,51.445067774442315],[-116.11352750858322,51.4450538],[-116.11351822135421,51.44503982555768],[-116.1134958,51.445034037154144],[-116.11347337864578,51.44503982555768],[-116.11346409141677,51.4450538]]]}},{"type":"Feature","id":"pylon-lake-louise-68","properties":{"kind":"pylon","name":"Lift tower","height":13},"geometry":{"type":"Polygon","coordinates":[[[-116.11288819185076,51.4444288],[-116.11289747895265,51.444442774442315],[-116.1129199,51.44444856284585],[-116.11294232104734,51.444442774442315],[-116.11295160814923,51.4444288],[-116.11294232104734,51.44441482555768],[-116.1129199,51.444409037154145],[-116.11289747895265,51.44441482555768],[-116.11288819185076,51.4444288]]]}},{"type":"Feature","id":"pylon-lake-louise-69","properties":{"kind":"pylon","name":"Lift tower","height":13},"geometry":{"type":"Polygon","coordinates":[[[-116.11240009221848,51.4438992],[-116.11240937921266,51.443913174442315],[-116.1124318,51.44391896284585],[-116.11245422078733,51.443913174442315],[-116.11246350778151,51.4438992],[-116.11245422078733,51.44388522555768],[-116.1124318,51.443879437154145],[-116.11240937921266,51.44388522555768],[-116.11240009221848,51.4438992]]]}},{"type":"Feature","id":"pylon-lake-louise-70","properties":{"kind":"pylon","name":"Lift tower","height":13},"geometry":{"type":"Polygon","coordinates":[[[-116.11138239298528,51.4427948],[-116.11139167975487,51.44280877444232],[-116.1114141,51.442814562845854],[-116.11143652024514,51.44280877444232],[-116.11144580701473,51.4427948],[-116.11143652024514,51.44278082555768],[-116.1114141,51.44277503715415],[-116.11139167975487,51.44278082555768],[-116.11138239298528,51.4427948]]]}},{"type":"Feature","id":"pylon-lake-louise-71","properties":{"kind":"pylon","name":"Lift tower","height":13},"geometry":{"type":"Polygon","coordinates":[[[-116.1106488935379,51.4419988],[-116.11065818014565,51.44201277444232],[-116.1106806,51.44201856284585],[-116.11070301985434,51.44201277444232],[-116.11071230646209,51.4419988],[-116.11070301985434,51.44198482555768],[-116.1106806,51.44197903715415],[-116.11065818014565,51.44198482555768],[-116.1106488935379,51.4419988]]]}},{"type":"Feature","id":"pylon-lake-louise-72","properties":{"kind":"pylon","name":"Lift tower","height":13},"geometry":{"type":"Polygon","coordinates":[[[-116.10972479423408,51.440996],[-116.10973408063792,51.441009974442316],[-116.1097565,51.44101576284585],[-116.10977891936209,51.441009974442316],[-116.10978820576592,51.440996],[-116.10977891936209,51.44098202555768],[-116.1097565,51.440976237154146],[-116.10973408063792,51.44098202555768],[-116.10972479423408,51.440996]]]}},{"type":"Feature","id":"pylon-lake-louise-73","properties":{"kind":"pylon","name":"Lift tower","height":13},"geometry":{"type":"Polygon","coordinates":[[[-116.10933959452427,51.440578],[-116.10934888084311,51.44059197444232],[-116.1093713,51.440597762845854],[-116.1093937191569,51.44059197444232],[-116.10940300547574,51.440578],[-116.1093937191569,51.440564025557684],[-116.1093713,51.44055823715415],[-116.10934888084311,51.440564025557684],[-116.10933959452427,51.440578]]]}},{"type":"Feature","id":"pylon-lake-louise-74","properties":{"kind":"pylon","name":"Lift tower","height":13},"geometry":{"type":"Polygon","coordinates":[[[-116.10849989515687,51.4396667],[-116.10850918129043,51.439680674442315],[-116.1085316,51.43968646284585],[-116.10855401870958,51.439680674442315],[-116.10856330484314,51.4396667],[-116.10855401870958,51.43965272555768],[-116.1085316,51.439646937154144],[-116.10850918129043,51.43965272555768],[-116.10849989515687,51.4396667]]]}},{"type":"Feature","id":"pylon-lake-louise-75","properties":{"kind":"pylon","name":"Lift tower","height":13},"geometry":{"type":"Polygon","coordinates":[[[-116.10748259592327,51.4385626],[-116.10749188183236,51.438576574442315],[-116.1075143,51.43858236284585],[-116.10753671816765,51.438576574442315],[-116.10754600407674,51.4385626],[-116.10753671816765,51.43854862555768],[-116.1075143,51.438542837154145],[-116.10749188183236,51.43854862555768],[-116.10748259592327,51.4385626]]]}},{"type":"Feature","id":"pylon-lake-louise-76","properties":{"kind":"pylon","name":"Lift tower","height":13},"geometry":{"type":"Polygon","coordinates":[[[-116.10667189653387,51.4376829],[-116.10668118226411,51.43769687444232],[-116.1067036,51.43770266284585],[-116.1067260177359,51.43769687444232],[-116.10673530346614,51.4376829],[-116.1067260177359,51.43766892555768],[-116.1067036,51.437663137154146],[-116.10668118226411,51.43766892555768],[-116.10667189653387,51.4376829]]]}},{"type":"Feature","id":"pylon-lake-louise-77","properties":{"kind":"pylon","name":"Lift tower","height":13},"geometry":{"type":"Polygon","coordinates":[[[-116.10619009689687,51.4371599],[-116.10619938252078,51.437173874442315],[-116.1062218,51.43717966284585],[-116.10624421747922,51.437173874442315],[-116.10625350310313,51.4371599],[-116.10624421747922,51.43714592555768],[-116.1062218,51.437140137154145],[-116.10619938252078,51.43714592555768],[-116.10619009689687,51.4371599]]]}},{"type":"Feature","id":"pylon-lake-louise-78","properties":{"kind":"pylon","name":"Lift tower","height":13},"geometry":{"type":"Polygon","coordinates":[[[-116.15424609348689,51.4420723],[-116.15425538010957,51.44208627444232],[-116.1542778,51.44209206284585],[-116.15430021989043,51.44208627444232],[-116.15430950651312,51.4420723],[-116.15430021989043,51.44205832555768],[-116.1542778,51.44205253715415],[-116.15425538010957,51.44205832555768],[-116.15424609348689,51.4420723]]]}},{"type":"Feature","id":"pylon-lake-louise-79","properties":{"kind":"pylon","name":"Lift tower","height":13},"geometry":{"type":"Polygon","coordinates":[[[-116.15461469361942,51.4418814],[-116.15462398020328,51.44189537444232],[-116.1546464,51.44190116284585],[-116.15466881979673,51.44189537444232],[-116.15467810638059,51.4418814],[-116.15466881979673,51.44186742555768],[-116.1546464,51.44186163715415],[-116.15462398020328,51.44186742555768],[-116.15461469361942,51.4418814]]]}},{"type":"Feature","id":"pylon-lake-louise-80","properties":{"kind":"pylon","name":"Lift tower","height":13},"geometry":{"type":"Polygon","coordinates":[[[-116.1642983976247,51.4361112],[-116.16430768303545,51.43612517444232],[-116.1643301,51.43613096284585],[-116.16435251696456,51.43612517444232],[-116.1643618023753,51.4361112],[-116.16435251696456,51.43609722555768],[-116.1643301,51.43609143715415],[-116.16430768303545,51.43609722555768],[-116.1642983976247,51.4361112]]]}},{"type":"Feature","id":"pylon-lake-louise-81","properties":{"kind":"pylon","name":"Lift tower","height":13},"geometry":{"type":"Polygon","coordinates":[[[-116.1258750809785,51.4600799],[-116.1258843712648,51.460093874442315],[-116.1259068,51.46009966284585],[-116.12592922873519,51.460093874442315],[-116.12593851902149,51.4600799],[-116.12592922873519,51.46006592555768],[-116.1259068,51.460060137154144],[-116.1258843712648,51.46006592555768],[-116.1258750809785,51.4600799]]]}},{"type":"Feature","id":"pylon-lake-louise-82","properties":{"kind":"pylon","name":"Lift tower","height":13},"geometry":{"type":"Polygon","coordinates":[[[-116.12197888118081,51.4597888],[-116.12198817140785,51.459802774442316],[-116.1220106,51.45980856284585],[-116.12203302859214,51.459802774442316],[-116.12204231881918,51.4597888],[-116.12203302859214,51.45977482555768],[-116.1220106,51.459769037154146],[-116.12198817140785,51.45977482555768],[-116.12197888118081,51.4597888]]]}},{"type":"Feature","id":"pylon-lake-louise-83","properties":{"kind":"pylon","name":"Lift tower","height":13},"geometry":{"type":"Polygon","coordinates":[[[-116.1228347811364,51.4598527],[-116.12284407137646,51.45986667444232],[-116.1228665,51.45987246284585],[-116.12288892862354,51.45986667444232],[-116.1228982188636,51.4598527],[-116.12288892862354,51.45983872555768],[-116.1228665,51.45983293715415],[-116.12284407137646,51.45983872555768],[-116.1228347811364,51.4598527]]]}},{"type":"Feature","id":"pylon-lake-louise-84","properties":{"kind":"pylon","name":"Lift tower","height":13},"geometry":{"type":"Polygon","coordinates":[[[-116.15266828979398,51.4473907],[-116.1526775774983,51.44740467444232],[-116.1527,51.44741046284585],[-116.1527224225017,51.44740467444232],[-116.15273171020601,51.4473907],[-116.1527224225017,51.44737672555768],[-116.1527,51.44737093715415],[-116.1526775774983,51.44737672555768],[-116.15266828979398,51.4473907]]]}},{"type":"Feature","id":"pylon-lake-louise-85","properties":{"kind":"pylon","name":"Lift tower","height":13},"geometry":{"type":"Polygon","coordinates":[[[-116.15166698941945,51.44793],[-116.15167627723346,51.44794397444232],[-116.1516987,51.44794976284585],[-116.15172112276653,51.44794397444232],[-116.15173041058054,51.44793],[-116.15172112276653,51.44791602555768],[-116.1516987,51.44791023715415],[-116.15167627723346,51.44791602555768],[-116.15166698941945,51.44793]]]}},{"type":"Feature","id":"pylon-lake-louise-86","properties":{"kind":"pylon","name":"Lift tower","height":13},"geometry":{"type":"Polygon","coordinates":[[[-116.15076268907109,51.4484316],[-116.15077197698713,51.44844557444232],[-116.1507944,51.44845136284585],[-116.15081682301286,51.44844557444232],[-116.1508261109289,51.4484316],[-116.15081682301286,51.44841762555768],[-116.1507944,51.44841183715415],[-116.15077197698713,51.44841762555768],[-116.15076268907109,51.4484316]]]}},{"type":"Feature","id":"pylon-lake-louise-87","properties":{"kind":"pylon","name":"Lift tower","height":13},"geometry":{"type":"Polygon","coordinates":[[[-116.14948268857985,51.4491389],[-116.14949197663978,51.44915287444232],[-116.1495144,51.44915866284585],[-116.14953682336022,51.44915287444232],[-116.14954611142015,51.4491389],[-116.14953682336022,51.44912492555768],[-116.1495144,51.44911913715415],[-116.14949197663978,51.44912492555768],[-116.14948268857985,51.4491389]]]}},{"type":"Feature","id":"pylon-lake-louise-88","properties":{"kind":"pylon","name":"Lift tower","height":13},"geometry":{"type":"Polygon","coordinates":[[[-116.14823218809735,51.4498336],[-116.1482414762986,51.449847574442316],[-116.1482639,51.44985336284585],[-116.14828632370141,51.449847574442316],[-116.14829561190265,51.4498336],[-116.14828632370141,51.44981962555768],[-116.1482639,51.449813837154146],[-116.1482414762986,51.44981962555768],[-116.14823218809735,51.4498336]]]}},{"type":"Feature","id":"pylon-lake-louise-89","properties":{"kind":"pylon","name":"Lift tower","height":13},"geometry":{"type":"Polygon","coordinates":[[[-116.14644588742263,51.450805],[-116.14645517582149,51.45081897444232],[-116.1464776,51.450824762845855],[-116.14650002417851,51.45081897444232],[-116.14650931257736,51.450805],[-116.14650002417851,51.450791025557685],[-116.1464776,51.45078523715415],[-116.14645517582149,51.450791025557685],[-116.14644588742263,51.450805]]]}},{"type":"Feature","id":"pylon-lake-louise-90","properties":{"kind":"pylon","name":"Lift tower","height":13},"geometry":{"type":"Polygon","coordinates":[[[-116.14534838700898,51.4514005],[-116.145357675529,51.451414474442316],[-116.1453801,51.45142026284585],[-116.145402524471,51.451414474442316],[-116.14541181299101,51.4514005],[-116.145402524471,51.45138652555768],[-116.1453801,51.451380737154146],[-116.145357675529,51.45138652555768],[-116.14534838700898,51.4514005]]]}},{"type":"Feature","id":"pylon-lake-louise-91","properties":{"kind":"pylon","name":"Lift tower","height":13},"geometry":{"type":"Polygon","coordinates":[[[-116.14287708606773,51.4527555],[-116.14288637486342,51.45276947444232],[-116.1429088,51.452775262845854],[-116.14293122513658,51.45276947444232],[-116.14294051393227,51.4527555],[-116.14293122513658,51.452741525557684],[-116.1429088,51.45273573715415],[-116.14288637486342,51.452741525557684],[-116.14287708606773,51.4527555]]]}},{"type":"Feature","id":"marker-lake-louise-summit","properties":{"kind":"marker","markerType":"summit","name":"Upper mountain · 2637 m","height":26},"geometry":{"type":"Polygon","coordinates":[[[-116.16889907822859,51.458999999999996],[-116.16891835257184,51.45903696098424],[-116.16896881345754,51.45905980412876],[-116.16903118654248,51.45905980412876],[-116.16908164742819,51.45903696098424],[-116.16910092177143,51.458999999999996],[-116.16908164742819,51.45896303901575],[-116.16903118654248,51.45894019587123],[-116.16896881345754,51.45894019587123],[-116.16891835257184,51.45896303901575],[-116.16889907822859,51.458999999999996]]]}},{"type":"Feature","id":"marker-lake-louise-base","properties":{"kind":"marker","markerType":"base","name":"Base · 1646 m","height":18},"geometry":{"type":"Polygon","coordinates":[[[-116.16489908707219,51.455],[-116.16491835972646,51.455036960984245],[-116.16496881619035,51.455059804128766],[-116.16503118380966,51.455059804128766],[-116.16508164027356,51.455036960984245],[-116.16510091292783,51.455],[-116.16508164027356,51.45496303901575],[-116.16503118380966,51.45494019587123],[-116.16496881619035,51.45494019587123],[-116.16491835972646,51.45496303901575],[-116.16489908707219,51.455]]]}},{"type":"Feature","id":"marker-lake-louise-peak","properties":{"kind":"marker","markerType":"peak","name":"Peak · 2670 m","height":22},"geometry":{"type":"Polygon","coordinates":[[[-116.16089907380602,51.461],[-116.16091834899389,51.461036960984245],[-116.16096881209089,51.461059804128766],[-116.16103118790912,51.461059804128766],[-116.16108165100611,51.461036960984245],[-116.16110092619398,51.461],[-116.16108165100611,51.46096303901575],[-116.16103118790912,51.46094019587123],[-116.16096881209089,51.46094019587123],[-116.16091834899389,51.46096303901575],[-116.16089907380602,51.461]]]}}]}