{"type":"FeatureCollection","features":[{"type":"Feature","id":203197422,"properties":{"kind":"run","name":"Summit Trail","subtype":"nordic","pisteType":"nordic"},"geometry":{"type":"LineString","coordinates":[[146.2702225,-37.8441463],[146.2703884,-37.8440667],[146.2706137,-37.8439312],[146.2707746,-37.8437363],[146.2707424,-37.8435923],[146.2708283,-37.8435076],[146.2710428,-37.8434821],[146.2712682,-37.8433296],[146.2714827,-37.8433805],[146.2717831,-37.8434398],[146.2719441,-37.8434567],[146.2721694,-37.8435669],[146.2724022,-37.8436474],[146.2725985,-37.8436008],[146.2726951,-37.8435076],[146.2726951,-37.8433974],[146.2726844,-37.8432873],[146.2727165,-37.8431941],[146.2727058,-37.8431178],[146.2724997,-37.8430298],[146.2723303,-37.8429907],[146.2722659,-37.8428891],[146.2723196,-37.8427535],[146.2724269,-37.8426942],[146.2725127,-37.8426688],[146.2726307,-37.8426773],[146.272856,-37.8426857],[146.2730277,-37.8425925],[146.2733603,-37.8425756],[146.2735963,-37.8425586],[146.2738002,-37.8424824],[146.2739825,-37.8424654],[146.2741785,-37.842381],[146.2741802,-37.842192],[146.2740839,-37.8420895],[146.2740753,-37.8419153],[146.2741383,-37.8417869],[146.2743317,-37.8416908],[146.2744548,-37.8417037],[146.2745894,-37.8417708],[146.2747014,-37.8417368],[146.2747658,-37.8416267],[146.274916,-37.8415165],[146.2751198,-37.8414064],[146.2751627,-37.8412877],[146.2751091,-37.8411437],[146.2750769,-37.8409912],[146.2751734,-37.8409658],[146.2754309,-37.8409827],[146.2755919,-37.8409912],[146.2756348,-37.8408895],[146.2755811,-37.8407794],[146.2754417,-37.8407455],[146.2753022,-37.8406438],[146.2751734,-37.8404405],[146.2750662,-37.8403303]]}},{"type":"Feature","id":204269574,"properties":{"kind":"run","name":"Summit Trail","subtype":"nordic","pisteType":"nordic"},"geometry":{"type":"LineString","coordinates":[[146.2707884,-37.8370104],[146.2708898,-37.8369131],[146.2708879,-37.8365722],[146.2711019,-37.8363099],[146.2711895,-37.8361874],[146.2712682,-37.8360726],[146.2713595,-37.8359737],[146.2714324,-37.8358797],[146.2715578,-37.8356998],[146.2716919,-37.8355854],[146.27181,-37.8354795],[146.2720501,-37.8353188],[146.272263,-37.8353079],[146.2725193,-37.8351967],[146.2726923,-37.8352371],[146.2727295,-37.8353738],[146.2727157,-37.8355156],[146.2726762,-37.8356396],[146.2724222,-37.8357036],[146.2722498,-37.8359423],[146.2721138,-37.835988],[146.2720227,-37.8360809],[146.2720571,-37.8361772],[146.2721426,-37.8362849],[146.2725193,-37.8363332]]}},{"type":"Feature","id":210522704,"properties":{"kind":"run","name":"Village Trail","subtype":"nordic","pisteType":"nordic"},"geometry":{"type":"LineString","coordinates":[[146.2770457,-37.8363946],[146.2771794,-37.836374],[146.2772602,-37.8362505],[146.2772973,-37.8360734],[146.2773215,-37.8358215],[146.2774105,-37.8357323],[146.2775338,-37.8354413],[146.2775445,-37.8353354],[146.2776089,-37.8351744],[146.2775874,-37.834916],[146.2776679,-37.8347211],[146.2778235,-37.8344881],[146.2779629,-37.8342169],[146.2781131,-37.8338229],[146.2782876,-37.8334951],[146.278335,-37.8331627],[146.2783234,-37.8330118],[146.2782581,-37.8329043],[146.278145,-37.832774],[146.278028,-37.8326206],[146.277846,-37.8326364],[146.2775887,-37.8326426],[146.2771561,-37.8325637],[146.276951,-37.8325263],[146.276596,-37.8324577],[146.2759642,-37.8323806],[146.2758435,-37.832387],[146.2755124,-37.8324217],[146.2751215,-37.8324173],[146.274912,-37.8324151],[146.2748462,-37.8323358],[146.2747818,-37.8322977],[146.2745136,-37.8322849],[146.2742056,-37.8323064],[146.2741827,-37.8322136],[146.2743769,-37.8319781],[146.2743741,-37.8318231],[146.2742526,-37.8317723],[146.2741024,-37.8317892],[146.2738914,-37.8318824],[146.2735856,-37.831929],[146.2734032,-37.8320138],[146.2730867,-37.8320901],[146.2727434,-37.8322638],[146.2724752,-37.832405],[146.2723351,-37.8325793],[146.2722337,-37.8327256],[146.2720548,-37.8328206],[146.271819,-37.8329097],[146.271649,-37.8330857],[146.2714926,-37.8331858],[146.2713808,-37.8333145],[146.2712824,-37.8334386],[146.2714104,-37.8335346],[146.271655,-37.8336356],[146.2718536,-37.83372],[146.272034,-37.8338376],[146.271987,-37.8342212],[146.2719387,-37.8343271],[146.2718153,-37.8344415],[146.2713526,-37.8348534],[146.2712427,-37.8349613],[146.2710527,-37.8352662],[146.2709041,-37.8353938],[146.2706894,-37.8355516],[146.2705855,-37.8357859],[146.2705283,-37.8363303],[146.2706608,-37.8368026],[146.2707884,-37.8370104]]}},{"type":"Feature","id":210522705,"properties":{"kind":"run","name":"McMillans Trail","subtype":"nordic","pisteType":"nordic"},"geometry":{"type":"LineString","coordinates":[[146.2763512,-37.8335136],[146.2764365,-37.8336602],[146.2765387,-37.8336941],[146.2766248,-37.8337066],[146.2769083,-37.8336269],[146.2769756,-37.8336951],[146.2770161,-37.8337532],[146.277044,-37.833876],[146.2769882,-37.8340044],[146.2768954,-37.8340771],[146.2767828,-37.8341788],[146.2767095,-37.8341958],[146.2765736,-37.834183],[146.2764555,-37.8342085],[146.2763697,-37.8342678],[146.2763322,-37.8343186],[146.2763429,-37.8344245],[146.2763643,-37.8344881],[146.2763536,-37.834611],[146.2763322,-37.8347042],[146.2762892,-37.8348016],[146.2762732,-37.8348821],[146.2762946,-37.8349711],[146.2762858,-37.8350516],[146.2762268,-37.8351024],[146.2761283,-37.8351109],[146.275921,-37.8350897],[146.2757064,-37.8350092],[146.2755777,-37.8349287],[146.2754685,-37.8349329],[146.2754041,-37.8349753],[146.2751195,-37.8350455],[146.2748795,-37.8351476],[146.2748747,-37.8352392],[146.2749345,-37.8353289],[146.2750314,-37.8354132],[146.2751303,-37.8354495],[146.2752823,-37.8354712],[146.2754314,-37.8354088],[146.2755363,-37.835413],[146.2761343,-37.8356781],[146.2763738,-37.8358979],[146.2765374,-37.8359934],[146.2766298,-37.8360642],[146.2768123,-37.8362166],[146.2770457,-37.8363946]]}},{"type":"Feature","id":246964172,"properties":{"kind":"run","name":"Village Trail (East)","subtype":"nordic","pisteType":"nordic"},"geometry":{"type":"LineString","coordinates":[[146.2707746,-37.8437363],[146.2709862,-37.8437521],[146.271249,-37.8437437],[146.271764,-37.8438114],[146.2723541,-37.8438623],[146.272633,-37.8437648],[146.2728637,-37.8436674],[146.2729227,-37.843553],[146.2731641,-37.8434005],[146.2735503,-37.8432438],[146.2737596,-37.8431252],[146.2739634,-37.8429345],[146.274119,-37.8428032],[146.2743228,-37.8427312],[146.2745481,-37.8426041],[146.2747305,-37.8425406],[146.2749934,-37.842494],[146.2751436,-37.8424347],[146.2754064,-37.8422101],[146.2756049,-37.8420153],[146.2758678,-37.8419136],[146.2762111,-37.8419475],[146.2764364,-37.8420661],[146.2766563,-37.8421678],[146.2768602,-37.8424177],[146.2770909,-37.8426338],[146.277343,-37.8428075],[146.2774127,-37.8429557],[146.277579,-37.8431379],[146.2777024,-37.843409],[146.2779063,-37.8436039],[146.2781745,-37.8437818],[146.2783354,-37.8438538],[146.2787431,-37.843714],[146.2790006,-37.8433709],[146.2792688,-37.8429557],[146.2792795,-37.8426973],[146.2790542,-37.8424177],[146.2790167,-37.8421169],[146.2791469,-37.841835],[146.2792849,-37.841634],[146.2792844,-37.8414362],[146.2791825,-37.8412794],[146.279043,-37.8411015],[146.2789759,-37.8407867],[146.2788177,-37.8405296],[146.2787425,-37.84025],[146.2788285,-37.8400551],[146.278689,-37.8397925],[146.2786461,-37.8394281],[146.2784637,-37.8390553],[146.2781633,-37.8388562],[146.2781472,-37.8385893],[146.2780345,-37.8383944],[146.2778951,-37.8381318],[146.2774069,-37.8378437],[146.277187,-37.8376403],[146.2770636,-37.837509],[146.2772191,-37.8369159],[146.2772245,-37.836721],[146.2771794,-37.836374]]}},{"type":"Feature","id":398817287,"properties":{"kind":"run","name":"Top Workshop Road","subtype":"nordic","pisteType":"nordic"},"geometry":{"type":"LineString","coordinates":[[146.2711591,-37.8397809],[146.2710911,-37.839716],[146.2709892,-37.8395847]]}},{"type":"Feature","id":398817288,"properties":{"kind":"run","name":"Village Trail","subtype":"nordic","pisteType":"nordic"},"geometry":{"type":"LineString","coordinates":[[146.2711591,-37.8397809],[146.2712199,-37.8398389],[146.2711675,-37.839871],[146.2702865,-37.8404108],[146.2691779,-37.8410547],[146.2682388,-37.841679],[146.2679221,-37.8417548],[146.2678247,-37.8418713]]}},{"type":"Feature","id":554448213,"properties":{"kind":"run","name":"Summit Trail","subtype":"nordic","pisteType":"nordic"},"geometry":{"type":"LineString","coordinates":[[146.2750662,-37.8403303],[146.2750684,-37.8402292],[146.2750067,-37.8401381],[146.2748243,-37.8399814],[146.2748136,-37.8399136],[146.2748377,-37.8398585],[146.2749208,-37.8398564],[146.2750496,-37.839939],[146.2752186,-37.840064],[146.2753929,-37.8402038],[146.2755538,-37.8402589],[146.2757577,-37.8403266],[146.2759025,-37.8403372],[146.2760336,-37.8403601],[146.2761278,-37.840308],[146.2761771,-37.840236],[146.2762183,-37.8400674],[146.2763061,-37.8399041],[146.276334,-37.8395679],[146.2762267,-37.8394705],[146.2760551,-37.8394683],[146.2757598,-37.8392068],[146.2756877,-37.8389259],[146.2755892,-37.8388164],[146.275485,-37.8387768],[146.2753527,-37.8387376],[146.2752477,-37.8386879],[146.2751837,-37.8386172],[146.2750657,-37.8384435],[146.2747545,-37.8382826],[146.2746473,-37.8382232],[146.2745722,-37.8381597],[146.2745009,-37.838112],[146.274371,-37.8379792],[146.2742587,-37.8378622],[146.2737041,-37.8375477],[146.2733976,-37.8370572],[146.2734109,-37.8367089],[146.2732611,-37.8365556],[146.2728962,-37.8365779],[146.2727625,-37.8365466],[146.272649,-37.8363892],[146.2725193,-37.8363332]]}},{"type":"Feature","id":554450878,"properties":{"kind":"run","name":"McMillans Trail","subtype":"nordic","pisteType":"nordic"},"geometry":{"type":"LineString","coordinates":[[146.2743764,-37.8350479],[146.2742476,-37.835139],[146.2741215,-37.8352174],[146.2739601,-37.8352509],[146.2737589,-37.8351916],[146.2736548,-37.8351411],[146.2734531,-37.834984],[146.2733324,-37.834876],[146.2731366,-37.8347468],[146.2730347,-37.8346387],[146.2729172,-37.8345797],[146.2727456,-37.8345713],[146.2725712,-37.8345543],[146.2724934,-37.834459],[146.2724586,-37.8343065],[146.2723674,-37.8341582],[146.2722569,-37.8340032],[146.2721067,-37.8338846],[146.272034,-37.8338376]]}},{"type":"Feature","id":554453981,"properties":{"kind":"run","name":"McMillans Trail","subtype":"nordic","pisteType":"nordic"},"geometry":{"type":"LineString","coordinates":[[146.2743764,-37.8350479],[146.2744697,-37.8349967],[146.274759,-37.8347613],[146.2743886,-37.8345514],[146.2744597,-37.8342175],[146.2748612,-37.8342298],[146.274961,-37.8343631],[146.275207,-37.8343137],[146.2754392,-37.8340661],[146.2756468,-37.8336263],[146.2758713,-37.8336341],[146.276109,-37.8335807],[146.2763512,-37.8335136]]}},{"type":"Feature","id":554457360,"properties":{"kind":"run","name":"Village Trail","subtype":"nordic","pisteType":"nordic"},"geometry":{"type":"LineString","coordinates":[[146.2708258,-37.8370971],[146.2708122,-37.8371741],[146.2709516,-37.8374368],[146.2709892,-37.8377545],[146.2710482,-37.837852],[146.2710858,-37.837996],[146.2711448,-37.8380808],[146.2711716,-37.8381782],[146.271177,-37.8383349],[146.2711735,-37.8385214],[146.2711394,-37.8386823],[146.2710804,-37.8388433],[146.2710383,-37.8389605],[146.2710581,-37.8390726],[146.2710821,-37.8392852],[146.2711123,-37.8394466],[146.2709892,-37.8395847]]}},{"type":"Feature","id":813731126,"properties":{"kind":"run","name":"Mapped ski run","subtype":"unknown","pisteType":"sled"},"geometry":{"type":"LineString","coordinates":[[146.3317493,-37.8404346],[146.3318244,-37.8405194],[146.3325406,-37.8401148],[146.3324601,-37.8400322],[146.3317493,-37.8404346]]}},{"type":"Feature","id":813731127,"properties":{"kind":"run","name":"Mapped ski run","subtype":"unknown","pisteType":"sled"},"geometry":{"type":"LineString","coordinates":[[146.3309896,-37.8407995],[146.3309923,-37.8412262],[146.3307025,-37.8412273],[146.3306999,-37.8408006],[146.3309896,-37.8407995]]}},{"type":"Feature","id":1359215120,"properties":{"kind":"run","name":"La Descent","subtype":"advanced","pisteType":"downhill"},"geometry":{"type":"LineString","coordinates":[[146.270316,-37.8382322],[146.2703327,-37.8382697],[146.2703561,-37.8383033],[146.2703646,-37.8383235],[146.2703816,-37.8383507],[146.2703753,-37.8383718],[146.2703859,-37.8383941],[146.2703987,-37.8384142],[146.2704114,-37.8384327],[146.2704306,-37.8384512],[146.2704412,-37.8384697],[146.2704476,-37.8384899],[146.2704455,-37.8385168],[146.2704391,-37.8385387],[146.2704306,-37.8385639],[146.2704242,-37.8385841],[146.2704178,-37.8386093],[146.2704157,-37.8386294],[146.2704178,-37.8386563],[146.2704306,-37.8386748],[146.2704498,-37.8386933],[146.2704689,-37.8387135],[146.2704859,-37.8387354],[146.2705072,-37.8387539],[146.2705243,-37.838769],[146.2705498,-37.8387858],[146.2705732,-37.8388177],[146.2706009,-37.8388531],[146.2706137,-37.8388732],[146.2706243,-37.8388951],[146.2706328,-37.8389153],[146.2706414,-37.8389354],[146.2706456,-37.8389573],[146.2706477,-37.8389791],[146.2706541,-37.8389993],[146.2706584,-37.8390212],[146.2706626,-37.839043],[146.270669,-37.8390632],[146.2706818,-37.8390901],[146.2706882,-37.8391136],[146.2706988,-37.8391389],[146.2707095,-37.8391624],[146.270718,-37.8391859],[146.2707244,-37.8392078],[146.2707291,-37.839232],[146.2707137,-37.8392566],[146.2706846,-37.8392734],[146.2706605,-37.8392851],[146.2706371,-37.8392986],[146.2706116,-37.839312]]}},{"type":"Feature","id":1359215121,"properties":{"kind":"run","name":"La Descent","subtype":"easy","pisteType":"downhill"},"geometry":{"type":"LineString","coordinates":[[146.2706116,-37.839312],[146.2705583,-37.8393204],[146.2704966,-37.8393642],[146.2704774,-37.8393793],[146.270454,-37.8393978],[146.2704349,-37.8394163],[146.27042,-37.8394331],[146.2704008,-37.8394549],[146.2703859,-37.8394734],[146.2703689,-37.8394919],[146.2703454,-37.8395188],[146.2703327,-37.8395373],[146.2703199,-37.8395558],[146.2703007,-37.8395844],[146.2702837,-37.8396147],[146.2702688,-37.8396365],[146.2702518,-37.8396567],[146.2702305,-37.8396769],[146.2702113,-37.8396987],[146.27019,-37.8397206],[146.2701709,-37.8397407],[146.2701517,-37.8397643],[146.2701368,-37.8397912],[146.2701219,-37.8398114],[146.2701028,-37.8398433],[146.2700857,-37.8398668],[146.2700644,-37.8398937],[146.2700453,-37.8399122],[146.2700219,-37.8399341],[146.270007,-37.8399509],[146.2699921,-37.8399728],[146.2699835,-37.8399879],[146.2699899,-37.8400131],[146.2699942,-37.8400467],[146.2699957,-37.8401001],[146.2699963,-37.8401207],[146.2699984,-37.8401426],[146.2700027,-37.8401627],[146.270007,-37.8401863],[146.2700091,-37.8402098],[146.2700091,-37.8402333],[146.2700091,-37.8402552],[146.2700091,-37.8403118]]}},{"type":"Feature","id":1359215122,"properties":{"kind":"run","name":"Summit","subtype":"easy","pisteType":"downhill"},"geometry":{"type":"LineString","coordinates":[[146.274311,-37.8380636],[146.2743301,-37.8380792],[146.2743237,-37.8381162],[146.2743109,-37.8381398],[146.274296,-37.8381616],[146.2742769,-37.8381801],[146.2742641,-37.8381986],[146.2742492,-37.8382221],[146.2742343,-37.8382423],[146.2742151,-37.8382608],[146.2741917,-37.8382793],[146.2741662,-37.8382927],[146.2741427,-37.8383012],[146.2741172,-37.8383096],[146.2740916,-37.838318],[146.2740682,-37.8383264],[146.2740384,-37.8383381],[146.2740086,-37.8383499],[146.2739852,-37.83836],[146.2739639,-37.8383785],[146.273949,-37.838397],[146.2739384,-37.8384155],[146.273932,-37.8384373],[146.2739277,-37.8384575],[146.2739235,-37.8384827],[146.2739192,-37.8385029],[146.2739149,-37.8385264],[146.2739107,-37.83855],[146.2739043,-37.8385718],[146.2738958,-37.8385937],[146.2738851,-37.8386122],[146.2738745,-37.8386357],[146.2738596,-37.8386576],[146.2738362,-37.8386828],[146.2738128,-37.8386996],[146.2737893,-37.8387097],[146.2737574,-37.8387198],[146.2737255,-37.8387248],[146.2736786,-37.8387366],[146.2736531,-37.8387433],[146.2736233,-37.8387534],[146.2735977,-37.8387601],[146.2735658,-37.8387669],[146.2735339,-37.8387736],[146.2735019,-37.838782],[146.2734743,-37.8387904],[146.2734445,-37.8387988],[146.2734147,-37.8388089],[146.273387,-37.838819],[146.2733593,-37.8388291],[146.2733295,-37.8388358],[146.2733018,-37.8388459],[146.2732763,-37.838856],[146.2732486,-37.8388661],[146.2732145,-37.8388761],[146.273189,-37.8388846],[146.2731464,-37.8389047],[146.2730272,-37.8389669],[146.2729889,-37.8390157],[146.2729186,-37.8391754],[146.2728973,-37.839204],[146.2728782,-37.8392309],[146.2728548,-37.8392595],[146.2728356,-37.839278],[146.2728015,-37.8393049],[146.2727781,-37.8393217],[146.2727568,-37.8393385],[146.2727334,-37.8393553],[146.2727036,-37.8393704],[146.2726781,-37.8393856],[146.2726483,-37.8394041],[146.2726206,-37.8394192],[146.2725887,-37.8394343],[146.272561,-37.8394494],[146.2725312,-37.8394663],[146.2724992,-37.8394814],[146.2724716,-37.8394965],[146.2724482,-37.8395083],[146.2724162,-37.8395234],[146.2723907,-37.8395352],[146.2723609,-37.839547],[146.2723332,-37.8395587],[146.2723055,-37.8395722],[146.27228,-37.8395806],[146.2722523,-37.8395924],[146.272231,-37.8396041],[146.2722076,-37.8396142],[146.2721757,-37.8396293],[146.2721352,-37.8396462],[146.2720969,-37.8396596],[146.2720586,-37.8396731],[146.2720266,-37.8396831],[146.2719947,-37.8396932],[146.2719649,-37.8397033],[146.271933,-37.83971],[146.271867,-37.8397437],[146.2717435,-37.839821],[146.2717222,-37.8398378],[146.2717009,-37.8398513],[146.2716818,-37.8398647],[146.2716583,-37.8398798],[146.2716371,-37.8398967],[146.2716179,-37.8399118],[146.2715945,-37.8399286],[146.2715689,-37.8399404],[146.2715434,-37.8399454],[146.2715115,-37.8399488],[146.2714838,-37.8399538],[146.271454,-37.8399572],[146.2714199,-37.8399572],[146.2713944,-37.8399555],[146.2713646,-37.8399521],[146.271339,-37.8399488],[146.2713113,-37.8399421],[146.2712794,-37.8399336],[146.2712539,-37.8399269],[146.2712262,-37.8399152],[146.2711923,-37.8398935],[146.2711675,-37.839871],[146.2711495,-37.839863],[146.2711176,-37.8398496],[146.2710835,-37.8398412],[146.271058,-37.8398361],[146.2710303,-37.8398277],[146.2710027,-37.839821],[146.2709728,-37.8398176],[146.270943,-37.8398126],[146.2709005,-37.8398076],[146.2708579,-37.8398025],[146.270826,-37.8398008],[146.2707919,-37.8398008],[146.27076,-37.8398008],[146.2707344,-37.8398042],[146.2706791,-37.8398176],[146.2706535,-37.8398227],[146.2706195,-37.8398294],[146.2705939,-37.8398361],[146.2705492,-37.8398597],[146.2705173,-37.8398765],[146.2704683,-37.8399185],[146.270364,-37.8400043],[146.2703491,-37.8400227],[146.2703299,-37.8400379],[146.2703065,-37.840053],[146.2702852,-37.8400665],[146.2702639,-37.8400799],[146.2702426,-37.8400934],[146.2702214,-37.8401102],[146.2702022,-37.8401253],[146.2701852,-37.8401421],[146.270166,-37.8401623],[146.2701511,-37.8401791],[146.2701341,-37.8401976],[146.2701085,-37.8402178],[146.2700915,-37.8402346],[146.2700723,-37.8402548],[146.2700532,-37.8402749],[146.2700361,-37.8402934],[146.2700091,-37.8403118],[146.269902,-37.8403809],[146.2697317,-37.8404851],[146.2694443,-37.8406751],[146.269372,-37.8407322],[146.269274,-37.8408096],[146.2690888,-37.840897],[146.2689204,-37.8409261],[146.2688333,-37.8409508],[146.2687761,-37.8409782],[146.2686651,-37.8410332],[146.2684416,-37.8411441],[146.2682883,-37.8412299],[146.2682202,-37.8413257],[146.2682032,-37.8414131],[146.2682011,-37.8415543],[146.268217,-37.8416392]]}},{"type":"Feature","id":1359215123,"properties":{"kind":"run","name":"Painted","subtype":"intermediate","pisteType":"downhill"},"geometry":{"type":"LineString","coordinates":[[146.2749554,-37.8384876],[146.2748582,-37.8384373],[146.2747901,-37.8383919],[146.2746794,-37.8383634],[146.2745836,-37.8383818],[146.274524,-37.8384037],[146.2744963,-37.8384188],[146.2744793,-37.838434],[146.2744559,-37.8384491],[146.2744346,-37.8384625],[146.2744133,-37.8384777],[146.274392,-37.8384894],[146.2743601,-37.8385063],[146.2743282,-37.8385214],[146.2742898,-37.8385365],[146.2742664,-37.8385449],[146.2742387,-37.838555],[146.2742089,-37.8385702],[146.2741834,-37.8385836],[146.2741536,-37.8386021],[146.2741366,-37.8386172],[146.2741174,-37.8386357],[146.2740961,-37.8386525],[146.2740727,-37.8386677],[146.2740429,-37.8386828],[146.2740216,-37.8386946],[146.2740003,-37.8387063],[146.273979,-37.8387215],[146.2739535,-37.8387349],[146.2739279,-37.83875],[146.2738917,-37.8387652],[146.2738662,-37.8387736],[146.2738343,-37.8387803],[146.2738045,-37.8387904],[146.2737747,-37.8388022],[146.2737512,-37.8388139],[146.2737236,-37.8388291],[146.273698,-37.8388492],[146.2736746,-37.8388711],[146.2736576,-37.8388879],[146.2736405,-37.8389098],[146.273632,-37.8389299],[146.2736235,-37.8389552],[146.2736065,-37.8389837],[146.2735958,-37.8390073],[146.2735873,-37.8390291],[146.2735809,-37.8390493],[146.2735703,-37.8390695],[146.2735596,-37.8391166],[146.2735256,-37.8391872],[146.2735149,-37.8392057],[146.2734894,-37.8392292],[146.2734575,-37.8392561],[146.273434,-37.839278],[146.2734085,-37.8392998],[146.2733829,-37.83932],[146.2733425,-37.8393452],[146.2733042,-37.8393721],[146.2732722,-37.8393956],[146.2732531,-37.8394091],[146.273219,-37.8394343],[146.2731956,-37.8394494],[146.2731615,-37.8394696],[146.273136,-37.8394864],[146.2731126,-37.8394999],[146.27307,-37.8395268],[146.2730487,-37.8395385],[146.2730232,-37.8395554],[146.2729955,-37.8395722],[146.2729721,-37.8395873],[146.2729465,-37.8396008],[146.2729167,-37.8396159],[146.2728933,-37.839631],[146.2728678,-37.8396512],[146.2728443,-37.8396663],[146.2728252,-37.8396815],[146.272806,-37.8396949],[146.2727805,-37.8397134],[146.2727634,-37.8397285],[146.2727294,-37.8397773],[146.2726889,-37.8399168],[146.272674,-37.8399454],[146.2726549,-37.839974],[146.2726378,-37.8399975],[146.2726208,-37.840016],[146.2725995,-37.8400345],[146.2725825,-37.8400496],[146.2725612,-37.8400665],[146.272542,-37.8400799],[146.2725207,-37.8400967],[146.2724952,-37.8401102],[146.2724675,-37.840127],[146.2724441,-37.8401371],[146.2724186,-37.8401505],[146.2723866,-37.8401673],[146.272359,-37.8401858],[146.2723334,-37.8401993],[146.2723121,-37.8402127],[146.2722844,-37.8402279],[146.2722589,-37.8402447],[146.2722291,-37.8402615],[146.2722078,-37.84028],[146.2721844,-37.8403001],[146.2721567,-37.8403186],[146.2721312,-37.8403405],[146.2721099,-37.8403624],[146.2720907,-37.8403808],[146.2720737,-37.8403977],[146.2720609,-37.8404178],[146.2720503,-37.8404363],[146.2720396,-37.8404565],[146.272029,-37.8404767],[146.2720034,-37.8405288],[146.2720049,-37.8405635]]}},{"type":"Feature","id":1359215124,"properties":{"kind":"run","name":"Playground","subtype":"intermediate","pisteType":"downhill"},"geometry":{"type":"LineString","coordinates":[[146.2749554,-37.8384876],[146.2749757,-37.8385111],[146.2749885,-37.8385616],[146.2749661,-37.8386051],[146.2749706,-37.8386378],[146.2749778,-37.8386708],[146.2750311,-37.8387751],[146.275046,-37.8387936],[146.2750545,-37.8388137],[146.2750609,-37.8388356],[146.2750587,-37.8388608],[146.2750523,-37.8388844],[146.2750396,-37.8389113],[146.2750268,-37.8389348],[146.2750119,-37.838955],[146.2749949,-37.8389735],[146.2749821,-37.838992],[146.2749651,-37.8390155],[146.274948,-37.8390357],[146.2749289,-37.8390626],[146.274914,-37.8390844],[146.2748948,-37.8391113],[146.2748735,-37.8391365],[146.2748565,-37.8391534],[146.2748352,-37.8391719],[146.2748139,-37.839192],[146.2747948,-37.8392122],[146.2747735,-37.8392273],[146.2747543,-37.8392408],[146.2747351,-37.8392576],[146.274716,-37.8392727],[146.2746926,-37.8392895],[146.2746649,-37.8393114],[146.274633,-37.8393316],[146.2746138,-37.8393484],[146.2745904,-37.8393635],[146.2745648,-37.8393803],[146.2745329,-37.8394039],[146.2745137,-37.839419],[146.2744861,-37.8394425],[146.2744605,-37.8394593],[146.274435,-37.8394677],[146.2744052,-37.8394846],[146.2743711,-37.8395098],[146.2743477,-37.8395316],[146.2743307,-37.8395518],[146.2743136,-37.839572],[146.2742945,-37.8395922],[146.2742732,-37.8396157],[146.2742583,-37.8396325],[146.2742093,-37.8397267],[146.2740986,-37.8398225],[146.2740667,-37.8398326],[146.2740305,-37.8398427],[146.2739964,-37.8398494],[146.2739688,-37.8398544],[146.2739368,-37.8398578],[146.2739049,-37.8398578],[146.2738708,-37.8398595],[146.2738432,-37.8398595],[146.2738027,-37.8398679],[146.2737708,-37.8398763],[146.2737261,-37.8398897],[146.2736984,-37.8398998],[146.2736558,-37.8399183],[146.2736239,-37.8399335],[146.2735898,-37.8399536],[146.2735664,-37.8399671],[146.2735345,-37.8399889],[146.2734983,-37.8400057],[146.2734727,-37.8400158],[146.2734387,-37.8400276],[146.2734089,-37.8400377],[146.2733833,-37.8400461],[146.273345,-37.8400579],[146.2733109,-37.8400679],[146.2732747,-37.840078],[146.2732407,-37.8400864],[146.2732066,-37.8400948],[146.2731704,-37.8401049],[146.2731364,-37.8401117],[146.2731044,-37.8401184],[146.2730789,-37.8401251],[146.2730491,-37.8401335],[146.273015,-37.8401419],[146.2729852,-37.8401503],[146.2729469,-37.8401638],[146.2729213,-37.8401739],[146.2728703,-37.840194],[146.2728213,-37.8402125],[146.2727787,-37.840226],[146.2727383,-37.8402411],[146.272668,-37.8402647],[146.2726276,-37.8402764],[146.2725871,-37.8402949],[146.2725616,-37.840305],[146.2725382,-37.8403168],[146.2725062,-37.8403369],[146.2724871,-37.8403504],[146.2724083,-37.8404008],[146.2721869,-37.8405118],[146.2721635,-37.8405236],[146.2721379,-37.8405353],[146.2721124,-37.8405488],[146.2720868,-37.8405572],[146.2720613,-37.8405639],[146.2720049,-37.8405635]]}},{"type":"Feature","id":1359215125,"properties":{"kind":"run","name":"Hut Run","subtype":"unknown","pisteType":"downhill"},"geometry":{"type":"LineString","coordinates":[[146.270316,-37.8382322],[146.2702978,-37.8382899],[146.2702924,-37.8383513],[146.2702817,-37.8383767],[146.2702656,-37.8384042],[146.2702522,-37.8384275],[146.2702265,-37.8384508],[146.2702254,-37.8384763],[146.2702066,-37.8385017],[146.2701851,-37.8385271],[146.2701691,-37.8385504],[146.2701476,-37.8385758],[146.2701261,-37.8385991],[146.2700993,-37.8386267],[146.2700698,-37.8386584],[146.2700537,-37.8386839],[146.2700349,-37.8387093],[146.2700135,-37.8387432],[146.269992,-37.8387728],[146.2699759,-37.8387961],[146.2699598,-37.8388194],[146.2699411,-37.8388427],[146.269925,-37.838866],[146.2699062,-37.8388914],[146.2698901,-37.8389169],[146.2698686,-37.8389465],[146.2698435,-37.8389704],[146.2698187,-37.83901],[146.269756,-37.8390969],[146.2696728,-37.8392177],[146.2696299,-37.8392898],[146.2695935,-37.839351],[146.2695468,-37.8394295],[146.2695012,-37.8396032],[146.2694958,-37.8396349],[146.2694824,-37.8396752],[146.2694636,-37.8397006],[146.2694475,-37.8397324],[146.2694288,-37.8397705],[146.2694207,-37.8397959],[146.2694127,-37.8398235],[146.2694019,-37.8398531],[146.2693939,-37.8398807],[146.2693778,-37.8399145],[146.269359,-37.83994],[146.2693349,-37.8399611],[146.2693107,-37.8399823],[146.2692598,-37.8400438],[146.2692223,-37.8400924],[146.2691847,-37.8401412],[146.2691713,-37.8401687],[146.2691579,-37.8401963],[146.2691444,-37.8402238],[146.269131,-37.8402556],[146.2691176,-37.8402831],[146.2691015,-37.8403085],[146.2690854,-37.8403361],[146.2690613,-37.8403721],[146.2690345,-37.8404017],[146.2690157,-37.8404272],[146.2689969,-37.8404505],[146.2689755,-37.8404759],[146.268954,-37.8405055],[146.2689299,-37.8405352],[146.2689138,-37.8405585],[146.2688977,-37.8405818],[146.2688789,-37.8406072],[146.2688628,-37.8406326],[146.2688467,-37.8406559],[146.2688333,-37.8406813],[146.2688145,-37.8407046],[146.2688011,-37.8407279],[146.268785,-37.8407512],[146.2687475,-37.840783],[146.2686912,-37.8408211],[146.2686563,-37.8408444],[146.2686214,-37.8408656],[146.2685839,-37.8408847],[146.2685544,-37.8409037],[146.2685168,-37.8409228],[146.2684819,-37.8409355],[146.2684524,-37.8409525],[146.2684176,-37.8409694],[146.2683907,-37.8409842],[146.2683612,-37.8410118],[146.2683317,-37.841033],[146.2683022,-37.8410541],[146.2682781,-37.8410711],[146.2682513,-37.841088],[146.2682218,-37.8411113],[146.2682003,-37.8411325],[146.2681789,-37.8411516],[146.2681574,-37.8411749],[146.2681333,-37.8411939],[146.2681091,-37.841213],[146.2680796,-37.8412299],[146.2680349,-37.8412156]]}}]}