{"type":"FeatureCollection","features":[{"type":"Feature","id":"building-167422252","properties":{"kind":"building","name":"Resort building","height":7.2},"geometry":{"type":"Polygon","coordinates":[[[146.3321418,-37.8407313],[146.3322291,-37.8406448],[146.3320545,-37.8405348],[146.3319672,-37.8406213],[146.3321418,-37.8407313]]]}},{"type":"Feature","id":"building-167422253","properties":{"kind":"building","name":"Resort building","height":7.2},"geometry":{"type":"Polygon","coordinates":[[[146.3323594,-37.8410818],[146.3322025,-37.8411872],[146.3322317,-37.8412143],[146.3323886,-37.8411089],[146.3323594,-37.8410818]]]}},{"type":"Feature","id":"marker-mount-st-gwinear-summit zone \u00b7 1509 m","properties":{"kind":"marker","name":"Summit zone \u00b7 1509 m","height":26},"geometry":{"type":"Polygon","coordinates":[[[146.31547961370728,-37.8298],[146.31546440884216,-37.82976303901575],[146.31542460198855,-37.82974019587123],[146.31537539801147,-37.82974019587123],[146.31533559115786,-37.82976303901575],[146.31532038629274,-37.8298],[146.31533559115786,-37.829836960984245],[146.31537539801147,-37.829859804128766],[146.31542460198855,-37.829859804128766],[146.31546440884216,-37.829836960984245],[146.31547961370728,-37.8298]]]}},{"type":"Feature","id":"marker-mount-st-gwinear-resort base \u00b7 1310 m","properties":{"kind":"marker","name":"Resort base \u00b7 1310 m","height":18},"geometry":{"type":"Polygon","coordinates":[[[146.32147962018212,-37.8358],[146.32146441408045,-37.83576303901575],[146.32142460398939,-37.83574019587123],[146.32137539601064,-37.83574019587123],[146.32133558591957,-37.83576303901575],[146.3213203798179,-37.8358],[146.32133558591957,-37.835836960984246],[146.32137539601064,-37.835859804128766],[146.32142460398939,-37.835859804128766],[146.32146441408045,-37.835836960984246],[146.32147962018212,-37.8358]]]}}]}