{"type":"FeatureCollection","features":[{"type":"Feature","id":33053519,"properties":{"kind":"lift","name":"Pianalunga - Cimalegna - Salati","subtype":"cable_car","status":"active"},"geometry":{"type":"LineString","coordinates":[[7.9039305,45.8657078],[7.9021834,45.8663164],[7.888736,45.8710927],[7.8874798,45.8715623],[7.8851026,45.8724324],[7.8795586,45.8743549],[7.8739562,45.8763876],[7.8694649,45.8779683]]}},{"type":"Feature","id":33053536,"properties":{"kind":"run","name":"Bodwitch","subtype":"easy","pisteType":"downhill","featured":false},"geometry":{"type":"LineString","coordinates":[[7.8741044,45.8732175],[7.874591,45.8731248],[7.8748584,45.8730577],[7.8755758,45.8727348],[7.8759122,45.8726191]]}},{"type":"Feature","id":33053550,"properties":{"kind":"lift","name":"Gabiet - Passo dei Salati","subtype":"gondola","status":"active"},"geometry":{"type":"LineString","coordinates":[[7.8449016,45.8554525],[7.8451532,45.8557057],[7.8452073,45.8557533],[7.845705,45.8561978],[7.846672,45.8571605],[7.8477058,45.858103],[7.84896,45.8592817],[7.849689,45.8599853],[7.8505431,45.8607854],[7.8514949,45.8617002],[7.8527354,45.8628429],[7.8540302,45.8640366],[7.8550906,45.8650359],[7.8558182,45.8656725],[7.856369,45.8662437],[7.8575386,45.8673395],[7.8586186,45.8683513],[7.8599488,45.8695974],[7.8611127,45.8706884],[7.8619357,45.8714587],[7.8629146,45.8723424],[7.8636035,45.8730114],[7.8650446,45.8744183],[7.8658641,45.8751268],[7.8667269,45.8759467],[7.8673479,45.8765188],[7.8674015,45.8765695],[7.8674741,45.8766449],[7.8676885,45.8768672]]}},{"type":"Feature","id":33053558,"properties":{"kind":"lift","name":"Alagna - Pianalunga","subtype":"gondola","status":"active"},"geometry":{"type":"LineString","coordinates":[[7.9351294,45.8532948],[7.9344111,45.8535698],[7.9328634,45.8541623],[7.9314423,45.8547063],[7.9303977,45.8551062],[7.9277906,45.8561042],[7.9261863,45.8567183],[7.9232455,45.8578441],[7.9224828,45.858136],[7.9221788,45.8582524],[7.9199582,45.8591024],[7.9178196,45.859921],[7.9165125,45.8604214],[7.9148892,45.8610427],[7.9137063,45.8614955],[7.9104319,45.8627488],[7.9081193,45.863634],[7.9062612,45.8643452],[7.9032927,45.8654814]]}},{"type":"Feature","id":33053561,"properties":{"kind":"lift","name":"Gabiet - Lago","subtype":"chair_lift","status":"active"},"geometry":{"type":"LineString","coordinates":[[7.8453479,45.8554153],[7.8457651,45.8548863],[7.8461488,45.8544033],[7.8465646,45.8539063],[7.8468635,45.8535117],[7.8472381,45.8530133],[7.8475992,45.8526058],[7.8477294,45.8524587]]}},{"type":"Feature","id":33053610,"properties":{"kind":"lift","name":"Punta Jolanda","subtype":"chair_lift","status":"active"},"geometry":{"type":"LineString","coordinates":[[7.8233063,45.831918],[7.8237987,45.8323877],[7.8244265,45.8329865],[7.8251848,45.8337098],[7.8266543,45.8351115],[7.8282284,45.836613],[7.8296429,45.8379621],[7.8299831,45.8382866],[7.8306676,45.8389395],[7.8307947,45.8390785],[7.8311993,45.8394465],[7.8315626,45.8397931],[7.8316716,45.839897],[7.8319574,45.8401696]]}},{"type":"Feature","id":33120069,"properties":{"kind":"run","name":"Mapped ski run","subtype":"intermediate","pisteType":"downhill","featured":false},"geometry":{"type":"LineString","coordinates":[[7.8094653,45.8596996],[7.810106,45.8597965],[7.8114215,45.8596968],[7.8121585,45.8598834]]}},{"type":"Feature","id":33120101,"properties":{"kind":"run","name":"Bodwitch","subtype":"easy","pisteType":"downhill","featured":false},"geometry":{"type":"LineString","coordinates":[[7.8679685,45.8770221],[7.8686866,45.8771287],[7.869138,45.8770807],[7.86962,45.8769419],[7.8701935,45.8767575],[7.8707314,45.8764551],[7.8712492,45.8762502],[7.8716147,45.8761838],[7.8719535,45.8761035],[7.8722335,45.8759802],[7.8727163,45.8756931],[7.8728639,45.8753929],[7.8729358,45.8750255],[7.8731803,45.874275],[7.8734115,45.8737505],[7.8733939,45.8734461],[7.8736114,45.8733047],[7.8741044,45.8732175]]}},{"type":"Feature","id":33120604,"properties":{"kind":"run","name":"Alagna","subtype":"intermediate","pisteType":"downhill","featured":false},"geometry":{"type":"LineString","coordinates":[[7.9030605,45.8654027],[7.9034239,45.8653818],[7.9036841,45.865464],[7.9039285,45.8654822],[7.9040488,45.86546],[7.9043816,45.8653985],[7.9044212,45.865389],[7.904867,45.865282],[7.9051781,45.8652734],[7.9052828,45.8652474],[7.9053256,45.8652109],[7.9054491,45.8650394],[7.9055343,45.8650059],[7.9055522,45.8649989],[7.9056688,45.8649882],[7.9064004,45.8651028],[7.9067002,45.865134],[7.9070072,45.8649499],[7.9071722,45.8648492],[7.9073491,45.8647709],[7.9075957,45.8647059],[7.9079897,45.8646853],[7.9086101,45.8646601],[7.9091075,45.8647411],[7.9095772,45.8647432],[7.9099927,45.8646108]]}},{"type":"Feature","id":33120644,"properties":{"kind":"run","name":"Mullero","subtype":"intermediate","pisteType":"downhill","featured":false},"geometry":{"type":"LineString","coordinates":[[7.9021993,45.8750808],[7.9022778,45.875159],[7.9023639,45.8751383],[7.9024116,45.8750811],[7.9025377,45.8749314],[7.902971,45.8745619],[7.9030798,45.8744691],[7.9034326,45.8741676],[7.9046917,45.8733209],[7.9047026,45.8733136],[7.904884,45.8731538],[7.904892,45.8731276],[7.9047453,45.8727238],[7.9035828,45.8719778],[7.9029017,45.8714875],[7.9024549,45.8705701],[7.9009207,45.8691734],[7.9004356,45.8684034],[7.8999177,45.8682403],[7.8988674,45.8676852],[7.8987643,45.8672549],[7.899163,45.8666999],[7.8995815,45.8664162],[7.900751,45.8660335],[7.9008762,45.8660332],[7.900917,45.8659647],[7.9014379,45.8657827],[7.9025554,45.8655017],[7.9028275,45.8653869],[7.9030605,45.8654027]]}},{"type":"Feature","id":33120843,"properties":{"kind":"lift","name":"Stafal - Sant'Anna","subtype":"cable_car","status":"active"},"geometry":{"type":"LineString","coordinates":[[7.8119092,45.8574426],[7.80504,45.8556928],[7.8038941,45.8554028]]}},{"type":"Feature","id":33120858,"properties":{"kind":"lift","name":"Sant'Anna - Colle Betta","subtype":"chair_lift","status":"active"},"geometry":{"type":"LineString","coordinates":[[7.8026048,45.8551522],[7.801929,45.8556402],[7.8010864,45.8562575],[7.8005609,45.8566425],[7.7994812,45.8574335],[7.7989023,45.8578576],[7.7981381,45.8584175],[7.7970666,45.8592024],[7.7961391,45.8598818],[7.7952657,45.8605217],[7.7937791,45.8616107],[7.7925411,45.8625176],[7.7911101,45.8635658],[7.7896148,45.8646612],[7.7885615,45.8654327],[7.7871466,45.8664691],[7.7856236,45.8675847],[7.784534,45.8683827],[7.7840687,45.8687235],[7.7832425,45.8693287],[7.7826637,45.8698308],[7.7826357,45.8698537],[7.7823583,45.8700581]]}},{"type":"Feature","id":33121007,"properties":{"kind":"run","name":"Salati","subtype":"intermediate","pisteType":"downhill","featured":false},"geometry":{"type":"LineString","coordinates":[[7.8680664,45.8767194],[7.8679568,45.8762306],[7.8679417,45.8762135],[7.867895,45.8762025],[7.8673343,45.8761596],[7.8666619,45.8761711],[7.8660661,45.8760802],[7.86566,45.8759786],[7.8654586,45.8758977],[7.8653395,45.8757633],[7.8653834,45.8755734],[7.8654005,45.8752477],[7.8654789,45.8749501],[7.8653721,45.8744829],[7.8652555,45.8741637],[7.8651377,45.8738126],[7.864899,45.873608],[7.864713,45.873473],[7.8641814,45.8731398],[7.8638519,45.8728541],[7.8637492,45.8726936],[7.8637097,45.8725316],[7.8637397,45.8723949],[7.8639349,45.8721246],[7.8639451,45.8718634],[7.8638974,45.8715387],[7.8637567,45.8710703],[7.8633391,45.8707397],[7.861811,45.869734],[7.861522,45.8695432],[7.861493,45.869524],[7.8611292,45.8692239],[7.8605642,45.8685907],[7.8602668,45.8683588],[7.8598717,45.8679071],[7.8596111,45.8676349],[7.8594694,45.8673865],[7.8594527,45.8672156],[7.8596352,45.8670264],[7.8599248,45.8668265],[7.860263,45.8665982],[7.8603122,45.8664555],[7.8602191,45.866166],[7.8600465,45.8657511],[7.8595651,45.8647758],[7.8592004,45.864339],[7.8587335,45.8639225],[7.8576855,45.8632745],[7.8568255,45.8628203],[7.856507,45.862652],[7.8549588,45.8618654],[7.854311,45.8615695],[7.8536699,45.86133],[7.8530363,45.8612307],[7.8514291,45.8610707],[7.8510943,45.8609316],[7.8508897,45.8606881],[7.850657,45.860515],[7.850153,45.860304],[7.8493136,45.8597404],[7.8490798,45.8595172],[7.8487259,45.8590684],[7.8485903,45.8589238],[7.8484292,45.8587911],[7.8476506,45.8583087],[7.8475073,45.85822],[7.8464558,45.857655],[7.8463986,45.857618],[7.845661,45.8571418],[7.8448465,45.8565108],[7.844749,45.856372],[7.8446897,45.8562244],[7.8447275,45.8560843],[7.8446881,45.8557114],[7.8446971,45.8556367],[7.8447101,45.8555284],[7.8447283,45.8554162],[7.8447718,45.855148]]}},{"type":"Feature","id":33201205,"properties":{"kind":"run","name":"Delle Marmotte","subtype":"intermediate","pisteType":"downhill","featured":false},"geometry":{"type":"LineString","coordinates":[[7.8035919,45.8554645],[7.803585,45.8558318],[7.8038096,45.8565805],[7.8037785,45.8568644],[7.8037695,45.8570707],[7.8037924,45.8571875],[7.8038559,45.8572902],[7.8038911,45.8573909],[7.8038886,45.8577684],[7.8039017,45.8580762],[7.8040589,45.8583048],[7.8041863,45.8584583],[7.8042345,45.8586319],[7.8041406,45.8587945],[7.8039551,45.8589042],[7.8035737,45.8590028],[7.8031911,45.8592568],[7.8029992,45.8594695],[7.8029673,45.8596794],[7.8031135,45.8598827],[7.8032481,45.8599089],[7.8033901,45.8597772],[7.8034517,45.859654],[7.8035455,45.8594614],[7.8036748,45.8594651],[7.8037117,45.859539],[7.8037021,45.859602],[7.8037257,45.8597558],[7.8036603,45.8600005],[7.8034677,45.8602443],[7.8033314,45.8603317],[7.8033141,45.860452],[7.8035067,45.860687]]}},{"type":"Feature","id":33201497,"properties":{"kind":"run","name":"Castore","subtype":"easy","pisteType":"downhill","featured":false},"geometry":{"type":"LineString","coordinates":[[7.8477294,45.8524587],[7.8479172,45.8523519],[7.8482246,45.8522823],[7.8484852,45.8523119],[7.8487863,45.8523895],[7.8488159,45.8524017],[7.8489886,45.8524731],[7.8491554,45.8525689],[7.8492685,45.8527757],[7.8493013,45.8529634],[7.849018,45.853364],[7.8484001,45.8537824],[7.8478164,45.854183],[7.8476481,45.8542801],[7.8472671,45.8544998],[7.8466834,45.8549003],[7.846501,45.8550608],[7.8463573,45.8551873],[7.8460655,45.8554144],[7.8455993,45.8555488],[7.8455039,45.8555667],[7.8453763,45.8555348],[7.8453414,45.8554957],[7.8453479,45.8554153]]}},{"type":"Feature","id":33201513,"properties":{"kind":"run","name":"Mapped ski run","subtype":"intermediate","pisteType":"downhill","featured":false},"geometry":{"type":"LineString","coordinates":[[7.8447826,45.8549292],[7.8449188,45.8549388],[7.8450343,45.8549912],[7.8451182,45.8550954],[7.8451236,45.8551795],[7.8451338,45.8553033],[7.8451658,45.8553971],[7.8452283,45.8554682],[7.8453479,45.8554153]]}},{"type":"Feature","id":33201532,"properties":{"kind":"run","name":"Castore-Ricka","subtype":"intermediate","pisteType":"downhill","featured":false},"geometry":{"type":"LineString","coordinates":[[7.8477294,45.8524587],[7.8473977,45.8523992],[7.8470044,45.8524834],[7.8469359,45.8525549],[7.8469359,45.852997],[7.8468723,45.8531069],[7.8466882,45.8532984],[7.8464946,45.8534238],[7.8457393,45.8538123],[7.8453488,45.8540066],[7.8450751,45.8540322],[7.8448974,45.8540653],[7.8443969,45.8540477],[7.8440821,45.8540008],[7.843851,45.8539438],[7.8436631,45.8539107],[7.8439362,45.8541336],[7.843856,45.854254],[7.8436158,45.8542321],[7.8432897,45.8543387],[7.8429083,45.8545389],[7.8425047,45.8547034]]}},{"type":"Feature","id":33201549,"properties":{"kind":"run","name":"Collegamento Gabiet","subtype":"intermediate","pisteType":"downhill","featured":false},"geometry":{"type":"LineString","coordinates":[[7.8392452,45.849101],[7.8392203,45.8493892],[7.8392366,45.8496302],[7.8391852,45.8498737],[7.8387788,45.8501853],[7.8386551,45.8504038],[7.8387293,45.8507831],[7.8386971,45.8509768],[7.8385562,45.8511586],[7.8384589,45.8512529],[7.8384265,45.8513912],[7.838483,45.8515297],[7.838674,45.8516169],[7.8387441,45.851649],[7.8391653,45.8518418],[7.8396807,45.8521163],[7.8399927,45.8523357],[7.8403578,45.8524334],[7.840659,45.8525151],[7.840922,45.8527469],[7.8412947,45.8529366],[7.8425487,45.8533824],[7.8430782,45.8536139],[7.8433947,45.8537499],[7.8436631,45.8539107]]}},{"type":"Feature","id":33201561,"properties":{"kind":"run","name":"Collegamento Ricka","subtype":"intermediate","pisteType":"downhill","featured":false},"geometry":{"type":"LineString","coordinates":[[7.8391852,45.8498737],[7.8389274,45.8498737],[7.8387232,45.8498737],[7.8384216,45.8499126],[7.8381781,45.8500478],[7.8378335,45.8507152],[7.8376096,45.8515174],[7.8373052,45.8524945],[7.8369117,45.8527541],[7.8367579,45.8529414],[7.8366598,45.8532609],[7.8366605,45.8535902]]}},{"type":"Feature","id":33201608,"properties":{"kind":"run","name":"Moos","subtype":"advanced","pisteType":"downhill","featured":false},"geometry":{"type":"LineString","coordinates":[[7.836773,45.853637],[7.836971,45.8538968],[7.836942,45.8542376],[7.836732,45.854339],[7.8364511,45.854379],[7.8361771,45.854382],[7.8359181,45.854348],[7.835516,45.854248],[7.8353187,45.8542216],[7.835118,45.8542613],[7.834876,45.854416],[7.8346978,45.8546287],[7.834604,45.854891],[7.8345339,45.855093],[7.8343405,45.8552326],[7.8341546,45.8552368],[7.8338922,45.8552289],[7.8336161,45.8553004],[7.8333259,45.8554458],[7.8330782,45.855606],[7.8329118,45.8557663],[7.8325933,45.8559832],[7.8320801,45.8560768],[7.831751,45.8561064],[7.8314607,45.856168],[7.8310573,45.8563356],[7.8308768,45.856449],[7.8306149,45.8565107],[7.8300026,45.8565526],[7.8296756,45.8565642],[7.82935,45.8567786],[7.8293111,45.8569043],[7.8293107,45.8570964],[7.829325,45.85739],[7.8293325,45.8576312],[7.829313,45.857881],[7.8290658,45.8580445],[7.8287759,45.8581048],[7.8284935,45.8581514],[7.8281917,45.8581642],[7.8276995,45.8581789],[7.8274361,45.8582112],[7.8270578,45.8582815],[7.8266433,45.8583022],[7.8264809,45.8583042],[7.8258222,45.8582378],[7.8255658,45.8582067],[7.8253563,45.8582213],[7.8250129,45.8582808],[7.8246211,45.8583525],[7.8242777,45.8583944],[7.8240446,45.8583995],[7.8237579,45.8583842],[7.8232783,45.8584263],[7.8230649,45.8584561],[7.822912,45.8584524],[7.8227993,45.8584263],[7.822455,45.8583289],[7.8222671,45.8582998],[7.8220747,45.858315],[7.8216341,45.8584398],[7.8213496,45.8585077],[7.8212028,45.8585262],[7.8210264,45.8585232],[7.8205698,45.8584691],[7.8199909,45.8584888],[7.81942,45.858486],[7.8185508,45.8585275],[7.8181976,45.8585272],[7.8179396,45.8585036],[7.8177491,45.8584548],[7.8171086,45.8586269],[7.8170173,45.8586527],[7.816906,45.8587],[7.8165694,45.8589054],[7.816329,45.859098],[7.8158987,45.8597534],[7.8156117,45.8600432],[7.8152996,45.8603921],[7.8147462,45.8610212],[7.814603,45.86126],[7.814212,45.861725],[7.814103,45.861669],[7.814116,45.861543],[7.814362,45.860822],[7.814241,45.860795],[7.8140785,45.8607584],[7.813878,45.8607102],[7.8135697,45.8606771],[7.8132343,45.8606215],[7.8128853,45.8605493],[7.8124143,45.8604725]]}},{"type":"Feature","id":33202040,"properties":{"kind":"run","name":"Jolanda","subtype":"intermediate","pisteType":"downhill","featured":false},"geometry":{"type":"LineString","coordinates":[[7.8225431,45.8447137],[7.8224363,45.8445038],[7.8220071,45.8442227],[7.8217496,45.8440673],[7.821578,45.8436248],[7.8215185,45.8435051],[7.8213462,45.8431585],[7.8211488,45.84271],[7.8209171,45.8425306],[7.8205995,45.8423333],[7.8203763,45.84213],[7.8202047,45.8418909],[7.8201704,45.8416517],[7.8203592,45.8414723],[7.8204622,45.8412929],[7.8204622,45.8409939],[7.8204278,45.8405574],[7.8202733,45.840109],[7.8201704,45.8397203],[7.8201189,45.839242],[7.8201189,45.8390207],[7.820033,45.8386739],[7.820033,45.8384646],[7.8199729,45.8379862],[7.8198614,45.837448],[7.8197873,45.8369537],[7.8196949,45.8367411],[7.8196641,45.8364878],[7.8197503,45.8362152],[7.8199999,45.8359254],[7.8203789,45.8355111],[7.8206439,45.8351692],[7.8209529,45.834885],[7.8210387,45.8348052],[7.8211851,45.8346991],[7.8213034,45.8345905],[7.8212797,45.8345385],[7.8211945,45.8344886],[7.8210426,45.8345149],[7.8209194,45.8345467],[7.8207533,45.8345204],[7.8206772,45.8344597],[7.8207454,45.8342189],[7.8208149,45.834133],[7.8208996,45.8340304],[7.8211318,45.8337475],[7.8217733,45.8331152],[7.8219843,45.8327608],[7.822554,45.8324062],[7.8232094,45.832103],[7.8233063,45.831918]]}},{"type":"Feature","id":33202080,"properties":{"kind":"run","name":"Jolanda 1","subtype":"advanced","pisteType":"downhill","featured":false},"geometry":{"type":"LineString","coordinates":[[7.8322699,45.8404636],[7.8320922,45.8405574],[7.8319206,45.8406352],[7.8314313,45.8407787],[7.8312854,45.8407966],[7.8311138,45.840976],[7.8311138,45.8411255],[7.8311138,45.8413348],[7.8310623,45.8415919],[7.8310279,45.8419148],[7.8308305,45.8420702],[7.8303155,45.8422018],[7.8297748,45.8422735],[7.8293457,45.8422735],[7.8288307,45.8423333],[7.8283414,45.8424409],[7.8279552,45.8425127],[7.827526,45.84271],[7.8272857,45.8429073],[7.8267707,45.8430867],[7.8264274,45.8431585],[7.8260841,45.8433378],[7.8258523,45.8435292],[7.8255232,45.8436259]]}},{"type":"Feature","id":33202120,"properties":{"kind":"run","name":"Jolanda","subtype":"intermediate","pisteType":"downhill","featured":false},"geometry":{"type":"LineString","coordinates":[[7.8322699,45.8404636],[7.8323755,45.840695],[7.8325042,45.8410537],[7.8325042,45.841257],[7.8323755,45.8413168],[7.8320579,45.8413168],[7.8319463,45.8413348],[7.8319034,45.8415739],[7.8320064,45.8419626],[7.8320064,45.8422915],[7.8319034,45.8426502],[7.8319892,45.843009],[7.8319892,45.8433079],[7.8320064,45.843577],[7.8319034,45.8437265],[7.8316631,45.8437085],[7.8313198,45.843565],[7.8310022,45.8434455],[7.8306846,45.8432481],[7.8304271,45.8430508],[7.830101,45.8428475],[7.8298375,45.8427026],[7.8295001,45.8426921],[7.8292727,45.8427143],[7.8290382,45.8428038],[7.8288822,45.8429073],[7.828659,45.8431883],[7.828556,45.8435172],[7.8285286,45.8437187],[7.8287704,45.8442003],[7.8285715,45.8445817],[7.8284719,45.8446459],[7.8283894,45.8446745],[7.8281769,45.8446462],[7.8281238,45.8446113],[7.8281098,45.8445652],[7.828104,45.844277],[7.8277149,45.8442227],[7.8273715,45.8442945],[7.8271141,45.8443423],[7.8269681,45.8443543],[7.8267106,45.8442825],[7.8265647,45.8441151],[7.8264789,45.843864],[7.8263072,45.8437265],[7.8255232,45.8436259],[7.8245845,45.843685],[7.8235317,45.8437681],[7.8229076,45.843852],[7.8226026,45.8438814],[7.822236,45.8440151],[7.8220071,45.8442227]]}},{"type":"Feature","id":33202159,"properties":{"kind":"run","name":"Jolanda","subtype":"intermediate","pisteType":"downhill","featured":false},"geometry":{"type":"LineString","coordinates":[[7.8226026,45.8438814],[7.822047,45.8437823],[7.8215185,45.8435051]]}},{"type":"Feature","id":33202442,"properties":{"kind":"lift","name":"Bedemie - Seehorn","subtype":"chair_lift","status":"active"},"geometry":{"type":"LineString","coordinates":[[7.8223148,45.8442835],[7.8231153,45.8445126],[7.8243487,45.8448657],[7.8262984,45.8454237],[7.8269803,45.8456189],[7.8291003,45.8462256],[7.8305641,45.8466446],[7.8319259,45.8470344],[7.833254,45.8474145],[7.8341577,45.8476732],[7.835591,45.8480834],[7.8368106,45.8484324],[7.8379917,45.8487705],[7.8392452,45.849101]]}},{"type":"Feature","id":33202483,"properties":{"kind":"run","name":"Chamois","subtype":"intermediate","pisteType":"downhill","featured":false},"geometry":{"type":"LineString","coordinates":[[7.8392452,45.849101],[7.8392806,45.8489157],[7.8390703,45.8487009],[7.8388128,45.8484199],[7.8386583,45.8480432],[7.8386239,45.8474872],[7.8382978,45.8466861],[7.8381948,45.8462915],[7.8379545,45.8457534],[7.8375425,45.8450837],[7.8371391,45.8445336],[7.8367936,45.8442077],[7.8363409,45.8438759],[7.8360233,45.843589],[7.8358516,45.8432182],[7.8355941,45.8427399],[7.8353109,45.8423333],[7.8351221,45.8419626],[7.8349676,45.8418849],[7.8346757,45.841843],[7.8344526,45.8417473],[7.8344526,45.8416038],[7.8345212,45.8413766],[7.8344783,45.8411853],[7.8342637,45.8409282],[7.8341093,45.8407189],[7.8339376,45.8404678],[7.8338994,45.8404392],[7.8336069,45.84022],[7.8335943,45.8402106],[7.8333024,45.8399535],[7.8331909,45.8399894],[7.8331909,45.8401508],[7.8332166,45.8402884],[7.8331651,45.84039],[7.8329076,45.840408],[7.8324441,45.8404199],[7.8322699,45.8404636]]}},{"type":"Feature","id":33227169,"properties":{"kind":"run","name":"Diretta Staffal","subtype":"intermediate","pisteType":"downhill","featured":false},"geometry":{"type":"LineString","coordinates":[[7.8035067,45.860687],[7.804348,45.8604834],[7.8051724,45.8603456],[7.8086557,45.8598139],[7.8089081,45.8597754],[7.809255,45.8597282],[7.8093265,45.8597185],[7.8094653,45.8596996],[7.8094617,45.8593256],[7.8095251,45.8587136],[7.8096063,45.8580001],[7.8097344,45.8577667],[7.8099246,45.8575604],[7.8102122,45.8573856],[7.8104039,45.857339],[7.8106464,45.8573184],[7.8109368,45.8573527],[7.8116664,45.8575253]]}},{"type":"Feature","id":34131067,"properties":{"kind":"lift","name":"Stafal - Gabiet","subtype":"gondola","status":"active"},"geometry":{"type":"LineString","coordinates":[[7.8119959,45.8578732],[7.813459,45.8577741],[7.8147758,45.8576833],[7.8170437,45.8575269],[7.8197894,45.8573376],[7.823847,45.8570579],[7.8252974,45.8569578],[7.8272543,45.8568229],[7.8298005,45.8566474],[7.8320526,45.8564921],[7.8340105,45.8563571],[7.8396097,45.855971],[7.8412955,45.8558696],[7.8423762,45.8558013],[7.8439553,45.8556892],[7.8445418,45.8556443]]}},{"type":"Feature","id":44680817,"properties":{"kind":"run","name":"Alpe Ricka","subtype":"intermediate","pisteType":"downhill","featured":false},"geometry":{"type":"LineString","coordinates":[[7.8447718,45.855148],[7.8447826,45.8549292],[7.8446336,45.8548566],[7.8435759,45.854676],[7.843311,45.854646],[7.8430234,45.8546069],[7.8425047,45.8547034],[7.8420331,45.8548884],[7.8415988,45.8549716],[7.8410349,45.8550157],[7.8402321,45.8550348],[7.8394128,45.8550567],[7.8383885,45.8549239],[7.8380813,45.8548029],[7.8378993,45.8546425],[7.837808,45.854446],[7.8377687,45.8542349],[7.83768,45.854026],[7.8373721,45.8538224],[7.837026,45.853676],[7.836773,45.853637],[7.8366605,45.8535902],[7.836283,45.853434],[7.836091,45.853227],[7.835936,45.852989],[7.8357897,45.8527872],[7.835671,45.852679],[7.835421,45.852594],[7.834843,45.852577],[7.8344516,45.8526195],[7.8340041,45.852668],[7.8335786,45.8526004],[7.8332431,45.8524787],[7.83301,45.852371],[7.832788,45.852125],[7.832616,45.851696],[7.832172,45.851233],[7.8319845,45.8511218],[7.8316549,45.8509375],[7.8310961,45.8507429],[7.830455,45.850704],[7.829701,45.8505556],[7.8294019,45.8503644],[7.8288437,45.8499272],[7.8284421,45.8496142],[7.8280056,45.8493119],[7.8276924,45.8489619],[7.8276034,45.8486814],[7.8275398,45.848209],[7.8274296,45.8478605],[7.8272762,45.8476585],[7.8268003,45.8475017],[7.826156,45.847306],[7.8259833,45.8472511],[7.825631,45.847139],[7.8253378,45.847023],[7.825171,45.846957],[7.8244921,45.8466883],[7.8241487,45.8463222],[7.8238054,45.8460446],[7.8233747,45.8457014],[7.8229618,45.8454334],[7.8226821,45.845082],[7.8225431,45.8447137]]}},{"type":"Feature","id":59409346,"properties":{"kind":"run","name":"Variante Salati","subtype":"intermediate","pisteType":"downhill","featured":false},"geometry":{"type":"LineString","coordinates":[[7.8682554,45.8758914],[7.8680795,45.8757851],[7.868027,45.8757323],[7.8669787,45.8751223],[7.8665967,45.8749236],[7.8663664,45.8748166],[7.8660918,45.8743711],[7.8658844,45.8742505],[7.8654021,45.873923],[7.8651377,45.8738126]]}},{"type":"Feature","id":59410312,"properties":{"kind":"lift","name":"Pianalunga - Bocchetta","subtype":"chair_lift","status":"active"},"geometry":{"type":"LineString","coordinates":[[7.9055426,45.8651499],[7.9053657,45.865672],[7.9051979,45.8661681],[7.9047657,45.8674456],[7.9044031,45.8685175],[7.9041766,45.869187],[7.904006,45.8696912],[7.9037441,45.8704653],[7.9034825,45.8712384],[7.9034488,45.8713379],[7.9030859,45.8724106],[7.9028088,45.8732295],[7.902689,45.8735836],[7.9025876,45.8738834],[7.9022187,45.8750452]]}},{"type":"Feature","id":60360482,"properties":{"kind":"run","name":"Mapped ski run","subtype":"intermediate","pisteType":"nordic","featured":false},"geometry":{"type":"LineString","coordinates":[[7.8134505,45.8431888],[7.8134492,45.8430893],[7.8133973,45.8428501],[7.8133535,45.8426187],[7.813238,45.8424224],[7.8131194,45.8422597],[7.8130114,45.8420945],[7.8129336,45.8419133],[7.8129336,45.8417469],[7.8129696,45.8416202],[7.8130049,45.8414626],[7.8130769,45.8413371],[7.813167,45.8411279],[7.813197,45.8409647],[7.8134913,45.8406928],[7.8135934,45.8405505],[7.8135356,45.840346],[7.8134515,45.8401817],[7.8133628,45.8399133],[7.8132991,45.8396761],[7.8133004,45.8396727],[7.8133435,45.8395642],[7.8134046,45.8393856],[7.8134253,45.8392284],[7.8134722,45.8390738]]}},{"type":"Feature","id":60361223,"properties":{"kind":"run","name":"Mapped ski run","subtype":"intermediate","pisteType":"nordic","featured":false},"geometry":{"type":"LineString","coordinates":[[7.8134722,45.8390738],[7.8135199,45.8389396],[7.8136047,45.8388205],[7.8138512,45.8385157],[7.8140028,45.8383419],[7.8141159,45.8382494],[7.8141343,45.8382359],[7.8143021,45.8381113],[7.8144822,45.8378519],[7.8146291,45.8376207],[7.8147705,45.837492],[7.8150228,45.8373498],[7.8151711,45.8372653],[7.8154058,45.83711],[7.8155753,45.8369481],[7.8156473,45.8368853],[7.8157494,45.8367556],[7.8158482,45.8366714],[7.81599,45.8365808],[7.8162126,45.8364698],[7.8163648,45.836412],[7.8165076,45.8363395],[7.8167404,45.8361761],[7.8168538,45.8360887],[7.8169509,45.8359996],[7.8170014,45.8359157],[7.8170398,45.8358565],[7.8170819,45.835761],[7.8171028,45.8356656],[7.8171431,45.8355195],[7.8172164,45.8353963],[7.8173119,45.8352347],[7.8174215,45.8350894],[7.8175151,45.8348957],[7.8175625,45.8347675],[7.8175696,45.8346371],[7.8175564,45.8345745],[7.8174533,45.8342894],[7.8174468,45.8341708],[7.8174911,45.8340087],[7.8176392,45.8337481],[7.8177434,45.8336303],[7.8178815,45.8335177],[7.8180827,45.8334089],[7.8183078,45.8333308],[7.8184806,45.8332876]]}},{"type":"Feature","id":68733921,"properties":{"kind":"lift","name":"Funivia Passo dei Salati-Punta Indren","subtype":"cable_car","status":"active"},"geometry":{"type":"LineString","coordinates":[[7.8641054,45.8774554],[7.8594457,45.8865396],[7.8571703,45.890507]]}},{"type":"Feature","id":87656316,"properties":{"kind":"run","name":"Olen","subtype":"advanced","pisteType":"downhill","featured":false},"geometry":{"type":"LineString","coordinates":[[7.8759122,45.8726191],[7.8762677,45.8724028],[7.8763631,45.8722266],[7.8763589,45.8720268],[7.8763698,45.8715015],[7.8762805,45.8713369],[7.8760627,45.8710221],[7.8759251,45.8706795],[7.8758427,45.8705328],[7.8757006,45.8703815],[7.8754035,45.8696991],[7.8754859,45.8689748],[7.8754136,45.8687754],[7.8752441,45.8685851],[7.8750032,45.8684541],[7.8747618,45.8684112],[7.8746599,45.8683551],[7.8746771,45.8682397],[7.8749576,45.8678901],[7.8751306,45.8675281],[7.8752396,45.8673947],[7.8753586,45.8671967],[7.8754456,45.8671127],[7.8755836,45.8670697],[7.8761534,45.8668869],[7.8775767,45.8663289],[7.8779116,45.866179],[7.8784177,45.8655798],[7.8793854,45.8654191],[7.8808395,45.8656696],[7.8816066,45.86561],[7.8821469,45.8654125],[7.8828046,45.8651237],[7.8835729,45.8650176],[7.884355,45.8649978],[7.8858152,45.865025],[7.8875447,45.8650579],[7.8901493,45.8651037],[7.891373,45.8651425],[7.8935713,45.8652231]]}},{"type":"Feature","id":87656318,"properties":{"kind":"run","name":"Bodwitch","subtype":"easy","pisteType":"downhill","featured":false},"geometry":{"type":"LineString","coordinates":[[7.8759122,45.8726191],[7.8764141,45.8726767],[7.8768459,45.872602],[7.8771168,45.872645],[7.8773206,45.8727981],[7.8776854,45.8728224],[7.8780581,45.8727202],[7.879166,45.8725068],[7.8801253,45.8724513],[7.8806573,45.8725852],[7.8810865,45.8729961],[7.8817463,45.8732799],[7.8828558,45.8734572]]}},{"type":"Feature","id":87656320,"properties":{"kind":"run","name":"Cimalegna","subtype":"easy","pisteType":"downhill","featured":false},"geometry":{"type":"LineString","coordinates":[[7.8701935,45.8767575],[7.8707979,45.8766758],[7.8714742,45.8766196],[7.8724296,45.8764771],[7.8730377,45.8763475],[7.8734968,45.8761186],[7.8736643,45.8759933],[7.8738938,45.8759285],[7.8745391,45.8756866],[7.8753952,45.8753152],[7.8760281,45.8750905],[7.8764672,45.8749623],[7.8771693,45.8749027],[7.8778025,45.8749262],[7.8784579,45.8748355],[7.8790495,45.8745204],[7.8795024,45.8741878],[7.8799367,45.8739718],[7.8803772,45.8738897],[7.8815312,45.8738768],[7.8819367,45.8737886],[7.8822739,45.8736726],[7.8827929,45.8734792],[7.8828558,45.8734572],[7.8831499,45.8733545],[7.8842404,45.8730185],[7.8846117,45.8727862],[7.8853667,45.8726577],[7.8858817,45.8725561],[7.8864592,45.8725363],[7.8869406,45.8723257],[7.88711,45.8721501],[7.8872539,45.8717814],[7.8873267,45.871436],[7.8871716,45.8713595]]}},{"type":"Feature","id":87656322,"properties":{"kind":"run","name":"Mapped ski run","subtype":"intermediate","pisteType":"downhill","featured":false},"geometry":{"type":"LineString","coordinates":[[7.9008762,45.8660332],[7.9020353,45.8661121],[7.9029113,45.8662333],[7.9036558,45.8662367],[7.9041869,45.8662125],[7.904413,45.8661162],[7.9046142,45.8657686],[7.904579,45.8656373],[7.9044818,45.8654758],[7.9044212,45.865389]]}},{"type":"Feature","id":87656333,"properties":{"kind":"run","name":"Pistone Betta","subtype":"intermediate","pisteType":"downhill","featured":false},"geometry":{"type":"LineString","coordinates":[[7.7970561,45.8577158],[7.7973028,45.8575564],[7.7978887,45.8571779],[7.7988586,45.8566399],[7.7993967,45.8563776],[7.7998371,45.8562513],[7.8006782,45.8560122],[7.8012104,45.8558628],[7.8013593,45.8558239],[7.8022403,45.8555938]]}},{"type":"Feature","id":295970406,"properties":{"kind":"run","name":"Mapped ski run","subtype":"easy","pisteType":"nordic","featured":false},"geometry":{"type":"LineString","coordinates":[[7.8250196,45.8282338],[7.8249973,45.8283661],[7.8249628,45.8284305],[7.824916,45.8284935],[7.8246995,45.8286571],[7.8244509,45.8288313]]}},{"type":"Feature","id":295974321,"properties":{"kind":"run","name":"Mapped ski run","subtype":"intermediate","pisteType":"nordic","featured":false},"geometry":{"type":"LineString","coordinates":[[7.8179929,45.8353367],[7.8179671,45.8353015],[7.8179397,45.8352509],[7.8178615,45.8351058],[7.8178371,45.8350487],[7.8178255,45.8349939],[7.8178513,45.8345622],[7.8178298,45.8344313],[7.8177527,45.834296],[7.8177158,45.8341887],[7.8177189,45.8341071],[7.817876,45.8339805],[7.8180855,45.8338581],[7.8182765,45.8337851]]}},{"type":"Feature","id":297956464,"properties":{"kind":"run","name":"Silbersattel","subtype":"expert","pisteType":"skitour","featured":false},"geometry":{"type":"LineString","coordinates":[[7.8145641,45.9567721],[7.8155445,45.9562769],[7.8165354,45.9557082],[7.8178719,45.9551695],[7.8218681,45.9535453],[7.8233729,45.9529156],[7.8241036,45.9529199],[7.8249287,45.953249],[7.8264977,45.9525016],[7.8268173,45.9525285],[7.8305267,45.951101],[7.8322313,45.9501986],[7.8337809,45.9493905],[7.8380714,45.9501111],[7.839592,45.9500572],[7.8415775,45.9486969],[7.8444346,45.9465701],[7.844575,45.9461391],[7.8459309,45.9459572],[7.8476203,45.9447228],[7.8492329,45.944541],[7.8502207,45.9447296],[7.8512135,45.9450899],[7.8525549,45.9449989],[7.8534846,45.9445646],[7.8544774,45.9443255],[7.8555192,45.944516],[7.8561903,45.9445445],[7.8577244,45.9440207],[7.859368,45.9433254],[7.8621348,45.9426206],[7.8644284,45.9422655],[7.8646837,45.9420643],[7.8649359,45.94179],[7.8651637,45.9415221],[7.8652668,45.94126],[7.8650926,45.9402751],[7.8651696,45.9399022],[7.8652589,45.9395978],[7.8652635,45.9394231],[7.865269,45.9393182],[7.8653169,45.9391593],[7.8654822,45.9391112],[7.8656836,45.9391541],[7.8658015,45.9391428],[7.865949,45.9391784],[7.8661328,45.9392537],[7.8664573,45.9392082],[7.8666451,45.9390913],[7.8672967,45.938624],[7.8678685,45.9378596],[7.8683773,45.9375284]]}},{"type":"Feature","id":303995875,"properties":{"kind":"run","name":"Seehorn","subtype":"intermediate","pisteType":"downhill","featured":false},"geometry":{"type":"LineString","coordinates":[[7.8389274,45.8498737],[7.8379832,45.849498],[7.8372751,45.8493111],[7.8368567,45.8494083],[7.8365777,45.8497745],[7.8361808,45.8501257],[7.8358375,45.8503125],[7.8355585,45.8502154],[7.8352259,45.8499164],[7.8345715,45.8488702],[7.833917,45.8482126],[7.8325759,45.8475549],[7.8321897,45.8472335],[7.8319965,45.8468375],[7.8315996,45.8464339],[7.8313421,45.8461051],[7.8314172,45.8457912],[7.831503,45.8455221],[7.8314816,45.8452979],[7.8310846,45.8446402],[7.8308807,45.8441395],[7.8306232,45.8435341],[7.8306846,45.8432481]]}},{"type":"Feature","id":306616210,"properties":{"kind":"lift","name":"Goods","subtype":"goods","status":"active"},"geometry":{"type":"LineString","coordinates":[[7.924894,45.8462231],[7.9375412,45.8503784]]}},{"type":"Feature","id":322717863,"properties":{"kind":"lift","name":"Wold 2","subtype":"platter","status":"active"},"geometry":{"type":"LineString","coordinates":[[7.9379825,45.865946],[7.9408416,45.86468],[7.9414332,45.864418]]}},{"type":"Feature","id":322717864,"properties":{"kind":"lift","name":"Wold 1","subtype":"platter","status":"active"},"geometry":{"type":"LineString","coordinates":[[7.9379188,45.8658893],[7.9408043,45.86462],[7.9413978,45.8643589]]}},{"type":"Feature","id":541749294,"properties":{"kind":"lift","name":"Ca' Verno - Pian di Staffo","subtype":"goods","status":"active"},"geometry":{"type":"LineString","coordinates":[[7.9287413,45.820749],[7.9325849,45.8162832]]}},{"type":"Feature","id":541749295,"properties":{"kind":"lift","name":"S. Antonio - Alpe del Gias","subtype":"goods","status":"active"},"geometry":{"type":"LineString","coordinates":[[7.9181197,45.8182778],[7.9312137,45.8153301]]}},{"type":"Feature","id":552160243,"properties":{"kind":"lift","name":"Cimalegna-Passo Salati","subtype":"chair_lift","status":"active"},"geometry":{"type":"LineString","coordinates":[[7.8871716,45.8713595],[7.8857115,45.87188],[7.8847268,45.872231],[7.883636,45.8726199],[7.8821974,45.8731327],[7.8808796,45.8736024],[7.8792425,45.874186],[7.8778604,45.8746787],[7.8760286,45.8753317],[7.8747567,45.8757851],[7.8738415,45.8761113],[7.8722759,45.8766693],[7.8709166,45.8771539],[7.8698294,45.8775414],[7.8684536,45.8780318],[7.868042,45.8781788],[7.8675438,45.878335]]}},{"type":"Feature","id":560997470,"properties":{"kind":"run","name":"Olen","subtype":"advanced","pisteType":"downhill","featured":false},"geometry":{"type":"LineString","coordinates":[[7.8935713,45.8652231],[7.894814,45.8654565],[7.8958257,45.8656985],[7.8961756,45.8659978],[7.896794,45.8665425],[7.8973022,45.8667173],[7.897841,45.8666179],[7.8983875,45.8664585],[7.8993203,45.866233],[7.8999198,45.8661313],[7.900751,45.8660335]]}},{"type":"Feature","id":560997471,"properties":{"kind":"run","name":"Fuoripista Olen","subtype":"easy","pisteType":"skitour","featured":false},"geometry":{"type":"LineString","coordinates":[[7.8724949,45.8708637],[7.8720912,45.8705284],[7.8707954,45.8702312],[7.8702314,45.8700295],[7.8704982,45.8695837],[7.8706735,45.8694881],[7.8711689,45.869642],[7.8713976,45.8695147],[7.8713671,45.8691432],[7.8713366,45.8682303],[7.8719845,45.8675138],[7.872236,45.867052],[7.8725867,45.8670149],[7.8729906,45.8672086],[7.8733032,45.8670361],[7.873608,45.8669618],[7.8741492,45.8665956],[7.8745608,45.8665213],[7.8747582,45.8660929],[7.874921,45.8661046],[7.875022,45.8661789],[7.8754069,45.8660575],[7.8757823,45.8659434],[7.8760967,45.8658445],[7.8765588,45.8658419],[7.876736,45.865745],[7.8768332,45.8656415],[7.8769285,45.8656004],[7.8771209,45.8656402],[7.8772429,45.8654617],[7.8772705,45.865333],[7.8774649,45.8651346],[7.878109,45.8650066],[7.8784996,45.8648487],[7.8790198,45.8645441],[7.8791818,45.8644964],[7.8794124,45.8645017],[7.8796925,45.8644725],[7.8800164,45.8646065],[7.8801736,45.8646457],[7.8803385,45.8645282],[7.8805833,45.8643882],[7.8808978,45.8644028],[7.8810588,45.8644659],[7.8813446,45.8644154],[7.8816428,45.8644194],[7.8829757,45.8637241],[7.8840733,45.8635649],[7.8860704,45.8633419],[7.887854,45.8633419],[7.891373,45.8651425]]}},{"type":"Feature","id":561017024,"properties":{"kind":"run","name":"Canale dell'Aquila","subtype":"intermediate","pisteType":"skitour","featured":false},"geometry":{"type":"LineString","coordinates":[[7.852585,45.8791096],[7.8523493,45.8783648],[7.8518128,45.8779466],[7.8510618,45.8769606],[7.8507078,45.8763406],[7.8504717,45.8752874],[7.8506112,45.8746674],[7.8519201,45.8735619],[7.8531003,45.8728672],[7.8531647,45.8723443],[7.8527677,45.8717691],[7.8524029,45.8714479],[7.8516304,45.8697223],[7.8512623,45.8689845],[7.851212,45.8688258],[7.8516291,45.8683605],[7.8514051,45.8676081],[7.850858,45.8671598],[7.8503966,45.8662932],[7.8504288,45.8657329],[7.8500104,45.8653295],[7.849431,45.8649485],[7.8485191,45.8646795],[7.8476715,45.8643657],[7.8468883,45.8639174],[7.846545,45.863372],[7.8464593,45.8631538]]}},{"type":"Feature","id":561017025,"properties":{"kind":"run","name":"Canal Grande","subtype":"intermediate","pisteType":"skitour","featured":false},"geometry":{"type":"LineString","coordinates":[[7.8562278,45.8925359],[7.8538728,45.8923978],[7.851448,45.8910536],[7.8495598,45.889351],[7.8473496,45.8876035]]}},{"type":"Feature","id":561017026,"properties":{"kind":"run","name":"Canal Grande","subtype":"intermediate","pisteType":"skitour","featured":false},"geometry":{"type":"LineString","coordinates":[[7.8473496,45.8876035],[7.846663,45.8863937],[7.8470492,45.8848254],[7.8477788,45.8831823],[7.8490448,45.8824802],[7.8485298,45.8819425],[7.8485083,45.8812404],[7.8490019,45.8800902],[7.8496561,45.8799662],[7.8514761,45.8800512],[7.8523922,45.8797765],[7.852585,45.8791096]]}},{"type":"Feature","id":561017027,"properties":{"kind":"run","name":"Salza (variante ripida)","subtype":"expert","pisteType":"skitour","featured":false},"geometry":{"type":"LineString","coordinates":[[7.8401774,45.8806205],[7.8389007,45.8801724],[7.8380477,45.8801163],[7.8375059,45.8795151],[7.8369749,45.8791752],[7.8358591,45.8790184],[7.8352046,45.8787756]]}},{"type":"Feature","id":561017029,"properties":{"kind":"run","name":"Salza","subtype":"advanced","pisteType":"skitour","featured":false},"geometry":{"type":"LineString","coordinates":[[7.8571384,45.8906295],[7.8570885,45.8907083],[7.8572953,45.8915054],[7.8569037,45.8920319],[7.8562278,45.8925359],[7.8555196,45.8928495],[7.8546399,45.8931632],[7.8539371,45.8934768],[7.8535885,45.8935253],[7.8531164,45.8934656],[7.8525209,45.8932602],[7.8510833,45.8927002],[7.849592,45.892114],[7.8491092,45.8914942],[7.8484708,45.8911022],[7.8478217,45.8906578],[7.8474247,45.8901874],[7.8472745,45.8899746],[7.8467542,45.889702],[7.8458691,45.8895452],[7.8448069,45.8895041],[7.8444689,45.8895452],[7.8440022,45.8896049],[7.8437501,45.8893622],[7.8438252,45.8887984],[7.8437608,45.8878686],[7.8437877,45.8871666],[7.8437018,45.8865356],[7.8436643,45.8861248],[7.8438789,45.885785],[7.8434819,45.8851054],[7.8428864,45.8847544],[7.8425914,45.8843362],[7.8426129,45.8841644],[7.8427094,45.8839515],[7.8432298,45.883832],[7.8431815,45.8836043],[7.8421622,45.8833914],[7.8413898,45.8828611],[7.8409231,45.882245],[7.8410518,45.8821068],[7.841202,45.8818641],[7.8410894,45.8814234],[7.8406709,45.8809678],[7.8401774,45.8806205],[7.839936,45.8802545],[7.8398555,45.8797354],[7.8390938,45.8793358],[7.8386056,45.8790893],[7.8380799,45.8786076],[7.8379244,45.878391],[7.83764,45.878447],[7.837522,45.8780847],[7.8372538,45.8780362],[7.836653,45.8782939],[7.8362077,45.8785964],[7.8352046,45.8787756],[7.8342712,45.878518],[7.8338903,45.8780138],[7.8327799,45.8773602],[7.8320718,45.877095],[7.830677,45.8770764],[7.8294969,45.8766431],[7.8275227,45.8764938],[7.8263426,45.8764975],[7.8261012,45.8762921],[7.8260958,45.8758215],[7.8258815,45.8755607],[7.8257042,45.875463],[7.8243577,45.8755713],[7.8241485,45.8758999],[7.8235424,45.8758514],[7.8231722,45.8756796],[7.8228396,45.8760904],[7.8220403,45.8762099],[7.8214073,45.876744],[7.8210211,45.8771959],[7.8205812,45.8773341],[7.8203344,45.8777561],[7.8199106,45.8778233],[7.8195405,45.8780623],[7.8186446,45.877954],[7.818017,45.8779503],[7.8169709,45.8781445],[7.8166813,45.8781146],[7.8164613,45.8783424],[7.8158122,45.8786449],[7.8148037,45.8786823],[7.8140956,45.8782901],[7.8137684,45.8778084],[7.8133231,45.8767851],[7.8128618,45.8759858],[7.8127246,45.8756993],[7.8126526,45.8755489],[7.8122878,45.8754331],[7.8118318,45.8754368],[7.8108072,45.8755302],[7.8098416,45.8754966],[7.8088331,45.8748766],[7.8081089,45.8745815],[7.8075027,45.8740624],[7.807079,45.8736852],[7.8059953,45.8732295],[7.8054589,45.8728],[7.8051478,45.8722883],[7.8051293,45.872106],[7.8050888,45.8717056],[7.8051317,45.8712387],[7.8052121,45.8704543],[7.8052282,45.8699127],[7.8051048,45.8695355],[7.805416,45.8687249],[7.8058881,45.8681385],[7.8058183,45.8673055],[7.8061831,45.8666406],[7.8062528,45.8654826],[7.8067785,45.8645151],[7.807492,45.8637269],[7.8087902,45.8630956],[7.808758,45.8626324],[7.8089862,45.8616779],[7.8089219,45.8612518]]}},{"type":"Feature","id":561019130,"properties":{"kind":"run","name":"Balma- Bocchetta","subtype":"advanced","pisteType":"skitour","featured":true},"geometry":{"type":"LineString","coordinates":[[7.8700064,45.8826059],[7.869612,45.8810313],[7.8698158,45.8801574],[7.8729272,45.8793508],[7.8762638,45.8782304],[7.8788066,45.8775283],[7.8816497,45.8775955],[7.8852868,45.878081],[7.8884196,45.8772818],[7.8916275,45.8763332],[7.8942346,45.8763033],[7.8963804,45.8760568],[7.8984082,45.8758327],[7.8995347,45.8757132],[7.9009369,45.8752823],[7.9013781,45.8747902],[7.902971,45.8745619]]}},{"type":"Feature","id":563380506,"properties":{"kind":"run","name":"Val d'Otro","subtype":"expert","pisteType":"skitour","featured":false},"geometry":{"type":"LineString","coordinates":[[7.9024598,45.8460669],[7.903204,45.8453634],[7.903979,45.8450414],[7.904309,45.8447244],[7.9044861,45.8442162],[7.9047865,45.8441115],[7.9061689,45.8438193],[7.9068875,45.843672],[7.9073721,45.8437042],[7.9079837,45.8432819],[7.9104567,45.8431997],[7.911272,45.8433754],[7.9127204,45.843338],[7.9131389,45.8438313],[7.9136753,45.8442311],[7.9144692,45.8439396],[7.9168725,45.8442162],[7.9180419,45.844986],[7.918911,45.8453185],[7.9194689,45.8452774],[7.919839,45.8449112],[7.9210567,45.8446123],[7.922017,45.8447505],[7.9229557,45.8448103],[7.9235512,45.8447954],[7.9244202,45.8449822],[7.9254287,45.8455054],[7.9256058,45.8452625],[7.9251927,45.8448664],[7.9250264,45.8444254],[7.9247689,45.8440256],[7.9254448,45.8438911],[7.9259437,45.8438836],[7.9262066,45.8439546],[7.9263514,45.8437117],[7.9271696,45.8441198],[7.9275852,45.8440779],[7.9280841,45.8443955],[7.9284757,45.8446945],[7.9294413,45.844773],[7.9305249,45.8451765],[7.9308093,45.845483],[7.9307342,45.8458604],[7.9310507,45.8461668],[7.9319733,45.8464844],[7.9327887,45.8469254],[7.933234,45.8470823],[7.934103,45.8470038],[7.934559,45.8474298],[7.9344249,45.8478745],[7.9346716,45.8481361],[7.9345,45.84842],[7.9343069,45.8488572],[7.9346234,45.8497764],[7.9346228,45.8503568]]}},{"type":"Feature","id":563380510,"properties":{"kind":"run","name":"Val d'Otro","subtype":"expert","pisteType":"skitour","featured":false},"geometry":{"type":"LineString","coordinates":[[7.8748646,45.8603185],[7.87606,45.8595167],[7.877841,45.8580336],[7.8787207,45.8575143],[7.8803891,45.8572677],[7.8830766,45.8571855],[7.8865528,45.8571108],[7.8874969,45.856797],[7.8881407,45.8572303],[7.890737,45.8564383],[7.8919601,45.8563038],[7.8922176,45.8555117],[7.8930115,45.8553772],[7.8937626,45.8556313],[7.8952217,45.8550335],[7.8967881,45.854899],[7.8983974,45.8540172],[7.8984733,45.8534751],[7.8978824,45.8520445],[7.8982043,45.8508189],[7.8985905,45.8501165],[7.8981828,45.8482631],[7.8978181,45.8473663],[7.8993201,45.8472019],[7.9009723,45.8476055],[7.9019379,45.8470076],[7.9023242,45.8464844],[7.9024744,45.8460622]]}},{"type":"Feature","id":577836229,"properties":{"kind":"run","name":"Ski touring route","subtype":"expert","pisteType":"skitour","featured":false},"geometry":{"type":"LineString","coordinates":[[7.9152584,45.9542555],[7.9155042,45.9543239],[7.9165857,45.9545187],[7.9169594,45.9544537],[7.9178246,45.954194],[7.9182228,45.9539752],[7.9184195,45.9537326],[7.9182993,45.9532729],[7.9183654,45.9529157],[7.9186554,45.9525226],[7.9190389,45.9518664],[7.9192306,45.9513981],[7.9192925,45.9512277],[7.919501,45.9506529],[7.9197763,45.9500719],[7.9202483,45.9491729],[7.9209562,45.9480492],[7.9209943,45.9479244],[7.9210471,45.9477953],[7.9210828,45.9477167],[7.9211184,45.947586],[7.9211679,45.9474563],[7.9212315,45.9472894],[7.9212348,45.9472436],[7.9212399,45.9471711],[7.9212512,45.9470126],[7.9212667,45.9469651],[7.9213495,45.9467118],[7.9214134,45.9463973],[7.9213495,45.9458572],[7.9213397,45.9454811],[7.921379,45.9451427],[7.9213986,45.9448145],[7.9214478,45.9445103],[7.9214527,45.9441411],[7.9214402,45.9439989],[7.9214281,45.9438608],[7.9214183,45.9435873],[7.9213347,45.9432967],[7.9211578,45.9430335],[7.9209316,45.9427874],[7.920735,45.942507],[7.9206612,45.9422506],[7.9204056,45.9419669],[7.9201794,45.9417789],[7.9201303,45.9416626],[7.920145,45.9414712],[7.9201844,45.941208],[7.9202122,45.9410724],[7.9202222,45.9410239],[7.9202483,45.9408969],[7.9202761,45.9408244],[7.9203146,45.9407239],[7.9203466,45.9406405],[7.9203598,45.9405819],[7.9203834,45.9404768],[7.9204079,45.940368],[7.9205088,45.9399191],[7.9205678,45.9396354],[7.9206268,45.9392935],[7.9206452,45.9391655],[7.9206563,45.9390883],[7.9206711,45.9389242],[7.9205294,45.9387551],[7.9204369,45.9385658]]}},{"type":"Feature","id":660782401,"properties":{"kind":"lift","name":"Goods","subtype":"goods","status":"active"},"geometry":{"type":"LineString","coordinates":[[7.9286968,45.8840996],[7.9327267,45.884028]]}},{"type":"Feature","id":660785419,"properties":{"kind":"lift","name":"Goods","subtype":"goods","status":"active"},"geometry":{"type":"LineString","coordinates":[[7.9962542,45.8802781],[8.0012312,45.8843027]]}},{"type":"Feature","id":700882963,"properties":{"kind":"run","name":"Mullero Competition","subtype":"advanced","pisteType":"downhill","featured":false},"geometry":{"type":"LineString","coordinates":[[7.904892,45.8731276],[7.9062105,45.8717449],[7.9063467,45.871294],[7.9062194,45.8708933],[7.9061985,45.8703209],[7.9061458,45.8696879],[7.9062983,45.8690591],[7.906933,45.8683881],[7.9075329,45.86807],[7.9076633,45.8678968],[7.9071946,45.8668405],[7.9069253,45.8665684],[7.906772,45.8662405],[7.9067751,45.8658519],[7.9064591,45.8656003],[7.9060227,45.8653881],[7.905973,45.8650977],[7.905724,45.865032],[7.9056718,45.8649905],[7.9056688,45.8649882]]}},{"type":"Feature","id":700882964,"properties":{"kind":"run","name":"Mullero Competition Raccordo","subtype":"advanced","pisteType":"downhill","featured":false},"geometry":{"type":"LineString","coordinates":[[7.9076633,45.8678968],[7.908278,45.8676413],[7.9090009,45.8666849],[7.9094356,45.8658758],[7.9097784,45.8654436],[7.9097884,45.8652191],[7.9097547,45.8649194],[7.9099927,45.8646108]]}},{"type":"Feature","id":700882965,"properties":{"kind":"run","name":"Alagna","subtype":"advanced","pisteType":"downhill","featured":false},"geometry":{"type":"LineString","coordinates":[[7.9099927,45.8646108],[7.9101475,45.8644651],[7.9102186,45.8641689],[7.9100741,45.8636717],[7.9100676,45.8634005],[7.910197,45.8631465],[7.9103657,45.8628658],[7.910606,45.8626025],[7.9110329,45.8623445],[7.9115295,45.8621873],[7.9122651,45.862088],[7.912945,45.861893],[7.913334,45.861855],[7.9137167,45.8618351],[7.9143566,45.8617818],[7.9149387,45.8616611],[7.9153291,45.8615554],[7.9155911,45.861521],[7.9159582,45.8616296],[7.9159963,45.8616436],[7.916655,45.8616075],[7.917393,45.8616675],[7.9181937,45.8617262],[7.9188459,45.8617821],[7.9191742,45.8619764],[7.9193405,45.8620767],[7.9193853,45.8621623],[7.919235,45.8622237],[7.9188559,45.86236],[7.9186253,45.862545],[7.9185352,45.8626641],[7.9185207,45.8628088],[7.918675,45.8629357],[7.919278,45.8629557],[7.9198911,45.8628449],[7.9203332,45.8627376],[7.9209815,45.8625108],[7.9215183,45.8622741],[7.9218398,45.8621101],[7.922087,45.8619628],[7.9223823,45.8617768],[7.922557,45.861519],[7.9227349,45.8612321],[7.9228276,45.8609195],[7.9229345,45.8605778],[7.9229616,45.8602758],[7.9230545,45.8599474],[7.923547,45.8597783],[7.9240314,45.8598426],[7.924454,45.859973],[7.9247778,45.8601216],[7.9251737,45.8602165],[7.9253403,45.8602162],[7.9254153,45.8601129],[7.9255757,45.859715],[7.9256819,45.8594354],[7.9258559,45.859155],[7.9262614,45.8588774],[7.9266764,45.8585968],[7.9270604,45.8583628],[7.9273379,45.8581772],[7.9276912,45.8579225],[7.9279783,45.8577196],[7.9282296,45.8575064],[7.9285775,45.8573193],[7.928786,45.8571842],[7.9291053,45.8569073],[7.9294089,45.8567494],[7.93028,45.856367],[7.930672,45.856215],[7.930927,45.856181],[7.931928,45.856409],[7.932184,45.856777],[7.9325131,45.856973],[7.932655,45.857149],[7.932786,45.8573269],[7.9329842,45.8574769],[7.9330991,45.85755],[7.9333695,45.8577],[7.9334887,45.8577286],[7.9336431,45.8576732],[7.933793,45.857539],[7.9344851,45.8569207],[7.9346564,45.8566609],[7.9347652,45.8561919],[7.9348701,45.855888],[7.935078,45.8556451],[7.9352779,45.8554929],[7.9355566,45.8551906],[7.9357221,45.8549665],[7.9357518,45.8546932],[7.9358315,45.8545831],[7.9359584,45.8545587]]}},{"type":"Feature","id":700886572,"properties":{"kind":"run","name":"Cimalegna","subtype":"intermediate","pisteType":"downhill","featured":false},"geometry":{"type":"LineString","coordinates":[[7.8675438,45.878335],[7.8671724,45.8784173],[7.8670911,45.8782651],[7.8670063,45.8779581],[7.866996,45.8776054],[7.8670807,45.8774891],[7.8674202,45.8774673],[7.8684051,45.8775539],[7.8685446,45.8775172],[7.8687311,45.8774262]]}},{"type":"Feature","id":708274429,"properties":{"kind":"run","name":"Cimalegna","subtype":"easy","pisteType":"downhill","featured":false},"geometry":{"type":"LineString","coordinates":[[7.8687311,45.8774262],[7.869138,45.8770807],[7.8701935,45.8767575]]}},{"type":"Feature","id":718980083,"properties":{"kind":"lift","name":"Goods","subtype":"goods","status":"active"},"geometry":{"type":"LineString","coordinates":[[7.9977446,45.8877348],[7.9923057,45.8957056]]}},{"type":"Feature","id":884036158,"properties":{"kind":"run","name":"Pista Sci di Fondo sud Gress","subtype":"easy","pisteType":"nordic","featured":false},"geometry":{"type":"LineString","coordinates":[[7.8250858,45.8271761],[7.8250166,45.8269273],[7.8249375,45.8268398],[7.8248564,45.826791],[7.824593,45.8267179],[7.8244836,45.8266714],[7.8243892,45.8265108],[7.8243579,45.8263517],[7.8242796,45.8261741],[7.82421,45.8261204],[7.8241193,45.8260926],[7.8240054,45.8261335],[7.8239871,45.8261679],[7.8239625,45.8262365],[7.8240103,45.8263958],[7.8240477,45.8265758],[7.8240985,45.8268622],[7.8241964,45.8271301],[7.8241869,45.8272314],[7.8241359,45.8272728],[7.8240429,45.827305],[7.8239592,45.8272705],[7.8239566,45.8271745],[7.8239765,45.8271099],[7.8239785,45.827029],[7.8239966,45.8268864],[7.8239789,45.8267822],[7.8239261,45.8263405],[7.8239099,45.8261619],[7.8238635,45.8259821],[7.8238076,45.8258888],[7.8237163,45.8258695],[7.8236453,45.8258749],[7.8235885,45.8259024],[7.823539,45.8260103],[7.8236081,45.8261058],[7.8238596,45.8263152],[7.8238953,45.8266578],[7.8238995,45.8268989],[7.8238828,45.8271134],[7.8238475,45.8271938],[7.8237725,45.8272435],[7.8236481,45.8272688],[7.8235681,45.8272544],[7.8235214,45.8272147],[7.8234162,45.8271824],[7.8232991,45.8271223],[7.8232886,45.8270771],[7.8233159,45.8270188],[7.8235355,45.8269908],[7.8236225,45.8269504],[7.8236674,45.8268679],[7.8237125,45.8267784],[7.8237595,45.8266972],[7.8237986,45.8266133],[7.8238079,45.8264904],[7.8237729,45.8263804],[7.8236791,45.8263217],[7.8234452,45.8262908],[7.8233569,45.8262671],[7.8232994,45.8262496],[7.8232722,45.8262207],[7.8232442,45.8261763],[7.823264,45.8260515],[7.8233084,45.8259658],[7.8233707,45.8258619],[7.8234186,45.8257461],[7.823572,45.8256837],[7.8237377,45.8257339],[7.8239128,45.8258829],[7.8242825,45.8261105]]}},{"type":"Feature","id":913828366,"properties":{"kind":"run","name":"Mapped ski run","subtype":"intermediate","pisteType":"downhill","featured":false},"geometry":{"type":"LineString","coordinates":[[7.9030605,45.8654027],[7.9031208,45.8654526],[7.9031467,45.8654771],[7.9032927,45.8654814]]}},{"type":"Feature","id":913828370,"properties":{"kind":"run","name":"Rifugio Vigevano off-piste","subtype":"easy","pisteType":"skitour","featured":false},"geometry":{"type":"LineString","coordinates":[[7.8682554,45.8758914],[7.8684271,45.8758653],[7.8686574,45.8758321],[7.868827,45.8757196],[7.8692727,45.875242],[7.86959,45.8750216],[7.8699454,45.8749423],[7.8702881,45.8748902],[7.8706182,45.8748896],[7.8709037,45.8747717],[7.8711638,45.8747125],[7.8713455,45.874654],[7.8717223,45.8744517],[7.8720057,45.8742259],[7.8721002,45.8740728],[7.8721291,45.873874],[7.8720616,45.8734701],[7.8721886,45.8727704],[7.8721464,45.872406],[7.8723184,45.8720673],[7.8724755,45.871824],[7.8724719,45.8714698],[7.8724949,45.8708637]]}},{"type":"Feature","id":913828371,"properties":{"kind":"run","name":"Ski touring route","subtype":"easy","pisteType":"skitour","featured":false},"geometry":{"type":"LineString","coordinates":[[7.8724949,45.8708637],[7.8728273,45.8710107],[7.8730518,45.8710202],[7.8733852,45.8710321],[7.8735934,45.8709735]]}},{"type":"Feature","id":913828372,"properties":{"kind":"run","name":"Cimalegna","subtype":"easy","pisteType":"downhill","featured":false},"geometry":{"type":"LineString","coordinates":[[7.8872539,45.8717814],[7.8873762,45.8716539],[7.8873826,45.871627],[7.8873846,45.8716188],[7.8874798,45.8715623]]}},{"type":"Feature","id":913828374,"properties":{"kind":"lift","name":"Pianalunga","subtype":"magic_carpet","status":"active"},"geometry":{"type":"LineString","coordinates":[[7.9053473,45.8649681],[7.9042736,45.8652011]]}},{"type":"Feature","id":913828375,"properties":{"kind":"run","name":"Baby Pianalunga","subtype":"novice","pisteType":"downhill","featured":false},"geometry":{"type":"LineString","coordinates":[[7.9040488,45.86546],[7.9041947,45.8652631],[7.9042736,45.8652011],[7.9043323,45.8651166],[7.9046883,45.8650306],[7.9048057,45.8650053],[7.9051031,45.8649292],[7.9052945,45.8649113],[7.9053387,45.8649285],[7.9053473,45.8649681],[7.9055343,45.8650059]]}},{"type":"Feature","id":913828376,"properties":{"kind":"run","name":"Mapped ski run","subtype":"easy","pisteType":"downhill","featured":false},"geometry":{"type":"LineString","coordinates":[[7.869373,45.8779104],[7.8691927,45.8777768],[7.8689381,45.8776194],[7.8687206,45.877478],[7.8685747,45.8773724],[7.86826,45.877239],[7.8681587,45.8771871],[7.8680655,45.8771394],[7.8679685,45.8770221]]}},{"type":"Feature","id":913828377,"properties":{"kind":"run","name":"Salati","subtype":"intermediate","pisteType":"downhill","featured":false},"geometry":{"type":"LineString","coordinates":[[7.8679685,45.8770221],[7.8680664,45.8767194]]}},{"type":"Feature","id":913828379,"properties":{"kind":"run","name":"Variante Salati","subtype":"intermediate","pisteType":"downhill","featured":false},"geometry":{"type":"LineString","coordinates":[[7.8680664,45.8767194],[7.8682575,45.876206],[7.8682211,45.8760415],[7.8682554,45.8758914]]}},{"type":"Feature","id":913828380,"properties":{"kind":"run","name":"Mapped ski run","subtype":"intermediate","pisteType":"downhill","featured":false},"geometry":{"type":"LineString","coordinates":[[7.8447275,45.8560843],[7.8448156,45.8560004],[7.8449075,45.8559673],[7.8450589,45.8559341],[7.8451894,45.8559036],[7.8452409,45.8558796],[7.8453231,45.8557936],[7.845326,45.8557137],[7.8452866,45.8555697],[7.8452283,45.8554682]]}},{"type":"Feature","id":913828381,"properties":{"kind":"run","name":"Salati 2","subtype":"intermediate","pisteType":"downhill","featured":false},"geometry":{"type":"LineString","coordinates":[[7.8681587,45.8771871],[7.8680426,45.8771889],[7.8678282,45.8771087],[7.8676604,45.8770675],[7.8673103,45.8770115],[7.8670918,45.8769974],[7.8663441,45.8769989],[7.8657605,45.876967],[7.8650796,45.8769152],[7.8646676,45.8770069],[7.8642383,45.8772918],[7.8641054,45.8774554]]}},{"type":"Feature","id":913828383,"properties":{"kind":"run","name":"Salza Inferiore","subtype":"advanced","pisteType":"skitour","featured":false},"geometry":{"type":"LineString","coordinates":[[7.8231722,45.8756796],[7.8224335,45.8753748],[7.8205237,45.8754593],[7.8184889,45.8751413],[7.8170927,45.8753184],[7.8156927,45.8755438],[7.8139772,45.8757973],[7.8127246,45.8756993]]}},{"type":"Feature","id":914671398,"properties":{"kind":"run","name":"Balma","subtype":"intermediate","pisteType":"skitour","featured":true},"geometry":{"type":"LineString","coordinates":[[7.8572953,45.8915054],[7.8589582,45.8917182],[7.8603101,45.8914345],[7.862767,45.8905234],[7.8640638,45.8900799],[7.8655243,45.8890672],[7.8660715,45.889941],[7.8669941,45.8901575],[7.8672945,45.8905981],[7.8681207,45.8902695],[7.868818,45.8892465],[7.8684103,45.887947],[7.8673267,45.8872376],[7.8668976,45.8864609],[7.8675735,45.8853705],[7.8690541,45.8835333],[7.8692901,45.8833317],[7.8700064,45.8826059]]}},{"type":"Feature","id":914671399,"properties":{"kind":"run","name":"Balma","subtype":"intermediate","pisteType":"skitour","featured":true},"geometry":{"type":"LineString","coordinates":[[7.8700064,45.8826059],[7.8722123,45.8816603],[7.874729,45.8811138],[7.8772537,45.8810237],[7.882368,45.8803928]]}},{"type":"Feature","id":914671400,"properties":{"kind":"run","name":"Balma","subtype":"advanced","pisteType":"skitour","featured":true},"geometry":{"type":"LineString","coordinates":[[7.882368,45.8803928],[7.8842507,45.8798908],[7.8862513,45.8795971],[7.8876394,45.8794644],[7.887955,45.8796167],[7.8882371,45.8799014],[7.8881116,45.8805746],[7.8881561,45.8812534],[7.8883989,45.8818252],[7.8890544,45.8816196],[7.8907295,45.8807521],[7.8926163,45.8799258],[7.895126,45.8788451],[7.8959586,45.8790063],[7.8957507,45.8806735],[7.8966447,45.8824911],[7.8968278,45.8834471],[7.8965188,45.8846421],[7.8990937,45.8856936],[7.9007073,45.8860362],[7.9041978,45.886084],[7.9060174,45.8860521],[7.9086953,45.8871355],[7.910183,45.888171],[7.9111719,45.8883366],[7.911728,45.888655]]}},{"type":"Feature","id":914671401,"properties":{"kind":"run","name":"Balma","subtype":"intermediate","pisteType":"skitour","featured":true},"geometry":{"type":"LineString","coordinates":[[7.911728,45.888655],[7.9125413,45.8888216],[7.9129647,45.8888973],[7.913493,45.8891014],[7.9136914,45.8893192],[7.9137159,45.8894366],[7.9138301,45.8894146],[7.9152628,45.8888364],[7.9183099,45.8875488],[7.9199399,45.8862683],[7.9212856,45.8859648],[7.921256,45.8858702],[7.9231125,45.8853386],[7.9245156,45.88456],[7.925063,45.8842563],[7.9269106,45.8841924]]}},{"type":"Feature","id":914671403,"properties":{"kind":"run","name":"Balma","subtype":"intermediate","pisteType":"skitour","featured":true},"geometry":{"type":"LineString","coordinates":[[7.9269106,45.8841924],[7.9273203,45.8844847],[7.9272147,45.8847726],[7.9268717,45.8850046],[7.9269278,45.8851043],[7.9270128,45.8851902],[7.9270977,45.8853282],[7.9278483,45.8853127],[7.9279899,45.8850944],[7.9283298,45.8850592],[7.928791,45.8848381],[7.9289326,45.8847438],[7.9291835,45.8847438],[7.9293818,45.8845917],[7.9296063,45.8846635],[7.9295942,45.8847283],[7.9300999,45.8847382],[7.9303265,45.8848677],[7.9303878,45.8849163],[7.9308505,45.8847607],[7.9311093,45.8846789],[7.9314576,45.8846324],[7.9316781,45.8845047],[7.9317713,45.8844814]]}},{"type":"Feature","id":914671404,"properties":{"kind":"run","name":"Ski touring route","subtype":"intermediate","pisteType":"skitour","featured":false},"geometry":{"type":"LineString","coordinates":[[7.9022778,45.875159],[7.9015985,45.8754208],[7.9010773,45.8753087],[7.8997797,45.875897],[7.8993816,45.8761078],[7.8989665,45.8762499],[7.8987284,45.876186],[7.8984018,45.8761552],[7.8975035,45.8762025],[7.8971225,45.8760936],[7.8962923,45.8762926],[7.8952546,45.8765176],[7.8946013,45.8766502],[7.8937405,45.8768658],[7.8926518,45.8770956],[7.8922809,45.8771121],[7.8911241,45.8773964],[7.8904777,45.8773916],[7.8902837,45.8774248],[7.8902495,45.8777403],[7.8903812,45.8779195],[7.8904299,45.8780878],[7.8904284,45.8781545],[7.8903726,45.8781944],[7.8903025,45.8781465],[7.8901237,45.8781904],[7.8897118,45.8787044],[7.8895228,45.8789957],[7.8894072,45.8791306],[7.8892773,45.8792998],[7.889258,45.8794656],[7.8892051,45.8795661],[7.8889525,45.8796365],[7.8886975,45.8797386],[7.8882371,45.8799014]]}},{"type":"Feature","id":914671405,"properties":{"kind":"run","name":"Rientro Gabiet","subtype":"easy","pisteType":"skitour","featured":false},"geometry":{"type":"LineString","coordinates":[[7.8464593,45.8631538],[7.846513,45.86268],[7.8463096,45.8624309],[7.8459693,45.8616907],[7.8454283,45.8607532],[7.8454576,45.85997],[7.8457267,45.8592004],[7.8456039,45.8584785],[7.845748,45.8581326],[7.8459829,45.8578793],[7.8462983,45.8577128],[7.8463986,45.857618]]}},{"type":"Feature","id":914671406,"properties":{"kind":"run","name":"Mapped ski run","subtype":"intermediate","pisteType":"downhill","featured":false},"geometry":{"type":"LineString","coordinates":[[7.8220071,45.8442227],[7.8221713,45.8442373],[7.8223148,45.8442835]]}},{"type":"Feature","id":914671407,"properties":{"kind":"run","name":"Salati 1","subtype":"intermediate","pisteType":"downhill","featured":false},"geometry":{"type":"LineString","coordinates":[[7.8531038,45.8624364],[7.8514471,45.8618655],[7.8510362,45.8615552],[7.8503251,45.861015],[7.8491411,45.8603705],[7.8478856,45.8594393],[7.847593,45.8588967],[7.8476506,45.8583087]]}},{"type":"Feature","id":914671408,"properties":{"kind":"run","name":"Salati 1","subtype":"intermediate","pisteType":"downhill","featured":false},"geometry":{"type":"LineString","coordinates":[[7.8594527,45.8672156],[7.8590114,45.8669446],[7.8581765,45.8665308],[7.8574379,45.8660232],[7.8567739,45.8653849],[7.8564601,45.8648313],[7.8559974,45.8640352],[7.8550312,45.863315],[7.8545444,45.8629363],[7.8537204,45.8626972],[7.8532397,45.86249],[7.8531038,45.8624364]]}},{"type":"Feature","id":914671409,"properties":{"kind":"run","name":"Castore","subtype":"easy","pisteType":"downhill","featured":false},"geometry":{"type":"LineString","coordinates":[[7.8488159,45.8524017],[7.848433,45.8527139],[7.8481106,45.8529233],[7.8476174,45.8533657],[7.8474731,45.8535768],[7.8469252,45.8541445],[7.8467528,45.854323],[7.8466234,45.8546612],[7.8465141,45.8549515],[7.846501,45.8550608]]}},{"type":"Feature","id":914671410,"properties":{"kind":"run","name":"Castore","subtype":"easy","pisteType":"downhill","featured":false},"geometry":{"type":"LineString","coordinates":[[7.8468723,45.8531069],[7.8470444,45.8534494],[7.84703,45.8537158],[7.8469212,45.8541145],[7.8469252,45.8541445]]}},{"type":"Feature","id":914671411,"properties":{"kind":"run","name":"Mullero","subtype":"intermediate","pisteType":"downhill","featured":false},"geometry":{"type":"LineString","coordinates":[[7.9021993,45.8750808],[7.9018785,45.8749131],[7.9021118,45.8745898],[7.9023212,45.8743084],[7.9027061,45.8741057],[7.9031897,45.8738427],[7.9035217,45.8737841],[7.9038128,45.873625],[7.9040558,45.8734726],[7.9045971,45.8733201],[7.9046917,45.8733209]]}},{"type":"Feature","id":914671412,"properties":{"kind":"run","name":"Wold 1","subtype":"easy","pisteType":"downhill","featured":false},"geometry":{"type":"LineString","coordinates":[[7.9408416,45.86468],[7.9411625,45.8648448],[7.9414356,45.8650575],[7.9410816,45.8653406],[7.9405435,45.8656717],[7.9402946,45.8658675],[7.9399548,45.866231],[7.9394521,45.8664373],[7.9388841,45.8665243],[7.9384921,45.8664803],[7.93824,45.8663187],[7.937958,45.8660802],[7.9379825,45.865946]]}},{"type":"Feature","id":914671413,"properties":{"kind":"run","name":"Wold 2","subtype":"easy","pisteType":"downhill","featured":false},"geometry":{"type":"LineString","coordinates":[[7.9408043,45.86462],[7.9401654,45.864393],[7.9399439,45.8643387],[7.9395645,45.8642456],[7.9391812,45.8643113],[7.9388293,45.864409],[7.9383085,45.86467],[7.9382403,45.8647336],[7.9380224,45.8649369],[7.9380453,45.8651142],[7.9381798,45.8653852],[7.9382199,45.8656123],[7.9378765,45.8657796],[7.9379188,45.8658893]]}},{"type":"Feature","id":914671414,"properties":{"kind":"lift","name":"Baby wold","subtype":"magic_carpet","status":"active"},"geometry":{"type":"LineString","coordinates":[[7.9370348,45.866159],[7.9374308,45.866541]]}},{"type":"Feature","id":914671415,"properties":{"kind":"run","name":"Baby Wold","subtype":"novice","pisteType":"downhill","featured":false},"geometry":{"type":"LineString","coordinates":[[7.9374308,45.866541],[7.9373513,45.8665741],[7.9371053,45.8664476],[7.9369347,45.8662832],[7.9370348,45.866159]]}},{"type":"Feature","id":914671416,"properties":{"kind":"run","name":"Wold 2","subtype":"easy","pisteType":"downhill","featured":false},"geometry":{"type":"LineString","coordinates":[[7.9399439,45.8643387],[7.939854,45.8645095],[7.9397496,45.8646371],[7.9393576,45.8646729],[7.9388326,45.8648532],[7.938608,45.8647885],[7.9382403,45.8647336]]}},{"type":"Feature","id":914671417,"properties":{"kind":"run","name":"Collegamento Gabiet","subtype":"intermediate","pisteType":"downhill","featured":false},"geometry":{"type":"LineString","coordinates":[[7.843856,45.854254],[7.8440489,45.8543843],[7.8442949,45.8545378],[7.8446053,45.8546985],[7.8447879,45.8548675],[7.8447826,45.8549292]]}},{"type":"Feature","id":914671418,"properties":{"kind":"run","name":"Mapped ski run","subtype":"intermediate","pisteType":"downhill","featured":false},"geometry":{"type":"LineString","coordinates":[[7.8319574,45.8401696],[7.8320614,45.8402255],[7.8322699,45.8404636]]}},{"type":"Feature","id":914671419,"properties":{"kind":"run","name":"Orsia","subtype":"intermediate","pisteType":"downhill","featured":false},"geometry":{"type":"LineString","coordinates":[[7.8217496,45.8440673],[7.8212022,45.8439761],[7.8211613,45.8439694],[7.8206465,45.8438052],[7.8199873,45.8432655],[7.8192367,45.8426421],[7.8187675,45.8421108],[7.8178942,45.8417421],[7.8176793,45.8417083],[7.8174181,45.8416869],[7.8171234,45.8416451],[7.8169969,45.8416264],[7.816482,45.8415594],[7.8159864,45.8414605],[7.8157265,45.8414514]]}},{"type":"Feature","id":914671420,"properties":{"kind":"run","name":"Mapped ski run","subtype":"intermediate","pisteType":"downhill","featured":false},"geometry":{"type":"LineString","coordinates":[[7.8119092,45.8574426],[7.8120337,45.857524],[7.811993,45.8576003],[7.8116664,45.8575253],[7.8119148,45.8577627],[7.8119228,45.857875],[7.8119959,45.8578732]]}},{"type":"Feature","id":914671421,"properties":{"kind":"run","name":"Mapped ski run","subtype":"intermediate","pisteType":"downhill","featured":false},"geometry":{"type":"LineString","coordinates":[[7.811993,45.8576003],[7.8119148,45.8577627]]}},{"type":"Feature","id":914671424,"properties":{"kind":"run","name":"Nera","subtype":"advanced","pisteType":"downhill","featured":false},"geometry":{"type":"LineString","coordinates":[[7.7990945,45.8579692],[7.8007354,45.8580261],[7.8011965,45.8581006],[7.80166,45.8582322],[7.8020712,45.858365],[7.8021445,45.8587211],[7.80197,45.8590924],[7.8016406,45.8594325],[7.8015742,45.859607],[7.8016276,45.8598461],[7.8018788,45.8601278],[7.8023977,45.8602727],[7.8028314,45.8605226],[7.8035067,45.860687]]}},{"type":"Feature","id":914671425,"properties":{"kind":"run","name":"Delle Marmotte","subtype":"intermediate","pisteType":"downhill","featured":false},"geometry":{"type":"LineString","coordinates":[[7.8035067,45.860687],[7.8037151,45.8609007],[7.8041812,45.8609748],[7.8044702,45.8613534],[7.8048679,45.8617081],[7.8050538,45.861728],[7.8050252,45.8614517],[7.8050996,45.8608812],[7.8050595,45.860664],[7.8052017,45.8605581],[7.8053833,45.8606871],[7.805503,45.8610286],[7.8056718,45.8613554],[7.8060151,45.8614072],[7.8063041,45.861196],[7.8064901,45.8611083],[7.8065931,45.8611781],[7.8066875,45.8613315],[7.8067647,45.8615566],[7.8068477,45.8618057],[7.8069793,45.8618818],[7.807151,45.8621205],[7.8074342,45.8623237],[7.8076259,45.8623635],[7.8079349,45.8622819],[7.8082238,45.861983],[7.8079549,45.8612618],[7.8079549,45.8611721],[7.808015,45.8611482],[7.8083183,45.8613016],[7.8087274,45.8613434],[7.8089219,45.8612518],[7.8085729,45.860672],[7.8085695,45.8605209],[7.8090426,45.8602338],[7.8091094,45.860079],[7.8092171,45.860039]]}},{"type":"Feature","id":914671426,"properties":{"kind":"run","name":"Murmeltier","subtype":"unknown","pisteType":"sled","featured":false},"geometry":{"type":"LineString","coordinates":[[7.8121554,45.8607408],[7.8117054,45.8606832],[7.8113039,45.8606986],[7.8111705,45.8607277],[7.811039,45.8607564],[7.8106844,45.8607657],[7.8105592,45.8606979],[7.8105522,45.8605622],[7.8106566,45.8604508],[7.8108823,45.8603163],[7.81093,45.8601649],[7.810939,45.8599636],[7.8109304,45.8599357],[7.810899,45.8599063],[7.8108415,45.8598827],[7.8108005,45.8598808],[7.8107599,45.8598894],[7.8106844,45.8599129],[7.8105395,45.8599717],[7.8105196,45.8599832],[7.8103887,45.8600592],[7.8102072,45.8601671],[7.8100717,45.8602891],[7.8099975,45.8603176],[7.8099551,45.8603045],[7.8099328,45.8602876],[7.8099279,45.8602646],[7.8099611,45.8601408],[7.8100279,45.8600245],[7.810064,45.8599323],[7.8100429,45.8599145],[7.8099954,45.859915],[7.8099223,45.8599281],[7.8097991,45.8600108],[7.8096676,45.8601736],[7.8096536,45.8603337],[7.8096554,45.8603596],[7.8096605,45.8604315],[7.8096943,45.860477],[7.8096976,45.8604952],[7.8096914,45.8605123],[7.8096609,45.8605346],[7.8095881,45.8605517],[7.8093914,45.8605263],[7.8092883,45.8604881],[7.8092185,45.8604539],[7.8091843,45.860378],[7.8091985,45.8602649],[7.8092171,45.860039]]}},{"type":"Feature","id":914671429,"properties":{"kind":"run","name":"Sant Anna","subtype":"intermediate","pisteType":"downhill","featured":false},"geometry":{"type":"LineString","coordinates":[[7.798449,45.8578362],[7.7992124,45.8573424],[7.8005453,45.8569168],[7.8016135,45.8562902],[7.8025373,45.8559685],[7.8032911,45.855526],[7.8035919,45.8554645],[7.8038941,45.8554028]]}},{"type":"Feature","id":914671430,"properties":{"kind":"run","name":"Sant Anna","subtype":"intermediate","pisteType":"downhill","featured":false},"geometry":{"type":"LineString","coordinates":[[7.8022403,45.8555938],[7.8027863,45.855433],[7.803063,45.8553388],[7.8031613,45.8551845],[7.8031667,45.8551639],[7.8028349,45.8549889]]}},{"type":"Feature","id":914671431,"properties":{"kind":"run","name":"Sant Anna","subtype":"intermediate","pisteType":"downhill","featured":false},"geometry":{"type":"LineString","coordinates":[[7.8038941,45.8554028],[7.8031613,45.8551845]]}},{"type":"Feature","id":914671432,"properties":{"kind":"run","name":"Pistone Betta","subtype":"intermediate","pisteType":"downhill","featured":false},"geometry":{"type":"LineString","coordinates":[[7.8013593,45.8558239],[7.8018341,45.8553141],[7.8025389,45.854891],[7.8028349,45.8549889]]}},{"type":"Feature","id":914671442,"properties":{"kind":"run","name":"Bettolina","subtype":"intermediate","pisteType":"skitour","featured":false},"geometry":{"type":"LineString","coordinates":[[7.7833738,45.8795494],[7.7841194,45.8789822],[7.7847546,45.8783528],[7.7862995,45.8774127],[7.7881993,45.876122],[7.7892864,45.875628],[7.7902535,45.8750224],[7.7909458,45.8740703],[7.7915695,45.8735205],[7.7925766,45.8731938],[7.7935208,45.8727914],[7.7943447,45.8723333],[7.7952259,45.8723691],[7.7965935,45.8722138],[7.7976978,45.8719747],[7.7980011,45.8717596],[7.7981785,45.8712695],[7.7984417,45.8710345],[7.8000782,45.8707954],[7.8011025,45.8711779],[7.802985,45.8718672],[7.8041866,45.872166],[7.8047417,45.8723253],[7.8048962,45.8723134],[7.8051293,45.872106]]}},{"type":"Feature","id":973558765,"properties":{"kind":"lift","name":"Goods","subtype":"goods","status":"active"},"geometry":{"type":"LineString","coordinates":[[7.9647711,45.827276],[7.9769801,45.8307988]]}},{"type":"Feature","id":1063670764,"properties":{"kind":"lift","name":"Goods","subtype":"goods","status":"active"},"geometry":{"type":"LineString","coordinates":[[7.9491997,45.840285],[7.9546034,45.8447636]]}},{"type":"Feature","id":1063670765,"properties":{"kind":"lift","name":"Goods","subtype":"goods","status":"active"},"geometry":{"type":"LineString","coordinates":[[7.9263404,45.8841633],[7.910983,45.8886431]]}},{"type":"Feature","id":1094464498,"properties":{"kind":"run","name":"Pista da sci di fondo nord di Colletesand","subtype":"intermediate","pisteType":"nordic","featured":false},"geometry":{"type":"LineString","coordinates":[[7.8201835,45.8322538],[7.8203006,45.8322286],[7.8203891,45.8321894],[7.8205325,45.8320788],[7.8205546,45.8319902],[7.8205458,45.8318092],[7.8206092,45.831713],[7.8209296,45.8314845],[7.820983,45.8314199],[7.8209976,45.8313428],[7.8209875,45.8312811],[7.8209794,45.8312242],[7.8209912,45.8311811],[7.8210243,45.831143],[7.8210747,45.8311205],[7.82113,45.8311153],[7.8211847,45.8311264],[7.8212181,45.8311504],[7.8213009,45.8312333],[7.8213541,45.8312494],[7.8214201,45.8312534],[7.821491,45.8312394],[7.8215492,45.8311985],[7.8216729,45.8310776],[7.8218007,45.8309121],[7.821969,45.8307341],[7.8220496,45.8305442],[7.8220649,45.8303593],[7.8220371,45.8300682],[7.8220599,45.8299889],[7.8221317,45.8298312],[7.8222303,45.8297483],[7.8223278,45.8297053],[7.8224165,45.8297145],[7.822473,45.8297468],[7.8225073,45.8297835],[7.8225081,45.8298849],[7.8223659,45.8300285],[7.8222869,45.8301315],[7.8221927,45.8303923],[7.8220774,45.8306476],[7.8220515,45.8307283],[7.8219918,45.830834],[7.8218383,45.8310211],[7.8213998,45.8314638],[7.8211194,45.8316313],[7.820819,45.831846],[7.8206681,45.8319522],[7.8206311,45.8320209],[7.8206526,45.8320671],[7.8206896,45.8320853],[7.8207728,45.8320896],[7.820876,45.8320735],[7.8209407,45.8320435],[7.821007,45.831993],[7.8211379,45.8318546],[7.8216648,45.831378],[7.8219313,45.8310635],[7.8220345,45.8309035],[7.8221593,45.8306534],[7.8223149,45.8303207],[7.8223873,45.8300974],[7.8224073,45.8300566],[7.8224705,45.8300147],[7.8225321,45.8300008],[7.8226076,45.830004],[7.8227092,45.8300587],[7.8227493,45.83015],[7.8227462,45.8302369],[7.822717,45.8303411],[7.8226184,45.8304194],[7.8225151,45.8304903],[7.8222557,45.8305902],[7.8222034,45.8306406],[7.8221671,45.830739],[7.8221683,45.8308523],[7.8221689,45.8309763],[7.8221181,45.8311388],[7.8218257,45.8315343],[7.8213461,45.8318635],[7.8211813,45.8320174],[7.8210982,45.8320962],[7.8209965,45.8321628],[7.8208539,45.832207],[7.8206868,45.8322406],[7.8203675,45.8322824],[7.8202641,45.8323059],[7.8201834,45.8323407],[7.8201312,45.8324122],[7.8201412,45.8324541],[7.8202338,45.8325551],[7.8203574,45.8326238],[7.8204091,45.832675],[7.8204364,45.8327394],[7.8204392,45.8328033],[7.820419,45.8328687],[7.820388,45.8329283],[7.8203254,45.8329849],[7.8201874,45.8330645],[7.8200876,45.8331046],[7.8199559,45.8331362],[7.8198165,45.8331359],[7.8197498,45.8331344],[7.8196539,45.8331467],[7.8195857,45.8331677],[7.8194,45.8332462],[7.8192488,45.8332936],[7.8191627,45.8333206],[7.8191003,45.8333528],[7.8190622,45.8333787],[7.819041,45.8334101]]}},{"type":"Feature","id":1094470238,"properties":{"kind":"lift","name":"Tapis Roulant Sant'Anna 1","subtype":"magic_carpet","status":"active"},"geometry":{"type":"LineString","coordinates":[[7.8031709,45.8553414],[7.8028576,45.8559062]]}},{"type":"Feature","id":1094470361,"properties":{"kind":"lift","name":"Tapis Roulant Sant'Anna 2","subtype":"magic_carpet","status":"active"},"geometry":{"type":"LineString","coordinates":[[7.802817,45.8558625],[7.8022125,45.8564222]]}},{"type":"Feature","id":1204472880,"properties":{"kind":"run","name":"Pista Sci di Fondo sud Gress","subtype":"easy","pisteType":"nordic","featured":false},"geometry":{"type":"LineString","coordinates":[[7.8251898,45.8248718],[7.8252107,45.8250913],[7.8252374,45.8252153],[7.8252292,45.8253131],[7.8251683,45.8255585],[7.8250735,45.8259025],[7.8250392,45.8259836],[7.8249706,45.826084],[7.8248661,45.8261336],[7.824784,45.8261456],[7.8246904,45.8261368],[7.8245916,45.826113],[7.8244931,45.8260684],[7.8244495,45.8260123],[7.824435,45.8259302],[7.8244687,45.8258971],[7.8245162,45.8258553],[7.8246705,45.8257876],[7.8247488,45.825726],[7.8248169,45.8256445],[7.8248202,45.8255558],[7.8247827,45.8254152],[7.8247006,45.8253324],[7.8245441,45.8252725],[7.8243928,45.8252451],[7.8242322,45.8252216],[7.8241052,45.8251917],[7.8240293,45.8251509],[7.8239534,45.82514],[7.8238969,45.825163],[7.8238607,45.8251973],[7.8238729,45.8252498],[7.823942,45.8252924],[7.8240281,45.8253159],[7.8241625,45.8253028],[7.824322,45.8252924],[7.824477,45.8252886],[7.8245693,45.8253146],[7.8246423,45.8253559],[7.8246994,45.8254106],[7.8247444,45.8255214],[7.8247175,45.8255877],[7.8246698,45.825647],[7.8245828,45.8256963],[7.8244627,45.8257502],[7.8243871,45.8257792],[7.8243607,45.8257839],[7.8243349,45.8257782],[7.8243378,45.8257635],[7.8243602,45.8257516],[7.8244957,45.8256846],[7.8245634,45.8256516],[7.8246104,45.8256128],[7.8246462,45.8255298],[7.8246271,45.8254647],[7.8245814,45.8254159],[7.8245302,45.8253901],[7.8244682,45.8253739],[7.8243452,45.8253773],[7.824022,45.8254162],[7.8239324,45.8254095],[7.8238452,45.8253764],[7.8237599,45.8253342],[7.8237135,45.8251507],[7.823751,45.8249665],[7.8237883,45.8248865],[7.8238517,45.824834],[7.8239636,45.8248175],[7.8240468,45.8248305],[7.8240908,45.8248821],[7.824085,45.8250482],[7.8240979,45.8251078],[7.824165,45.8251497],[7.8242601,45.8251691],[7.8243567,45.8251768],[7.8245546,45.8251803],[7.8247069,45.8251714],[7.8249298,45.8250916],[7.8250245,45.8250541],[7.8250947,45.8249996],[7.8251653,45.8249283],[7.8251898,45.8248718]]}},{"type":"Feature","id":1309069576,"properties":{"kind":"lift","name":"Ca' Piacentino - Oro","subtype":"goods","status":"active"},"geometry":{"type":"LineString","coordinates":[[7.9370632,45.8199303],[7.9346723,45.8222721]]}},{"type":"Feature","id":1309069577,"properties":{"kind":"lift","name":"Piane","subtype":"goods","status":"active"},"geometry":{"type":"LineString","coordinates":[[7.9144172,45.8061451],[7.9084416,45.8049767]]}},{"type":"Feature","id":1314725376,"properties":{"kind":"lift","name":"Moos","subtype":"chair_lift","status":"active"},"geometry":{"type":"LineString","coordinates":[[7.8128023,45.8609264],[7.812549,45.8608562],[7.8112298,45.8604907],[7.8109087,45.8604017],[7.8094119,45.859987],[7.8091738,45.8599152]]}},{"type":"Feature","id":1314725377,"properties":{"kind":"run","name":"Mapped ski run","subtype":"intermediate","pisteType":"downhill","featured":false},"geometry":{"type":"LineString","coordinates":[[7.8091738,45.8599152],[7.809255,45.8597282]]}},{"type":"Feature","id":1314725378,"properties":{"kind":"run","name":"Mapped ski run","subtype":"advanced","pisteType":"downhill","featured":false},"geometry":{"type":"LineString","coordinates":[[7.8128853,45.8605493],[7.8127014,45.8608386],[7.8128023,45.8609264]]}},{"type":"Feature","id":1353795236,"properties":{"kind":"run","name":"Pista da sci di fondo nord di Colletesand","subtype":"intermediate","pisteType":"nordic","featured":false},"geometry":{"type":"LineString","coordinates":[[7.819703,45.8334631],[7.8198594,45.8334496],[7.820022,45.8334061],[7.8200642,45.8334131],[7.8200972,45.8334347],[7.8201216,45.8334687],[7.8201161,45.8334913],[7.8201126,45.8335093],[7.8200898,45.83354],[7.8199939,45.8336012],[7.8199049,45.8336533],[7.819691,45.8338052],[7.8193443,45.834001],[7.819224,45.834089],[7.8191388,45.8341396],[7.8189814,45.8342239],[7.8189231,45.8342574],[7.818875,45.8342987],[7.8187817,45.8343942],[7.8185935,45.8345748],[7.8185489,45.8346196],[7.818453,45.8347409],[7.8182995,45.8349555],[7.8181725,45.8352006],[7.8181409,45.8352893],[7.8181237,45.8353375],[7.8180636,45.835385],[7.8179775,45.8354125]]}},{"type":"Feature","id":1353795239,"properties":{"kind":"run","name":"Pista da sci di fondo nord di Colletesand","subtype":"intermediate","pisteType":"nordic","featured":false},"geometry":{"type":"LineString","coordinates":[[7.8190137,45.8334275],[7.818958,45.8332891],[7.818925,45.8332514],[7.8188634,45.833219],[7.8188178,45.8331854],[7.8188029,45.8331648],[7.8188116,45.8331122],[7.8188566,45.8330624],[7.8189093,45.8330314],[7.819057,45.8330283],[7.8192195,45.8330298],[7.8194022,45.8330189],[7.8195632,45.8329749],[7.8197492,45.8329085]]}},{"type":"Feature","id":1353795240,"properties":{"kind":"run","name":"Mapped ski run","subtype":"intermediate","pisteType":"nordic","featured":false},"geometry":{"type":"LineString","coordinates":[[7.8200566,45.8324982],[7.8201835,45.8322538]]}},{"type":"Feature","id":1353795242,"properties":{"kind":"run","name":"Mapped ski run","subtype":"nordic","pisteType":"nordic","featured":false},"geometry":{"type":"LineString","coordinates":[[7.8174533,45.8342894],[7.8174644,45.8344411],[7.8174074,45.8345978],[7.817412,45.8346579],[7.8174443,45.8347593],[7.8175151,45.8348957]]}},{"type":"Feature","id":1353795243,"properties":{"kind":"run","name":"Pista da sci di fondo nord di Colletesand","subtype":"intermediate","pisteType":"nordic","featured":false},"geometry":{"type":"LineString","coordinates":[[7.8190496,45.8335111],[7.819056,45.8335869]]}},{"type":"Feature","id":1353795244,"properties":{"kind":"run","name":"Pista da sci di fondo nord di Colletesand","subtype":"intermediate","pisteType":"nordic","featured":false},"geometry":{"type":"LineString","coordinates":[[7.819041,45.8334101],[7.8190496,45.8335111]]}},{"type":"Feature","id":1353795245,"properties":{"kind":"run","name":"Pista da sci di fondo nord di Colletesand","subtype":"intermediate","pisteType":"nordic","featured":false},"geometry":{"type":"LineString","coordinates":[[7.8190221,45.8335927],[7.8190181,45.8335139]]}},{"type":"Feature","id":1353795246,"properties":{"kind":"run","name":"Pista da sci di fondo nord di Colletesand","subtype":"intermediate","pisteType":"nordic","featured":false},"geometry":{"type":"LineString","coordinates":[[7.8190181,45.8335139],[7.8190137,45.8334275]]}},{"type":"Feature","id":1353795247,"properties":{"kind":"run","name":"Mapped ski run","subtype":"intermediate","pisteType":"nordic","featured":false},"geometry":{"type":"LineString","coordinates":[[7.814773,45.8466128],[7.8146717,45.846717],[7.8145468,45.8467762],[7.8142913,45.8468107],[7.8141252,45.8468194],[7.8139704,45.8467929],[7.8138398,45.8467304],[7.8137708,45.8466816],[7.8137395,45.8465968],[7.8137419,45.8464223],[7.8138062,45.8462705],[7.8139179,45.8460613],[7.8139772,45.8459196],[7.813983,45.8458103],[7.8139391,45.8456558],[7.8136923,45.8452866],[7.8134899,45.8450101],[7.813459,45.8449103],[7.8134544,45.8448319],[7.813496,45.8447869],[7.8135561,45.8447547],[7.8136393,45.8447482],[7.8137286,45.844774],[7.8138257,45.8448233],[7.8138889,45.8449178],[7.8139705,45.8450916],[7.8141507,45.8456217],[7.8141831,45.8458492],[7.8141523,45.8460199],[7.8140722,45.8461916],[7.8139886,45.8462853],[7.8139676,45.8464115],[7.8139968,45.8464995],[7.8141113,45.8465896],[7.8142238,45.8466207],[7.8143218,45.8466207],[7.8144192,45.8465935],[7.814505,45.8465431],[7.8145574,45.8464556],[7.8145744,45.8463257],[7.8143541,45.8457462],[7.8142324,45.8453642],[7.8140977,45.8450546],[7.8140664,45.8450048],[7.8139369,45.8448389],[7.8137565,45.8446407],[7.8136599,45.8444798],[7.8135775,45.8441863],[7.8135223,45.843955],[7.8134137,45.8435958],[7.8133992,45.8435188],[7.8134057,45.8433691],[7.8134505,45.8431888]]}},{"type":"Feature","id":1353795248,"properties":{"kind":"run","name":"Mapped ski run","subtype":"easy","pisteType":"nordic","featured":false},"geometry":{"type":"LineString","coordinates":[[7.8242825,45.8261105],[7.8245015,45.8262779],[7.824949,45.8265941],[7.8250132,45.8266819],[7.8250809,45.8268544],[7.8250858,45.8271761]]}},{"type":"Feature","id":1353795250,"properties":{"kind":"run","name":"Pista Sci di Fondo sud Gress","subtype":"easy","pisteType":"nordic","featured":false},"geometry":{"type":"LineString","coordinates":[[7.8244509,45.8288313],[7.8245852,45.8286326],[7.824769,45.8283815],[7.8248912,45.8283277],[7.8250196,45.8282338]]}},{"type":"Feature","id":1389737303,"properties":{"kind":"run","name":"Canale dell'Aquila","subtype":"intermediate","pisteType":"skitour","featured":false},"geometry":{"type":"LineString","coordinates":[[7.8473496,45.8876035],[7.8481114,45.8856319],[7.8492806,45.8844326],[7.8504717,45.883369],[7.8515017,45.8821516],[7.8532398,45.8810089],[7.8535509,45.8804562],[7.8527784,45.8796271],[7.8526282,45.8792462],[7.852585,45.8791096]]}},{"type":"Feature","id":1424866074,"properties":{"kind":"lift","name":"Goods","subtype":"goods","status":"active"},"geometry":{"type":"LineString","coordinates":[[7.8152468,45.8481118],[7.8141169,45.8475158],[7.8134009,45.8470766]]}},{"type":"Feature","id":1424866075,"properties":{"kind":"lift","name":"Goods","subtype":"goods","status":"active"},"geometry":{"type":"LineString","coordinates":[[7.8133949,45.8470689],[7.8136496,45.8459404]]}},{"type":"Feature","id":1471487010,"properties":{"kind":"run","name":"Mapped ski run","subtype":"intermediate","pisteType":"nordic","featured":false},"geometry":{"type":"LineString","coordinates":[[7.8182765,45.8337851],[7.8185567,45.8337786],[7.8186785,45.8338015],[7.8187502,45.8338633],[7.8187728,45.8339221],[7.8187631,45.8339944],[7.8186268,45.8341562],[7.8185596,45.8341922],[7.8185214,45.8341951],[7.8184871,45.834184],[7.8184476,45.8341436],[7.8184166,45.8340978],[7.8183385,45.8340234],[7.818267,45.8340127],[7.8181901,45.8340245],[7.8181091,45.8340633],[7.8180647,45.8341359],[7.8180647,45.8341898],[7.8181328,45.8342761],[7.8182499,45.8343307],[7.8183384,45.8343574],[7.8184305,45.8343719],[7.8185258,45.8343772],[7.8186141,45.834358],[7.8187358,45.8342898],[7.8188867,45.8341185],[7.8189804,45.8340035],[7.8190672,45.8338332],[7.8190221,45.8335927]]}},{"type":"Feature","id":1471487011,"properties":{"kind":"run","name":"Mapped ski run","subtype":"intermediate","pisteType":"nordic","featured":false},"geometry":{"type":"LineString","coordinates":[[7.8143485,45.8454036],[7.8144253,45.8454584],[7.8145086,45.8455108],[7.8145838,45.8455122],[7.8147027,45.8454725],[7.8147534,45.8454465],[7.8148128,45.8453914],[7.8148529,45.8453761],[7.8148922,45.8453719],[7.8149482,45.8453393],[7.8150069,45.8452817],[7.815078,45.845225],[7.815118,45.8452319],[7.8151418,45.8452498],[7.8151882,45.8453025],[7.8152772,45.8453638],[7.8153147,45.8453718],[7.8153411,45.8453842],[7.815372,45.8453991],[7.8153961,45.8454061],[7.8154541,45.8454108],[7.815487,45.8453956],[7.8155074,45.8453608],[7.8155426,45.8453225],[7.8155574,45.8453055],[7.8155581,45.8452891],[7.8155554,45.8452716],[7.8155249,45.8452296],[7.8154166,45.8451009],[7.8153215,45.8449879],[7.8152253,45.8448926],[7.8151429,45.8448022],[7.8150905,45.8447333],[7.8150773,45.8447065],[7.815064,45.8446793],[7.8150351,45.8446329],[7.8150054,45.8445561],[7.8149772,45.8444583],[7.8149605,45.8443789],[7.8149549,45.8442924],[7.814947,45.844171],[7.814955,45.8440486],[7.8149311,45.8439254],[7.8149215,45.8438758],[7.8148611,45.8437216],[7.8148235,45.8436449],[7.8147901,45.8435768],[7.8147136,45.8434965],[7.8146667,45.8434563],[7.8145205,45.8431882],[7.8144818,45.8431339],[7.8144226,45.8430508],[7.8143529,45.8429032],[7.8143113,45.8428434],[7.8142912,45.8427453],[7.8142791,45.8427024],[7.8143361,45.842468],[7.8143273,45.8423856],[7.8142899,45.8423079],[7.8142705,45.8422359],[7.8142936,45.8421199],[7.8143006,45.8419161],[7.8143267,45.8418829],[7.8143703,45.8418726],[7.8144166,45.8418848],[7.8144541,45.8419011],[7.8144943,45.8419053],[7.8145245,45.8419007],[7.814554,45.8418871],[7.8145607,45.8418591],[7.814552,45.8418241],[7.814491,45.841697],[7.8144125,45.8415947],[7.8142751,45.8414662],[7.8142087,45.8413728],[7.8141262,45.8412471],[7.8141068,45.841185],[7.8141141,45.8411332],[7.8141294,45.8411061],[7.8142303,45.8410309],[7.8145534,45.840789],[7.8145819,45.8407338],[7.8145382,45.8406085],[7.8144414,45.840413],[7.8140958,45.8399786],[7.8140666,45.8398526],[7.8140656,45.8397537],[7.8140819,45.8396911],[7.8141187,45.8396252],[7.8141459,45.8395878],[7.8141815,45.839526],[7.8142192,45.8394058],[7.8141996,45.8393825],[7.8141894,45.83933],[7.8141808,45.8392244],[7.8142374,45.8390574],[7.8143082,45.838907],[7.8143568,45.8388447],[7.8145612,45.8386746],[7.8148444,45.8384619],[7.8149116,45.8384015],[7.8149806,45.8382819],[7.8150532,45.8381703],[7.8151337,45.8380779],[7.8152151,45.8380273],[7.815262,45.8379879],[7.815385,45.8378005],[7.8157315,45.8374164]]}},{"type":"Feature","id":1471487013,"properties":{"kind":"run","name":"Mapped ski run","subtype":"intermediate","pisteType":"nordic","featured":false},"geometry":{"type":"LineString","coordinates":[[7.819056,45.8335869],[7.8192994,45.8335447],[7.819703,45.8334631]]}},{"type":"Feature","id":1471487014,"properties":{"kind":"run","name":"Mapped ski run","subtype":"intermediate","pisteType":"nordic","featured":false},"geometry":{"type":"LineString","coordinates":[[7.8157315,45.8374164],[7.8159597,45.8371795],[7.8161026,45.8370069],[7.816404,45.8367849],[7.8167397,45.8366054],[7.8171339,45.8363896],[7.8172822,45.8362763],[7.8175143,45.8359482],[7.8176448,45.8357144],[7.8178079,45.8355563],[7.8179067,45.8354893],[7.8179775,45.8354125]]}},{"type":"Feature","id":1471487015,"properties":{"kind":"run","name":"Mapped ski run","subtype":"intermediate","pisteType":"nordic","featured":false},"geometry":{"type":"LineString","coordinates":[[7.8179775,45.8354125],[7.8179929,45.8353367]]}},{"type":"Feature","id":1471487018,"properties":{"kind":"run","name":"Pista da sci di fondo nord di Colletesand","subtype":"intermediate","pisteType":"nordic","featured":false},"geometry":{"type":"LineString","coordinates":[[7.8201155,45.8327408],[7.8201781,45.8326973],[7.8202056,45.8326619],[7.8201842,45.8326123],[7.8200744,45.8325939],[7.820004,45.8326092],[7.8196336,45.8328831],[7.8193613,45.8329774],[7.8191486,45.8329897],[7.8189761,45.8329845],[7.8188754,45.8330074],[7.8188142,45.833042],[7.8187707,45.8331107],[7.8187361,45.8331929],[7.8187166,45.8332235],[7.8186822,45.8332522],[7.8186282,45.8332678],[7.8185906,45.8332664],[7.81855,45.8332544],[7.8185258,45.8332333],[7.818523,45.8332098],[7.818526,45.8331662],[7.8185352,45.8331021],[7.8185631,45.8330424],[7.8186295,45.8329466],[7.8187384,45.8328452],[7.818862,45.8327598],[7.8189563,45.8327199],[7.8191238,45.8326816],[7.819295,45.8326806],[7.8195419,45.8326815],[7.8196461,45.8326745],[7.8197457,45.8326643],[7.8199494,45.8326073],[7.8200319,45.8325524],[7.8200556,45.8325264],[7.8200566,45.8324982]]}},{"type":"Feature","id":1471487019,"properties":{"kind":"run","name":"Pista da sci di fondo nord di Colletesand","subtype":"advanced","pisteType":"nordic","featured":false},"geometry":{"type":"LineString","coordinates":[[7.8200566,45.8324982],[7.8200371,45.8324577],[7.820001,45.832415],[7.8199176,45.8323986],[7.8198136,45.8323973],[7.8197237,45.8323997],[7.8195551,45.8323977],[7.8193977,45.832392],[7.8193394,45.8323805],[7.8192993,45.8323548],[7.8192897,45.8323193],[7.8193526,45.8322108],[7.819499,45.8320437],[7.8196207,45.8318544],[7.8196529,45.8318236],[7.8196896,45.8317976],[7.8197434,45.8317912],[7.8197887,45.8318027],[7.8198305,45.8318261],[7.8198532,45.8318581],[7.8198766,45.8319847],[7.8198722,45.8321135],[7.8198892,45.832171],[7.8199365,45.8322123],[7.8200053,45.8322401],[7.8200794,45.8322492],[7.8201835,45.8322538]]}},{"type":"Feature","id":1471487021,"properties":{"kind":"run","name":"Mapped ski run","subtype":"intermediate","pisteType":"nordic","featured":false},"geometry":{"type":"LineString","coordinates":[[7.8197492,45.8329085],[7.8198981,45.832835],[7.8201155,45.8327408]]}},{"type":"Feature","id":1471487023,"properties":{"kind":"run","name":"Mapped ski run","subtype":"intermediate","pisteType":"nordic","featured":false},"geometry":{"type":"LineString","coordinates":[[7.8134505,45.8431888],[7.8134852,45.8432773],[7.8135516,45.8434846],[7.8136351,45.8436732],[7.8137791,45.844274],[7.8138626,45.8445686],[7.8140024,45.8448423],[7.8141059,45.8450101],[7.8142222,45.8452139],[7.8143485,45.8454036],[7.8144501,45.8455683],[7.8147598,45.8461391],[7.8148147,45.84625],[7.8148341,45.8463992],[7.814773,45.8466128]]}},{"type":"Feature","id":1471487024,"properties":{"kind":"run","name":"Mapped ski run","subtype":"intermediate","pisteType":"nordic","featured":false},"geometry":{"type":"LineString","coordinates":[[7.8181409,45.8352893],[7.8181123,45.8353135],[7.8180918,45.8353224],[7.818057,45.8353231],[7.8180256,45.8353188],[7.817978,45.835285],[7.8179397,45.8352509]]}},{"type":"Feature","id":1471487025,"properties":{"kind":"run","name":"Mapped ski run","subtype":"intermediate","pisteType":"nordic","featured":false},"geometry":{"type":"LineString","coordinates":[[7.8184806,45.8332876],[7.8184967,45.8332552],[7.818526,45.8331662]]}},{"type":"Feature","id":1471487027,"properties":{"kind":"run","name":"Pista Sci di Fondo sud Gress","subtype":"easy","pisteType":"nordic","featured":false},"geometry":{"type":"LineString","coordinates":[[7.8250762,45.8278056],[7.825087,45.8277127],[7.8250858,45.8271761]]}},{"type":"Feature","id":1471487028,"properties":{"kind":"run","name":"Pista Sci di Fondo sud Gress","subtype":"easy","pisteType":"nordic","featured":false},"geometry":{"type":"LineString","coordinates":[[7.823723,45.8293023],[7.8238312,45.8291357],[7.823921,45.8290827],[7.8241757,45.8289363],[7.824338,45.8289103]]}},{"type":"Feature","id":1471487029,"properties":{"kind":"run","name":"Mapped ski run","subtype":"easy","pisteType":"nordic","featured":false},"geometry":{"type":"LineString","coordinates":[[7.823723,45.8293023],[7.8235952,45.8293823],[7.8234758,45.8294687],[7.8233448,45.829582],[7.8232863,45.8296447],[7.8232324,45.829714],[7.8231221,45.8298979],[7.8230176,45.8300707]]}},{"type":"Feature","id":1471487030,"properties":{"kind":"run","name":"Mapped ski run","subtype":"easy","pisteType":"nordic","featured":false},"geometry":{"type":"LineString","coordinates":[[7.824338,45.8289103],[7.8242052,45.8290034],[7.8239418,45.8291773],[7.823723,45.8293023]]}},{"type":"Feature","id":1471487031,"properties":{"kind":"run","name":"Mapped ski run","subtype":"easy","pisteType":"nordic","featured":false},"geometry":{"type":"LineString","coordinates":[[7.8244509,45.8288313],[7.824338,45.8289103]]}},{"type":"Feature","id":1471487032,"properties":{"kind":"run","name":"Mapped ski run","subtype":"easy","pisteType":"nordic","featured":false},"geometry":{"type":"LineString","coordinates":[[7.8250762,45.8278056],[7.8250512,45.8279645],[7.8250196,45.8282338]]}}]}