{"type":"FeatureCollection","features":[{"type":"Feature","id":"building-208087298","properties":{"kind":"building","name":"Alpine building","height":7.2},"geometry":{"type":"Polygon","coordinates":[[[7.9015399,45.8753071],[7.9016305,45.8753439],[7.9017783,45.8751673],[7.9016876,45.8751305],[7.9015399,45.8753071]]]}},{"type":"Feature","id":"building-208087299","properties":{"kind":"building","name":"Alpine building","height":7.2},"geometry":{"type":"Polygon","coordinates":[[[7.9018672,45.8751181],[7.9018944,45.8751867],[7.9021066,45.8751459],[7.9020794,45.8750773],[7.9018672,45.8751181]]]}},{"type":"Feature","id":"building-835283071","properties":{"kind":"building","name":"Alpine building","height":7.2},"geometry":{"type":"Polygon","coordinates":[[[7.897114,45.8817034],[7.8971369,45.8817391],[7.8970807,45.8817565],[7.8970578,45.8817208],[7.897114,45.8817034]]]}},{"type":"Feature","id":"building-835283072","properties":{"kind":"building","name":"Alpine building","height":7.2},"geometry":{"type":"Polygon","coordinates":[[[7.8975518,45.8817911],[7.8975937,45.8818191],[7.8975285,45.8818663],[7.8974866,45.8818383],[7.8975518,45.8817911]]]}},{"type":"Feature","id":"building-269617637","properties":{"kind":"building","name":"Alpine building","height":7.2},"geometry":{"type":"Polygon","coordinates":[[[7.9038469,45.8664719],[7.9038413,45.8666781],[7.9041865,45.8666826],[7.9041921,45.8664764],[7.9038469,45.8664719]]]}},{"type":"Feature","id":"building-208082267","properties":{"kind":"building","name":"Alpine building","height":7.2},"geometry":{"type":"Polygon","coordinates":[[[7.8907516,45.881175],[7.8907152,45.8811929],[7.8907776,45.8812543],[7.8908139,45.8812364],[7.8907516,45.881175]]]}},{"type":"Feature","id":"building-208082249","properties":{"kind":"building","name":"Alpine building","height":7.2},"geometry":{"type":"Polygon","coordinates":[[[7.8905885,45.8811576],[7.8906598,45.8812192],[7.8907015,45.8811958],[7.8906303,45.8811342],[7.8905885,45.8811576]]]}},{"type":"Feature","id":"building-208082265","properties":{"kind":"building","name":"Alpine building","height":7.2},"geometry":{"type":"Polygon","coordinates":[[[7.8907641,45.8812562],[7.8907325,45.8812746],[7.8908065,45.8813361],[7.890838,45.8813176],[7.8907641,45.8812562]]]}},{"type":"Feature","id":"building-208082266","properties":{"kind":"building","name":"Alpine building","height":7.2},"geometry":{"type":"Polygon","coordinates":[[[7.8906064,45.8812482],[7.8907195,45.8813493],[7.890773,45.8813203],[7.8906598,45.8812192],[7.8906064,45.8812482]]]}},{"type":"Feature","id":"pylon-alagna-monterosa-ski-0","properties":{"kind":"pylon","name":"Lift tower","height":13},"geometry":{"type":"Polygon","coordinates":[[[7.888764383677729,45.8710927],[7.888756070290997,45.871106674442316],[7.888736,45.87111246284585],[7.888715929709003,45.871106674442316],[7.888707616322271,45.8710927],[7.888715929709003,45.87107872555768],[7.888736,45.871072937154146],[7.888756070290997,45.87107872555768],[7.888764383677729,45.8710927]]]}},{"type":"Feature","id":"pylon-alagna-monterosa-ski-1","properties":{"kind":"pylon","name":"Lift tower","height":13},"geometry":{"type":"Polygon","coordinates":[[[7.805068375816425,45.8556928],[7.805060064732216,45.85570677444232],[7.80504,45.85571256284585],[7.805019935267784,45.85570677444232],[7.8050116241835745,45.8556928],[7.805019935267784,45.85567882555768],[7.80504,45.85567303715415],[7.805060064732216,45.85567882555768],[7.805068375816425,45.8556928]]]}},{"type":"Feature","id":"pylon-alagna-monterosa-ski-2","properties":{"kind":"pylon","name":"Lift tower","height":13},"geometry":{"type":"Polygon","coordinates":[[[7.873984586382138,45.8763876],[7.873976272203302,45.87640157444232],[7.8739562,45.87640736284585],[7.873936127796698,45.87640157444232],[7.873927813617863,45.8763876],[7.873936127796698,45.87637362555768],[7.8739562,45.87636783715415],[7.873976272203302,45.87637362555768],[7.873984586382138,45.8763876]]]}},{"type":"Feature","id":"pylon-alagna-monterosa-ski-3","properties":{"kind":"pylon","name":"Lift tower","height":13},"geometry":{"type":"Polygon","coordinates":[[[7.885130984361918,45.8724324],[7.885122670774792,45.87244637444232],[7.8851026,45.87245216284585],[7.885082529225207,45.87244637444232],[7.885074215638081,45.8724324],[7.885082529225207,45.87241842555768],[7.8851026,45.87241263715415],[7.885122670774792,45.87241842555768],[7.885130984361918,45.8724324]]]}},{"type":"Feature","id":"pylon-alagna-monterosa-ski-4","properties":{"kind":"pylon","name":"Lift tower","height":13},"geometry":{"type":"Polygon","coordinates":[[[7.88750818391755,45.8715623],[7.8874998704605765,45.87157627444232],[7.8874798,45.87158206284585],[7.887459729539424,45.87157627444232],[7.887451416082451,45.8715623],[7.887459729539424,45.87154832555768],[7.8874798,45.87154253715415],[7.8874998704605765,45.87154832555768],[7.88750818391755,45.8715623]]]}},{"type":"Feature","id":"pylon-alagna-monterosa-ski-5","properties":{"kind":"pylon","name":"Lift tower","height":13},"geometry":{"type":"Polygon","coordinates":[[[7.879586985343831,45.8743549],[7.879578671469109,45.87436887444232],[7.8795586,45.87437466284585],[7.879538528530891,45.87436887444232],[7.879530214656169,45.8743549],[7.879538528530891,45.87434092555768],[7.8795586,45.87433513715415],[7.879578671469109,45.87434092555768],[7.879586985343831,45.8743549]]]}},{"type":"Feature","id":"pylon-alagna-monterosa-ski-6","properties":{"kind":"pylon","name":"Lift tower","height":13},"geometry":{"type":"Polygon","coordinates":[[[7.90221178123885,45.8663164],[7.902203468566449,45.86633037444232],[7.9021834,45.866336162845855],[7.9021633314335515,45.86633037444232],[7.9021550187611505,45.8663164],[7.9021633314335515,45.866302425557684],[7.9021834,45.86629663715415],[7.902203468566449,45.866302425557684],[7.90221178123885,45.8663164]]]}},{"type":"Feature","id":"pylon-alagna-monterosa-ski-7","properties":{"kind":"pylon","name":"Lift tower","height":13},"geometry":{"type":"Polygon","coordinates":[[[7.8667552861569146,45.8759467],[7.866746972044046,45.87596067444232],[7.8667269,45.87596646284585],[7.866706827955953,45.87596067444232],[7.866698513843085,45.8759467],[7.866706827955953,45.87593272555768],[7.8667269,45.87592693715415],[7.866746972044046,45.87593272555768],[7.8667552861569146,45.8759467]]]}},{"type":"Feature","id":"pylon-alagna-monterosa-ski-8","properties":{"kind":"pylon","name":"Lift tower","height":13},"geometry":{"type":"Polygon","coordinates":[[[7.867376286449158,45.8765188],[7.867367972250694,45.87653277444232],[7.8673479,45.87653856284585],[7.867327827749307,45.87653277444232],[7.867319513550843,45.8765188],[7.867327827749307,45.87650482555768],[7.8673479,45.87649903715415],[7.867367972250694,45.87650482555768],[7.867376286449158,45.8765188]]]}},{"type":"Feature","id":"pylon-alagna-monterosa-ski-9","properties":{"kind":"pylon","name":"Lift tower","height":13},"geometry":{"type":"Polygon","coordinates":[[[7.8674298864750565,45.8765695],[7.867421572269007,45.87658347444232],[7.8674015,45.876589262845854],[7.867381427730993,45.87658347444232],[7.867373113524943,45.8765695],[7.867381427730993,45.876555525557684],[7.8674015,45.87654973715415],[7.867421572269007,45.876555525557684],[7.8674298864750565,45.8765695]]]}},{"type":"Feature","id":"pylon-alagna-monterosa-ski-10","properties":{"kind":"pylon","name":"Lift tower","height":13},"geometry":{"type":"Polygon","coordinates":[[[7.848988377647905,45.8592817],[7.848980066027268,45.859295674442315],[7.84896,45.85930146284585],[7.848939933972732,45.859295674442315],[7.848931622352095,45.8592817],[7.848939933972732,45.85926772555768],[7.84896,45.859261937154145],[7.848980066027268,45.85926772555768],[7.848988377647905,45.8592817]]]}},{"type":"Feature","id":"pylon-alagna-monterosa-ski-11","properties":{"kind":"pylon","name":"Lift tower","height":13},"geometry":{"type":"Polygon","coordinates":[[[7.849717378007006,45.8599853],[7.84970906628119,45.859999274442316],[7.849689,45.86000506284585],[7.849668933718809,45.859999274442316],[7.849660621992993,45.8599853],[7.849668933718809,45.85997132555768],[7.849689,45.859965537154146],[7.84970906628119,45.85997132555768],[7.849717378007006,45.8599853]]]}},{"type":"Feature","id":"pylon-alagna-monterosa-ski-12","properties":{"kind":"pylon","name":"Lift tower","height":13},"geometry":{"type":"Polygon","coordinates":[[[7.850571478415374,45.8607854],[7.850563166569951,45.860799374442315],[7.8505431,45.86080516284585],[7.85052303343005,45.860799374442315],[7.850514721584626,45.8607854],[7.85052303343005,45.86077142555768],[7.8505431,45.860765637154145],[7.850563166569951,45.86077142555768],[7.850571478415374,45.8607854]]]}},{"type":"Feature","id":"pylon-alagna-monterosa-ski-13","properties":{"kind":"pylon","name":"Lift tower","height":13},"geometry":{"type":"Polygon","coordinates":[[[7.851523278882306,45.8617002],[7.851514966900121,45.86171417444232],[7.8514949,45.861719962845854],[7.8514748330998785,45.86171417444232],[7.851466521117693,45.8617002],[7.8514748330998785,45.86168622555768],[7.8514949,45.86168043715415],[7.851514966900121,45.86168622555768],[7.851523278882306,45.8617002]]]}},{"type":"Feature","id":"pylon-alagna-monterosa-ski-14","properties":{"kind":"pylon","name":"Lift tower","height":13},"geometry":{"type":"Polygon","coordinates":[[[7.852763779465595,45.8628429],[7.852755467312568,45.862856874442315],[7.8527354,45.86286266284585],[7.852715332687432,45.862856874442315],[7.852707020534406,45.8628429],[7.852715332687432,45.86282892555768],[7.8527354,45.862823137154145],[7.852755467312568,45.86282892555768],[7.852763779465595,45.8628429]]]}},{"type":"Feature","id":"pylon-alagna-monterosa-ski-15","properties":{"kind":"pylon","name":"Lift tower","height":13},"geometry":{"type":"Polygon","coordinates":[[[7.854058580074954,45.8640366],[7.8540502677434505,45.86405057444232],[7.8540302,45.86405636284585],[7.85401013225655,45.86405057444232],[7.854001819925047,45.8640366],[7.85401013225655,45.86402262555768],[7.8540302,45.864016837154146],[7.8540502677434505,45.86402262555768],[7.854058580074954,45.8640366]]]}},{"type":"Feature","id":"pylon-alagna-monterosa-ski-16","properties":{"kind":"pylon","name":"Lift tower","height":13},"geometry":{"type":"Polygon","coordinates":[[[7.855846580910107,45.8656725],[7.855838268333994,45.86568647444232],[7.8558182,45.865692262845855],[7.855798131666006,45.86568647444232],[7.8557898190898925,45.8656725],[7.855798131666006,45.865658525557684],[7.8558182,45.86565273715415],[7.855838268333994,45.865658525557684],[7.855846580910107,45.8656725]]]}},{"type":"Feature","id":"pylon-alagna-monterosa-ski-17","properties":{"kind":"pylon","name":"Lift tower","height":13},"geometry":{"type":"Polygon","coordinates":[[[7.858646982277837,45.8683513],[7.858638669301124,45.86836527444232],[7.8586186,45.86837106284585],[7.858598530698876,45.86836527444232],[7.8585902177221625,45.8683513],[7.858598530698876,45.86833732555768],[7.8586186,45.86833153715415],[7.858638669301124,45.86833732555768],[7.858646982277837,45.8683513]]]}},{"type":"Feature","id":"pylon-alagna-monterosa-ski-18","properties":{"kind":"pylon","name":"Lift tower","height":13},"geometry":{"type":"Polygon","coordinates":[[[7.859977182914131,45.8695974],[7.859968869751052,45.86961137444232],[7.8599488,45.869617162845856],[7.859928730248948,45.86961137444232],[7.859920417085869,45.8695974],[7.859928730248948,45.869583425557686],[7.8599488,45.86957763715415],[7.859968869751052,45.869583425557686],[7.859977182914131,45.8695974]]]}},{"type":"Feature","id":"pylon-alagna-monterosa-ski-19","properties":{"kind":"pylon","name":"Lift tower","height":13},"geometry":{"type":"Polygon","coordinates":[[[7.861141083471261,45.8706884],[7.861132770145002,45.87070237444232],[7.8611127,45.87070816284585],[7.861092629854998,45.87070237444232],[7.861084316528738,45.8706884],[7.861092629854998,45.87067442555768],[7.8611127,45.87066863715415],[7.861132770145002,45.87067442555768],[7.861141083471261,45.8706884]]]}},{"type":"Feature","id":"pylon-alagna-monterosa-ski-20","properties":{"kind":"pylon","name":"Lift tower","height":13},"geometry":{"type":"Polygon","coordinates":[[[7.861964083864642,45.8714587],[7.861955770423164,45.871472674442316],[7.8619357,45.87147846284585],[7.861915629576836,45.871472674442316],[7.861907316135358,45.8714587],[7.861915629576836,45.87144472555768],[7.8619357,45.871438937154146],[7.861955770423164,45.87144472555768],[7.861964083864642,45.8714587]]]}},{"type":"Feature","id":"pylon-alagna-monterosa-ski-21","properties":{"kind":"pylon","name":"Lift tower","height":13},"geometry":{"type":"Polygon","coordinates":[[[7.8629429843159535,45.8723424],[7.86293467074229,45.87235637444232],[7.8629146,45.87236216284585],[7.8628945292577095,45.87235637444232],[7.862886215684046,45.8723424],[7.8628945292577095,45.87232842555768],[7.8629146,45.87232263715415],[7.86293467074229,45.87232842555768],[7.8629429843159535,45.8723424]]]}},{"type":"Feature","id":"pylon-alagna-monterosa-ski-22","properties":{"kind":"pylon","name":"Lift tower","height":13},"geometry":{"type":"Polygon","coordinates":[[[7.865072985376214,45.8744183],[7.865064671492008,45.87443227444232],[7.8650446,45.874438062845854],[7.865024528507992,45.87443227444232],[7.865016214623786,45.8744183],[7.865024528507992,45.874404325557684],[7.8650446,45.87439853715415],[7.865064671492008,45.874404325557684],[7.865072985376214,45.8744183]]]}},{"type":"Feature","id":"pylon-alagna-monterosa-ski-23","properties":{"kind":"pylon","name":"Lift tower","height":13},"geometry":{"type":"Polygon","coordinates":[[[7.865892485738105,45.8751268],[7.865884171747903,45.875140774442315],[7.8658641,45.87514656284585],[7.865844028252096,45.875140774442315],[7.865835714261894,45.8751268],[7.865844028252096,45.87511282555768],[7.8658641,45.875107037154145],[7.865884171747903,45.87511282555768],[7.865892485738105,45.8751268]]]}},{"type":"Feature","id":"pylon-alagna-monterosa-ski-24","properties":{"kind":"pylon","name":"Lift tower","height":13},"geometry":{"type":"Polygon","coordinates":[[[7.8424045758717895,45.8558013],[7.842396264771365,45.85581527444232],[7.8423762,45.855821062845855],[7.842356135228636,45.85581527444232],[7.842347824128211,45.8558013],[7.842356135228636,45.855787325557685],[7.8423762,45.85578153715415],[7.842396264771365,45.855787325557685],[7.8424045758717895,45.8558013]]]}},{"type":"Feature","id":"pylon-alagna-monterosa-ski-25","properties":{"kind":"pylon","name":"Lift tower","height":13},"geometry":{"type":"Polygon","coordinates":[[[7.843983675814588,45.8556892],[7.843975364730917,45.85570317444232],[7.8439553,45.85570896284585],[7.843935235269083,45.85570317444232],[7.843926924185412,45.8556892],[7.843935235269083,45.85567522555768],[7.8439553,45.85566943715415],[7.843975364730917,45.85567522555768],[7.843983675814588,45.8556892]]]}},{"type":"Feature","id":"pylon-alagna-monterosa-ski-26","properties":{"kind":"pylon","name":"Lift tower","height":13},"geometry":{"type":"Polygon","coordinates":[[[7.839638075958383,45.855971],[7.839629764832595,45.855984974442315],[7.8396097,45.85599076284585],[7.839589635167404,45.855984974442315],[7.839581324041617,45.855971],[7.839589635167404,45.85595702555768],[7.8396097,45.855951237154144],[7.839629764832595,45.85595702555768],[7.839638075958383,45.855971]]]}},{"type":"Feature","id":"pylon-alagna-monterosa-ski-27","properties":{"kind":"pylon","name":"Lift tower","height":13},"geometry":{"type":"Polygon","coordinates":[[[7.8413238759066415,45.8558696],[7.841315564796009,45.855883574442316],[7.8412955,45.85588936284585],[7.8412754352039915,45.855883574442316],[7.841267124093359,45.8558696],[7.8412754352039915,45.85585562555768],[7.8412955,45.855849837154146],[7.841315564796009,45.85585562555768],[7.8413238759066415,45.8558696]]]}},{"type":"Feature","id":"pylon-alagna-monterosa-ski-28","properties":{"kind":"pylon","name":"Lift tower","height":13},"geometry":{"type":"Polygon","coordinates":[[[7.834038876155403,45.8563571],[7.8340305649719095,45.856371074442315],[7.8340105,45.85637686284585],[7.83399043502809,45.856371074442315],[7.833982123844597,45.8563571],[7.83399043502809,45.85634312555768],[7.8340105,45.856337337154145],[7.8340305649719095,45.85634312555768],[7.834038876155403,45.8563571]]]}},{"type":"Feature","id":"pylon-alagna-monterosa-ski-29","properties":{"kind":"pylon","name":"Lift tower","height":13},"geometry":{"type":"Polygon","coordinates":[[[7.832080976224292,45.8564921],[7.832072665020622,45.856506074442315],[7.8320526,45.85651186284585],[7.832032534979378,45.856506074442315],[7.832024223775708,45.8564921],[7.832032534979378,45.85647812555768],[7.8320526,45.856472337154145],[7.832072665020622,45.85647812555768],[7.832080976224292,45.8564921]]]}},{"type":"Feature","id":"pylon-alagna-monterosa-ski-30","properties":{"kind":"pylon","name":"Lift tower","height":13},"geometry":{"type":"Polygon","coordinates":[[[7.829828876303541,45.8566474],[7.829820565076659,45.85666137444232],[7.8298005,45.85666716284585],[7.829780434923341,45.85666137444232],[7.8297721236964595,45.8566474],[7.829780434923341,45.85663342555768],[7.8298005,45.85662763715415],[7.829820565076659,45.85663342555768],[7.829828876303541,45.8566474]]]}},{"type":"Feature","id":"pylon-alagna-monterosa-ski-31","properties":{"kind":"pylon","name":"Lift tower","height":13},"geometry":{"type":"Polygon","coordinates":[[[7.827282676393098,45.8568229],[7.827274365139985,45.856836874442315],[7.8272543,45.85684266284585],[7.827234234860015,45.856836874442315],[7.8272259236069015,45.8568229],[7.827234234860015,45.85680892555768],[7.8272543,45.856803137154145],[7.827274365139985,45.85680892555768],[7.827282676393098,45.8568229]]]}},{"type":"Feature","id":"pylon-alagna-monterosa-ski-32","properties":{"kind":"pylon","name":"Lift tower","height":13},"geometry":{"type":"Polygon","coordinates":[[[7.825325776461938,45.8569578],[7.825317465188663,45.85697177444232],[7.8252974,45.856977562845856],[7.825277334811338,45.85697177444232],[7.825269023538063,45.8569578],[7.825277334811338,45.856943825557686],[7.8252974,45.85693803715415],[7.825317465188663,45.856943825557686],[7.825325776461938,45.8569578]]]}},{"type":"Feature","id":"pylon-alagna-monterosa-ski-33","properties":{"kind":"pylon","name":"Lift tower","height":13},"geometry":{"type":"Polygon","coordinates":[[[7.823875376513019,45.8570579],[7.823867065224782,45.85707187444232],[7.823847,45.85707766284585],[7.823826934775218,45.85707187444232],[7.82381862348698,45.8570579],[7.823826934775218,45.85704392555768],[7.823847,45.85703813715415],[7.823867065224782,45.85704392555768],[7.823875376513019,45.8570579]]]}},{"type":"Feature","id":"pylon-alagna-monterosa-ski-34","properties":{"kind":"pylon","name":"Lift tower","height":13},"geometry":{"type":"Polygon","coordinates":[[[7.8198177766557535,45.8573376],[7.819809465325711,45.85735157444232],[7.8197894,45.85735736284585],[7.81976933467429,45.85735157444232],[7.819761023344247,45.8573376],[7.81976933467429,45.85732362555768],[7.8197894,45.85731783715415],[7.819809465325711,45.85732362555768],[7.8198177766557535,45.8573376]]]}},{"type":"Feature","id":"pylon-alagna-monterosa-ski-35","properties":{"kind":"pylon","name":"Lift tower","height":13},"geometry":{"type":"Polygon","coordinates":[[[7.817072076752356,45.8575269],[7.817063765394019,45.85754087444232],[7.8170437,45.857546662845856],[7.817023634605981,45.85754087444232],[7.817015323247644,45.8575269],[7.817023634605981,45.857512925557685],[7.8170437,45.85750713715415],[7.817063765394019,45.857512925557685],[7.817072076752356,45.8575269]]]}},{"type":"Feature","id":"pylon-alagna-monterosa-ski-36","properties":{"kind":"pylon","name":"Lift tower","height":13},"geometry":{"type":"Polygon","coordinates":[[[7.81480417683217,45.8576833],[7.8147958654504555,45.857697274442316],[7.8147758,45.85770306284585],[7.814755734549544,45.857697274442316],[7.814747423167829,45.8576833],[7.814755734549544,45.85766932555768],[7.8147758,45.857663537154146],[7.8147958654504555,45.85766932555768],[7.81480417683217,45.8576833]]]}},{"type":"Feature","id":"pylon-alagna-monterosa-ski-37","properties":{"kind":"pylon","name":"Lift tower","height":13},"geometry":{"type":"Polygon","coordinates":[[[7.813487376878507,45.8577741],[7.813479065483222,45.85778807444232],[7.813459,45.85779386284585],[7.813438934516778,45.85778807444232],[7.8134306231214925,45.8577741],[7.813438934516778,45.85776012555768],[7.813459,45.85775433715415],[7.813479065483222,45.85776012555768],[7.813487376878507,45.8577741]]]}},{"type":"Feature","id":"pylon-alagna-monterosa-ski-38","properties":{"kind":"pylon","name":"Lift tower","height":13},"geometry":{"type":"Polygon","coordinates":[[[7.857566981761214,45.8673395],[7.857558668935816,45.86735347444232],[7.8575386,45.86735926284585],[7.8575185310641835,45.86735347444232],[7.857510218238786,45.8673395],[7.8575185310641835,45.86732552555768],[7.8575386,45.86731973715415],[7.857558668935816,45.86732552555768],[7.857566981761214,45.8673395]]]}},{"type":"Feature","id":"pylon-alagna-monterosa-ski-39","properties":{"kind":"pylon","name":"Lift tower","height":13},"geometry":{"type":"Polygon","coordinates":[[[7.845733376074114,45.8561978],[7.84572506491443,45.856211774442315],[7.845705,45.85621756284585],[7.845684935085569,45.856211774442315],[7.845676623925885,45.8561978],[7.845684935085569,45.85618382555768],[7.845705,45.856178037154145],[7.84572506491443,45.85618382555768],[7.845733376074114,45.8561978]]]}},{"type":"Feature","id":"pylon-alagna-monterosa-ski-40","properties":{"kind":"pylon","name":"Lift tower","height":13},"geometry":{"type":"Polygon","coordinates":[[[7.8467003765653764,45.8571605],[7.846692065261805,45.85717447444232],[7.846672,45.85718026284585],[7.846651934738195,45.85717447444232],[7.846643623434623,45.8571605],[7.846651934738195,45.85714652555768],[7.846672,45.85714073715415],[7.846692065261805,45.85714652555768],[7.8467003765653764,45.8571605]]]}},{"type":"Feature","id":"pylon-alagna-monterosa-ski-41","properties":{"kind":"pylon","name":"Lift tower","height":13},"geometry":{"type":"Polygon","coordinates":[[[7.847734177046355,45.858103],[7.847725865601908,45.85811697444232],[7.8477058,45.85812276284585],[7.847685734398092,45.85811697444232],[7.847677422953645,45.858103],[7.847685734398092,45.85808902555768],[7.8477058,45.85808323715415],[7.847725865601908,45.85808902555768],[7.847734177046355,45.858103]]]}},{"type":"Feature","id":"pylon-alagna-monterosa-ski-42","properties":{"kind":"pylon","name":"Lift tower","height":13},"geometry":{"type":"Polygon","coordinates":[[[7.855118980585104,45.8650359],[7.855110668104181,45.86504987444232],[7.8550906,45.865055662845855],[7.8550705318958185,45.86504987444232],[7.855062219414895,45.8650359],[7.8550705318958185,45.865021925557684],[7.8550906,45.86501613715415],[7.855110668104181,45.865021925557684],[7.855118980585104,45.8650359]]]}},{"type":"Feature","id":"pylon-alagna-monterosa-ski-43","properties":{"kind":"pylon","name":"Lift tower","height":13},"geometry":{"type":"Polygon","coordinates":[[[7.856397381201732,45.8662437],[7.856389068540203,45.866257674442316],[7.856369,45.86626346284585],[7.856348931459797,45.866257674442316],[7.856340618798268,45.8662437],[7.856348931459797,45.86622972555768],[7.856369,45.866223937154146],[7.856389068540203,45.86622972555768],[7.856397381201732,45.8662437]]]}},{"type":"Feature","id":"pylon-alagna-monterosa-ski-44","properties":{"kind":"pylon","name":"Lift tower","height":13},"geometry":{"type":"Polygon","coordinates":[[[7.863631884657631,45.8730114],[7.863623570983893,45.87302537444232],[7.8636035,45.873031162845855],[7.863583429016107,45.87302537444232],[7.8635751153423685,45.8730114],[7.863583429016107,45.872997425557685],[7.8636035,45.87299163715415],[7.863623570983893,45.872997425557685],[7.863631884657631,45.8730114]]]}},{"type":"Feature","id":"pylon-alagna-monterosa-ski-45","properties":{"kind":"pylon","name":"Lift tower","height":13},"geometry":{"type":"Polygon","coordinates":[[[7.934439474733184,45.8535698],[7.934431163966249,45.85358377444232],[7.9344111,45.853589562845855],[7.934391036033752,45.85358377444232],[7.934382725266817,45.8535698],[7.934391036033752,45.853555825557684],[7.9344111,45.85355003715415],[7.934431163966249,45.853555825557684],[7.934439474733184,45.8535698]]]}},{"type":"Feature","id":"pylon-alagna-monterosa-ski-46","properties":{"kind":"pylon","name":"Lift tower","height":13},"geometry":{"type":"Polygon","coordinates":[[[7.932891775035489,45.8541623],[7.93288346418001,45.85417627444232],[7.9328634,45.85418206284585],[7.932843335819989,45.85417627444232],[7.93283502496451,45.8541623],[7.932843335819989,45.85414832555768],[7.9328634,45.85414253715415],[7.93288346418001,45.85414832555768],[7.932891775035489,45.8541623]]]}},{"type":"Feature","id":"pylon-alagna-monterosa-ski-47","properties":{"kind":"pylon","name":"Lift tower","height":13},"geometry":{"type":"Polygon","coordinates":[[[7.931470675313057,45.8547063],[7.931462364376281,45.854720274442315],[7.9314423,45.85472606284585],[7.931422235623718,45.854720274442315],[7.931413924686942,45.8547063],[7.931422235623718,45.85469232555768],[7.9314423,45.854686537154144],[7.931462364376281,45.85469232555768],[7.931470675313057,45.8547063]]]}},{"type":"Feature","id":"pylon-alagna-monterosa-ski-48","properties":{"kind":"pylon","name":"Lift tower","height":13},"geometry":{"type":"Polygon","coordinates":[[[7.930426075517106,45.8551062],[7.930417764520565,45.85512017444232],[7.9303977,45.855125962845854],[7.930377635479435,45.85512017444232],[7.9303693244828946,45.8551062],[7.930377635479435,45.855092225557684],[7.9303977,45.85508643715415],[7.930417764520565,45.855092225557684],[7.930426075517106,45.8551062]]]}},{"type":"Feature","id":"pylon-alagna-monterosa-ski-49","properties":{"kind":"pylon","name":"Lift tower","height":13},"geometry":{"type":"Polygon","coordinates":[[[7.927818976026352,45.8561042],[7.927810664880656,45.856118174442315],[7.9277906,45.85612396284585],[7.927770535119343,45.856118174442315],[7.927762223973647,45.8561042],[7.927770535119343,45.85609022555768],[7.9277906,45.856084437154145],[7.927810664880656,45.85609022555768],[7.927818976026352,45.8561042]]]}},{"type":"Feature","id":"pylon-alagna-monterosa-ski-50","properties":{"kind":"pylon","name":"Lift tower","height":13},"geometry":{"type":"Polygon","coordinates":[[[7.926214676339721,45.8567183],[7.926206365102242,45.856732274442315],[7.9261863,45.85673806284585],[7.926166234897758,45.856732274442315],[7.92615792366028,45.8567183],[7.926166234897758,45.85670432555768],[7.9261863,45.856698537154145],[7.926206365102242,45.85670432555768],[7.926214676339721,45.8567183]]]}},{"type":"Feature","id":"pylon-alagna-monterosa-ski-51","properties":{"kind":"pylon","name":"Lift tower","height":13},"geometry":{"type":"Polygon","coordinates":[[[7.923273876914231,45.8578441],[7.923265565508482,45.85785807444232],[7.9232455,45.85786386284585],[7.923225434491519,45.85785807444232],[7.923217123085769,45.8578441],[7.923225434491519,45.85783012555768],[7.9232455,45.85782433715415],[7.923265565508482,45.85783012555768],[7.923273876914231,45.8578441]]]}},{"type":"Feature","id":"pylon-alagna-monterosa-ski-52","properties":{"kind":"pylon","name":"Lift tower","height":13},"geometry":{"type":"Polygon","coordinates":[[[7.922511177063196,45.858136],[7.922502865613817,45.85814997444232],[7.9224828,45.858155762845854],[7.922462734386183,45.85814997444232],[7.922454422936804,45.858136],[7.922462734386183,45.858122025557684],[7.9224828,45.85811623715415],[7.922502865613817,45.858122025557684],[7.922511177063196,45.858136]]]}},{"type":"Feature","id":"pylon-alagna-monterosa-ski-53","properties":{"kind":"pylon","name":"Lift tower","height":13},"geometry":{"type":"Polygon","coordinates":[[[7.9222071771226,45.8582524],[7.922198865655821,45.858266374442316],[7.9221788,45.85827216284585],[7.92215873434418,45.858266374442316],[7.9221504228774,45.8582524],[7.92215873434418,45.85823842555768],[7.9221788,45.858232637154146],[7.922198865655821,45.85823842555768],[7.9222071771226,45.8582524]]]}},{"type":"Feature","id":"pylon-alagna-monterosa-ski-54","properties":{"kind":"pylon","name":"Lift tower","height":13},"geometry":{"type":"Polygon","coordinates":[[[7.919986577556397,45.8591024],[7.919978265962562,45.859116374442316],[7.9199582,45.85912216284585],[7.919938134037438,45.859116374442316],[7.919929822443603,45.8591024],[7.919938134037438,45.85908842555768],[7.9199582,45.859082637154145],[7.919978265962562,45.85908842555768],[7.919986577556397,45.8591024]]]}},{"type":"Feature","id":"pylon-alagna-monterosa-ski-55","properties":{"kind":"pylon","name":"Lift tower","height":13},"geometry":{"type":"Polygon","coordinates":[[[7.917847977974188,45.859921],[7.917839666257985,45.85993497444232],[7.9178196,45.85994076284585],[7.917799533742015,45.85993497444232],[7.917791222025811,45.859921],[7.917799533742015,45.85990702555768],[7.9178196,45.85990123715415],[7.917839666257985,45.85990702555768],[7.917847977974188,45.859921]]]}},{"type":"Feature","id":"pylon-alagna-monterosa-ski-56","properties":{"kind":"pylon","name":"Lift tower","height":13},"geometry":{"type":"Polygon","coordinates":[[[7.916540878229588,45.8604214],[7.91653256643858,45.86043537444232],[7.9165125,45.86044116284585],[7.9164924335614195,45.86043537444232],[7.916484121770411,45.8604214],[7.9164924335614195,45.86040742555768],[7.9165125,45.86040163715415],[7.91653256643858,45.86040742555768],[7.916540878229588,45.8604214]]]}},{"type":"Feature","id":"pylon-alagna-monterosa-ski-57","properties":{"kind":"pylon","name":"Lift tower","height":13},"geometry":{"type":"Polygon","coordinates":[[[7.914917578546703,45.8610427],[7.914909266662814,45.86105667444232],[7.9148892,45.86106246284585],[7.914869133337186,45.86105667444232],[7.914860821453297,45.8610427],[7.914869133337186,45.86102872555768],[7.9148892,45.86102293715415],[7.914909266662814,45.86102872555768],[7.914917578546703,45.8610427]]]}},{"type":"Feature","id":"pylon-alagna-monterosa-ski-58","properties":{"kind":"pylon","name":"Lift tower","height":13},"geometry":{"type":"Polygon","coordinates":[[[7.913734678777821,45.8614955],[7.913726366826239,45.861509474442315],[7.9137063,45.86151526284585],[7.913686233173761,45.861509474442315],[7.913677921222179,45.8614955],[7.913686233173761,45.86148152555768],[7.9137063,45.861475737154144],[7.913726366826239,45.86148152555768],[7.913734678777821,45.8614955]]]}},{"type":"Feature","id":"pylon-alagna-monterosa-ski-59","properties":{"kind":"pylon","name":"Lift tower","height":13},"geometry":{"type":"Polygon","coordinates":[[[7.91046027941756,45.8627488],[7.910451967278602,45.86276277444232],[7.9104319,45.86276856284585],[7.9104118327213975,45.86276277444232],[7.91040352058244,45.8627488],[7.9104118327213975,45.86273482555768],[7.9104319,45.862729037154146],[7.910451967278602,45.86273482555768],[7.91046027941756,45.8627488]]]}},{"type":"Feature","id":"pylon-alagna-monterosa-ski-60","properties":{"kind":"pylon","name":"Lift tower","height":13},"geometry":{"type":"Polygon","coordinates":[[[7.90814767986943,45.863634],[7.908139367598123,45.863647974442316],[7.9081193,45.86365376284585],[7.908099232401877,45.863647974442316],[7.9080909201305705,45.863634],[7.908099232401877,45.86362002555768],[7.9081193,45.863614237154145],[7.908139367598123,45.86362002555768],[7.90814767986943,45.863634]]]}},{"type":"Feature","id":"pylon-alagna-monterosa-ski-61","properties":{"kind":"pylon","name":"Lift tower","height":13},"geometry":{"type":"Polygon","coordinates":[[[7.906289580232493,45.8643452],[7.9062812678548475,45.86435917444232],[7.9062612,45.864364962845855],[7.906241132145153,45.86435917444232],[7.906232819767507,45.8643452],[7.906241132145153,45.864331225557684],[7.9062612,45.86432543715415],[7.9062812678548475,45.864331225557684],[7.906289580232493,45.8643452]]]}},{"type":"Feature","id":"pylon-alagna-monterosa-ski-62","properties":{"kind":"pylon","name":"Lift tower","height":13},"geometry":{"type":"Polygon","coordinates":[[[7.888813088166116,45.8798796],[7.888804773464766,45.87989357444232],[7.8887847,45.879899362845855],[7.8887646265352345,45.87989357444232],[7.888756311833885,45.8798796],[7.8887646265352345,45.879865625557684],[7.8887847,45.87985983715415],[7.888804773464766,45.879865625557684],[7.888813088166116,45.8798796]]]}},{"type":"Feature","id":"pylon-alagna-monterosa-ski-63","properties":{"kind":"pylon","name":"Lift tower","height":13},"geometry":{"type":"Polygon","coordinates":[[[7.925332373221593,45.8506069],[7.925324062897393,45.85062087444232],[7.925304,45.850626662845855],[7.9252839371026065,45.85062087444232],[7.925275626778406,45.8506069],[7.9252839371026065,45.850592925557685],[7.925304,45.85058713715415],[7.925324062897393,45.850592925557685],[7.925332373221593,45.8506069]]]}},{"type":"Feature","id":"pylon-alagna-monterosa-ski-64","properties":{"kind":"pylon","name":"Lift tower","height":13},"geometry":{"type":"Polygon","coordinates":[[[7.924915273181089,45.8505275],[7.924906962868752,45.850541474442316],[7.9248869,45.85054726284585],[7.924866837131248,45.850541474442316],[7.924858526818911,45.8505275],[7.924866837131248,45.85051352555768],[7.9248869,45.850507737154146],[7.924906962868752,45.85051352555768],[7.924915273181089,45.8505275]]]}},{"type":"Feature","id":"pylon-alagna-monterosa-ski-65","properties":{"kind":"pylon","name":"Lift tower","height":13},"geometry":{"type":"Polygon","coordinates":[[[7.923784672722595,45.8496287],[7.923776362544547,45.849642674442315],[7.9237563,45.84964846284585],[7.9237362374554525,45.849642674442315],[7.923727927277405,45.8496287],[7.9237362374554525,45.84961472555768],[7.9237563,45.849608937154144],[7.923776362544547,45.84961472555768],[7.923784672722595,45.8496287]]]}},{"type":"Feature","id":"pylon-alagna-monterosa-ski-66","properties":{"kind":"pylon","name":"Lift tower","height":13},"geometry":{"type":"Polygon","coordinates":[[[7.859474091569464,45.8865396],[7.859465775871296,45.88655357444232],[7.8594457,45.88655936284585],[7.859425624128704,45.88655357444232],[7.859417308430537,45.8865396],[7.859425624128704,45.88652562555768],[7.8594457,45.88651983715415],[7.859465775871296,45.88652562555768],[7.859474091569464,45.8865396]]]}},{"type":"Feature","id":"pylon-alagna-monterosa-ski-67","properties":{"kind":"pylon","name":"Lift tower","height":13},"geometry":{"type":"Polygon","coordinates":[[[7.847266474449254,45.8530133],[7.84725816376548,45.85302727444232],[7.8472381,45.85303306284585],[7.84721803623452,45.85302727444232],[7.847209725550746,45.8530133],[7.84721803623452,45.85299932555768],[7.8472381,45.85299353715415],[7.84725816376548,45.85299932555768],[7.847266474449254,45.8530133]]]}},{"type":"Feature","id":"pylon-alagna-monterosa-ski-68","properties":{"kind":"pylon","name":"Lift tower","height":13},"geometry":{"type":"Polygon","coordinates":[[[7.939130871574568,45.847378],[7.93912256173277,45.84739197444232],[7.9391025,45.84739776284585],[7.93908243826723,45.84739197444232],[7.939074128425432,45.847378],[7.93908243826723,45.84736402555768],[7.9391025,45.84735823715415],[7.93912256173277,45.84736402555768],[7.939130871574568,45.847378]]]}},{"type":"Feature","id":"pylon-alagna-monterosa-ski-69","properties":{"kind":"pylon","name":"Lift tower","height":13},"geometry":{"type":"Polygon","coordinates":[[[7.900393685940178,45.8755224],[7.90038537189079,45.87553637444232],[7.9003653,45.87554216284585],[7.9003452281092095,45.87553637444232],[7.900336914059822,45.8755224],[7.9003452281092095,45.87550842555768],[7.9003653,45.87550263715415],[7.90038537189079,45.87550842555768],[7.900393685940178,45.8755224]]]}},{"type":"Feature","id":"pylon-alagna-monterosa-ski-70","properties":{"kind":"pylon","name":"Lift tower","height":13},"geometry":{"type":"Polygon","coordinates":[[[7.823827063931867,45.8323877],[7.823818756328564,45.832401674442316],[7.8237987,45.83240746284585],[7.823778643671436,45.832401674442316],[7.823770336068133,45.8323877],[7.823778643671436,45.83237372555768],[7.8237987,45.832367937154146],[7.823818756328564,45.83237372555768],[7.823827063931867,45.8323877]]]}},{"type":"Feature","id":"pylon-alagna-monterosa-ski-71","properties":{"kind":"pylon","name":"Lift tower","height":13},"geometry":{"type":"Polygon","coordinates":[[[7.824454864237046,45.8329865],[7.824446556544358,45.833000474442315],[7.8244265,45.83300626284585],[7.824406443455643,45.833000474442315],[7.824398135762955,45.8329865],[7.824406443455643,45.83297252555768],[7.8244265,45.832966737154145],[7.824446556544358,45.83297252555768],[7.824454864237046,45.8329865]]]}},{"type":"Feature","id":"pylon-alagna-monterosa-ski-72","properties":{"kind":"pylon","name":"Lift tower","height":13},"geometry":{"type":"Polygon","coordinates":[[[7.825213164605687,45.8337098],[7.825204856805026,45.83372377444232],[7.8251848,45.83372956284585],[7.825164743194973,45.83372377444232],[7.825156435394312,45.8337098],[7.825164743194973,45.83369582555768],[7.8251848,45.83369003715415],[7.825204856805026,45.83369582555768],[7.825213164605687,45.8337098]]]}},{"type":"Feature","id":"pylon-alagna-monterosa-ski-73","properties":{"kind":"pylon","name":"Lift tower","height":13},"geometry":{"type":"Polygon","coordinates":[[[7.826682665320128,45.8351115],[7.826674357310213,45.835125474442314],[7.8266543,45.83513126284585],[7.826634242689788,45.835125474442314],[7.826625934679873,45.8351115],[7.826634242689788,45.83509752555768],[7.8266543,45.835091737154144],[7.826674357310213,45.83509752555768],[7.826682665320128,45.8351115]]]}},{"type":"Feature","id":"pylon-alagna-monterosa-ski-74","properties":{"kind":"pylon","name":"Lift tower","height":13},"geometry":{"type":"Polygon","coordinates":[[[7.828256766085494,45.836613],[7.828248457851409,45.83662697444232],[7.8282284,45.83663276284585],[7.828208342148592,45.83662697444232],[7.828200033914507,45.836613],[7.828208342148592,45.83659902555768],[7.8282284,45.83659323715415],[7.828248457851409,45.83659902555768],[7.828256766085494,45.836613]]]}},{"type":"Feature","id":"pylon-alagna-monterosa-ski-75","properties":{"kind":"pylon","name":"Lift tower","height":13},"geometry":{"type":"Polygon","coordinates":[[[7.829671266773229,45.8379621],[7.82966295833771,45.83797607444232],[7.8296429,45.83798186284585],[7.829622841662289,45.83797607444232],[7.829614533226771,45.8379621],[7.829622841662289,45.83794812555768],[7.8296429,45.837942337154146],[7.82966295833771,45.83794812555768],[7.829671266773229,45.8379621]]]}},{"type":"Feature","id":"pylon-alagna-monterosa-ski-76","properties":{"kind":"pylon","name":"Lift tower","height":13},"geometry":{"type":"Polygon","coordinates":[[[7.830011466938657,45.8382866],[7.830003158454686,45.83830057444232],[7.8299831,45.838306362845856],[7.829963041545313,45.83830057444232],[7.829954733061342,45.8382866],[7.829963041545313,45.838272625557686],[7.8299831,45.83826683715415],[7.830003158454686,45.838272625557686],[7.830011466938657,45.8382866]]]}},{"type":"Feature","id":"pylon-alagna-monterosa-ski-77","properties":{"kind":"pylon","name":"Lift tower","height":13},"geometry":{"type":"Polygon","coordinates":[[[7.830695967271511,45.8389395],[7.830687658690049,45.83895347444232],[7.8306676,45.838959262845854],[7.8306475413099506,45.83895347444232],[7.830639232728489,45.8389395],[7.8306475413099506,45.838925525557684],[7.8306676,45.83891973715415],[7.830687658690049,45.838925525557684],[7.830695967271511,45.8389395]]]}},{"type":"Feature","id":"pylon-alagna-monterosa-ski-78","properties":{"kind":"pylon","name":"Lift tower","height":13},"geometry":{"type":"Polygon","coordinates":[[[7.831227667529992,45.8394465],[7.831219358872823,45.83946047444232],[7.8311993,45.83946626284585],[7.831179241127177,45.83946047444232],[7.831170932470007,45.8394465],[7.831179241127177,45.83943252555768],[7.8311993,45.83942673715415],[7.831219358872823,45.83943252555768],[7.831227667529992,45.8394465]]]}},{"type":"Feature","id":"pylon-alagna-monterosa-ski-79","properties":{"kind":"pylon","name":"Lift tower","height":13},"geometry":{"type":"Polygon","coordinates":[[[7.831590967706702,45.8397931],[7.8315826589977755,45.83980707444232],[7.8315626,45.839812862845854],[7.831542541002224,45.83980707444232],[7.831534232293298,45.8397931],[7.831542541002224,45.83977912555768],[7.8315626,45.83977333715415],[7.8315826589977755,45.83977912555768],[7.831590967706702,45.8397931]]]}},{"type":"Feature","id":"pylon-alagna-monterosa-ski-80","properties":{"kind":"pylon","name":"Lift tower","height":13},"geometry":{"type":"Polygon","coordinates":[[[7.831699967759675,45.839897],[7.831691659035233,45.83991097444232],[7.8316716,45.83991676284585],[7.831651540964767,45.83991097444232],[7.831643232240325,45.839897],[7.831651540964767,45.83988302555768],[7.8316716,45.83987723715415],[7.831691659035233,45.83988302555768],[7.831699967759675,45.839897]]]}},{"type":"Feature","id":"pylon-alagna-monterosa-ski-81","properties":{"kind":"pylon","name":"Lift tower","height":13},"geometry":{"type":"Polygon","coordinates":[[[7.823143670113195,45.8445126],[7.823135360699424,45.84452657444232],[7.8231153,45.844532362845854],[7.823095239300577,45.84452657444232],[7.823086929886806,45.8445126],[7.823095239300577,45.844498625557684],[7.8231153,45.84449283715415],[7.823135360699424,45.844498625557684],[7.823143670113195,45.8445126]]]}},{"type":"Feature","id":"pylon-alagna-monterosa-ski-82","properties":{"kind":"pylon","name":"Lift tower","height":13},"geometry":{"type":"Polygon","coordinates":[[[7.8243770702932665,45.8448657],[7.8243687608267525,45.84487967444232],[7.8243487,45.84488546284585],[7.824328639173247,45.84487967444232],[7.824320329706733,45.8448657],[7.824328639173247,45.84485172555768],[7.8243487,45.84484593715415],[7.8243687608267525,45.84485172555768],[7.8243770702932665,45.8448657]]]}},{"type":"Feature","id":"pylon-alagna-monterosa-ski-83","properties":{"kind":"pylon","name":"Lift tower","height":13},"geometry":{"type":"Polygon","coordinates":[[[7.827008670677389,45.8456189],[7.827000361098369,45.845632874442316],[7.8269803,45.84563866284585],[7.826960238901631,45.845632874442316],[7.82695192932261,45.8456189],[7.826960238901631,45.84560492555768],[7.8269803,45.845599137154146],[7.827000361098369,45.84560492555768],[7.827008670677389,45.8456189]]]}},{"type":"Feature","id":"pylon-alagna-monterosa-ski-84","properties":{"kind":"pylon","name":"Lift tower","height":13},"geometry":{"type":"Polygon","coordinates":[[[7.826326770577838,45.8454237],[7.8263184610279755,45.845437674442316],[7.8262984,45.84544346284585],[7.826278338972024,45.845437674442316],[7.826270029422162,45.8454237],[7.826278338972024,45.84540972555768],[7.8262984,45.845403937154146],[7.8263184610279755,45.84540972555768],[7.826326770577838,45.8454237]]]}},{"type":"Feature","id":"pylon-alagna-monterosa-ski-85","properties":{"kind":"pylon","name":"Lift tower","height":13},"geometry":{"type":"Polygon","coordinates":[[[7.82912867098681,45.8462256],[7.8291203613171625,45.846239574442315],[7.8291003,45.84624536284585],[7.829080238682838,45.846239574442315],[7.829071929013191,45.8462256],[7.829080238682838,45.84621162555768],[7.8291003,45.846205837154145],[7.8291203613171625,45.84621162555768],[7.82912867098681,45.8462256]]]}},{"type":"Feature","id":"pylon-alagna-monterosa-ski-86","properties":{"kind":"pylon","name":"Lift tower","height":13},"geometry":{"type":"Polygon","coordinates":[[[7.830592471200508,45.8466446],[7.83058416146827,45.846658574442316],[7.8305641,45.84666436284585],[7.83054403853173,45.846658574442316],[7.830535728799492,45.8466446],[7.83054403853173,45.84663062555768],[7.8305641,45.846624837154145],[7.83058416146827,45.84663062555768],[7.830592471200508,45.8466446]]]}},{"type":"Feature","id":"pylon-alagna-monterosa-ski-87","properties":{"kind":"pylon","name":"Lift tower","height":13},"geometry":{"type":"Polygon","coordinates":[[[7.831954271399318,45.8470344],[7.83194596160885,45.847048374442316],[7.8319259,45.84705416284585],[7.83190583839115,45.847048374442316],[7.831897528600682,45.8470344],[7.83190583839115,45.84702042555768],[7.8319259,45.847014637154146],[7.83194596160885,45.84702042555768],[7.831954271399318,45.8470344]]]}},{"type":"Feature","id":"pylon-alagna-monterosa-ski-88","properties":{"kind":"pylon","name":"Lift tower","height":13},"geometry":{"type":"Polygon","coordinates":[[[7.833282371593185,45.8474145],[7.833274061745934,45.84742847444232],[7.833254,45.84743426284585],[7.833233938254066,45.84742847444232],[7.833225628406815,45.8474145],[7.833233938254066,45.84740052555768],[7.833254,45.84739473715415],[7.833274061745934,45.84740052555768],[7.833282371593185,45.8474145]]]}},{"type":"Feature","id":"pylon-alagna-monterosa-ski-89","properties":{"kind":"pylon","name":"Lift tower","height":13},"geometry":{"type":"Polygon","coordinates":[[[7.834186071725134,45.8476732],[7.8341777618392365,45.84768717444232],[7.8341577,45.847692962845855],[7.834137638160763,45.84768717444232],[7.834129328274865,45.8476732],[7.834137638160763,45.847659225557685],[7.8341577,45.84765343715415],[7.8341777618392365,45.847659225557685],[7.834186071725134,45.8476732]]]}},{"type":"Feature","id":"pylon-alagna-monterosa-ski-90","properties":{"kind":"pylon","name":"Lift tower","height":13},"geometry":{"type":"Polygon","coordinates":[[[7.835619371934361,45.8480834],[7.835611061987182,45.84809737444232],[7.835591,45.84810316284585],[7.835570938012818,45.84809737444232],[7.835562628065639,45.8480834],[7.835570938012818,45.84806942555768],[7.835591,45.84806363715415],[7.835611061987182,45.84806942555768],[7.835619371934361,45.8480834]]]}},{"type":"Feature","id":"pylon-alagna-monterosa-ski-91","properties":{"kind":"pylon","name":"Lift tower","height":13},"geometry":{"type":"Polygon","coordinates":[[[7.836838972112375,45.8484324],[7.836830662113057,45.84844637444232],[7.8368106,45.84845216284585],[7.836790537886943,45.84844637444232],[7.836782227887625,45.8484324],[7.836790537886943,45.84841842555768],[7.8368106,45.84841263715415],[7.836830662113057,45.84841842555768],[7.836838972112375,45.8484324]]]}},{"type":"Feature","id":"pylon-alagna-monterosa-ski-92","properties":{"kind":"pylon","name":"Lift tower","height":13},"geometry":{"type":"Polygon","coordinates":[[[7.838020072284832,45.8487705],[7.838011762235002,45.84878447444232],[7.8379917,45.84879026284585],[7.837971637764998,45.84878447444232],[7.837963327715168,45.8487705],[7.837971637764998,45.84875652555768],[7.8379917,45.84875073715415],[7.838011762235002,45.84875652555768],[7.838020072284832,45.8487705]]]}},{"type":"Feature","id":"pylon-alagna-monterosa-ski-93","properties":{"kind":"pylon","name":"Lift tower","height":13},"geometry":{"type":"Polygon","coordinates":[[[7.801957375789585,45.8556402],[7.801949064713237,45.85565417444232],[7.801929,45.855659962845856],[7.801908935286764,45.85565417444232],[7.801900624210416,45.8556402],[7.801908935286764,45.855626225557685],[7.801929,45.85562043715415],[7.801949064713237,45.855626225557685],[7.801957375789585,45.8556402]]]}},{"type":"Feature","id":"pylon-alagna-monterosa-ski-94","properties":{"kind":"pylon","name":"Lift tower","height":13},"geometry":{"type":"Polygon","coordinates":[[[7.801114776104579,45.8562575],[7.801106464935971,45.856271474442316],[7.8010864,45.85627726284585],[7.801066335064029,45.856271474442316],[7.801058023895421,45.8562575],[7.801066335064029,45.85624352555768],[7.8010864,45.856237737154146],[7.801106464935971,45.85624352555768],[7.801114776104579,45.8562575]]]}},{"type":"Feature","id":"pylon-alagna-monterosa-ski-95","properties":{"kind":"pylon","name":"Lift tower","height":13},"geometry":{"type":"Polygon","coordinates":[[[7.80058927630104,45.8566425],[7.80058096507489,45.85665647444232],[7.8005609,45.85666226284585],[7.800540834925109,45.85665647444232],[7.800532523698959,45.8566425],[7.800540834925109,45.85662852555768],[7.8005609,45.85662273715415],[7.80058096507489,45.85662852555768],[7.80058927630104,45.8566425]]]}},{"type":"Feature","id":"pylon-alagna-monterosa-ski-96","properties":{"kind":"pylon","name":"Lift tower","height":13},"geometry":{"type":"Polygon","coordinates":[[[7.845793475404902,45.8548863],[7.845785164441225,45.854900274442315],[7.8457651,45.85490606284585],[7.8457450355587754,45.854900274442315],[7.845736724595099,45.8548863],[7.8457450355587754,45.85487232555768],[7.8457651,45.854866537154145],[7.845785164441225,45.85487232555768],[7.845793475404902,45.8548863]]]}},{"type":"Feature","id":"pylon-alagna-monterosa-ski-97","properties":{"kind":"pylon","name":"Lift tower","height":13},"geometry":{"type":"Polygon","coordinates":[[[7.846177175158455,45.8544033],[7.846168864266961,45.85441727444232],[7.8461488,45.854423062845854],[7.846128735733039,45.85441727444232],[7.846120424841545,45.8544033],[7.846128735733039,45.85438932555768],[7.8461488,45.85438353715415],[7.846168864266961,45.85438932555768],[7.846177175158455,45.8544033]]]}},{"type":"Feature","id":"pylon-alagna-monterosa-ski-98","properties":{"kind":"pylon","name":"Lift tower","height":13},"geometry":{"type":"Polygon","coordinates":[[[7.846592974904871,45.8539063],[7.84658466408765,45.853920274442316],[7.8465646,45.85392606284585],[7.84654453591235,45.853920274442316],[7.846536225095129,45.8539063],[7.84654453591235,45.85389232555768],[7.8465646,45.853886537154146],[7.84658466408765,45.85389232555768],[7.846592974904871,45.8539063]]]}},{"type":"Feature","id":"pylon-alagna-monterosa-ski-99","properties":{"kind":"pylon","name":"Lift tower","height":13},"geometry":{"type":"Polygon","coordinates":[[[7.846891874703541,45.8535117],[7.846883563945288,45.85352567444232],[7.8468635,45.85353146284585],[7.846843436054713,45.85352567444232],[7.84683512529646,45.8535117],[7.846843436054713,45.85349772555768],[7.8468635,45.853491937154146],[7.846883563945288,45.85349772555768],[7.846891874703541,45.8535117]]]}},{"type":"Feature","id":"pylon-alagna-monterosa-ski-100","properties":{"kind":"pylon","name":"Lift tower","height":13},"geometry":{"type":"Polygon","coordinates":[[[7.868070387297177,45.8781788],[7.868062072850333,45.87819277444232],[7.868042,45.87819856284585],[7.868021927149667,45.87819277444232],[7.868013612702823,45.8781788],[7.868021927149667,45.87816482555768],[7.868042,45.87815903715415],[7.868062072850333,45.87816482555768],[7.868070387297177,45.8781788]]]}},{"type":"Feature","id":"pylon-alagna-monterosa-ski-101","properties":{"kind":"pylon","name":"Lift tower","height":13},"geometry":{"type":"Polygon","coordinates":[[[7.8684819872220775,45.8780318],[7.86847367279723,45.87804577444232],[7.8684536,45.878051562845855],[7.868433527202769,45.87804577444232],[7.868425212777922,45.8780318],[7.868433527202769,45.878017825557684],[7.8684536,45.87801203715415],[7.86847367279723,45.878017825557684],[7.8684819872220775,45.8780318]]]}},{"type":"Feature","id":"pylon-alagna-monterosa-ski-102","properties":{"kind":"pylon","name":"Lift tower","height":13},"geometry":{"type":"Polygon","coordinates":[[[7.86985778697155,45.8775414],[7.86984947262008,45.877555374442316],[7.8698294,45.87756116284585],[7.869809327379921,45.877555374442316],[7.869801013028451,45.8775414],[7.869809327379921,45.87752742555768],[7.8698294,45.877521637154146],[7.86984947262008,45.87752742555768],[7.86985778697155,45.8775414]]]}},{"type":"Feature","id":"pylon-alagna-monterosa-ski-103","properties":{"kind":"pylon","name":"Lift tower","height":13},"geometry":{"type":"Polygon","coordinates":[[[7.870944986773593,45.8771539],[7.870936672480104,45.87716787444232],[7.8709166,45.877173662845856],[7.870896527519896,45.87716787444232],[7.870888213226407,45.8771539],[7.870896527519896,45.877139925557685],[7.8709166,45.87713413715415],[7.870936672480104,45.877139925557685],[7.870944986773593,45.8771539]]]}},{"type":"Feature","id":"pylon-alagna-monterosa-ski-104","properties":{"kind":"pylon","name":"Lift tower","height":13},"geometry":{"type":"Polygon","coordinates":[[[7.872304286526038,45.8766693],[7.872295972305056,45.87668327444232],[7.8722759,45.876689062845855],[7.872255827694944,45.87668327444232],[7.872247513473962,45.8766693],[7.872255827694944,45.876655325557685],[7.8722759,45.87664953715415],[7.872295972305056,45.876655325557685],[7.872304286526038,45.8766693]]]}},{"type":"Feature","id":"pylon-alagna-monterosa-ski-105","properties":{"kind":"pylon","name":"Lift tower","height":13},"geometry":{"type":"Polygon","coordinates":[[[7.873869886240996,45.8761113],[7.873861572103501,45.876125274442316],[7.8738415,45.87613106284585],[7.873821427896499,45.876125274442316],[7.873813113759004,45.8761113],[7.873821427896499,45.87609732555768],[7.8738415,45.876091537154146],[7.873861572103501,45.87609732555768],[7.873869886240996,45.8761113]]]}},{"type":"Feature","id":"pylon-alagna-monterosa-ski-106","properties":{"kind":"pylon","name":"Lift tower","height":13},"geometry":{"type":"Polygon","coordinates":[[[7.874785086074367,45.8757851],[7.874776771985676,45.87579907444232],[7.8747567,45.875804862845854],[7.874736628014324,45.87579907444232],[7.874728313925632,45.8757851],[7.874736628014324,45.875771125557684],[7.8747567,45.87576533715415],[7.874776771985676,45.875771125557684],[7.874785086074367,45.8757851]]]}},{"type":"Feature","id":"pylon-alagna-monterosa-ski-107","properties":{"kind":"pylon","name":"Lift tower","height":13},"geometry":{"type":"Polygon","coordinates":[[[7.876056985842768,45.8753317],[7.876048671821911,45.875345674442315],[7.8760286,45.87535146284585],[7.8760085281780885,45.875345674442315],[7.876000214157232,45.8753317],[7.8760085281780885,45.87531772555768],[7.8760286,45.875311937154144],[7.876048671821911,45.87531772555768],[7.876056985842768,45.8753317]]]}},{"type":"Feature","id":"pylon-alagna-monterosa-ski-108","properties":{"kind":"pylon","name":"Lift tower","height":13},"geometry":{"type":"Polygon","coordinates":[[[7.877888785509222,45.8746787],[7.877880471586058,45.874692674442315],[7.8778604,45.87469846284585],[7.877840328413942,45.874692674442315],[7.877832014490779,45.8746787],[7.877840328413942,45.87466472555768],[7.8778604,45.874658937154145],[7.877880471586058,45.87466472555768],[7.877888785509222,45.8746787]]]}},{"type":"Feature","id":"pylon-alagna-monterosa-ski-109","properties":{"kind":"pylon","name":"Lift tower","height":13},"geometry":{"type":"Polygon","coordinates":[[[7.879270885257562,45.874186],[7.879262571408108,45.87419997444232],[7.8792425,45.874205762845854],[7.879222428591892,45.87419997444232],[7.879214114742438,45.874186],[7.879222428591892,45.874172025557684],[7.8792425,45.87416623715415],[7.879262571408108,45.874172025557684],[7.879270885257562,45.874186]]]}},{"type":"Feature","id":"pylon-alagna-monterosa-ski-110","properties":{"kind":"pylon","name":"Lift tower","height":13},"geometry":{"type":"Polygon","coordinates":[[[7.880907984959482,45.8736024],[7.880899671197334,45.87361637444232],[7.8808796,45.873622162845855],[7.880859528802667,45.87361637444232],[7.8808512150405186,45.8736024],[7.880859528802667,45.873588425557685],[7.8808796,45.87358263715415],[7.880899671197334,45.873588425557685],[7.880907984959482,45.8736024]]]}},{"type":"Feature","id":"pylon-alagna-monterosa-ski-111","properties":{"kind":"pylon","name":"Lift tower","height":13},"geometry":{"type":"Polygon","coordinates":[[[7.882225784719584,45.8731327],[7.882217471027699,45.87314667444232],[7.8821974,45.87315246284585],[7.8821773289723005,45.87314667444232],[7.882169015280416,45.8731327],[7.8821773289723005,45.87311872555768],[7.8821974,45.87311293715415],[7.882217471027699,45.87311872555768],[7.882225784719584,45.8731327]]]}},{"type":"Feature","id":"pylon-alagna-monterosa-ski-112","properties":{"kind":"pylon","name":"Lift tower","height":13},"geometry":{"type":"Polygon","coordinates":[[[7.8836643844576795,45.8726199],[7.883656070842505,45.872633874442315],[7.883636,45.87263966284585],[7.883615929157495,45.872633874442315],[7.883607615542321,45.8726199],[7.883615929157495,45.87260592555768],[7.883636,45.872600137154144],[7.883656070842505,45.87260592555768],[7.8836643844576795,45.8726199]]]}},{"type":"Feature","id":"pylon-alagna-monterosa-ski-113","properties":{"kind":"pylon","name":"Lift tower","height":13},"geometry":{"type":"Polygon","coordinates":[[[7.88475518425906,45.872231],[7.8847468707020605,45.87224497444232],[7.8847268,45.87225076284585],[7.88470672929794,45.87224497444232],[7.8846984157409405,45.872231],[7.88470672929794,45.87221702555768],[7.8847268,45.87221123715415],[7.8847468707020605,45.87221702555768],[7.88475518425906,45.872231]]]}},{"type":"Feature","id":"pylon-alagna-monterosa-ski-114","properties":{"kind":"pylon","name":"Lift tower","height":13},"geometry":{"type":"Polygon","coordinates":[[[7.8857398840798005,45.87188],[7.885731570575304,45.871893974442315],[7.8857115,45.87189976284585],[7.885691429424696,45.871893974442315],[7.8856831159202,45.87188],[7.885691429424696,45.87186602555768],[7.8857115,45.871860237154145],[7.885731570575304,45.87186602555768],[7.8857398840798005,45.87188]]]}},{"type":"Feature","id":"pylon-alagna-monterosa-ski-115","properties":{"kind":"pylon","name":"Lift tower","height":13},"geometry":{"type":"Polygon","coordinates":[[[7.905394080909852,45.865672],[7.9053857683338125,45.86568597444232],[7.9053657,45.865691762845856],[7.905345631666187,45.86568597444232],[7.9053373190901475,45.865672],[7.905345631666187,45.865658025557686],[7.9053657,45.86565223715415],[7.9053857683338125,45.865658025557686],[7.905394080909852,45.865672]]]}},{"type":"Feature","id":"pylon-alagna-monterosa-ski-116","properties":{"kind":"pylon","name":"Lift tower","height":13},"geometry":{"type":"Polygon","coordinates":[[[7.905226281163134,45.8661681],[7.90521796851291,45.86618207444232],[7.9051979,45.866187862845855],[7.90517783148709,45.86618207444232],[7.905169518836866,45.8661681],[7.90517783148709,45.866154125557685],[7.9051979,45.86614833715415],[7.90521796851291,45.866154125557685],[7.905226281163134,45.8661681]]]}},{"type":"Feature","id":"pylon-alagna-monterosa-ski-117","properties":{"kind":"pylon","name":"Lift tower","height":13},"geometry":{"type":"Polygon","coordinates":[[[7.904794081815386,45.8674456],[7.904785768974122,45.86745957444232],[7.9047657,45.867465362845856],[7.904745631025877,45.86745957444232],[7.904737318184613,45.8674456],[7.904745631025877,45.867431625557685],[7.9047657,45.86742583715415],[7.904785768974122,45.867431625557685],[7.904794081815386,45.8674456]]]}},{"type":"Feature","id":"pylon-alagna-monterosa-ski-118","properties":{"kind":"pylon","name":"Lift tower","height":13},"geometry":{"type":"Polygon","coordinates":[[[7.904431482362701,45.8685175],[7.904423169361132,45.86853147444232],[7.9044031,45.868537262845855],[7.904383030638868,45.86853147444232],[7.904374717637299,45.8685175],[7.904383030638868,45.868503525557685],[7.9044031,45.86849773715415],[7.904423169361132,45.868503525557685],[7.904431482362701,45.8685175]]]}},{"type":"Feature","id":"pylon-alagna-monterosa-ski-119","properties":{"kind":"pylon","name":"Lift tower","height":13},"geometry":{"type":"Polygon","coordinates":[[[7.904204982704565,45.869187],[7.904196669602866,45.869200974442315],[7.9041766,45.86920676284585],[7.904156530397135,45.869200974442315],[7.904148217295436,45.869187],[7.904156530397135,45.86917302555768],[7.9041766,45.869167237154144],[7.904196669602866,45.86917302555768],[7.904204982704565,45.869187]]]}},{"type":"Feature","id":"pylon-alagna-monterosa-ski-120","properties":{"kind":"pylon","name":"Lift tower","height":13},"geometry":{"type":"Polygon","coordinates":[[[7.904034382962029,45.8696912],[7.904026069784921,45.869705174442316],[7.904006,45.86971096284585],[7.903985930215079,45.869705174442316],[7.90397761703797,45.8696912],[7.903985930215079,45.86967722555768],[7.904006,45.869671437154146],[7.904026069784921,45.86967722555768],[7.904034382962029,45.8696912]]]}},{"type":"Feature","id":"pylon-alagna-monterosa-ski-121","properties":{"kind":"pylon","name":"Lift tower","height":13},"geometry":{"type":"Polygon","coordinates":[[[7.90377248335733,45.8704653],[7.9037641700644405,45.87047927444232],[7.9037441,45.87048506284585],[7.903724029935559,45.87047927444232],[7.90371571664267,45.8704653],[7.903724029935559,45.87045132555768],[7.9037441,45.87044553715415],[7.9037641700644405,45.87045132555768],[7.90377248335733,45.8704653]]]}},{"type":"Feature","id":"pylon-alagna-monterosa-ski-122","properties":{"kind":"pylon","name":"Lift tower","height":13},"geometry":{"type":"Polygon","coordinates":[[[7.903510883752136,45.8712384],[7.903502570343611,45.87125237444232],[7.9034825,45.871258162845855],[7.903462429656389,45.87125237444232],[7.903454116247864,45.8712384],[7.903462429656389,45.871224425557685],[7.9034825,45.87121863715415],[7.903502570343611,45.871224425557685],[7.903510883752136,45.8712384]]]}},{"type":"Feature","id":"pylon-alagna-monterosa-ski-123","properties":{"kind":"pylon","name":"Lift tower","height":13},"geometry":{"type":"Polygon","coordinates":[[[7.903477183802949,45.8713379],[7.903468870379541,45.87135187444232],[7.9034488,45.87135766284585],[7.903428729620458,45.87135187444232],[7.90342041619705,45.8713379],[7.903428729620458,45.87132392555768],[7.9034488,45.87131813715415],[7.903468870379541,45.87132392555768],[7.903477183802949,45.8713379]]]}},{"type":"Feature","id":"pylon-alagna-monterosa-ski-124","properties":{"kind":"pylon","name":"Lift tower","height":13},"geometry":{"type":"Polygon","coordinates":[[[7.903114284350785,45.8724106],[7.903105970766919,45.87242457444232],[7.9030859,45.872430362845854],[7.90306582923308,45.87242457444232],[7.903057515649214,45.8724106],[7.90306582923308,45.872396625557684],[7.9030859,45.87239083715415],[7.903105970766919,45.872396625557684],[7.903114284350785,45.8724106]]]}},{"type":"Feature","id":"pylon-alagna-monterosa-ski-125","properties":{"kind":"pylon","name":"Lift tower","height":13},"geometry":{"type":"Polygon","coordinates":[[[7.902837184769023,45.8732295],[7.902828871062659,45.87324347444232],[7.9028088,45.87324926284585],[7.902788728937341,45.87324347444232],[7.902780415230977,45.8732295],[7.902788728937341,45.87321552555768],[7.9028088,45.87320973715415],[7.902828871062659,45.87321552555768],[7.902837184769023,45.8732295]]]}},{"type":"Feature","id":"pylon-alagna-monterosa-ski-126","properties":{"kind":"pylon","name":"Lift tower","height":13},"geometry":{"type":"Polygon","coordinates":[[[7.902717384949879,45.8735836],[7.902709071190543,45.87359757444232],[7.902689,45.873603362845856],[7.902668928809456,45.87359757444232],[7.90266061505012,45.8735836],[7.902668928809456,45.873569625557685],[7.902689,45.87356383715415],[7.902709071190543,45.873569625557685],[7.902717384949879,45.8735836]]]}},{"type":"Feature","id":"pylon-alagna-monterosa-ski-127","properties":{"kind":"pylon","name":"Lift tower","height":13},"geometry":{"type":"Polygon","coordinates":[[[7.9026159851030044,45.8738834],[7.90260767129882,45.873897374442315],[7.9025876,45.87390316284585],[7.902567528701181,45.873897374442315],[7.902559214896996,45.8738834],[7.902567528701181,45.87386942555768],[7.9025876,45.873863637154145],[7.90260767129882,45.87386942555768],[7.9026159851030044,45.8738834]]]}},{"type":"Feature","id":"pylon-alagna-monterosa-ski-128","properties":{"kind":"pylon","name":"Lift tower","height":13},"geometry":{"type":"Polygon","coordinates":[[[7.867502486513574,45.8766449],[7.867494172296242,45.87665887444232],[7.8674741,45.876664662845855],[7.867454027703758,45.87665887444232],[7.8674457134864255,45.8766449],[7.867454027703758,45.876630925557684],[7.8674741,45.87662513715415],[7.867494172296242,45.876630925557684],[7.867502486513574,45.8766449]]]}},{"type":"Feature","id":"pylon-alagna-monterosa-ski-129","properties":{"kind":"pylon","name":"Lift tower","height":13},"geometry":{"type":"Polygon","coordinates":[[[7.845235675847297,45.8557533],[7.845227364754045,45.85576727444232],[7.8452073,45.855773062845856],[7.845187235245955,45.85576727444232],[7.8451789241527035,45.8557533],[7.845187235245955,45.855739325557686],[7.8452073,45.85573353715415],[7.845227364754045,45.855739325557686],[7.845235675847297,45.8557533]]]}},{"type":"Feature","id":"pylon-alagna-monterosa-ski-130","properties":{"kind":"pylon","name":"Lift tower","height":13},"geometry":{"type":"Polygon","coordinates":[[[7.845181575823008,45.8557057],[7.845173264736871,45.85571967444232],[7.8451532,45.855725462845854],[7.84513313526313,45.85571967444232],[7.845124824176993,45.8557057],[7.84513313526313,45.85569172555768],[7.8451532,45.85568593715415],[7.845173264736871,45.85569172555768],[7.845181575823008,45.8557057]]]}},{"type":"Feature","id":"pylon-alagna-monterosa-ski-131","properties":{"kind":"pylon","name":"Lift tower","height":13},"geometry":{"type":"Polygon","coordinates":[[[7.8476275742413515,45.8526058],[7.847619263618471,45.85261977444232],[7.8475992,45.85262556284585],[7.84757913638153,45.85261977444232],[7.847570825758649,45.8526058],[7.84757913638153,45.85259182555768],[7.8475992,45.85258603715415],[7.847619263618471,45.85259182555768],[7.8476275742413515,45.8526058]]]}},{"type":"Feature","id":"pylon-alagna-monterosa-ski-132","properties":{"kind":"pylon","name":"Lift tower","height":13},"geometry":{"type":"Polygon","coordinates":[[[7.814145271644852,45.8475158],[7.814136961782469,45.847529774442314],[7.8141169,45.84753556284585],[7.814096838217531,45.847529774442314],[7.814088528355148,45.8475158],[7.814096838217531,45.84750182555768],[7.8141169,45.847496037154144],[7.814136961782469,45.84750182555768],[7.814145271644852,45.8475158]]]}},{"type":"Feature","id":"pylon-alagna-monterosa-ski-133","properties":{"kind":"pylon","name":"Lift tower","height":13},"geometry":{"type":"Polygon","coordinates":[[[7.809440278007874,45.859987],[7.809431966281804,45.860000974442315],[7.8094119,45.86000676284585],[7.809391833718196,45.860000974442315],[7.8093835219921255,45.859987],[7.809391833718196,45.85997302555768],[7.8094119,45.859967237154144],[7.809431966281804,45.85997302555768],[7.809440278007874,45.859987]]]}},{"type":"Feature","id":"pylon-alagna-monterosa-ski-134","properties":{"kind":"pylon","name":"Lift tower","height":13},"geometry":{"type":"Polygon","coordinates":[[[7.812577378451511,45.8608562],[7.812569066595503,45.86087017444232],[7.812549,45.86087596284585],[7.812528933404496,45.86087017444232],[7.812520621548488,45.8608562],[7.812528933404496,45.86084222555768],[7.812549,45.86083643715415],[7.812569066595503,45.86084222555768],[7.812577378451511,45.8608562]]]}},{"type":"Feature","id":"pylon-alagna-monterosa-ski-135","properties":{"kind":"pylon","name":"Lift tower","height":13},"geometry":{"type":"Polygon","coordinates":[[[7.811258178264958,45.8604907],[7.81124986646359,45.86050467444232],[7.8112298,45.86051046284585],[7.811209733536409,45.86050467444232],[7.811201421735041,45.8604907],[7.811209733536409,45.86047672555768],[7.8112298,45.86047093715415],[7.81124986646359,45.86047672555768],[7.811258178264958,45.8604907]]]}},{"type":"Feature","id":"pylon-alagna-monterosa-ski-136","properties":{"kind":"pylon","name":"Lift tower","height":13},"geometry":{"type":"Polygon","coordinates":[[[7.810937078219533,45.8604017],[7.81092876643147,45.860415674442315],[7.8109087,45.86042146284585],[7.8108886335685295,45.860415674442315],[7.810880321780466,45.8604017],[7.8108886335685295,45.86038772555768],[7.8109087,45.860381937154145],[7.81092876643147,45.86038772555768],[7.810937078219533,45.8604017]]]}},{"type":"Feature","id":"marker-alagna-monterosa-ski-summit","properties":{"kind":"marker","markerType":"summit","name":"Upper mountain · 3275 m","height":26},"geometry":{"type":"Polygon","coordinates":[[[7.896090324553195,45.879],[7.896073074098544,45.879036960984244],[7.896027911821947,45.879059804128765],[7.895972088178055,45.879059804128765],[7.895926925901458,45.879036960984244],[7.8959096754468066,45.879],[7.895926925901458,45.87896303901575],[7.895972088178055,45.87894019587123],[7.896027911821947,45.87894019587123],[7.896073074098544,45.87896303901575],[7.896090324553195,45.879]]]}},{"type":"Feature","id":"marker-alagna-monterosa-ski-base","properties":{"kind":"marker","markerType":"base","name":"Base · 1212 m","height":18},"geometry":{"type":"Polygon","coordinates":[[[7.900090318051527,45.875],[7.9000730688385845,45.87503696098425],[7.900027909812821,45.87505980412877],[7.8999720901871795,45.87505980412877],[7.899926931161416,45.87503696098425],[7.899909681948474,45.875],[7.899926931161416,45.87496303901575],[7.8999720901871795,45.87494019587123],[7.900027909812821,45.87494019587123],[7.9000730688385845,45.87496303901575],[7.900090318051527,45.875]]]}}]}