{"type":"FeatureCollection","features":[{"type":"Feature","id":25492348,"properties":{"kind":"lift","name":"Kasererwiese","subtype":"platter","status":"active"},"geometry":{"type":"LineString","coordinates":[[11.4131987,47.2294667],[11.4131377,47.2291295],[11.4130034,47.2283877],[11.4129273,47.2279671]]}},{"type":"Feature","id":25919968,"properties":{"kind":"run","name":"Mapped ski run","subtype":"advanced","pisteType":"nordic","featured":false},"geometry":{"type":"LineString","coordinates":[[11.4782053,47.2411576],[11.4785595,47.2412703],[11.4791993,47.241319],[11.4798314,47.2414032],[11.4803942,47.2415238],[11.4808222,47.2416754],[11.481341,47.2418072],[11.4819884,47.2419928],[11.4825673,47.2421701],[11.4830973,47.2422312],[11.483727,47.2422366],[11.4839207,47.2423422],[11.4843105,47.2425477],[11.4846615,47.2427316],[11.4850746,47.2428201],[11.4855597,47.2428738],[11.4858371,47.2429179],[11.4859705,47.2429707]]}},{"type":"Feature","id":46421460,"properties":{"kind":"run","name":"Mapped ski run","subtype":"unknown","pisteType":"sled","featured":false},"geometry":{"type":"LineString","coordinates":[[11.4712374,47.2280322],[11.4714017,47.2283635],[11.471689,47.2285446],[11.4724784,47.2287397],[11.4728138,47.2287488],[11.4729533,47.2288527],[11.4729388,47.22913],[11.472972,47.2292789],[11.4735836,47.229696],[11.4740467,47.2297929],[11.4743967,47.2299116],[11.4747865,47.2301595],[11.4748898,47.230216],[11.4753123,47.2303207],[11.475437,47.2303243],[11.4757201,47.2302321],[11.4758402,47.2302729],[11.475898,47.2303749],[11.4760085,47.2308605],[11.4762765,47.2311048],[11.4765796,47.2312332],[11.476585,47.2313079],[11.4763972,47.2313789],[11.4761491,47.2313771],[11.4758286,47.231266],[11.4756516,47.2311649],[11.4755376,47.2311521],[11.4753636,47.2312659],[11.4751798,47.2313241],[11.4742032,47.2313953],[11.4737847,47.231388],[11.473377,47.231521],[11.4730981,47.2315519],[11.4724517,47.2315064],[11.4720963,47.2314936],[11.4716899,47.2315146],[11.4712889,47.2315856],[11.4711696,47.2315692],[11.4710261,47.2314955],[11.4709053,47.2314863],[11.4707644,47.2315362],[11.470499,47.2316995],[11.470381,47.2317195],[11.4698473,47.2316576],[11.4697453,47.231612],[11.4695844,47.2314044],[11.4690292,47.2311476],[11.4681414,47.2309377],[11.4680435,47.2309336],[11.4679483,47.2309208],[11.4677981,47.2308799],[11.4675134,47.2308538],[11.4674688,47.2308421],[11.4674242,47.2308282],[11.4673888,47.2308122],[11.4673016,47.2307338],[11.4672286,47.2306845],[11.4671721,47.2306692],[11.4671178,47.230659],[11.4670446,47.2306508],[11.4667012,47.2306863],[11.4666399,47.2306956],[11.4665778,47.2307235],[11.4665166,47.2307583],[11.4664298,47.230813],[11.4663722,47.2308532],[11.466249,47.2309767],[11.4661521,47.2310739],[11.4661173,47.2310964],[11.4660635,47.231125],[11.4660179,47.2311454],[11.4659445,47.2311619],[11.4658949,47.2311618],[11.4658445,47.231151],[11.4658035,47.2311275],[11.4657688,47.231083],[11.465739,47.231007],[11.4657096,47.2309009],[11.4656675,47.2308399],[11.4656299,47.2308007],[11.4655622,47.2307728],[11.4655117,47.2307642],[11.4654556,47.2307669],[11.4654002,47.2307952],[11.4653411,47.2308371],[11.4651614,47.2309837],[11.465089,47.231062],[11.4650208,47.2311956],[11.4649751,47.2312812],[11.4649261,47.2313485],[11.4648718,47.231419],[11.4648128,47.2314955],[11.4647511,47.2315355],[11.4646827,47.2315679],[11.4646391,47.2315838],[11.4645942,47.2315947],[11.4645097,47.2316029],[11.4644292,47.2315993],[11.4643434,47.2315747],[11.4641181,47.23147],[11.4640027,47.2314381],[11.4639142,47.231429],[11.4638519,47.2314324],[11.4638005,47.2314476],[11.4637342,47.2314886],[11.4636325,47.2315694],[11.4635923,47.2315956],[11.4635347,47.2316157],[11.4634837,47.2316284],[11.4634073,47.231623],[11.4633161,47.2316002],[11.4628816,47.2314809],[11.4626115,47.2313472],[11.4625209,47.2313302],[11.4624444,47.2313278],[11.4623631,47.2313337],[11.4622972,47.2313517],[11.4621896,47.2313935],[11.4621332,47.2314709],[11.4620642,47.2316663],[11.4620241,47.2318736],[11.4620058,47.2319472],[11.4619736,47.2319881],[11.4619227,47.2320373],[11.4618516,47.2320728],[11.4617805,47.2321083],[11.4616705,47.2321229],[11.4615244,47.2321165],[11.4607592,47.2320797],[11.4606115,47.2320702],[11.4605011,47.2320646],[11.4604126,47.232051],[11.4602865,47.2320109],[11.4599982,47.2318679],[11.4597072,47.2317459]]}},{"type":"Feature","id":145920932,"properties":{"kind":"lift","name":"Heiligwasserlift","subtype":"t-bar","status":"active"},"geometry":{"type":"LineString","coordinates":[[11.4266114,47.2217558],[11.4272642,47.2210537],[11.4278507,47.2203859],[11.42845,47.219696],[11.4290554,47.2190053],[11.4293503,47.2186597]]}},{"type":"Feature","id":150719973,"properties":{"kind":"run","name":"Gleinserweg","subtype":"unknown","pisteType":"sled","featured":false},"geometry":{"type":"LineString","coordinates":[[11.4091378,47.1809473],[11.4090913,47.1809658],[11.4090755,47.1809767],[11.4090584,47.1809872],[11.4090444,47.1810023],[11.4090292,47.1810182],[11.409005,47.1810458],[11.4089522,47.1811074],[11.4088534,47.1812337],[11.4087473,47.1813625],[11.408643,47.1814868],[11.408574,47.1815617],[11.408541,47.1815999],[11.4085044,47.1816373],[11.4084361,47.1816977],[11.4083453,47.1817681],[11.408249,47.1818369],[11.4081802,47.1818923],[11.4081439,47.1819217],[11.4081139,47.1819511],[11.408084,47.1819801],[11.4080579,47.182009],[11.408024,47.182052],[11.4079963,47.18209],[11.4079389,47.182159],[11.4079084,47.1821892],[11.4078742,47.1822195]]}},{"type":"Feature","id":150719974,"properties":{"kind":"run","name":"Gleinserweg","subtype":"unknown","pisteType":"sled","featured":false},"geometry":{"type":"LineString","coordinates":[[11.4078742,47.1822195],[11.4078283,47.1822565],[11.4077879,47.1822834],[11.4077586,47.1823008],[11.4077268,47.1823157],[11.4076214,47.1823656],[11.4075264,47.1824025],[11.4074057,47.1824518],[11.4072825,47.1824914],[11.4071699,47.1825186],[11.4071155,47.1825338],[11.4070889,47.1825415],[11.4070666,47.1825546],[11.4070517,47.1825664],[11.4070417,47.182583],[11.4070356,47.1826021],[11.4070333,47.1826179],[11.4070355,47.1826365],[11.4070414,47.1826525],[11.4070883,47.1827303],[11.4072,47.1828905],[11.4072684,47.1829986],[11.4073565,47.1831226],[11.4074178,47.1832089],[11.4074861,47.183323]]}},{"type":"Feature","id":150719976,"properties":{"kind":"run","name":"Mapped ski run","subtype":"unknown","pisteType":"sled","featured":false},"geometry":{"type":"LineString","coordinates":[[11.4035763,47.1734486],[11.403527,47.1736108],[11.403362,47.173747],[11.4032225,47.1739002],[11.403201,47.1739731],[11.403319,47.1739366],[11.4035658,47.1738272],[11.4038126,47.173747],[11.404113,47.1737762],[11.404395,47.173893],[11.404562,47.174007],[11.4046844,47.1744454],[11.4048201,47.1745837],[11.4050191,47.1746729],[11.4051186,47.1746852],[11.4054487,47.1746544],[11.4063044,47.1745403],[11.4070271,47.174347],[11.4072668,47.1743162],[11.4080081,47.1743019],[11.4088199,47.1740737],[11.409277,47.173902],[11.409833,47.173785],[11.410403,47.1736337],[11.4106712,47.1735024],[11.4108078,47.1733605],[11.4109151,47.1733605],[11.4109258,47.1734407],[11.41084,47.1736084],[11.4100246,47.1742867],[11.4099709,47.1743961],[11.4100526,47.1744177],[11.4103708,47.1743612],[11.4105121,47.1742907],[11.4106793,47.1742342],[11.4108429,47.1741788],[11.411154,47.1741132],[11.4114222,47.1740476],[11.4115972,47.1739157],[11.4119858,47.1739186],[11.412177,47.173857],[11.4126639,47.173623],[11.4131681,47.1734845],[11.4133934,47.1734334],[11.4135787,47.1732974],[11.4136616,47.1732693],[11.4137324,47.1732886],[11.4136563,47.1735756],[11.4135704,47.1737653],[11.4133882,47.1738903],[11.4131307,47.1741703],[11.4130059,47.1744666],[11.4129094,47.1746051],[11.4126252,47.1748972],[11.4124707,47.1751539],[11.4121789,47.1754981],[11.4118871,47.1759415],[11.4115944,47.1763115],[11.4115722,47.1764377],[11.4116551,47.1766875],[11.4116496,47.1767495],[11.4115031,47.1769204],[11.4113595,47.1771438],[11.4110666,47.1774969],[11.4109182,47.1776325],[11.4108722,47.1776823],[11.4108567,47.1777262],[11.4108367,47.1777801],[11.4108106,47.1779066],[11.4108029,47.1779946],[11.4107762,47.1781],[11.4107532,47.1781621],[11.4107144,47.1782359],[11.4106691,47.1783038],[11.4106091,47.1783752],[11.4105348,47.1784474],[11.4104664,47.1785038],[11.4101314,47.1786186],[11.4098417,47.1788519],[11.4096271,47.1789686],[11.4093911,47.1790999],[11.4093666,47.1791587],[11.4093658,47.1792229],[11.4094247,47.1793828],[11.4094392,47.1794451],[11.4094486,47.1795833],[11.409447,47.1796131],[11.4094419,47.1796375],[11.4094231,47.1796596],[11.4094011,47.1796808],[11.4093363,47.1797186],[11.4092843,47.1797428],[11.4092374,47.1797586],[11.4091992,47.1797802],[11.4091708,47.1798083],[11.4091469,47.1798434],[11.4090086,47.1800149],[11.4089943,47.1800329],[11.4089826,47.1800552],[11.408977,47.1800841],[11.4089744,47.1801102],[11.4089767,47.1801302],[11.4089834,47.1801489],[11.4089986,47.1801675],[11.4090194,47.1801758],[11.4090406,47.1801795],[11.4090653,47.1801774],[11.4090909,47.1801726],[11.4091121,47.1801612],[11.4091642,47.1801089],[11.4091847,47.1800877],[11.4092123,47.1800672],[11.409238,47.1800502],[11.4092623,47.180038],[11.4092871,47.1800294],[11.4093165,47.180021],[11.4093583,47.180015],[11.4093655,47.1800486],[11.4093676,47.1800704],[11.4093642,47.1800853],[11.4093546,47.1801021],[11.409339,47.1801344],[11.4093224,47.1801745],[11.409307,47.1802493],[11.4093143,47.180372],[11.4093112,47.1805033],[11.4093057,47.1805573],[11.4092915,47.1805856],[11.409272,47.1806113],[11.4092491,47.1806335],[11.4092092,47.1806603],[11.4090152,47.1807402],[11.4089001,47.180798],[11.4088556,47.1808405],[11.4086939,47.1809981],[11.4087921,47.1809697],[11.4088766,47.1809449],[11.4089675,47.1809164],[11.408993,47.1809137],[11.4090206,47.1809141],[11.4090466,47.1809169],[11.409077,47.1809272],[11.4091378,47.1809473]]}},{"type":"Feature","id":151338704,"properties":{"kind":"run","name":"Mapped ski run","subtype":"unknown","pisteType":"sled","featured":false},"geometry":{"type":"LineString","coordinates":[[11.4860394,47.2067905],[11.4856167,47.206868],[11.485449,47.2068792],[11.4849799,47.2069388],[11.4848267,47.2069338],[11.4846489,47.2069471],[11.4843057,47.2069109],[11.4840005,47.2068899],[11.483546,47.2068643],[11.4830533,47.206783],[11.4827187,47.2067492],[11.4823994,47.2067423],[11.4822035,47.2067953],[11.4818893,47.2069247],[11.4816863,47.2069859],[11.4815031,47.206996],[11.4812024,47.2070056],[11.4807355,47.2069467],[11.4805627,47.2069065],[11.4799742,47.2066964],[11.4798522,47.2066344],[11.4796922,47.2064615],[11.4793451,47.2062369],[11.4780592,47.205604],[11.4778318,47.2054881],[11.4774184,47.2051772],[11.4771634,47.2050105],[11.4769788,47.2049322],[11.4764955,47.2048527],[11.4762043,47.2047434],[11.4758642,47.2043887]]}},{"type":"Feature","id":151338734,"properties":{"kind":"run","name":"Mapped ski run","subtype":"unknown","pisteType":"sled","featured":false},"geometry":{"type":"LineString","coordinates":[[11.4651512,47.197112],[11.4648216,47.1968381],[11.4645952,47.1966877],[11.4644493,47.1965236],[11.4642984,47.1962706],[11.463911,47.1959322],[11.4631262,47.1956519],[11.4623615,47.1953443],[11.4608824,47.194852],[11.4599618,47.1946708],[11.4588852,47.1943324],[11.4586035,47.1941956],[11.4580048,47.194076],[11.4570087,47.1938811],[11.4561887,47.1935461],[11.4559573,47.1932966],[11.4558365,47.1931974],[11.4548555,47.1929205],[11.4543273,47.1925479],[11.4542066,47.1924693],[11.4540305,47.1924282],[11.4536532,47.1922436],[11.4530294,47.1920419],[11.4524709,47.1918334],[11.4520634,47.1916898],[11.4516157,47.1915873],[11.4513239,47.1915155],[11.450841,47.1911975],[11.4505047,47.1910077],[11.450031,47.1908454],[11.4490399,47.1904693],[11.4486224,47.1902164],[11.4479533,47.1899941],[11.4475842,47.1899045],[11.4468027,47.189473],[11.4466352,47.189324],[11.4454689,47.1887967],[11.4450002,47.1887052],[11.4443562,47.1886505],[11.4438097,47.1884734],[11.4435265,47.1883241],[11.4427283,47.1880035],[11.4423087,47.1878334],[11.441929,47.1877108],[11.4417888,47.1876607],[11.4416843,47.1876187],[11.4415541,47.1875558],[11.4413666,47.1874436],[11.4412013,47.1873513],[11.4411111,47.187301],[11.4410244,47.1872564],[11.4409803,47.1872372],[11.4409303,47.1872189],[11.4408479,47.1871949],[11.4407674,47.1871793],[11.4406785,47.1871636],[11.4404386,47.1871335]]}},{"type":"Feature","id":153957236,"properties":{"kind":"run","name":"Scheipenhof","subtype":"unknown","pisteType":"sled","featured":false},"geometry":{"type":"LineString","coordinates":[[11.3677064,47.2124463],[11.3676974,47.2125378],[11.3678699,47.2126606],[11.3680212,47.212861],[11.368335,47.2131425],[11.3685947,47.2133765],[11.3686719,47.2135267],[11.3689544,47.213731],[11.3691672,47.2137741],[11.369426,47.2137705],[11.3695641,47.2137909],[11.3697743,47.2139377],[11.3698943,47.2140805],[11.3701225,47.2143701],[11.3703027,47.2145699],[11.3706441,47.2148438],[11.3707185,47.2148911],[11.3710472,47.2150471],[11.371993,47.2153595],[11.372148,47.2154516],[11.3722061,47.2154754],[11.3724403,47.2155733],[11.3728396,47.2157137],[11.372971,47.2157],[11.3730865,47.2156366],[11.3732903,47.2156293],[11.373399,47.2157079],[11.3734584,47.2158457],[11.3733607,47.2160379],[11.3732215,47.2161043],[11.3728126,47.2161035],[11.3726094,47.216134],[11.3724207,47.2162072],[11.3723197,47.2163125]]}},{"type":"Feature","id":293962729,"properties":{"kind":"lift","name":"Übungslift Patscherkofel","subtype":"t-bar","status":"active"},"geometry":{"type":"LineString","coordinates":[[11.4485076,47.2073308],[11.4485732,47.2073389],[11.4491843,47.2074148],[11.4507939,47.2076149],[11.4511355,47.2076573],[11.451281,47.2076754]]}},{"type":"Feature","id":300095059,"properties":{"kind":"run","name":"Olympiaabfahrt","subtype":"intermediate","pisteType":"downhill","featured":false},"geometry":{"type":"LineString","coordinates":[[11.4517528,47.2100577],[11.4519341,47.2100478],[11.4519811,47.2101726],[11.4521874,47.2102531],[11.4523901,47.2103332],[11.4526088,47.2106618],[11.4528796,47.2114189],[11.4529318,47.2117311],[11.4529787,47.2119524],[11.452977,47.2121052],[11.452886,47.2121945],[11.4527119,47.2122029],[11.4519377,47.212064],[11.4511764,47.2119746],[11.4505241,47.2118166],[11.4495683,47.2115232],[11.4488946,47.2114034],[11.4473428,47.2114773],[11.4461349,47.2116194],[11.4453003,47.2119667],[11.4444779,47.2120666]]}},{"type":"Feature","id":300095067,"properties":{"kind":"run","name":"Familienabfahrt","subtype":"intermediate","pisteType":"downhill","featured":false},"geometry":{"type":"LineString","coordinates":[[11.4266593,47.2141917],[11.4267967,47.2146395],[11.4270754,47.2147917],[11.4274493,47.2147773],[11.4278208,47.2147091],[11.4281309,47.2147363],[11.4282574,47.2147982],[11.4283454,47.2151588],[11.4283852,47.2155007],[11.4287528,47.2158003],[11.4288376,47.2160617],[11.4289481,47.2163512],[11.4291719,47.2167797],[11.4295424,47.2172985],[11.4300628,47.2178232],[11.430527,47.2182277],[11.4305147,47.2183282],[11.4300889,47.2182422],[11.4297452,47.218138],[11.429368,47.2180857],[11.4289888,47.218095],[11.4285855,47.2183738]]}},{"type":"Feature","id":300095073,"properties":{"kind":"run","name":"Familienabfahrt","subtype":"intermediate","pisteType":"downhill","featured":false},"geometry":{"type":"LineString","coordinates":[[11.4423747,47.2104383],[11.4421517,47.2105002],[11.4419294,47.2105669],[11.4416638,47.210581],[11.4414153,47.2105454],[11.4409115,47.2104304],[11.4401984,47.2101248],[11.4398326,47.2099346],[11.439345,47.2096718],[11.4389976,47.2094848],[11.4388707,47.2093623],[11.4388295,47.2091698],[11.4388405,47.2087775],[11.4388173,47.208588],[11.4387023,47.2083881],[11.438247,47.2079847],[11.4378562,47.2075763],[11.437643,47.2073954],[11.4371332,47.2073136],[11.4368251,47.2073496],[11.4362664,47.2074857],[11.4357212,47.2077084],[11.4354615,47.2078947],[11.4353014,47.2083506],[11.4350354,47.2087382],[11.4346936,47.2091073],[11.4345722,47.2093083],[11.4344428,47.2097546],[11.4344182,47.2098742],[11.4343773,47.2099735],[11.4342799,47.2101075],[11.4341374,47.2102378],[11.4338382,47.2105831],[11.4336274,47.2107911],[11.4332016,47.2115046],[11.4331096,47.2118866],[11.4329425,47.2123252]]}},{"type":"Feature","id":300095076,"properties":{"kind":"run","name":"Familienabfahrt","subtype":"easy","pisteType":"downhill","featured":false},"geometry":{"type":"LineString","coordinates":[[11.4517528,47.2100577],[11.4519368,47.2100323],[11.4518281,47.2096861],[11.4515056,47.2093492],[11.4511225,47.2090699],[11.450886,47.2088511],[11.4507438,47.2085799],[11.4505205,47.2083491],[11.4492633,47.2080264],[11.448354,47.2078078],[11.4478345,47.2077464],[11.4472965,47.2077759],[11.4465857,47.2080315],[11.4459084,47.2084253],[11.4456802,47.2087333],[11.4452796,47.2094896],[11.4449923,47.2098366],[11.4445957,47.2100908],[11.444105,47.2102764],[11.4435217,47.2103805],[11.4423747,47.2104383]]}},{"type":"Feature","id":300095078,"properties":{"kind":"run","name":"Kasererwiese","subtype":"easy","pisteType":"downhill","featured":false},"geometry":{"type":"LineString","coordinates":[[11.4129273,47.2279671],[11.4132051,47.2283451],[11.4132151,47.2284226],[11.4133145,47.2291952],[11.4131987,47.2294667]]}},{"type":"Feature","id":300095079,"properties":{"kind":"run","name":"Olympiaabfahrt","subtype":"advanced","pisteType":"downhill","featured":false},"geometry":{"type":"LineString","coordinates":[[11.4329425,47.2123252],[11.4327206,47.2125865],[11.4322221,47.2126893],[11.4315429,47.2125783],[11.430728,47.212462],[11.4297328,47.2124054],[11.4288148,47.2124363],[11.4283503,47.212561],[11.4280316,47.212687],[11.4277378,47.212876],[11.4275664,47.2131435],[11.4274122,47.2137025],[11.426928,47.2139697],[11.4262861,47.2141335],[11.4262203,47.2146822],[11.426505,47.2151036],[11.4270602,47.2155039],[11.4276601,47.2159129],[11.4278439,47.2164866],[11.4277699,47.217054]]}},{"type":"Feature","id":300095083,"properties":{"kind":"run","name":"Rennstrecke","subtype":"intermediate","pisteType":"downhill","featured":false},"geometry":{"type":"LineString","coordinates":[[11.4518281,47.2096861],[11.4514123,47.2094247],[11.4508189,47.2092511],[11.450235,47.2091459],[11.4492991,47.2087593],[11.4483976,47.2084835],[11.447875,47.2084127],[11.4472431,47.2083873],[11.4459084,47.2084253]]}},{"type":"Feature","id":348787642,"properties":{"kind":"lift","name":"Zauberteppich","subtype":"magic_carpet","status":"active"},"geometry":{"type":"LineString","coordinates":[[11.425428,47.2214874],[11.4256928,47.2208505]]}},{"type":"Feature","id":429353696,"properties":{"kind":"lift","name":"Materialseilbahn Boscheben","subtype":"goods","status":"active"},"geometry":{"type":"LineString","coordinates":[[11.4775982,47.2058815],[11.4765854,47.2115799]]}},{"type":"Feature","id":485884144,"properties":{"kind":"lift","name":"Patscherkofelbahn","subtype":"gondola","status":"active"},"geometry":{"type":"LineString","coordinates":[[11.4267503,47.2220722],[11.4270395,47.2218736],[11.4270955,47.2218352],[11.4275866,47.2214981],[11.4292648,47.220234],[11.4318812,47.2184201],[11.4333544,47.2173812],[11.4347528,47.2163982],[11.4371075,47.2147469],[11.4391333,47.2132913],[11.4399843,47.2126924],[11.4414454,47.211663],[11.4414927,47.2116346],[11.4415387,47.2115987],[11.4419406,47.2113127],[11.4423622,47.2112588],[11.4424302,47.2112501],[11.4424943,47.2112419],[11.443848,47.2110688],[11.4451461,47.2109042],[11.4478663,47.210557],[11.449163,47.2103838],[11.451333,47.2101085],[11.4514055,47.2101],[11.4517528,47.2100577]]}},{"type":"Feature","id":561327474,"properties":{"kind":"run","name":"Heiligwasserpiste","subtype":"easy","pisteType":"downhill","featured":false},"geometry":{"type":"LineString","coordinates":[[11.4293503,47.2186597],[11.4291555,47.2186354],[11.4286879,47.2191309],[11.4289808,47.2193755],[11.4290155,47.2196061],[11.4274173,47.2212963],[11.4269024,47.2216775],[11.4266114,47.2217558]]}},{"type":"Feature","id":561327475,"properties":{"kind":"lift","name":"Kinderlift","subtype":"rope_tow","status":"active"},"geometry":{"type":"LineString","coordinates":[[11.4253747,47.2209536],[11.4253339,47.2195208]]}},{"type":"Feature","id":564405629,"properties":{"kind":"run","name":"Mapped ski run","subtype":"advanced","pisteType":"nordic","featured":false},"geometry":{"type":"LineString","coordinates":[[11.4859705,47.2429707],[11.4861846,47.2430632],[11.4870483,47.2430068],[11.4875793,47.2430268],[11.4881748,47.2431306],[11.4885396,47.2432308],[11.4888212,47.2432763],[11.4892074,47.24334],[11.489591,47.2434365],[11.4900711,47.2436113],[11.4908919,47.2438171]]}},{"type":"Feature","id":564405650,"properties":{"kind":"run","name":"Mapped ski run","subtype":"advanced","pisteType":"nordic","featured":false},"geometry":{"type":"LineString","coordinates":[[11.4933032,47.2448223],[11.492984,47.2447603],[11.4927304,47.2446309],[11.4922491,47.2444034],[11.4918789,47.2443051],[11.491659,47.2442523],[11.4914149,47.2442213],[11.490967,47.2442031],[11.4907363,47.2441612],[11.4901972,47.2440174],[11.4897814,47.2439227],[11.4895749,47.2438936],[11.4893952,47.2438936],[11.4892048,47.2438462],[11.4890653,47.243777],[11.4889741,47.2436824],[11.4889634,47.2436059],[11.4889258,47.2435075],[11.4888883,47.2434584],[11.4888051,47.243422],[11.4885825,47.243411],[11.4881667,47.2433619],[11.4877403,47.2433091],[11.4872307,47.2432781],[11.4870939,47.2432745],[11.4867318,47.2433145],[11.4863911,47.2433728],[11.4861605,47.2433728],[11.4857876,47.2433473],[11.4855677,47.2433655],[11.4853263,47.243391],[11.484924,47.2433546],[11.4846182,47.2432526],[11.4845055,47.2432217],[11.4843875,47.2432217],[11.484181,47.24332],[11.4840201,47.2435094],[11.4838296,47.243777],[11.4837599,47.2439136],[11.4837438,47.244032],[11.4837545,47.2441321],[11.4838243,47.244194],[11.483894,47.2442432]]}},{"type":"Feature","id":564405652,"properties":{"kind":"run","name":"Mapped ski run","subtype":"advanced","pisteType":"nordic","featured":false},"geometry":{"type":"LineString","coordinates":[[11.4831144,47.2441149],[11.4829928,47.2441358],[11.4828157,47.2441704],[11.4827111,47.2441849],[11.4823785,47.2441977],[11.4821425,47.2441886],[11.4820567,47.2441649],[11.4818716,47.2441048],[11.4814103,47.243981],[11.481142,47.2438717],[11.4807826,47.2436933],[11.4806002,47.2435949],[11.4803696,47.2435185],[11.4802408,47.2434165],[11.4801121,47.2432344],[11.4800584,47.2430195],[11.4800262,47.2428047],[11.4799887,47.2426371],[11.4799243,47.2424733],[11.4798009,47.2423276],[11.47964,47.2422365],[11.4793664,47.2421418],[11.4789587,47.2420472],[11.4786476,47.241978],[11.478374,47.2418906],[11.4781997,47.2418323],[11.4781058,47.2417594],[11.4780763,47.2416611],[11.478087,47.241499],[11.4781138,47.2413479],[11.4782053,47.2411576]]}},{"type":"Feature","id":564405653,"properties":{"kind":"run","name":"Mapped ski run","subtype":"advanced","pisteType":"nordic","featured":false},"geometry":{"type":"LineString","coordinates":[[11.4832508,47.2440943],[11.4831144,47.2441149]]}},{"type":"Feature","id":564405659,"properties":{"kind":"run","name":"Mapped ski run","subtype":"advanced","pisteType":"nordic","featured":false},"geometry":{"type":"LineString","coordinates":[[11.4836848,47.2443743],[11.4836445,47.2442614],[11.4835399,47.2441685],[11.483438,47.2441412],[11.483328,47.2441157],[11.4832508,47.2440943]]}},{"type":"Feature","id":564405660,"properties":{"kind":"run","name":"Mapped ski run","subtype":"easy","pisteType":"nordic","featured":false},"geometry":{"type":"LineString","coordinates":[[11.4898992,47.2461952],[11.4896393,47.2461114],[11.4893067,47.2459766],[11.4891726,47.245882],[11.4888507,47.2457217],[11.4884055,47.2454996],[11.4881211,47.2453393],[11.4877135,47.245201],[11.4874291,47.2451391],[11.487059,47.2451245],[11.4866888,47.2451136],[11.4861149,47.2450808],[11.4857286,47.2450735],[11.4854014,47.2450589],[11.485042,47.2450189],[11.4848167,47.2449861],[11.484645,47.2450116],[11.4844733,47.2451318],[11.4843231,47.2453503],[11.4842427,47.2454304],[11.4841247,47.2454413],[11.4839423,47.245434],[11.483776,47.2453758],[11.4835882,47.2452811],[11.4834809,47.2451573],[11.4834434,47.245048],[11.4834541,47.2449096],[11.483556,47.2447166],[11.4836258,47.2445345],[11.4836848,47.2443743],[11.4837652,47.2442723],[11.483894,47.2442432],[11.484071,47.2443197],[11.4843231,47.2444617],[11.4844304,47.2445455],[11.4845055,47.2447348],[11.4846021,47.2448368],[11.4847255,47.2449133],[11.4848649,47.244946],[11.4850849,47.2449533],[11.485616,47.2449715],[11.4862865,47.2449715],[11.4866888,47.2450043],[11.4873058,47.2450771],[11.4878905,47.2451973],[11.4883733,47.2452956],[11.488781,47.2453466],[11.489253,47.2455251],[11.4896768,47.2456889],[11.4899343,47.2457545],[11.4904761,47.2458455],[11.4908731,47.2458601],[11.4917099,47.2458892],[11.4922786,47.2459621],[11.492579,47.2459766],[11.4928043,47.2460568],[11.4929438,47.2461587],[11.4930618,47.2463335],[11.4931261,47.2464173],[11.4933246,47.2465484],[11.4935982,47.2467232],[11.4938986,47.2468761],[11.4941776,47.2469781],[11.4945745,47.2471383],[11.4948964,47.2472803],[11.4952236,47.2474588],[11.4953524,47.2475389],[11.495465,47.2476408],[11.4954919,47.2477974],[11.4954811,47.247903],[11.4954221,47.2479923]]}},{"type":"Feature","id":576104697,"properties":{"kind":"run","name":"Weltcuphang","subtype":"advanced","pisteType":"downhill","featured":false},"geometry":{"type":"LineString","coordinates":[[11.4521874,47.2102531],[11.4513517,47.2103919],[11.4507813,47.2104388],[11.4504266,47.2105326],[11.4500056,47.2106684],[11.4496051,47.2108302],[11.4492295,47.2111636],[11.4488946,47.2114034]]}},{"type":"Feature","id":576104699,"properties":{"kind":"run","name":"Patscher Alm Kurve","subtype":"intermediate","pisteType":"downhill","featured":false},"geometry":{"type":"LineString","coordinates":[[11.4423747,47.2104383],[11.4420521,47.2102008],[11.441843,47.2101623],[11.441565,47.2101046],[11.4413849,47.2100111],[11.4411589,47.2097684],[11.4408764,47.2094644],[11.440682,47.2093938],[11.4403847,47.2094164],[11.4398326,47.2099346]]}},{"type":"Feature","id":576104700,"properties":{"kind":"run","name":"Ochsenschlagzufahrt","subtype":"intermediate","pisteType":"downhill","featured":false},"geometry":{"type":"LineString","coordinates":[[11.4398326,47.2099346],[11.4394227,47.2102519],[11.4391057,47.2106378],[11.43847,47.2116354],[11.4384934,47.2124778]]}},{"type":"Feature","id":576104701,"properties":{"kind":"run","name":"Ochsenschlagzufahrt","subtype":"intermediate","pisteType":"downhill","featured":false},"geometry":{"type":"LineString","coordinates":[[11.4405898,47.2118987],[11.4400094,47.211688],[11.439532,47.2114073],[11.4392459,47.2110648],[11.4391057,47.2106378]]}},{"type":"Feature","id":837787702,"properties":{"kind":"run","name":"Mapped ski run","subtype":"easy","pisteType":"downhill","featured":false},"geometry":{"type":"LineString","coordinates":[[11.4260967,47.2215593],[11.4265327,47.2218813],[11.426657,47.2219896],[11.4267503,47.2220722]]}},{"type":"Feature","id":893446837,"properties":{"kind":"run","name":"Mapped ski run","subtype":"intermediate","pisteType":"downhill","featured":false},"geometry":{"type":"LineString","coordinates":[[11.4444779,47.2120666],[11.44403,47.2118521],[11.4435371,47.2116891],[11.4432125,47.2113974],[11.4431133,47.2111277],[11.442859,47.2108825],[11.4423747,47.2104383]]}},{"type":"Feature","id":893446838,"properties":{"kind":"run","name":"Familienabfahrt","subtype":"easy","pisteType":"downhill","featured":false},"geometry":{"type":"LineString","coordinates":[[11.4452796,47.2094896],[11.4441922,47.2095622],[11.443366,47.2097422],[11.4423747,47.2104383]]}},{"type":"Feature","id":893446839,"properties":{"kind":"run","name":"Familienabfahrt","subtype":"easy","pisteType":"downhill","featured":false},"geometry":{"type":"LineString","coordinates":[[11.4423747,47.2104383],[11.441823,47.2111421],[11.4419406,47.2113127]]}},{"type":"Feature","id":893446840,"properties":{"kind":"run","name":"Heiligwasserpiste","subtype":"intermediate","pisteType":"downhill","featured":false},"geometry":{"type":"LineString","coordinates":[[11.4285855,47.2183738],[11.4285423,47.2189013],[11.4286879,47.2191309],[11.42754,47.2203234],[11.4267004,47.2211591],[11.4260967,47.2215593]]}},{"type":"Feature","id":893446841,"properties":{"kind":"run","name":"Heiligwasserpiste","subtype":"intermediate","pisteType":"downhill","featured":false},"geometry":{"type":"LineString","coordinates":[[11.4285855,47.2183738],[11.4277601,47.2194675],[11.4261462,47.220971],[11.4260967,47.2215593]]}},{"type":"Feature","id":893446842,"properties":{"kind":"run","name":"Mapped ski run","subtype":"intermediate","pisteType":"downhill","featured":false},"geometry":{"type":"LineString","coordinates":[[11.4295424,47.2172985],[11.4291305,47.2174551],[11.4288036,47.2176859],[11.428643,47.2180546],[11.4285855,47.2183738]]}},{"type":"Feature","id":893446843,"properties":{"kind":"run","name":"Mapped ski run","subtype":"advanced","pisteType":"downhill","featured":false},"geometry":{"type":"LineString","coordinates":[[11.4277699,47.217054],[11.4282167,47.2177061],[11.4285855,47.2183738]]}},{"type":"Feature","id":893446844,"properties":{"kind":"run","name":"Olympiaabfahrt","subtype":"advanced","pisteType":"downhill","featured":false},"geometry":{"type":"LineString","coordinates":[[11.4444779,47.2120666],[11.4436294,47.2120295],[11.4424092,47.2119017],[11.4405898,47.2118987],[11.439529,47.2121037],[11.4384934,47.2124778],[11.437692,47.2127479],[11.4368906,47.213018],[11.4363596,47.213291],[11.4354939,47.2134241],[11.4350159,47.2133143],[11.4343533,47.2127673],[11.4337552,47.2124942],[11.4329425,47.2123252]]}},{"type":"Feature","id":893446845,"properties":{"kind":"run","name":"Bäreneck","subtype":"intermediate","pisteType":"downhill","featured":false},"geometry":{"type":"LineString","coordinates":[[11.4284431,47.2119719],[11.4282393,47.2120738],[11.4280316,47.212687],[11.4273671,47.2128398],[11.4268173,47.2128359],[11.4262807,47.2137073]]}},{"type":"Feature","id":901381512,"properties":{"kind":"run","name":"Olympiaabfahrt Zielschuss","subtype":"easy","pisteType":"downhill","featured":false},"geometry":{"type":"LineString","coordinates":[[11.4277699,47.217054],[11.427437,47.2172259],[11.4264276,47.2177472],[11.4261953,47.2179722],[11.4260601,47.2182013],[11.4260091,47.2187837],[11.4257029,47.2194527],[11.4255998,47.2199077],[11.4256179,47.2201416],[11.4257338,47.2204619],[11.4258429,47.2208341],[11.4260967,47.2215593]]}},{"type":"Feature","id":901381521,"properties":{"kind":"run","name":"Ski touring route","subtype":"unknown","pisteType":"skitour","featured":false},"geometry":{"type":"LineString","coordinates":[[11.4251067,47.2214764],[11.425273,47.220907],[11.4252891,47.2195201],[11.4254245,47.2190271],[11.4256525,47.2187775],[11.425859,47.2180524],[11.4261702,47.2176462],[11.4272994,47.2170723],[11.4276937,47.2164638],[11.4279592,47.2163527],[11.4276105,47.2155492],[11.4269319,47.2153297],[11.4263901,47.2148378],[11.4260575,47.214835],[11.4260334,47.2142684],[11.4261836,47.2138877],[11.4260012,47.2133884],[11.4259851,47.2120839],[11.4264491,47.2116977],[11.4280209,47.2114462],[11.42867,47.2117086],[11.4293298,47.2116375],[11.4305878,47.2118106],[11.4314675,47.2116539],[11.4338869,47.2122515],[11.4354828,47.2132427],[11.4360943,47.2131771],[11.4365959,47.2134422],[11.438444,47.2126742],[11.4403108,47.2120675],[11.4424056,47.2119564],[11.4449966,47.2122588],[11.447019,47.2116503],[11.4484727,47.2115337],[11.4502913,47.2118106],[11.451568,47.212175],[11.4527978,47.2123253],[11.4531586,47.212298],[11.4532283,47.2121805],[11.4529145,47.2118188],[11.4525162,47.210588],[11.4523386,47.2102929]]}},{"type":"Feature","id":1112213818,"properties":{"kind":"run","name":"Mapped ski run","subtype":"easy","pisteType":"downhill","featured":false},"geometry":{"type":"LineString","coordinates":[[11.4511355,47.2076573],[11.4508194,47.2077818],[11.4505494,47.2078573],[11.4503934,47.2079009],[11.4495601,47.2078605],[11.4487706,47.207669],[11.4485693,47.2075397],[11.4485337,47.2074354],[11.4485498,47.2073816],[11.4485732,47.2073389]]}},{"type":"Feature","id":1112213819,"properties":{"kind":"run","name":"Familienabfahrt","subtype":"easy","pisteType":"downhill","featured":false},"geometry":{"type":"LineString","coordinates":[[11.4518281,47.2096861],[11.4514911,47.2090632]]}},{"type":"Feature","id":1228948246,"properties":{"kind":"run","name":"Mapped ski run","subtype":"intermediate","pisteType":"downhill","featured":false},"geometry":{"type":"LineString","coordinates":[[11.4262807,47.2137073],[11.4262861,47.2141335]]}},{"type":"Feature","id":1228948247,"properties":{"kind":"run","name":"Familienabfahrt","subtype":"intermediate","pisteType":"downhill","featured":false},"geometry":{"type":"LineString","coordinates":[[11.4265374,47.2139117],[11.4266593,47.2141917]]}},{"type":"Feature","id":1228948248,"properties":{"kind":"run","name":"Familienabfahrt","subtype":"intermediate","pisteType":"downhill","featured":false},"geometry":{"type":"LineString","coordinates":[[11.4329425,47.2123252],[11.4325617,47.2121541],[11.4318957,47.211983],[11.4308818,47.2119162],[11.4294372,47.2120009],[11.4284431,47.2119719],[11.4282345,47.2117673],[11.4279665,47.2116434],[11.4275619,47.2116379],[11.426996,47.2117231],[11.4265206,47.2118332],[11.4263051,47.2119451],[11.4261894,47.2121247],[11.4261791,47.2131382],[11.4262807,47.2137073],[11.4265374,47.2139117]]}},{"type":"Feature","id":1329068228,"properties":{"kind":"run","name":"Mapped ski run","subtype":"easy","pisteType":"downhill","featured":false},"geometry":{"type":"LineString","coordinates":[[11.4256928,47.2208505],[11.425496,47.220966],[11.4253747,47.2209536]]}},{"type":"Feature","id":1410819609,"properties":{"kind":"run","name":"Mapped ski run","subtype":"unknown","pisteType":"sled","featured":false},"geometry":{"type":"LineString","coordinates":[[11.4597072,47.2317459],[11.4594255,47.2316621],[11.4592351,47.2316248],[11.4591117,47.2316002],[11.4590111,47.2315874],[11.458906,47.2315769],[11.458813,47.2315866],[11.4587456,47.2316126],[11.4586892,47.2316461],[11.4586372,47.2316952],[11.4585085,47.2319121],[11.4583305,47.2321205],[11.4582276,47.2322612],[11.4581863,47.232337],[11.4581591,47.2324259],[11.458151,47.2324989],[11.4581519,47.2325733],[11.4581639,47.2326578],[11.458187,47.2327438],[11.4582062,47.2328304],[11.4582111,47.2328972],[11.4582043,47.2329427],[11.4581946,47.2329882],[11.4581689,47.2330282],[11.4581133,47.2330646],[11.4580634,47.2330888],[11.4580157,47.2331055],[11.4579578,47.2331224],[11.4578669,47.2331195],[11.4577861,47.2330971],[11.4577054,47.2330672],[11.4576256,47.2330186],[11.4575392,47.2329595],[11.4572892,47.2327467],[11.457084,47.2326893],[11.4568372,47.2325555],[11.4563557,47.2324881],[11.4560676,47.2324004],[11.4557201,47.2324089],[11.4554773,47.2323715],[11.4552587,47.232326],[11.4547518,47.2323061],[11.454332,47.2323178],[11.4540965,47.2322849],[11.4540003,47.2322733],[11.4538473,47.2322706],[11.4537186,47.2322828],[11.4535812,47.2323149],[11.4534563,47.232367],[11.4532565,47.2324498],[11.4531626,47.232489],[11.4530325,47.2325327],[11.4529534,47.2325409],[11.4528018,47.2325236],[11.4525953,47.2324963],[11.4524679,47.2324732],[11.4523968,47.2324726],[11.4521554,47.2325373],[11.4518933,47.2326048],[11.4518564,47.2326242],[11.4518279,47.2326466],[11.451815,47.2326825],[11.4518091,47.2328739],[11.4517929,47.2329553],[11.4517685,47.2330153],[11.4517313,47.2330508]]}},{"type":"Feature","id":1410819610,"properties":{"kind":"run","name":"Mapped ski run","subtype":"unknown","pisteType":"sled","featured":false},"geometry":{"type":"LineString","coordinates":[[11.4691383,47.2243492],[11.468892,47.2245662],[11.4687742,47.2246575],[11.4687066,47.2246939],[11.4686452,47.2247131],[11.4685749,47.2247228],[11.4685178,47.2247227],[11.4684512,47.2247161],[11.4683827,47.2246956],[11.4680935,47.2245496],[11.4679464,47.224506],[11.4678518,47.2244861],[11.4677618,47.2244832],[11.4677043,47.224488],[11.4676382,47.2244976],[11.4675587,47.2245263],[11.4673063,47.2246564],[11.4672099,47.224696],[11.4671503,47.2247085],[11.4670872,47.2247131],[11.467032,47.2247111],[11.4669807,47.2247035],[11.4669277,47.2246912],[11.4668782,47.2246716],[11.4668321,47.2246508],[11.4667874,47.2246211],[11.466729,47.2245721],[11.4666497,47.2244957],[11.466612,47.2244634],[11.4665681,47.2244359],[11.4665133,47.2244142],[11.4664594,47.2243996],[11.4663462,47.2243788],[11.4661994,47.2243407],[11.4661401,47.2243335],[11.4661082,47.2243383],[11.4660763,47.224349],[11.4660593,47.2243645],[11.466051,47.2243824],[11.4660536,47.2244004],[11.4660663,47.2244207],[11.4660843,47.2244326],[11.4661132,47.2244468],[11.4661561,47.2244633],[11.4662052,47.2244749],[11.4663332,47.2245053],[11.4663761,47.2245261],[11.4664099,47.2245442],[11.4664322,47.2245606],[11.4664667,47.2246044],[11.4665116,47.2246946],[11.4665378,47.2247922],[11.4665579,47.2248416],[11.4665832,47.224891],[11.4666268,47.2249528],[11.4666538,47.2249879],[11.4666897,47.2250218],[11.4667495,47.225069],[11.4667934,47.2250968],[11.4668426,47.2251222],[11.4668775,47.2251355],[11.4668916,47.225143],[11.4669403,47.2251619],[11.4669855,47.2251857],[11.4670999,47.2251952],[11.4673848,47.2251267],[11.4675699,47.2251582],[11.4677858,47.2254933],[11.4678946,47.2259772],[11.4681162,47.2261159],[11.4686424,47.2262217],[11.4690673,47.2262699],[11.4693439,47.2263497],[11.4697476,47.2264915],[11.4706208,47.2268023],[11.4708755,47.2269035],[11.471007,47.227047],[11.4711979,47.2279526],[11.4712374,47.2280322]]}},{"type":"Feature","id":1410819612,"properties":{"kind":"run","name":"Mapped ski run","subtype":"unknown","pisteType":"sled","featured":false},"geometry":{"type":"LineString","coordinates":[[11.4669925,47.221728],[11.4669534,47.2217619],[11.4670939,47.2218492],[11.4671396,47.2218832],[11.4671972,47.2219172],[11.4672818,47.2219548],[11.4673684,47.2219883],[11.4675011,47.2220429],[11.4676954,47.222103],[11.4678203,47.2221337],[11.4678669,47.2221478],[11.4679075,47.2221658],[11.4683334,47.2224001],[11.4685627,47.2224991],[11.4687066,47.2225616],[11.4688097,47.2226388],[11.4688623,47.2226888],[11.4689287,47.2227738],[11.469007,47.2229105],[11.4690277,47.2229491],[11.4690564,47.2229837],[11.4690982,47.223026],[11.4691459,47.2230614],[11.4691996,47.2230926],[11.4692842,47.2231362],[11.4696002,47.2232988],[11.4697494,47.2233597],[11.4700355,47.2234442],[11.4703148,47.2234982],[11.4705049,47.2236475],[11.470716,47.2237896],[11.470799,47.2238471],[11.4708767,47.2238844],[11.4709883,47.2239293],[11.4711399,47.2239783],[11.4711732,47.2240055],[11.4711994,47.224041],[11.471182,47.2240749],[11.4711614,47.2240943],[11.4711303,47.2241094],[11.4710851,47.224118],[11.4710103,47.2241205],[11.4709215,47.224117],[11.4706811,47.2241293],[11.4703687,47.2241539],[11.4698438,47.2241719],[11.4697646,47.2241673],[11.4696171,47.2241234],[11.4695272,47.2241267],[11.4694109,47.2241419],[11.4693479,47.2241735],[11.4692867,47.2242146],[11.4692448,47.2242468],[11.4691383,47.2243492]]}},{"type":"Feature","id":1410819616,"properties":{"kind":"run","name":"Gipfelroute","subtype":"easy","pisteType":"skitour","featured":false},"geometry":{"type":"LineString","coordinates":[[11.4613266,47.2082449],[11.4613477,47.2083846]]}},{"type":"Feature","id":1412690044,"properties":{"kind":"run","name":"Mapped ski run","subtype":"unknown","pisteType":"sled","featured":false},"geometry":{"type":"LineString","coordinates":[[11.4758642,47.2043887],[11.4749889,47.2039134],[11.4747574,47.2038418],[11.474521,47.2038657],[11.4742644,47.2038247],[11.4738368,47.203541],[11.4738267,47.2034146],[11.4738217,47.2032334],[11.4734908,47.2028559],[11.4730616,47.2026645],[11.471593,47.2020132],[11.4710547,47.2019654],[11.4708183,47.2019654],[11.4703806,47.2017945],[11.4696109,47.2011997],[11.4690645,47.2006519],[11.4688849,47.2003164],[11.4675512,47.1992054],[11.4673481,47.199124],[11.4672637,47.1990467],[11.4672564,47.198932],[11.4671206,47.1985951],[11.466748,47.1982152],[11.4663043,47.1979379],[11.4655661,47.1974568],[11.4651939,47.1971475]]}},{"type":"Feature","id":1412690045,"properties":{"kind":"run","name":"Mapped ski run","subtype":"unknown","pisteType":"sled","featured":false},"geometry":{"type":"LineString","coordinates":[[11.4651939,47.1971475],[11.4651512,47.197112]]}},{"type":"Feature","id":1463906324,"properties":{"kind":"run","name":"Vitalweg","subtype":"easy","pisteType":"skitour","featured":false},"geometry":{"type":"LineString","coordinates":[[11.4521762,47.2102288],[11.4523386,47.2102929]]}},{"type":"Feature","id":1465513717,"properties":{"kind":"run","name":"Scheipenhof","subtype":"unknown","pisteType":"sled","featured":false},"geometry":{"type":"LineString","coordinates":[[11.3673033,47.2104992],[11.36757,47.2105893],[11.3678089,47.2107376],[11.3679445,47.210923],[11.3681513,47.2110682],[11.3682755,47.2112274],[11.3684445,47.2113121],[11.3686033,47.2112916],[11.3689469,47.2111837],[11.3692642,47.2111424],[11.3699547,47.2111503],[11.3703531,47.2111386],[11.3706286,47.2111858],[11.3707053,47.2112329],[11.3707054,47.2113131],[11.370613,47.2113484],[11.3702371,47.2113381],[11.3700046,47.2114136],[11.3694132,47.2117579],[11.369369,47.2118288],[11.3693084,47.2120147],[11.3693278,47.2122489],[11.3692559,47.2123625],[11.3690538,47.2124508],[11.3685136,47.2125249],[11.3682251,47.2125116],[11.3679046,47.2124238],[11.3677768,47.2124153],[11.3677064,47.2124463]]}},{"type":"Feature","id":1466961146,"properties":{"kind":"run","name":"Ski touring route","subtype":"unknown","pisteType":"skitour","featured":false},"geometry":{"type":"LineString","coordinates":[[11.4901256,47.2069908],[11.4895861,47.2063735],[11.4884978,47.2055221],[11.4877935,47.2048729],[11.4872838,47.2043992],[11.4873475,47.2040818],[11.4878607,47.2033557],[11.4875168,47.2023981],[11.4881712,47.200747],[11.4894371,47.1978718],[11.4963314,47.1955295],[11.5000547,47.1914122],[11.5037213,47.1877323],[11.5052998,47.1870492],[11.5075719,47.1871887],[11.5084239,47.1874156]]}},{"type":"Feature","id":1466961149,"properties":{"kind":"run","name":"Ski touring route","subtype":"unknown","pisteType":"skitour","featured":false},"geometry":{"type":"LineString","coordinates":[[11.4626666,47.2080616],[11.4637588,47.2080494],[11.4648746,47.2082644],[11.4657758,47.2086069],[11.466441,47.2091317],[11.4674495,47.2095836],[11.4682805,47.2099194]]}},{"type":"Feature","id":1466961150,"properties":{"kind":"run","name":"Ski touring route","subtype":"unknown","pisteType":"skitour","featured":false},"geometry":{"type":"LineString","coordinates":[[11.4682805,47.2099194],[11.4688048,47.2100909],[11.4700587,47.2102733],[11.4710394,47.210259],[11.4719664,47.2102241],[11.4727743,47.2102987],[11.4730989,47.2106334],[11.473727,47.2110918],[11.4738136,47.2111069]]}},{"type":"Feature","id":1466961152,"properties":{"kind":"run","name":"Ski touring route","subtype":"unknown","pisteType":"skitour","featured":false},"geometry":{"type":"LineString","coordinates":[[11.4968526,47.2124807],[11.4976901,47.2123418],[11.4983955,47.2122908],[11.4992941,47.2124566],[11.5000424,47.2126661],[11.5006325,47.212708],[11.5011099,47.212504],[11.5023196,47.2125349],[11.5034917,47.2125422],[11.5056961,47.2126836],[11.5065705,47.2126751],[11.5085392,47.2124674],[11.5098696,47.2124601],[11.5118866,47.2121212],[11.5130078,47.2117787],[11.5141826,47.2118005],[11.5157812,47.2121977],[11.5159434,47.2121836]]}},{"type":"Feature","id":1466961156,"properties":{"kind":"run","name":"Mapped ski run","subtype":"unknown","pisteType":"downhill","featured":false},"geometry":{"type":"LineString","coordinates":[[11.5272948,47.2095913],[11.5224913,47.2088021],[11.5189293,47.2097058],[11.5143481,47.2092248],[11.5085867,47.2071476],[11.5059259,47.2056461],[11.5044024,47.205617],[11.5001431,47.2055368],[11.4993118,47.2054037],[11.4991459,47.2055174],[11.4989358,47.2056006],[11.4988904,47.2056311],[11.498557,47.2058163],[11.4985183,47.2058625],[11.4984891,47.2059141],[11.4984505,47.2059657],[11.4982702,47.206114],[11.4980353,47.2062265],[11.4977927,47.2063347],[11.4976671,47.2063901],[11.4964047,47.2061443]]}}]}