{"type":"FeatureCollection","features":[{"type":"Feature","id":"building-233382672","properties":{"kind":"building","name":"Alpine building","height":7.2},"geometry":{"type":"Polygon","coordinates":[[[13.6159492,47.4600068],[13.6159558,47.4600278],[13.6159907,47.4600227],[13.615984,47.4600018],[13.6159492,47.4600068]]]}},{"type":"Feature","id":"building-233382671","properties":{"kind":"building","name":"Alpine building","height":7.2},"geometry":{"type":"Polygon","coordinates":[[[13.6154992,47.459772],[13.6154876,47.4598002],[13.6155617,47.4598141],[13.6155732,47.4597859],[13.6154992,47.459772]]]}},{"type":"Feature","id":"building-233382674","properties":{"kind":"building","name":"Dachsteinsüdwandhütte","height":7.2},"geometry":{"type":"Polygon","coordinates":[[[13.6151801,47.4596954],[13.6151192,47.4598087],[13.615307,47.4598548],[13.6153246,47.4598222],[13.6154074,47.4598425],[13.6154507,47.4597619],[13.6151801,47.4596954]]]}},{"type":"Feature","id":"pylon-dachstein-ramsau-0","properties":{"kind":"pylon","name":"Lift tower","height":13},"geometry":{"type":"Polygon","coordinates":[[[13.683710025182757,47.450525],[13.683701465324908,47.45053897444232],[13.6836808,47.45054476284585],[13.68366013467509,47.45053897444232],[13.683651574817242,47.450525],[13.68366013467509,47.45051102555768],[13.6836808,47.45050523715415],[13.683701465324908,47.45051102555768],[13.683710025182757,47.450525]]]}},{"type":"Feature","id":"pylon-dachstein-ramsau-1","properties":{"kind":"pylon","name":"Lift tower","height":13},"geometry":{"type":"Polygon","coordinates":[[[13.684072124219687,47.4487918],[13.684063564643916,47.44880577444232],[13.6840429,47.448811562845854],[13.684022235356084,47.44880577444232],[13.684013675780312,47.4487918],[13.684022235356084,47.448777825557684],[13.6840429,47.44877203715415],[13.684063564643916,47.448777825557684],[13.684072124219687,47.4487918]]]}},{"type":"Feature","id":"pylon-dachstein-ramsau-2","properties":{"kind":"pylon","name":"Lift tower","height":13},"geometry":{"type":"Polygon","coordinates":[[[13.684893321995283,47.444788],[13.684884763071025,47.44480197444232],[13.6848641,47.444807762845855],[13.684843436928976,47.44480197444232],[13.684834878004718,47.444788],[13.684843436928976,47.444774025557685],[13.6848641,47.44476823715415],[13.684884763071025,47.444774025557685],[13.684893321995283,47.444788]]]}},{"type":"Feature","id":"pylon-dachstein-ramsau-3","properties":{"kind":"pylon","name":"Lift tower","height":13},"geometry":{"type":"Polygon","coordinates":[[[13.685149021319967,47.4435723],[13.685140462593505,47.44358627444232],[13.6851198,47.44359206284585],[13.685099137406496,47.44358627444232],[13.685090578680034,47.4435723],[13.685099137406496,47.44355832555768],[13.6851198,47.44355253715415],[13.685140462593505,47.44355832555768],[13.685149021319967,47.4435723]]]}},{"type":"Feature","id":"pylon-dachstein-ramsau-4","properties":{"kind":"pylon","name":"Lift tower","height":13},"geometry":{"type":"Polygon","coordinates":[[[13.627779505565503,47.4151885],[13.627770951453416,47.41520247444232],[13.6277503,47.41520826284585],[13.627729648546586,47.41520247444232],[13.627721094434499,47.4151885],[13.627729648546586,47.41517452555768],[13.6277503,47.41516873715415],[13.627770951453416,47.41517452555768],[13.627779505565503,47.4151885]]]}},{"type":"Feature","id":"pylon-dachstein-ramsau-5","properties":{"kind":"pylon","name":"Lift tower","height":13},"geometry":{"type":"Polygon","coordinates":[[[13.62721390572873,47.4154828],[13.627205351568836,47.41549677444232],[13.6271847,47.41550256284585],[13.627164048431165,47.41549677444232],[13.627155494271271,47.4154828],[13.627164048431165,47.41546882555768],[13.6271847,47.41546303715415],[13.627205351568836,47.41546882555768],[13.62721390572873,47.4154828]]]}},{"type":"Feature","id":"pylon-dachstein-ramsau-6","properties":{"kind":"pylon","name":"Lift tower","height":13},"geometry":{"type":"Polygon","coordinates":[[[13.625873706115428,47.41618],[13.625865151842271,47.416193974442315],[13.6258445,47.41619976284585],[13.625823848157728,47.416193974442315],[13.625815293884571,47.41618],[13.625823848157728,47.41616602555768],[13.6258445,47.416160237154145],[13.625865151842271,47.41616602555768],[13.625873706115428,47.41618]]]}},{"type":"Feature","id":"pylon-dachstein-ramsau-7","properties":{"kind":"pylon","name":"Lift tower","height":13},"geometry":{"type":"Polygon","coordinates":[[[13.624299906569592,47.4169988],[13.624291352163413,47.41701277444232],[13.6242707,47.417018562845854],[13.624250047836588,47.41701277444232],[13.624241493430409,47.4169988],[13.624250047836588,47.416984825557684],[13.6242707,47.41697903715415],[13.624291352163413,47.416984825557684],[13.624299906569592,47.4169988]]]}},{"type":"Feature","id":"pylon-dachstein-ramsau-8","properties":{"kind":"pylon","name":"Lift tower","height":13},"geometry":{"type":"Polygon","coordinates":[[[13.623287806861633,47.4175253],[13.623279252369919,47.41753927444232],[13.6232586,47.41754506284585],[13.62323794763008,47.41753927444232],[13.623229393138367,47.4175253],[13.62323794763008,47.41751132555768],[13.6232586,47.41750553715415],[13.623279252369919,47.41751132555768],[13.623287806861633,47.4175253]]]}},{"type":"Feature","id":"pylon-dachstein-ramsau-9","properties":{"kind":"pylon","name":"Lift tower","height":13},"geometry":{"type":"Polygon","coordinates":[[[13.62203150722419,47.4181789],[13.622022952626285,47.41819287444232],[13.6220023,47.41819866284585],[13.621981647373715,47.41819287444232],[13.62197309277581,47.4181789],[13.621981647373715,47.41816492555768],[13.6220023,47.41815913715415],[13.622022952626285,47.41816492555768],[13.62203150722419,47.4181789]]]}},{"type":"Feature","id":"pylon-dachstein-ramsau-10","properties":{"kind":"pylon","name":"Lift tower","height":13},"geometry":{"type":"Polygon","coordinates":[[[13.621196807465049,47.4186131],[13.621188252796598,47.41862707444232],[13.6211676,47.418632862845854],[13.621146947203401,47.41862707444232],[13.62113839253495,47.4186131],[13.621146947203401,47.418599125557684],[13.6211676,47.41859333715415],[13.621188252796598,47.418599125557684],[13.621196807465049,47.4186131]]]}},{"type":"Feature","id":"pylon-dachstein-ramsau-11","properties":{"kind":"pylon","name":"Lift tower","height":13},"geometry":{"type":"Polygon","coordinates":[[[13.62054680765266,47.4189513],[13.620538252929258,47.41896527444232],[13.6205176,47.418971062845856],[13.620496947070741,47.41896527444232],[13.620488392347339,47.4189513],[13.620496947070741,47.418937325557685],[13.6205176,47.41893153715415],[13.620538252929258,47.418937325557685],[13.62054680765266,47.4189513]]]}},{"type":"Feature","id":"pylon-dachstein-ramsau-12","properties":{"kind":"pylon","name":"Lift tower","height":13},"geometry":{"type":"Polygon","coordinates":[[[13.611320727417969,47.454547],[13.611312166905442,47.454560974442316],[13.6112915,47.45456676284585],[13.611270833094558,47.454560974442316],[13.611262272582032,47.454547],[13.611270833094558,47.45453302555768],[13.6112915,47.454527237154146],[13.611312166905442,47.45453302555768],[13.611320727417969,47.454547]]]}},{"type":"Feature","id":"pylon-dachstein-ramsau-13","properties":{"kind":"pylon","name":"Lift tower","height":13},"geometry":{"type":"Polygon","coordinates":[[[13.61233872806795,47.4557164],[13.612330167365048,47.45573037444232],[13.6123095,47.45573616284585],[13.612288832634952,47.45573037444232],[13.61228027193205,47.4557164],[13.612288832634952,47.45570242555768],[13.6123095,47.45569663715415],[13.612330167365048,47.45570242555768],[13.61233872806795,47.4557164]]]}},{"type":"Feature","id":"pylon-dachstein-ramsau-14","properties":{"kind":"pylon","name":"Lift tower","height":13},"geometry":{"type":"Polygon","coordinates":[[[13.622007112291543,47.4273117],[13.621998556209444,47.427325674442315],[13.6219779,47.42733146284585],[13.621957243790554,47.427325674442315],[13.621948687708455,47.4273117],[13.621957243790554,47.42729772555768],[13.6219779,47.427291937154145],[13.621998556209444,47.42729772555768],[13.622007112291543,47.4273117]]]}},{"type":"Feature","id":"pylon-dachstein-ramsau-15","properties":{"kind":"pylon","name":"Lift tower","height":13},"geometry":{"type":"Polygon","coordinates":[[[13.622820512915649,47.4284362],[13.622811956650752,47.42845017444232],[13.6227913,47.42845596284585],[13.622770643349247,47.42845017444232],[13.62276208708435,47.4284362],[13.622770643349247,47.42842222555768],[13.6227913,47.42841643715415],[13.622811956650752,47.42842222555768],[13.622820512915649,47.4284362]]]}},{"type":"Feature","id":"pylon-dachstein-ramsau-16","properties":{"kind":"pylon","name":"Lift tower","height":13},"geometry":{"type":"Polygon","coordinates":[[[13.623605413517867,47.4295212],[13.623596857076587,47.42953517444232],[13.6235762,47.429540962845856],[13.623555542923414,47.42953517444232],[13.623546986482134,47.4295212],[13.623555542923414,47.429507225557686],[13.6235762,47.42950143715415],[13.623596857076587,47.429507225557686],[13.623605413517867,47.4295212]]]}},{"type":"Feature","id":"pylon-dachstein-ramsau-17","properties":{"kind":"pylon","name":"Lift tower","height":13},"geometry":{"type":"Polygon","coordinates":[[[13.624322014067662,47.4305117],[13.62431345746535,47.430525674442315],[13.6242928,47.43053146284585],[13.624272142534648,47.430525674442315],[13.624263585932336,47.4305117],[13.624272142534648,47.43049772555768],[13.6242928,47.430491937154144],[13.62431345746535,47.43049772555768],[13.624322014067662,47.4305117]]]}},{"type":"Feature","id":"pylon-dachstein-ramsau-18","properties":{"kind":"pylon","name":"Lift tower","height":13},"geometry":{"type":"Polygon","coordinates":[[[13.625016414600447,47.4314715],[13.625007857842085,47.43148547444232],[13.6249872,47.43149126284585],[13.624966542157914,47.43148547444232],[13.624957985399552,47.4314715],[13.624966542157914,47.43145752555768],[13.6249872,47.43145173715415],[13.625007857842085,47.43145752555768],[13.625016414600447,47.4314715]]]}},{"type":"Feature","id":"pylon-dachstein-ramsau-19","properties":{"kind":"pylon","name":"Lift tower","height":13},"geometry":{"type":"Polygon","coordinates":[[[13.625977815338164,47.4328004],[13.62596925836373,47.432814374442316],[13.6259486,47.43282016284585],[13.625927941636268,47.432814374442316],[13.625919384661834,47.4328004],[13.625927941636268,47.43278642555768],[13.6259486,47.432780637154146],[13.62596925836373,47.43278642555768],[13.625977815338164,47.4328004]]]}},{"type":"Feature","id":"pylon-dachstein-ramsau-20","properties":{"kind":"pylon","name":"Lift tower","height":13},"geometry":{"type":"Polygon","coordinates":[[[13.64998611476987,47.4317767],[13.649977557961885,47.43179067444232],[13.6499569,47.43179646284585],[13.649936242038114,47.43179067444232],[13.649927685230129,47.4317767],[13.649936242038114,47.43176272555768],[13.6499569,47.43175693715415],[13.649977557961885,47.43176272555768],[13.64998611476987,47.4317767]]]}},{"type":"Feature","id":"pylon-dachstein-ramsau-21","properties":{"kind":"pylon","name":"Lift tower","height":13},"geometry":{"type":"Polygon","coordinates":[[[13.650091714120064,47.4306061],[13.650083157502404,47.43062007444232],[13.6500625,47.43062586284585],[13.650041842497597,47.43062007444232],[13.650033285879937,47.4306061],[13.650041842497597,47.43059212555768],[13.6500625,47.430586337154146],[13.650083157502404,47.43059212555768],[13.650091714120064,47.4306061]]]}},{"type":"Feature","id":"pylon-dachstein-ramsau-22","properties":{"kind":"pylon","name":"Lift tower","height":13},"geometry":{"type":"Polygon","coordinates":[[[13.650235513234682,47.429011],[13.650226956876343,47.42902497444232],[13.6502063,47.429030762845855],[13.650185643123658,47.42902497444232],[13.65017708676532,47.429011],[13.650185643123658,47.428997025557685],[13.6502063,47.42899123715415],[13.650226956876343,47.428997025557685],[13.650235513234682,47.429011]]]}},{"type":"Feature","id":"pylon-dachstein-ramsau-23","properties":{"kind":"pylon","name":"Lift tower","height":13},"geometry":{"type":"Polygon","coordinates":[[[13.650358512478133,47.4276479],[13.650349956341383,47.427661874442315],[13.6503293,47.42766766284585],[13.650308643658615,47.427661874442315],[13.650300087521865,47.4276479],[13.650308643658615,47.42763392555768],[13.6503293,47.427628137154144],[13.650349956341383,47.42763392555768],[13.650358512478133,47.4276479]]]}},{"type":"Feature","id":"pylon-dachstein-ramsau-24","properties":{"kind":"pylon","name":"Lift tower","height":13},"geometry":{"type":"Polygon","coordinates":[[[13.650471311783797,47.4263968],[13.650462755850413,47.42641077444232],[13.6504421,47.42641656284585],[13.650421444149586,47.42641077444232],[13.650412888216202,47.4263968],[13.650421444149586,47.42638282555768],[13.6504421,47.42637703715415],[13.650462755850413,47.42638282555768],[13.650471311783797,47.4263968]]]}},{"type":"Feature","id":"pylon-dachstein-ramsau-25","properties":{"kind":"pylon","name":"Lift tower","height":13},"geometry":{"type":"Polygon","coordinates":[[[13.623444809529957,47.4223351],[13.623436254256706,47.422349074442316],[13.6234156,47.42235486284585],[13.623394945743293,47.422349074442316],[13.623386390470042,47.4223351],[13.623394945743293,47.42232112555768],[13.6234156,47.422315337154146],[13.623436254256706,47.42232112555768],[13.623444809529957,47.4223351]]]}},{"type":"Feature","id":"pylon-dachstein-ramsau-26","properties":{"kind":"pylon","name":"Lift tower","height":13},"geometry":{"type":"Polygon","coordinates":[[[13.623338309514532,47.4223073],[13.6233297542458,47.42232127444232],[13.6233091,47.42232706284585],[13.6232884457542,47.42232127444232],[13.623279890485469,47.4223073],[13.6232884457542,47.42229332555768],[13.6233091,47.42228753715415],[13.6233297542458,47.42229332555768],[13.623338309514532,47.4223073]]]}},{"type":"Feature","id":"pylon-dachstein-ramsau-27","properties":{"kind":"pylon","name":"Lift tower","height":13},"geometry":{"type":"Polygon","coordinates":[[[13.623230209498885,47.4222791],[13.623221654234737,47.422293074442315],[13.623201,47.42229886284585],[13.623180345765263,47.422293074442315],[13.623171790501114,47.4222791],[13.623180345765263,47.42226512555768],[13.623201,47.422259337154145],[13.623221654234737,47.42226512555768],[13.623230209498885,47.4222791]]]}},{"type":"Feature","id":"pylon-dachstein-ramsau-28","properties":{"kind":"pylon","name":"Lift tower","height":13},"geometry":{"type":"Polygon","coordinates":[[[13.62281620943891,47.422171],[13.622807654192327,47.42218497444232],[13.622787,47.42219076284585],[13.622766345807674,47.42218497444232],[13.622757790561092,47.422171],[13.622766345807674,47.42215702555768],[13.622787,47.42215123715415],[13.622807654192327,47.42215702555768],[13.62281620943891,47.422171]]]}},{"type":"Feature","id":"pylon-dachstein-ramsau-29","properties":{"kind":"pylon","name":"Lift tower","height":13},"geometry":{"type":"Polygon","coordinates":[[[13.62192790931024,47.4219391],[13.621919354101346,47.42195307444232],[13.6218987,47.421958862845855],[13.621878045898653,47.42195307444232],[13.621869490689757,47.4219391],[13.621878045898653,47.421925125557685],[13.6218987,47.42191933715415],[13.621919354101346,47.421925125557685],[13.62192790931024,47.4219391]]]}},{"type":"Feature","id":"pylon-dachstein-ramsau-30","properties":{"kind":"pylon","name":"Lift tower","height":13},"geometry":{"type":"Polygon","coordinates":[[[13.620031409035494,47.4214439],[13.62002285390707,47.42145787444232],[13.6200022,47.42146366284585],[13.61998154609293,47.42145787444232],[13.619972990964506,47.4214439],[13.61998154609293,47.42142992555768],[13.6200022,47.42142413715415],[13.62002285390707,47.42142992555768],[13.620031409035494,47.4214439]]]}},{"type":"Feature","id":"pylon-dachstein-ramsau-31","properties":{"kind":"pylon","name":"Lift tower","height":13},"geometry":{"type":"Polygon","coordinates":[[[13.617799208712155,47.4208611],[13.617790653678435,47.42087507444232],[13.61777,47.420880862845856],[13.617749346321565,47.42087507444232],[13.617740791287845,47.4208611],[13.617749346321565,47.420847125557685],[13.61777,47.42084133715415],[13.617790653678435,47.420847125557685],[13.617799208712155,47.4208611]]]}},{"type":"Feature","id":"pylon-dachstein-ramsau-32","properties":{"kind":"pylon","name":"Lift tower","height":13},"geometry":{"type":"Polygon","coordinates":[[[13.615781908419947,47.4203344],[13.615773353471813,47.42034837444232],[13.6157527,47.420354162845854],[13.615732046528187,47.42034837444232],[13.615723491580052,47.4203344],[13.615732046528187,47.420320425557684],[13.6157527,47.42031463715415],[13.615773353471813,47.420320425557684],[13.615781908419947,47.4203344]]]}},{"type":"Feature","id":"pylon-dachstein-ramsau-33","properties":{"kind":"pylon","name":"Lift tower","height":13},"geometry":{"type":"Polygon","coordinates":[[[13.614649008255846,47.4200386],[13.614640453355776,47.420052574442316],[13.6146198,47.42005836284585],[13.614599146644224,47.420052574442316],[13.614590591744154,47.4200386],[13.614599146644224,47.42002462555768],[13.6146198,47.420018837154146],[13.614640453355776,47.42002462555768],[13.614649008255846,47.4200386]]]}},{"type":"Feature","id":"pylon-dachstein-ramsau-34","properties":{"kind":"pylon","name":"Lift tower","height":13},"geometry":{"type":"Polygon","coordinates":[[[13.614006308162756,47.4198708],[13.61399775328995,47.419884774442316],[13.6139771,47.41989056284585],[13.613956446710048,47.419884774442316],[13.613947891837244,47.4198708],[13.613956446710048,47.41985682555768],[13.6139771,47.419851037154146],[13.61399775328995,47.41985682555768],[13.614006308162756,47.4198708]]]}},{"type":"Feature","id":"pylon-dachstein-ramsau-35","properties":{"kind":"pylon","name":"Lift tower","height":13},"geometry":{"type":"Polygon","coordinates":[[[13.655072006741877,47.4173094],[13.655063452285237,47.41732337444232],[13.6550428,47.41732916284585],[13.655022147714764,47.41732337444232],[13.655013593258124,47.4173094],[13.655022147714764,47.41729542555768],[13.6550428,47.41728963715415],[13.655063452285237,47.41729542555768],[13.655072006741877,47.4173094]]]}},{"type":"Feature","id":"marker-dachstein-ramsau-summit","properties":{"kind":"marker","markerType":"summit","name":"Upper mountain · 2700 m","height":26},"geometry":{"type":"Polygon","coordinates":[[[13.624093009513008,47.461999999999996],[13.62407524627666,47.46203696098424],[13.624028741520158,47.462059804128764],[13.623971258479843,47.462059804128764],[13.62392475372334,47.46203696098424],[13.623906990486994,47.461999999999996],[13.62392475372334,47.46196303901575],[13.623971258479843,47.46194019587123],[13.624028741520158,47.46194019587123],[13.62407524627666,47.46196303901575],[13.624093009513008,47.461999999999996]]]}},{"type":"Feature","id":"marker-dachstein-ramsau-base","properties":{"kind":"marker","markerType":"base","name":"Base · 1702 m","height":18},"geometry":{"type":"Polygon","coordinates":[[[13.62809300243702,47.458],[13.628075240552066,47.458036960984245],[13.628028739333557,47.458059804128766],[13.627971260666444,47.458059804128766],[13.627924759447934,47.458036960984245],[13.627906997562981,47.458],[13.627924759447934,47.45796303901575],[13.627971260666444,47.45794019587123],[13.628028739333557,47.45794019587123],[13.628075240552066,47.45796303901575],[13.62809300243702,47.458]]]}},{"type":"Feature","id":"marker-dachstein-ramsau-peak","properties":{"kind":"marker","markerType":"peak","name":"Peak · 2995 m","height":22},"geometry":{"type":"Polygon","coordinates":[[[13.632093013051573,47.464],[13.632075249139422,47.464036960984245],[13.632028742613635,47.464059804128766],[13.631971257386365,47.464059804128766],[13.631924750860577,47.464036960984245],[13.631906986948426,47.464],[13.631924750860577,47.46396303901575],[13.631971257386365,47.46394019587123],[13.632028742613635,47.46394019587123],[13.632075249139422,47.46396303901575],[13.632093013051573,47.464]]]}}]}