{"type":"FeatureCollection","features":[{"type":"Feature","id":23940435,"properties":{"kind":"run","name":"Längenfelder Abfahrt I","subtype":"intermediate","pisteType":"downhill","featured":false},"geometry":{"type":"LineString","coordinates":[[11.060523,47.4467068],[11.0605233,47.4468201],[11.0604861,47.4468732],[11.0604706,47.4468954],[11.0603958,47.4469571],[11.0601195,47.4470536],[11.059867,47.4470703],[11.0596961,47.4470686],[11.0590353,47.4470619],[11.0585425,47.4469953],[11.0584871,47.4470286],[11.0585302,47.4470911],[11.0587027,47.4471619],[11.0589429,47.4473077],[11.0592571,47.4474369],[11.0595466,47.4474702],[11.059793,47.447541],[11.0600518,47.4475368],[11.0602366,47.4475327],[11.0602758,47.4475788],[11.0602368,47.4476191],[11.0600764,47.4476493],[11.0597068,47.4476951],[11.0594234,47.4477535],[11.0592015,47.4477842],[11.0589735,47.4477993],[11.0589529,47.4478207],[11.0589593,47.4478429],[11.0589849,47.4478615],[11.0590607,47.4478831],[11.0594655,47.4480103],[11.0598849,47.4481542],[11.0601053,47.4481666],[11.060407,47.4480995],[11.0605447,47.4480782],[11.0607459,47.4480727],[11.0610752,47.4480948],[11.0612357,47.4480935],[11.0613715,47.4480638]]}},{"type":"Feature","id":23943074,"properties":{"kind":"lift","name":"Graseckbahn","subtype":"cable_car","status":"active"},"geometry":{"type":"LineString","coordinates":[[11.1178661,47.4704142],[11.1203966,47.4683638],[11.1221028,47.4669811]]}},{"type":"Feature","id":23948552,"properties":{"kind":"lift","name":"Alpspitzbahn","subtype":"cable_car","status":"active"},"geometry":{"type":"LineString","coordinates":[[11.0613001,47.4706827],[11.0598574,47.4663067],[11.0577703,47.4597039],[11.0544603,47.4497406],[11.0510347,47.4393361]]}},{"type":"Feature","id":23948605,"properties":{"kind":"lift","name":"Hochalmbahn","subtype":"cable_car","status":"active"},"geometry":{"type":"LineString","coordinates":[[11.0623574,47.4410461],[11.0544473,47.439748],[11.0512153,47.4392158]]}},{"type":"Feature","id":23948696,"properties":{"kind":"lift","name":"Kreuzeckbahn","subtype":"gondola","status":"active"},"geometry":{"type":"LineString","coordinates":[[11.0636755,47.471519],[11.0647408,47.4655236],[11.0656824,47.4599523],[11.0670261,47.4528274],[11.0671201,47.4523362]]}},{"type":"Feature","id":24952444,"properties":{"kind":"lift","name":"Hausbergbahn","subtype":"gondola","status":"active"},"geometry":{"type":"LineString","coordinates":[[11.0946752,47.481785],[11.0946854,47.4811385],[11.0947036,47.47998],[11.0947363,47.4779015],[11.0947689,47.4758342],[11.0947921,47.4743556],[11.0948284,47.4720496],[11.0948493,47.4707242],[11.094869,47.4694746],[11.0948727,47.4692379],[11.0949209,47.4661735],[11.0949434,47.464744],[11.0949531,47.464127]]}},{"type":"Feature","id":24952701,"properties":{"kind":"lift","name":"Adamswiesenlift","subtype":"t-bar","status":"active"},"geometry":{"type":"LineString","coordinates":[[11.1043886,47.4674336],[11.1043502,47.4674068],[11.0999913,47.4644018],[11.0956563,47.4635084],[11.0949939,47.4633809]]}},{"type":"Feature","id":25783583,"properties":{"kind":"lift","name":"Eckbauerbahn","subtype":"gondola","status":"active"},"geometry":{"type":"LineString","coordinates":[[11.1189671,47.4815199],[11.1195471,47.4810524],[11.1198679,47.4807863],[11.1215057,47.4793997],[11.1231942,47.4779764],[11.1246733,47.4767274],[11.1263278,47.4753309],[11.1268017,47.4749311],[11.128991,47.473084],[11.131183,47.4712314],[11.1339871,47.468861],[11.1357597,47.4673646],[11.1362799,47.4669287]]}},{"type":"Feature","id":27691205,"properties":{"kind":"lift","name":"Osterfelderkopflift","subtype":"t-bar","status":"active"},"geometry":{"type":"LineString","coordinates":[[11.0542353,47.4365764],[11.0502135,47.4391589]]}},{"type":"Feature","id":29705471,"properties":{"kind":"lift","name":"Kreuzeck-Zubringer","subtype":"magic_carpet","status":"active"},"geometry":{"type":"LineString","coordinates":[[11.0660063,47.4500281],[11.0665841,47.4508213]]}},{"type":"Feature","id":32481213,"properties":{"kind":"lift","name":"Trögllift","subtype":"t-bar","status":"active"},"geometry":{"type":"LineString","coordinates":[[11.0867495,47.4617045],[11.0867416,47.461668],[11.0860675,47.4585619],[11.0859658,47.4580826]]}},{"type":"Feature","id":33876169,"properties":{"kind":"run","name":"Kochelberg-Abfahrt","subtype":"intermediate","pisteType":"downhill","featured":false},"geometry":{"type":"LineString","coordinates":[[11.0949531,47.464127],[11.0949355,47.46393],[11.0949925,47.4638217],[11.0950875,47.4637681],[11.0952848,47.4637028],[11.0955545,47.4637304],[11.0958868,47.4637644],[11.0968328,47.4638724],[11.0975001,47.4640012],[11.0981516,47.4641269],[11.0990741,47.4644143],[11.0992319,47.4645449],[11.0993442,47.4647336],[11.0996257,47.4650323],[11.0998683,47.4651654],[11.1006559,47.4655697],[11.1020704,47.4663943],[11.1029787,47.4669943],[11.1037983,47.4675356]]}},{"type":"Feature","id":36376477,"properties":{"kind":"run","name":"Kreuzwankl-Umfahrung","subtype":"easy","pisteType":"downhill","featured":false},"geometry":{"type":"LineString","coordinates":[[11.0932799,47.4630434],[11.0937692,47.4629252],[11.0941538,47.4628113]]}},{"type":"Feature","id":38499263,"properties":{"kind":"lift","name":"Materialseilbahn Höllentalangerhütte","subtype":"goods","status":"active"},"geometry":{"type":"LineString","coordinates":[[11.0438269,47.453221],[11.041162,47.4485489],[11.038687,47.4450031],[11.0289777,47.4400906],[11.0253422,47.4382241]]}},{"type":"Feature","id":62090705,"properties":{"kind":"run","name":"Längenfelder Abfahrt I","subtype":"intermediate","pisteType":"downhill","featured":false},"geometry":{"type":"LineString","coordinates":[[11.0619646,47.4480593],[11.0621254,47.4481335],[11.0623069,47.4482186],[11.062648,47.4483451],[11.0628646,47.4483823],[11.063025,47.4483942],[11.0632599,47.4484155],[11.0634319,47.4484213],[11.0635849,47.4484307],[11.0637609,47.4484545],[11.0638895,47.4484812],[11.0640229,47.4485306],[11.0642126,47.4486082],[11.0642997,47.4486543],[11.0644533,47.4487611],[11.0646248,47.4488571],[11.0648279,47.4490037],[11.0648554,47.4490463]]}},{"type":"Feature","id":62090706,"properties":{"kind":"run","name":"Mapped ski run","subtype":"easy","pisteType":"downhill","featured":false},"geometry":{"type":"LineString","coordinates":[[11.06512,47.4491477],[11.0649262,47.4490755],[11.0648554,47.4490463],[11.0646716,47.4490072],[11.0644522,47.4489501],[11.064203,47.4488755],[11.0639511,47.4488435]]}},{"type":"Feature","id":100492122,"properties":{"kind":"lift","name":"Gudiberglift","subtype":"chair_lift","status":"active"},"geometry":{"type":"LineString","coordinates":[[11.1168428,47.4806227],[11.1170736,47.4799516],[11.1173749,47.479177],[11.1178428,47.4779743],[11.1182431,47.4769452],[11.1185615,47.4761268],[11.1186434,47.4759162]]}},{"type":"Feature","id":100995049,"properties":{"kind":"run","name":"Kandahar-Abfahrt","subtype":"advanced","pisteType":"downhill","featured":true},"geometry":{"type":"LineString","coordinates":[[11.0804529,47.4575465],[11.0802713,47.4580182],[11.0801219,47.4581927],[11.0799456,47.4583454],[11.079735,47.4584507],[11.0795138,47.458527],[11.0792016,47.4585938],[11.0789923,47.4586182],[11.078579,47.458651],[11.0775386,47.4587312],[11.0762886,47.4588582],[11.0753499,47.4590903],[11.0744647,47.4592825],[11.0728608,47.4593297],[11.0716216,47.4599898],[11.0711022,47.4604258],[11.0706732,47.4605668],[11.0698855,47.4605469],[11.0692288,47.4607593],[11.0676721,47.4612628],[11.0668211,47.4616308],[11.0655933,47.4621509],[11.0649357,47.4627726]]}},{"type":"Feature","id":135200908,"properties":{"kind":"run","name":"Olympia Abfahrt","subtype":"intermediate","pisteType":"downhill","featured":false},"geometry":{"type":"LineString","coordinates":[[11.0689481,47.4605817],[11.0691477,47.4607088],[11.0692288,47.4607593],[11.0700053,47.4612787],[11.0706834,47.4615986],[11.0714878,47.4617449],[11.0721627,47.4622688],[11.0730029,47.4627959],[11.0734901,47.46314],[11.0736032,47.4632697],[11.0738953,47.4636537],[11.0739678,47.4637491],[11.0741693,47.4639644],[11.0742949,47.4640695],[11.0744855,47.4641264],[11.0748179,47.4642239],[11.0754079,47.4642898]]}},{"type":"Feature","id":135270702,"properties":{"kind":"lift","name":"Rimmlermooslift 2","subtype":"t-bar","status":"active"},"geometry":{"type":"LineString","coordinates":[[11.090482,47.4628217],[11.0891314,47.4608935],[11.0890537,47.4607825]]}},{"type":"Feature","id":135273590,"properties":{"kind":"run","name":"Kochelberg-Abfahrt","subtype":"intermediate","pisteType":"downhill","featured":false},"geometry":{"type":"LineString","coordinates":[[11.0981082,47.4778065],[11.0976619,47.4780711],[11.0974577,47.4781283],[11.097199,47.4783075],[11.0968312,47.4786138],[11.096606,47.47892],[11.0960989,47.4801777],[11.0958747,47.4805009],[11.0955366,47.4809905],[11.0949961,47.4817215],[11.094925,47.4818181],[11.0948545,47.4818563],[11.0946886,47.4818605],[11.0946752,47.481785]]}},{"type":"Feature","id":172439520,"properties":{"kind":"lift","name":"Bernadeinlift","subtype":"t-bar","status":"active"},"geometry":{"type":"LineString","coordinates":[[11.0743544,47.4357479],[11.0618064,47.4363195]]}},{"type":"Feature","id":202429911,"properties":{"kind":"lift","name":"Kreuzwankl Ski Express","subtype":"chair_lift","status":"active"},"geometry":{"type":"LineString","coordinates":[[11.0943267,47.4631552],[11.0935437,47.46265],[11.0922268,47.4618003],[11.0907835,47.4608624],[11.0896543,47.4601402],[11.0880238,47.4590878],[11.0868709,47.4583415],[11.0858631,47.4576925],[11.0850661,47.4571807],[11.0847516,47.4569712]]}},{"type":"Feature","id":202429912,"properties":{"kind":"run","name":"Längenfelder Abfahrt I","subtype":"intermediate","pisteType":"downhill","featured":false},"geometry":{"type":"LineString","coordinates":[[11.0570914,47.4437373],[11.0571579,47.4437232],[11.0572545,47.4437366],[11.0574148,47.4438338],[11.0575516,47.4439412],[11.0576289,47.4440597],[11.0576717,47.4441345],[11.05778,47.444353],[11.057913,47.4445213],[11.0581165,47.4447069],[11.0585121,47.4450107],[11.0589382,47.445357],[11.059859,47.4461291],[11.060523,47.4467068],[11.0607731,47.4467386],[11.0609075,47.4467386],[11.0609546,47.446715],[11.0609842,47.4466351]]}},{"type":"Feature","id":202429914,"properties":{"kind":"run","name":"Horn-Abfahrt","subtype":"advanced","pisteType":"downhill","featured":false},"geometry":{"type":"LineString","coordinates":[[11.0968328,47.4638724],[11.0969634,47.4642064],[11.0969601,47.4644776],[11.0968572,47.464685],[11.0966674,47.4647918],[11.0964142,47.464967],[11.0962806,47.4652024],[11.0962046,47.4655229],[11.0961616,47.4659344],[11.0963493,47.4663671],[11.0969258,47.4670717],[11.0969568,47.4672799],[11.0968432,47.4674486],[11.0966299,47.4675783],[11.0963211,47.4676708],[11.0961067,47.4678343],[11.0960495,47.4680452],[11.0960552,47.4683766],[11.0960688,47.4696062],[11.0957938,47.4699092],[11.0955692,47.4705658]]}},{"type":"Feature","id":202429924,"properties":{"kind":"lift","name":"Längenfelderbahn","subtype":"chair_lift","status":"active"},"geometry":{"type":"LineString","coordinates":[[11.0639511,47.4488435],[11.06331,47.4483663],[11.062844,47.4480195],[11.0619703,47.4473691],[11.0614129,47.4469542],[11.0609842,47.4466351],[11.0605836,47.4463369],[11.0593217,47.4453976],[11.0584727,47.4447655],[11.0578978,47.4443376],[11.0570914,47.4437373]]}},{"type":"Feature","id":202429931,"properties":{"kind":"run","name":"Längenfelder Abfahrt II","subtype":"intermediate","pisteType":"downhill","featured":false},"geometry":{"type":"LineString","coordinates":[[11.0576717,47.4441345],[11.057871,47.4441903],[11.0580366,47.444191],[11.0582314,47.4441832],[11.0584086,47.4441538],[11.0587538,47.4439551],[11.0591108,47.4438453],[11.0593803,47.4438222],[11.0600349,47.4438248],[11.0604807,47.4437677],[11.0607305,47.4437174],[11.0609266,47.4436236]]}},{"type":"Feature","id":205541419,"properties":{"kind":"lift","name":"Hexenkesselbahn","subtype":"chair_lift","status":"active"},"geometry":{"type":"LineString","coordinates":[[11.0714987,47.4536778],[11.0705167,47.4532263],[11.0694835,47.4527512],[11.0681685,47.4521466],[11.0670022,47.4516104],[11.066594,47.4514227]]}},{"type":"Feature","id":205541420,"properties":{"kind":"lift","name":"Kandahar-Express","subtype":"chair_lift","status":"active"},"geometry":{"type":"LineString","coordinates":[[11.07446,47.4640297],[11.0746404,47.4635964],[11.0750929,47.4625094],[11.0757083,47.4610311],[11.0762458,47.4597398],[11.076789,47.4584347],[11.0777734,47.4560696],[11.0778005,47.456012],[11.0779495,47.4556466],[11.0786026,47.4539858],[11.079087,47.4527539],[11.0791763,47.4525268]]}},{"type":"Feature","id":205541421,"properties":{"kind":"run","name":"Osterfelder-Abfahrt","subtype":"intermediate","pisteType":"downhill","featured":false},"geometry":{"type":"LineString","coordinates":[[11.0510347,47.4393361],[11.0510452,47.4392924],[11.0511099,47.4392351],[11.0512153,47.4392158],[11.0510935,47.4391246],[11.05076,47.4390843],[11.0507814,47.4389566],[11.0510272,47.4388],[11.0512736,47.43844],[11.051556,47.4380143],[11.0522112,47.4375556],[11.0523834,47.4374506],[11.0535741,47.4367244],[11.0542508,47.4360688],[11.0544543,47.4356507],[11.0544963,47.4355198],[11.0545205,47.43547],[11.0544984,47.4353113],[11.0544994,47.4353027],[11.0545116,47.4351969],[11.0545759,47.4349708],[11.0547051,47.4347438],[11.054855,47.434553],[11.0551228,47.4342522],[11.0554272,47.4340091],[11.0557681,47.4337826],[11.056217,47.4336425],[11.0567975,47.4335446],[11.0576109,47.4335258],[11.0592296,47.4336032],[11.0596967,47.4336513],[11.0598795,47.43371],[11.0600223,47.4338152],[11.0602211,47.4340198],[11.0603381,47.4341647],[11.0604433,47.4345038],[11.0604366,47.4348534],[11.0603562,47.4351695],[11.060311,47.435427],[11.0603108,47.4355583],[11.0603292,47.4356562],[11.0604488,47.4359077],[11.0605858,47.4361225],[11.0606998,47.4362545],[11.0607527,47.4363618],[11.060765,47.4364924],[11.060785,47.436754],[11.060858,47.4369288],[11.060921,47.436997],[11.0609443,47.4370517],[11.0609392,47.4371394],[11.0609057,47.4371676],[11.0608164,47.4371974],[11.0607515,47.4371998],[11.0606136,47.4371895],[11.0605,47.4371817],[11.0603884,47.4372178],[11.0603341,47.4372721],[11.0603205,47.4373319],[11.0603394,47.4374335],[11.0607843,47.4380635],[11.0612685,47.4385912],[11.0618063,47.4389841],[11.0622129,47.4393485],[11.0623426,47.439747],[11.0622807,47.440055],[11.0621242,47.4404072],[11.0620788,47.4405095],[11.0621911,47.4408715]]}},{"type":"Feature","id":213197919,"properties":{"kind":"run","name":"Bernadein-Abfahrt","subtype":"intermediate","pisteType":"downhill","featured":false},"geometry":{"type":"LineString","coordinates":[[11.0604488,47.4359077],[11.0606712,47.4359661],[11.0610211,47.4360849],[11.0613633,47.436303],[11.0615732,47.4364801],[11.061672,47.4365779],[11.0616953,47.4366009],[11.0618063,47.4367112],[11.0620066,47.4368549],[11.0622537,47.4369111],[11.0625346,47.4369381],[11.0648211,47.4365549],[11.0651468,47.436467],[11.0654724,47.4363506],[11.0658429,47.4362246],[11.0659575,47.436081],[11.0659479,47.4357787],[11.0661363,47.4356378],[11.0663761,47.4355096],[11.0670515,47.4352751],[11.0674852,47.4351951],[11.0678442,47.4352256],[11.0684128,47.4353078],[11.0689979,47.4352798],[11.0693028,47.4351462],[11.069636,47.4349208],[11.0700159,47.4347522],[11.070492,47.4346651],[11.0712714,47.434571],[11.0716468,47.4345939],[11.0719661,47.4346483],[11.0723925,47.4347454],[11.0727629,47.4348772],[11.0729506,47.4350535],[11.0731477,47.4352487],[11.0740168,47.4355904],[11.0742349,47.4356925],[11.0743544,47.4357479]]}},{"type":"Feature","id":213197920,"properties":{"kind":"run","name":"Hochalmweg","subtype":"easy","pisteType":"downhill","featured":false},"geometry":{"type":"LineString","coordinates":[[11.0621911,47.4408715],[11.062167,47.4410208],[11.062197,47.4411876],[11.0622954,47.4414637],[11.0623435,47.4416502],[11.0623161,47.4418503],[11.0623036,47.442034],[11.0623432,47.4421927],[11.0624343,47.442388],[11.0625415,47.44256],[11.0627146,47.4427793],[11.0628201,47.442937],[11.0628591,47.4430284],[11.0628649,47.4431332],[11.0628755,47.443303],[11.062814,47.4434487],[11.0627552,47.4435013],[11.0625898,47.4436158],[11.0623919,47.4437418],[11.0622025,47.4438904],[11.0621928,47.4441209],[11.0620866,47.4444002],[11.0619826,47.4446519],[11.0619725,47.4448356],[11.0620148,47.4450078],[11.0620318,47.4451626],[11.0620232,47.4453449],[11.0620043,47.4454815],[11.0619945,47.4456437],[11.0620979,47.4457742],[11.0622044,47.4458696],[11.0622444,47.4459379],[11.0623213,47.4460879],[11.0623758,47.4462537],[11.0624699,47.4464606],[11.0626056,47.446646],[11.0627988,47.4468264],[11.0629536,47.4469613],[11.063145,47.4470676],[11.063427,47.4472272],[11.0635051,47.4472832],[11.0635451,47.4473301],[11.0635687,47.4473969],[11.0635799,47.4474955],[11.0636032,47.4476615],[11.0636164,47.4478275],[11.0636302,47.4479651],[11.0636574,47.4480444],[11.063717,47.4481555],[11.0637928,47.4482711],[11.0638269,47.4483618]]}},{"type":"Feature","id":213197922,"properties":{"kind":"run","name":"Längenfelder Abfahrt II","subtype":"intermediate","pisteType":"downhill","featured":false},"geometry":{"type":"LineString","coordinates":[[11.0609266,47.4436236],[11.0609518,47.4435918],[11.0610643,47.4434278],[11.0611379,47.4432556],[11.0611859,47.4430829],[11.0612335,47.4429463],[11.0612516,47.4428059],[11.0612571,47.4426878],[11.0611821,47.4425947],[11.061064,47.4424884],[11.0610251,47.4423403],[11.0609831,47.4421788],[11.0609877,47.4419979],[11.0610103,47.4418188],[11.0610601,47.4415209],[11.0610653,47.4413793]]}},{"type":"Feature","id":213197923,"properties":{"kind":"run","name":"Längenfelder Abfahrt II","subtype":"intermediate","pisteType":"downhill","featured":false},"geometry":{"type":"LineString","coordinates":[[11.0611038,47.4408795],[11.0614048,47.4408871],[11.0616294,47.4408723],[11.0618173,47.4408596],[11.0620051,47.4408805],[11.0621911,47.4408715]]}},{"type":"Feature","id":230766897,"properties":{"kind":"run","name":"Mapped ski run","subtype":"easy","pisteType":"nordic","featured":false},"geometry":{"type":"LineString","coordinates":[[11.0510899,47.4706231],[11.0510524,47.4705923]]}},{"type":"Feature","id":254412572,"properties":{"kind":"run","name":"Rodelbahn","subtype":"unknown","pisteType":"sled","featured":false},"geometry":{"type":"LineString","coordinates":[[11.0313499,47.4685016],[11.0318837,47.4694426]]}},{"type":"Feature","id":256613604,"properties":{"kind":"run","name":"Kandahar-Abfahrt","subtype":"advanced","pisteType":"downhill","featured":true},"geometry":{"type":"LineString","coordinates":[[11.0804529,47.4575465],[11.0797774,47.4577464],[11.0790611,47.4578596],[11.0770414,47.4579654],[11.075796,47.4579415],[11.0752998,47.4579866],[11.0747193,47.4581456],[11.0742458,47.4582359],[11.0723087,47.4581396],[11.0718312,47.4582313],[11.0709207,47.4589566],[11.0703445,47.4592909],[11.0696528,47.4601798],[11.0689481,47.4605817],[11.0674912,47.4610181],[11.0666612,47.4610717],[11.0660122,47.4612206],[11.0656313,47.46148],[11.0653712,47.4617802],[11.0651472,47.4621869],[11.0649357,47.4627726]]}},{"type":"Feature","id":256613608,"properties":{"kind":"lift","name":"Kinderland","subtype":"magic_carpet","status":"active"},"geometry":{"type":"LineString","coordinates":[[11.0926372,47.463104],[11.0927434,47.4637571]]}},{"type":"Feature","id":296774735,"properties":{"kind":"run","name":"Loipe Krepbach","subtype":"easy","pisteType":"nordic","featured":false},"geometry":{"type":"LineString","coordinates":[[11.0335596,47.4788077],[11.0334166,47.4786322],[11.0332849,47.4781414],[11.0332849,47.4777701],[11.033236,47.4774801],[11.0332623,47.4771928],[11.0332732,47.4771653]]}},{"type":"Feature","id":307094347,"properties":{"kind":"run","name":"Mittlerer Skiweg","subtype":"easy","pisteType":"downhill","featured":false},"geometry":{"type":"LineString","coordinates":[[11.0803606,47.4565443],[11.0807583,47.4565896],[11.0811201,47.4566515],[11.0814945,47.456754]]}},{"type":"Feature","id":307094529,"properties":{"kind":"run","name":"Kreuzjoch-Hexenkessel","subtype":"easy","pisteType":"downhill","featured":false},"geometry":{"type":"LineString","coordinates":[[11.0794842,47.4524621],[11.0797961,47.4525975],[11.0798278,47.4526235],[11.0798331,47.4526557],[11.0797916,47.4526784],[11.0796655,47.4527256],[11.0795074,47.4527482],[11.0794697,47.4527493],[11.0793417,47.452754],[11.0791963,47.4527663],[11.0790493,47.4527776],[11.078883,47.4527993],[11.0786328,47.4528256],[11.0784512,47.4528447],[11.0782602,47.4528552],[11.0780912,47.452828],[11.0778634,47.452763],[11.0777431,47.4527286],[11.0776782,47.4527163],[11.0775789,47.4526974],[11.077359,47.452692],[11.077035,47.4526814],[11.0768011,47.4526539],[11.0765253,47.4526125],[11.0764524,47.4526013],[11.0763236,47.4525799],[11.0761885,47.4525665],[11.0761369,47.4525749],[11.0761179,47.4526032],[11.0761395,47.4526375],[11.0764357,47.452753],[11.0765253,47.4528084],[11.0766629,47.4529435],[11.0768043,47.4530823],[11.0768172,47.4531],[11.0768123,47.4531204],[11.0767909,47.4531294],[11.0766707,47.4531196],[11.0766138,47.4531149],[11.076461,47.4530859],[11.0763531,47.4530565],[11.0761793,47.4530424],[11.0760642,47.4530317],[11.0755324,47.4529822],[11.0752856,47.4529586],[11.0751298,47.4529443],[11.0749536,47.4529281],[11.0746097,47.4528976],[11.0744997,47.4528878],[11.0743173,47.4528679],[11.0741894,47.4528442],[11.0741215,47.4528316],[11.073929,47.4527957],[11.0737987,47.4527557],[11.0737519,47.4527413],[11.0734698,47.4526249],[11.0734124,47.4526036],[11.073274,47.4525523],[11.0730493,47.4524904],[11.0729843,47.4524725],[11.0728877,47.4524489],[11.0727863,47.452452],[11.0726992,47.4524511],[11.072608,47.4524575],[11.0725006,47.4524928],[11.0724728,47.4525183],[11.0724325,47.4525708],[11.0723923,47.4526234],[11.0723494,47.4526615],[11.072277,47.4526542],[11.0721952,47.4526443],[11.0721013,47.4526334],[11.0720141,47.4526452],[11.0719216,47.452676],[11.0718371,47.4527141],[11.0717164,47.4527721]]}},{"type":"Feature","id":324023191,"properties":{"kind":"run","name":"Bayernhaus-Abfahrt","subtype":"easy","pisteType":"downhill","featured":false},"geometry":{"type":"LineString","coordinates":[[11.0958868,47.4637644],[11.0964491,47.4635467],[11.0966502,47.4634958],[11.0967226,47.4633906],[11.0967655,47.4633217],[11.0968192,47.4632256],[11.0968594,47.4631476],[11.0969506,47.4630225],[11.0970257,47.4629409],[11.0970885,47.4629024],[11.097166,47.462887]]}},{"type":"Feature","id":383068630,"properties":{"kind":"run","name":"Kandahar-Abfahrt","subtype":"advanced","pisteType":"downhill","featured":true},"geometry":{"type":"LineString","coordinates":[[11.0651472,47.4621869],[11.064283,47.4623704],[11.0634655,47.4625476],[11.0628227,47.4630834],[11.0627977,47.4635433],[11.0630249,47.4642843]]}},{"type":"Feature","id":432391120,"properties":{"kind":"lift","name":"Drag Lift","subtype":"drag_lift","status":"active"},"geometry":{"type":"LineString","coordinates":[[11.1205778,47.4821214],[11.1209443,47.4811986]]}},{"type":"Feature","id":437095082,"properties":{"kind":"lift","name":"Materialseilbahn Höllentalklamm Hütte","subtype":"goods","status":"active"},"geometry":{"type":"LineString","coordinates":[[11.0442714,47.4484666],[11.0436967,47.4505179]]}},{"type":"Feature","id":438324246,"properties":{"kind":"run","name":"Oberer Skiweg","subtype":"easy","pisteType":"downhill","featured":false},"geometry":{"type":"LineString","coordinates":[[11.0812952,47.4556491],[11.0813783,47.4557198],[11.0815042,47.4557866],[11.0816924,47.4558231],[11.082357,47.4559379],[11.0830172,47.4560788],[11.0832822,47.4561696],[11.0836484,47.4563302],[11.0838516,47.4564273],[11.0839813,47.4565251]]}},{"type":"Feature","id":438324247,"properties":{"kind":"run","name":"Mapped ski run","subtype":"easy","pisteType":"downhill","featured":false},"geometry":{"type":"LineString","coordinates":[[11.0723494,47.4526615],[11.0725473,47.4527713],[11.0728052,47.4528704],[11.0729471,47.4529642],[11.0730621,47.4530852],[11.0731819,47.4531988],[11.0733527,47.4533088],[11.0736431,47.4534182],[11.0743343,47.4536272],[11.0747938,47.4537592],[11.0750422,47.4538473],[11.0751866,47.4539332],[11.0753606,47.4540839],[11.0755494,47.4542044],[11.0756902,47.4542511],[11.0761595,47.4542655],[11.0763951,47.4542906],[11.076894,47.454288],[11.0770577,47.4543161],[11.0772179,47.4543733],[11.0774127,47.4544556],[11.0777816,47.4545929],[11.0782088,47.4547831],[11.0784315,47.4548781],[11.0786481,47.4550269],[11.078742,47.4551212],[11.0788884,47.4552261],[11.0790364,47.4552795],[11.0792095,47.4553098],[11.079879,47.4553716],[11.0800238,47.4553879],[11.0801418,47.4553952],[11.0803081,47.4554115],[11.0804288,47.4554242],[11.0805442,47.4554333],[11.0806997,47.4554387]]}},{"type":"Feature","id":444903136,"properties":{"kind":"run","name":"Standard-Tonihütten Abfahrt","subtype":"intermediate","pisteType":"downhill","featured":false},"geometry":{"type":"LineString","coordinates":[[11.0861673,47.4617301],[11.0863684,47.4618981],[11.0875768,47.4627928],[11.0877988,47.4630654],[11.0883656,47.4633716],[11.0890206,47.4639666],[11.0891726,47.4642055],[11.0892053,47.4643264],[11.0891313,47.4644196],[11.0889914,47.4644893],[11.0885179,47.4644865],[11.087741,47.4643321],[11.0871941,47.464372],[11.0870208,47.4644536],[11.0868725,47.4645514],[11.0866256,47.4645991],[11.0860839,47.4645906],[11.0849959,47.4645514],[11.0845134,47.4646525],[11.0838215,47.4651562],[11.0833634,47.4653516],[11.0824904,47.4655193],[11.0813845,47.4655607]]}},{"type":"Feature","id":475173539,"properties":{"kind":"run","name":"Osterfelder-Abfahrt","subtype":"intermediate","pisteType":"downhill","featured":false},"geometry":{"type":"LineString","coordinates":[[11.0502135,47.4391589],[11.0502088,47.4390632],[11.0502259,47.4389938],[11.050639,47.4388447],[11.0512736,47.43844]]}},{"type":"Feature","id":475173540,"properties":{"kind":"run","name":"Mapped ski run","subtype":"intermediate","pisteType":"downhill","featured":false},"geometry":{"type":"LineString","coordinates":[[11.0535741,47.4367244],[11.0538088,47.43671],[11.0542353,47.4365764]]}},{"type":"Feature","id":475173544,"properties":{"kind":"run","name":"Mapped ski run","subtype":"intermediate","pisteType":"downhill","featured":false},"geometry":{"type":"LineString","coordinates":[[11.0606618,47.4357675],[11.060561,47.4358474],[11.0604488,47.4359077]]}},{"type":"Feature","id":475173548,"properties":{"kind":"lift","name":"Bernadeinlift","subtype":"platter","status":"active"},"geometry":{"type":"LineString","coordinates":[[11.0616737,47.4363785],[11.0611064,47.436036],[11.0607169,47.4358008],[11.0606618,47.4357675],[11.0604697,47.4356516]]}},{"type":"Feature","id":555803547,"properties":{"kind":"run","name":"Loipe Hammersbach","subtype":"easy","pisteType":"nordic","featured":false},"geometry":{"type":"LineString","coordinates":[[11.0511832,47.4707083],[11.0506606,47.4710595],[11.0502964,47.4713145],[11.0496069,47.4715959],[11.0493467,47.471763],[11.0492687,47.472018],[11.0493988,47.4727302],[11.0499968,47.4738134],[11.0503354,47.4742162],[11.0508167,47.4753593],[11.051207,47.4755791],[11.0534981,47.4761726],[11.055756,47.4767688],[11.056005,47.4767703],[11.0561293,47.4766997],[11.0562439,47.4765516],[11.0567394,47.4755139],[11.0578381,47.4746809],[11.0588816,47.4737176],[11.0597606,47.4729952],[11.0598599,47.472861],[11.0598102,47.4726932],[11.0596365,47.4725422],[11.0575144,47.4720306],[11.0567578,47.4717049],[11.0562362,47.4716279],[11.0558887,47.4714434],[11.0558515,47.4712253],[11.0560624,47.471091],[11.0563851,47.471091],[11.0570441,47.4712866],[11.058259,47.4716531],[11.0607658,47.472257],[11.0610686,47.4722848],[11.0612058,47.4722491],[11.0612533,47.4721849]]}},{"type":"Feature","id":555803553,"properties":{"kind":"run","name":"Mapped ski run","subtype":"easy","pisteType":"nordic","featured":false},"geometry":{"type":"LineString","coordinates":[[11.0511832,47.4707083],[11.0510899,47.4706231]]}},{"type":"Feature","id":555803556,"properties":{"kind":"run","name":"Mapped ski run","subtype":"easy","pisteType":"nordic","featured":false},"geometry":{"type":"LineString","coordinates":[[11.0510524,47.4705923],[11.050991,47.4705365]]}},{"type":"Feature","id":555803557,"properties":{"kind":"run","name":"Loipe Hammersbach","subtype":"easy","pisteType":"nordic","featured":false},"geometry":{"type":"LineString","coordinates":[[11.050991,47.4705365],[11.0512109,47.4704288],[11.0513803,47.4703299],[11.0514636,47.4702348],[11.0515231,47.46998],[11.0515702,47.4697006],[11.0515231,47.4694636],[11.0515441,47.469308],[11.0515231,47.4692089],[11.0513296,47.4689508],[11.0509162,47.4685794],[11.0502674,47.4681337],[11.0500948,47.4679993],[11.049943,47.4678295],[11.0496866,47.4677482],[11.0494617,47.4677694],[11.0491477,47.4679038],[11.0482059,47.4683884],[11.0480647,47.4685546],[11.0479914,47.4687244],[11.0480542,47.4689118],[11.0481955,47.4691559],[11.0484832,47.4701038],[11.0486402,47.4703761],[11.0489018,47.4709102],[11.0490483,47.4710233],[11.0492314,47.4710481],[11.049446,47.4710269],[11.0498698,47.4708748],[11.0502779,47.470751],[11.050991,47.4705365]]}},{"type":"Feature","id":556323200,"properties":{"kind":"run","name":"Loipe Skistadion - Hausberg","subtype":"easy","pisteType":"nordic","featured":false},"geometry":{"type":"LineString","coordinates":[[11.09587,47.4838595],[11.0972576,47.4842601],[11.098527,47.4846303],[11.1009857,47.4854792],[11.1011723,47.4855272],[11.1013134,47.4855272],[11.1014995,47.4854448],[11.1023503,47.484947],[11.1028726,47.4845689],[11.1035335,47.4841656],[11.1038363,47.4840468],[11.104169,47.4839999],[11.1046775,47.483971],[11.1056631,47.4837656],[11.1060491,47.4836768],[11.106542,47.4835047],[11.1080861,47.482822],[11.1085103,47.4826554],[11.1094996,47.4823615],[11.11054,47.4821425],[11.1120664,47.4818947],[11.1127809,47.4814046]]}},{"type":"Feature","id":556323202,"properties":{"kind":"run","name":"Loipe Skistadion - Hausberg","subtype":"easy","pisteType":"nordic","featured":false},"geometry":{"type":"LineString","coordinates":[[11.1127809,47.4814046],[11.1125432,47.4812365],[11.1122122,47.481122],[11.1119582,47.4810856],[11.1114271,47.4812573],[11.1107652,47.4815018],[11.1090873,47.48236],[11.108487,47.4825525],[11.1079174,47.4826409],[11.1070246,47.4826565],[11.1068091,47.4826253],[11.1066936,47.4825785],[11.1065705,47.4826201],[11.1063934,47.4827762],[11.1057315,47.4833848],[11.1051004,47.4837801],[11.1047309,47.4838685],[11.104193,47.4838621],[11.1032763,47.4838737],[11.1025297,47.4838425],[11.1019524,47.4836968],[11.101333,47.4834206],[11.1001591,47.482901],[11.0989891,47.4824745],[11.0984658,47.4823028],[11.0981579,47.4823132],[11.0976114,47.4824953],[11.0971727,47.4826617],[11.0964723,47.4831663],[11.0959181,47.48365],[11.09587,47.4838595]]}},{"type":"Feature","id":556323203,"properties":{"kind":"run","name":"Loipe Hausberg - Hammersbach","subtype":"easy","pisteType":"nordic","featured":false},"geometry":{"type":"LineString","coordinates":[[11.0924745,47.4835535],[11.0919213,47.4834321],[11.0913205,47.4833523],[11.0906606,47.4833016],[11.089341,47.4830007],[11.0871144,47.4822239],[11.0861617,47.4819335],[11.0856386,47.4818514],[11.0840695,47.4818514],[11.083664,47.4818538],[11.0833688,47.4819336],[11.0831376,47.4820533],[11.0826641,47.4824859],[11.0823555,47.4826483],[11.0818734,47.4828711],[11.0817258,47.482921],[11.081529,47.4829276],[11.0806239,47.4827049],[11.0798713,47.482389],[11.079672,47.4823262],[11.0789015,47.4821938],[11.0787387,47.4822005],[11.0785544,47.4822632],[11.0783988,47.4823562],[11.0782611,47.4825059],[11.0776804,47.4834931],[11.0775237,47.4836939],[11.0774353,47.4837736],[11.0773174,47.4838134],[11.07717,47.4838184],[11.0770152,47.483791],[11.0768864,47.4837448],[11.076713,47.4836515],[11.0759602,47.4830118],[11.0754972,47.4828433],[11.0745239,47.4824904],[11.0731232,47.4820572],[11.0715801,47.48164],[11.0701557,47.4811106],[11.0688619,47.4806244],[11.0680066,47.4803861],[11.0675496,47.480245],[11.0672577,47.4801887],[11.065923,47.4799269],[11.0651528,47.4797575],[11.0647732,47.4796853],[11.0646342,47.4796192],[11.0643199,47.4794512],[11.0641652,47.4793889],[11.0638556,47.4793092],[11.0628673,47.4791403],[11.0622926,47.4790726],[11.0612659,47.479003],[11.0609641,47.478998],[11.0607507,47.4789831],[11.0604931,47.4789135],[11.0602981,47.4786996],[11.060184,47.4784558],[11.060184,47.4783066],[11.0602497,47.4781796]]}},{"type":"Feature","id":556323204,"properties":{"kind":"run","name":"Loipe Hausberg - Hammersbach","subtype":"easy","pisteType":"nordic","featured":false},"geometry":{"type":"LineString","coordinates":[[11.0602497,47.4781796],[11.0603011,47.478148],[11.060506,47.4780156],[11.0605843,47.4779545],[11.0606008,47.4779437],[11.0606382,47.4778695],[11.0605907,47.4778241],[11.0605043,47.4777993]]}},{"type":"Feature","id":556323206,"properties":{"kind":"run","name":"Loipe Hausberg - Hammersbach","subtype":"easy","pisteType":"nordic","featured":false},"geometry":{"type":"LineString","coordinates":[[11.0605043,47.4777993],[11.0601173,47.4775208],[11.0595295,47.4770051],[11.0591986,47.4767972],[11.0579372,47.4762368],[11.0577542,47.4761552],[11.0575128,47.4761315],[11.0571313,47.4761473],[11.0567918,47.4761999],[11.0566952,47.4762634],[11.056655,47.4763917],[11.056606,47.4765145],[11.0565544,47.4766047],[11.05645,47.4766244]]}},{"type":"Feature","id":556323207,"properties":{"kind":"run","name":"Loipe Zugspitzbad","subtype":"easy","pisteType":"nordic","featured":false},"geometry":{"type":"LineString","coordinates":[[11.0473538,47.4728972],[11.0471886,47.4730112],[11.0470567,47.4731583],[11.0470303,47.4735684],[11.0470567,47.4740097],[11.0470303,47.4741835],[11.0469248,47.474286],[11.0466412,47.474295],[11.0462257,47.4742325],[11.0459223,47.4743083],[11.0454805,47.4745223],[11.0453288,47.474549],[11.0451903,47.4744911],[11.0450782,47.4743217],[11.0448672,47.4742058],[11.0444979,47.4740498],[11.0442341,47.4739918],[11.043812,47.4739383],[11.0432844,47.4737199],[11.0427568,47.4736263],[11.0424007,47.4736263],[11.042216,47.4737244],[11.0419325,47.4737556],[11.0416687,47.473662],[11.0413983,47.473497],[11.0411213,47.4731895],[11.0408707,47.4730691],[11.0407652,47.4729175],[11.0408229,47.4727078],[11.0407124,47.4724316],[11.0404486,47.4720973],[11.0402706,47.4720082],[11.0399342,47.4720304],[11.0395517,47.4720215],[11.03899,47.4719046],[11.0382079,47.4716812],[11.0376187,47.471479],[11.0374267,47.4713066]]}},{"type":"Feature","id":556323208,"properties":{"kind":"run","name":"Loipe Zugspitzbad","subtype":"easy","pisteType":"nordic","featured":false},"geometry":{"type":"LineString","coordinates":[[11.0345189,47.4714319],[11.0341159,47.4716289],[11.0339731,47.4717364],[11.033713,47.4718737],[11.0334223,47.4719116],[11.0331367,47.4721426],[11.0329021,47.4723287],[11.0326777,47.4724149],[11.0324431,47.4724253],[11.0322085,47.4724046],[11.0319739,47.4723046],[11.0317698,47.4722632],[11.0313669,47.4722598],[11.0309691,47.4722632],[11.0305815,47.4722219],[11.0303061,47.4721426],[11.0300817,47.472146],[11.0299032,47.4722288],[11.0297655,47.4723253],[11.0296909,47.472449],[11.0290973,47.4728262],[11.0288953,47.4728848],[11.0286458,47.4729511],[11.028525,47.4729391],[11.0283899,47.472867],[11.0282975,47.4727902],[11.0281731,47.4727613],[11.0278852,47.4728094],[11.0276754,47.4728022],[11.0275048,47.472843],[11.0273235,47.473028],[11.0271529,47.4731337],[11.0270285,47.4732346],[11.0269396,47.4732683],[11.026602,47.4733149]]}},{"type":"Feature","id":556323209,"properties":{"kind":"run","name":"Loipe Zugspitzbad","subtype":"easy","pisteType":"nordic","featured":false},"geometry":{"type":"LineString","coordinates":[[11.0411213,47.4731895],[11.0407927,47.4734684],[11.040298,47.4735471],[11.0400825,47.4736644],[11.0398324,47.4738028],[11.0396287,47.4740389],[11.0395379,47.4741903],[11.0394497,47.4743434]]}},{"type":"Feature","id":556323210,"properties":{"kind":"run","name":"Loipe Zugspitzbad","subtype":"easy","pisteType":"nordic","featured":false},"geometry":{"type":"LineString","coordinates":[[11.0395379,47.4741903],[11.0400894,47.4742796],[11.0403271,47.4742602],[11.0408509,47.4740192],[11.0411783,47.4739405],[11.0414039,47.4739553],[11.0416022,47.4740195],[11.0417688,47.4740516],[11.0419167,47.474019],[11.0420908,47.4738825],[11.042216,47.4737244]]}},{"type":"Feature","id":556323211,"properties":{"kind":"run","name":"Loipe Krepbach","subtype":"easy","pisteType":"nordic","featured":false},"geometry":{"type":"LineString","coordinates":[[11.0381023,47.4747353],[11.0386072,47.4745081],[11.0392225,47.4744919],[11.0393619,47.4744627],[11.0394196,47.4744139],[11.0394497,47.4743434]]}},{"type":"Feature","id":556323212,"properties":{"kind":"run","name":"Loipe Krepbach","subtype":"easy","pisteType":"nordic","featured":false},"geometry":{"type":"LineString","coordinates":[[11.0378904,47.4758847],[11.0378654,47.4762485],[11.0378616,47.4765028],[11.0378311,47.4768207],[11.037464,47.4774009],[11.0369264,47.4775776],[11.0363649,47.4779146],[11.0357756,47.4781827],[11.0352667,47.4782878],[11.0345372,47.4786186],[11.0339253,47.4788927]]}},{"type":"Feature","id":556323214,"properties":{"kind":"run","name":"Loipe Krepbach","subtype":"easy","pisteType":"nordic","featured":false},"geometry":{"type":"LineString","coordinates":[[11.0339253,47.4788927],[11.0337042,47.4790775],[11.0335631,47.4793202],[11.033413,47.4795103],[11.0332558,47.4795734],[11.0329999,47.4795776],[11.032719,47.4794637],[11.0319243,47.4789058],[11.0314392,47.4787507],[11.0309648,47.4786874],[11.0302906,47.4786241],[11.030045,47.4786253]]}},{"type":"Feature","id":556323215,"properties":{"kind":"run","name":"Loipe Krepbach","subtype":"easy","pisteType":"nordic","featured":false},"geometry":{"type":"LineString","coordinates":[[11.029673,47.478627],[11.0287333,47.4783615],[11.0281374,47.4782457],[11.0279058,47.4782992],[11.0275812,47.4784638],[11.0272628,47.4786536],[11.0269951,47.4788344],[11.026865,47.4789195],[11.0266861,47.478921],[11.0255586,47.4784891],[11.0254554,47.4784512],[11.0253179,47.4784747],[11.0252803,47.4785458],[11.0249982,47.4785224]]}},{"type":"Feature","id":556323216,"properties":{"kind":"run","name":"Loipe Krepbach","subtype":"easy","pisteType":"nordic","featured":false},"geometry":{"type":"LineString","coordinates":[[11.029673,47.478627],[11.029782,47.4787619],[11.0296227,47.4794148],[11.0295666,47.4795851],[11.029392,47.479765],[11.0290982,47.4798856],[11.028811,47.4798645],[11.0272753,47.4793624],[11.0271212,47.4793093],[11.0263701,47.4790502],[11.0253366,47.4786206],[11.0252803,47.4785458]]}},{"type":"Feature","id":556323217,"properties":{"kind":"run","name":"Loipe Krepbach","subtype":"easy","pisteType":"nordic","featured":false},"geometry":{"type":"LineString","coordinates":[[11.0271212,47.4793093],[11.0270818,47.4790798],[11.0269951,47.4788344]]}},{"type":"Feature","id":570700557,"properties":{"kind":"run","name":"Ski touring route","subtype":"unknown","pisteType":"skitour","featured":false},"geometry":{"type":"LineString","coordinates":[[11.0811737,47.4573372],[11.0808654,47.4572467],[11.0803585,47.4571651],[11.0800715,47.4571161]]}},{"type":"Feature","id":661170208,"properties":{"kind":"run","name":"Horn-Abfahrt","subtype":"intermediate","pisteType":"downhill","featured":false},"geometry":{"type":"LineString","coordinates":[[11.0955692,47.4705658],[11.0957406,47.4712697],[11.0961758,47.4717737],[11.0973275,47.473097],[11.098666,47.4743636],[11.0992648,47.4751326],[11.0993654,47.4754967],[11.0992007,47.4760109],[11.0988683,47.4764789],[11.0983883,47.476957],[11.0981082,47.4778065]]}},{"type":"Feature","id":759937973,"properties":{"kind":"lift","name":"Hausberg","subtype":"t-bar","status":"active"},"geometry":{"type":"LineString","coordinates":[[11.0924035,47.4811315],[11.0931016,47.4791529]]}},{"type":"Feature","id":777486419,"properties":{"kind":"run","name":"Gudiberg","subtype":"advanced","pisteType":"downhill","featured":false},"geometry":{"type":"LineString","coordinates":[[11.1186434,47.4759162],[11.1188517,47.4757561],[11.1190859,47.4758977],[11.117989,47.4785549],[11.1176114,47.4796384],[11.1173765,47.4802852],[11.1168428,47.4806227]]}},{"type":"Feature","id":799124724,"properties":{"kind":"run","name":"Kandahar-Abfahrt","subtype":"advanced","pisteType":"downhill","featured":true},"geometry":{"type":"LineString","coordinates":[[11.0796655,47.4527256],[11.0797134,47.4528682],[11.0797554,47.4533063],[11.0795532,47.4538687],[11.0791358,47.4543472],[11.0790705,47.454506],[11.0790705,47.4546868],[11.079214,47.4548566],[11.0794554,47.4549514],[11.0806098,47.4551344],[11.0808936,47.4551984],[11.081099,47.4552932],[11.0811806,47.4553594],[11.081223,47.4554343],[11.0812289,47.4555125],[11.0812356,47.4556012],[11.0812392,47.4556489],[11.0811639,47.4561599],[11.0809552,47.4565881],[11.0806381,47.4572756],[11.0804529,47.4575465]]}},{"type":"Feature","id":799170755,"properties":{"kind":"run","name":"Oberer Skiweg","subtype":"easy","pisteType":"downhill","featured":false},"geometry":{"type":"LineString","coordinates":[[11.0806997,47.4554387],[11.0809058,47.4554577],[11.0811207,47.4555343],[11.0812356,47.4556012],[11.0812952,47.4556491]]}},{"type":"Feature","id":799170758,"properties":{"kind":"run","name":"Kreuzwankl-Abfahrt","subtype":"easy","pisteType":"downhill","featured":false},"geometry":{"type":"LineString","coordinates":[[11.0839813,47.4565251],[11.0841061,47.4566974],[11.0843871,47.4570738],[11.0847108,47.4573747],[11.0848799,47.4575425]]}},{"type":"Feature","id":799275102,"properties":{"kind":"run","name":"Kreuzwankl-Umfahrung","subtype":"easy","pisteType":"downhill","featured":false},"geometry":{"type":"LineString","coordinates":[[11.0848799,47.4575425],[11.0847444,47.457562],[11.084616,47.4575672],[11.0844596,47.4575593],[11.0842803,47.4575203],[11.0838388,47.4574018],[11.0834574,47.4573361],[11.0830936,47.457323],[11.0828392,47.4573853],[11.0827767,47.4574006],[11.0825094,47.4574974],[11.0824466,47.4577744],[11.0823666,47.4582189],[11.0823323,47.4585669],[11.0823952,47.4588297],[11.0826096,47.459063],[11.0829155,47.4591931],[11.0833729,47.4594328],[11.0835444,47.4595179],[11.0838875,47.4596918],[11.0841791,47.4599122]]}},{"type":"Feature","id":799275103,"properties":{"kind":"run","name":"Olympia Abfahrt","subtype":"intermediate","pisteType":"downhill","featured":false},"geometry":{"type":"LineString","coordinates":[[11.0825094,47.4574974],[11.0821532,47.4575693],[11.0818798,47.4577148],[11.0813121,47.4580171],[11.0807757,47.4584201],[11.0804422,47.4588109],[11.0801163,47.4597193],[11.0799562,47.4600788],[11.0797504,47.4603378],[11.0794759,47.4604577],[11.0791271,47.46057],[11.0783939,47.4605803],[11.0777657,47.4606153],[11.0769487,47.4608404],[11.07637,47.4611277],[11.0760741,47.4614389],[11.0759505,47.4617745],[11.0759359,47.4621464],[11.0759303,47.4622874],[11.0759582,47.4624596],[11.0759717,47.4626611],[11.0758794,47.462793],[11.0756908,47.4628737],[11.0752437,47.4629401],[11.0750494,47.4631574],[11.0748994,47.4634065],[11.0748531,47.4636343],[11.0748518,47.4637581],[11.0748511,47.4638308],[11.0749027,47.4639658],[11.074999,47.4640724],[11.0751784,47.4641791],[11.0754079,47.4642898],[11.0763941,47.4648335],[11.0767429,47.4650035],[11.0770516,47.4651388],[11.0774519,47.4653398],[11.0779499,47.4656457],[11.0781743,47.465932],[11.0782637,47.4662846],[11.0782381,47.4664805],[11.0780122,47.4668406],[11.0777992,47.467074],[11.0769213,47.4677568],[11.076542,47.4683445],[11.0760945,47.4690215],[11.0758644,47.4692318],[11.0756172,47.4694046],[11.0745177,47.4699088],[11.073985,47.4701018],[11.0732988,47.4702862],[11.0730644,47.4703063],[11.0728087,47.470289],[11.0721567,47.470194],[11.0708995,47.4701133],[11.0703753,47.4700989],[11.0700216,47.4701248],[11.0693696,47.4704014],[11.0690926,47.4705656],[11.0686834,47.4707759],[11.068172,47.4709228],[11.0678865,47.4709891],[11.0670342,47.4711072],[11.0664375,47.4712166],[11.0659133,47.4713204],[11.0654232,47.4713924],[11.0651164,47.4714327],[11.064865,47.4713808],[11.0645965,47.4712627],[11.0643652,47.4711655],[11.0641387,47.4710771],[11.0638948,47.4710002],[11.0636874,47.4709947],[11.0634638,47.4710551],[11.0632765,47.4711527]]}},{"type":"Feature","id":799275107,"properties":{"kind":"run","name":"Mittlerer Skiweg","subtype":"easy","pisteType":"downhill","featured":false},"geometry":{"type":"LineString","coordinates":[[11.0820435,47.4569753],[11.0822527,47.4571457],[11.0823675,47.457305],[11.0825094,47.4574974]]}},{"type":"Feature","id":799281762,"properties":{"kind":"run","name":"Kreuzwankl-Abfahrt","subtype":"easy","pisteType":"downhill","featured":false},"geometry":{"type":"LineString","coordinates":[[11.0848799,47.4575425],[11.0850785,47.4576237],[11.0853002,47.4577703],[11.0854547,47.4579004],[11.0857617,47.4581392]]}},{"type":"Feature","id":801869606,"properties":{"kind":"run","name":"Standard-Tonihütten Abfahrt","subtype":"intermediate","pisteType":"downhill","featured":false},"geometry":{"type":"LineString","coordinates":[[11.0813845,47.4655607],[11.0818333,47.4658215],[11.0822576,47.465927],[11.0838979,47.465956],[11.0847515,47.4660978],[11.0849422,47.4662268],[11.0856241,47.4663944],[11.0864156,47.4664782],[11.0868305,47.4666329],[11.0871309,47.4667941],[11.0872882,47.4669391],[11.0874981,47.4674259],[11.0878461,47.4679384],[11.088199,47.4682446],[11.0887092,47.4686443],[11.0888701,47.4689092],[11.0888066,47.469123],[11.0890163,47.4691559],[11.0891716,47.4691736],[11.089776,47.4691401],[11.0906885,47.4694408],[11.0912405,47.4694986],[11.0921289,47.4695312],[11.0930839,47.4696503],[11.0932748,47.4697509],[11.0941407,47.4707633],[11.0945481,47.4710428],[11.0953068,47.4711872]]}},{"type":"Feature","id":801869609,"properties":{"kind":"run","name":"Mapped ski run","subtype":"intermediate","pisteType":"downhill","featured":false},"geometry":{"type":"LineString","coordinates":[[11.0813845,47.4655607],[11.0807127,47.4653802],[11.0797047,47.4650882],[11.0791903,47.4648096]]}},{"type":"Feature","id":801940713,"properties":{"kind":"run","name":"Kreuzwankl-Umfahrung","subtype":"easy","pisteType":"downhill","featured":false},"geometry":{"type":"LineString","coordinates":[[11.0941538,47.4628113],[11.0945487,47.4630423],[11.094667,47.4631636],[11.0948083,47.4633174],[11.0949779,47.463501],[11.0951283,47.4636144],[11.0952848,47.4637028]]}},{"type":"Feature","id":801940714,"properties":{"kind":"run","name":"Bayernhaus-Abfahrt","subtype":"easy","pisteType":"downhill","featured":false},"geometry":{"type":"LineString","coordinates":[[11.0941538,47.4628113],[11.0944998,47.462748],[11.0947781,47.4626963],[11.095078,47.46265],[11.0953505,47.4626239],[11.095665,47.4626293],[11.0964454,47.462684],[11.0968012,47.4627441],[11.0970833,47.4628545],[11.097166,47.462887],[11.0982166,47.4630533],[11.0985545,47.4630787],[11.0989462,47.4630461],[11.0992948,47.4630044],[11.0995845,47.4630134],[11.0997387,47.4629984],[11.0999758,47.4629947],[11.1003462,47.462966],[11.1005688,47.4629354],[11.100754,47.4628973],[11.1009729,47.462874],[11.1012624,47.4629908],[11.1015519,47.4631331],[11.1019013,47.463365],[11.1020763,47.4634776],[11.1024142,47.4636553],[11.1026315,47.4637623],[11.1028514,47.4638983],[11.1029346,47.4639709],[11.103112,47.4640901],[11.1031956,47.4642147],[11.1033521,47.4645478],[11.1035061,47.4648428],[11.1044744,47.4654175],[11.1049361,47.4656841],[11.1050118,47.4657396],[11.1051032,47.4658264],[11.1051601,47.4659379],[11.105152,47.4659932],[11.1050855,47.4660547],[11.1049845,47.4661025],[11.1048533,47.4661158],[11.1041204,47.4660921],[11.1034547,47.4661719],[11.1029841,47.4663572],[11.1029061,47.4665925],[11.102921,47.4667934],[11.1029787,47.4669943]]}},{"type":"Feature","id":801940715,"properties":{"kind":"run","name":"Bayernhaus-Abfahrt","subtype":"easy","pisteType":"downhill","featured":false},"geometry":{"type":"LineString","coordinates":[[11.0992948,47.4630044],[11.1001373,47.4628098],[11.1003846,47.4627793],[11.1005502,47.4627722],[11.1007104,47.4627833],[11.1009729,47.462874]]}},{"type":"Feature","id":801940718,"properties":{"kind":"run","name":"Bayernhaus-Abfahrt","subtype":"easy","pisteType":"downhill","featured":false},"geometry":{"type":"LineString","coordinates":[[11.1009729,47.462874],[11.1013543,47.4632828],[11.1015277,47.46332],[11.1016952,47.4633328],[11.1019013,47.463365]]}},{"type":"Feature","id":801991919,"properties":{"kind":"run","name":"Kochelberg-Abfahrt","subtype":"intermediate","pisteType":"downhill","featured":false},"geometry":{"type":"LineString","coordinates":[[11.1037983,47.4675356],[11.1051317,47.4686396],[11.1056431,47.4690742],[11.1059454,47.4694093],[11.1062151,47.4698909],[11.1064157,47.470515],[11.1065364,47.4711526],[11.1065677,47.4717859],[11.1065257,47.4720768],[11.1064644,47.4721901],[11.106359,47.4723035],[11.1058158,47.4726016],[11.1046679,47.472985],[11.1039044,47.4732367],[11.1026194,47.4734835],[11.1021296,47.4736695],[11.1019317,47.4737834],[11.1017694,47.4739273],[11.1015183,47.4742941],[11.1014269,47.4745934],[11.1014929,47.4751703],[11.1015884,47.4759383],[11.1015438,47.4761438],[11.1014094,47.4763156],[11.1011106,47.4765068],[11.1003879,47.4768568],[11.0996134,47.4773497],[11.098841,47.4775471],[11.0981082,47.4778065]]}},{"type":"Feature","id":801991921,"properties":{"kind":"run","name":"Mapped ski run","subtype":"intermediate","pisteType":"downhill","featured":false},"geometry":{"type":"LineString","coordinates":[[11.1037983,47.4675356],[11.1039929,47.46758],[11.1041572,47.4675849],[11.1042532,47.4675801],[11.1043042,47.4675741],[11.1043881,47.4675511],[11.1044323,47.4675291],[11.1044579,47.4675074],[11.104475,47.4674686],[11.1044549,47.4674369],[11.1043778,47.4673907],[11.1043502,47.4674068]]}},{"type":"Feature","id":858117097,"properties":{"kind":"run","name":"Loipe Krepbach","subtype":"easy","pisteType":"nordic","featured":false},"geometry":{"type":"LineString","coordinates":[[11.0295666,47.4795851],[11.0296659,47.4797903],[11.0302305,47.4800749],[11.0302788,47.4801546],[11.0302345,47.4801909],[11.0301125,47.4801827],[11.0291992,47.4799933],[11.028811,47.4798645]]}},{"type":"Feature","id":858117098,"properties":{"kind":"run","name":"Loipe Krepbach","subtype":"easy","pisteType":"nordic","featured":false},"geometry":{"type":"LineString","coordinates":[[11.0281374,47.4782457],[11.0281412,47.4779738]]}},{"type":"Feature","id":875818672,"properties":{"kind":"run","name":"Kathihang","subtype":"intermediate","pisteType":"downhill","featured":false},"geometry":{"type":"LineString","coordinates":[[11.1212699,47.4786451],[11.1208655,47.4786492],[11.1205194,47.4786962],[11.1194072,47.4789947],[11.1184013,47.4793475],[11.1176114,47.4796384]]}},{"type":"Feature","id":879567294,"properties":{"kind":"run","name":"Maurerscharte - Stuibenkopf","subtype":"easy","pisteType":"skitour","featured":false},"geometry":{"type":"LineString","coordinates":[[11.073458,47.4352466],[11.0737514,47.4349075],[11.0747642,47.4343966],[11.0762576,47.4342224],[11.0770644,47.4338726],[11.077588,47.4335649],[11.0783261,47.4332281],[11.0793218,47.4325663],[11.079502,47.4322876],[11.0792874,47.4316663],[11.0790986,47.4312541],[11.0785407,47.4301567],[11.0781888,47.429907],[11.0777596,47.4297118],[11.0779785,47.4293431],[11.0771073,47.428205],[11.076146,47.426071],[11.0766224,47.4253974],[11.0770301,47.42475],[11.0773219,47.4243202],[11.0780484,47.4241635],[11.0780141,47.4238819],[11.0783445,47.4240793],[11.0786235,47.423908],[11.0788681,47.4239138],[11.0791969,47.4243059],[11.0803916,47.4243058],[11.0808116,47.4242221],[11.081289,47.4241931],[11.0815895,47.424556],[11.0813271,47.4248575],[11.0806061,47.4270263],[11.0820266,47.4309203],[11.0829536,47.4331266],[11.084387,47.4341485],[11.0815632,47.4334866],[11.0810653,47.4331963],[11.0803615,47.4332021],[11.0793218,47.4325663]]}},{"type":"Feature","id":911873769,"properties":{"kind":"run","name":"Kreuzwankl-Umfahrung","subtype":"easy","pisteType":"downhill","featured":false},"geometry":{"type":"LineString","coordinates":[[11.0861673,47.4617301],[11.086326,47.4617915],[11.0864393,47.4618249],[11.0865739,47.4618345],[11.0871433,47.4618484],[11.0875311,47.4618606],[11.0877368,47.4619178],[11.0886492,47.4622061],[11.0890949,47.4622875],[11.0898442,47.4623594],[11.0900125,47.4624017],[11.0903432,47.4624351],[11.0904256,47.4624479],[11.0909357,47.4626553],[11.0915916,47.4628297],[11.0920386,47.4629288],[11.0926527,47.4629997],[11.0930378,47.4629868],[11.0932799,47.4630434]]}},{"type":"Feature","id":911873770,"properties":{"kind":"run","name":"Ski touring route","subtype":"unknown","pisteType":"skitour","featured":false},"geometry":{"type":"LineString","coordinates":[[11.0708931,47.4538903],[11.0707905,47.453914],[11.0706453,47.4539898],[11.0705123,47.4539907],[11.0703505,47.4538672],[11.0700536,47.4538507],[11.0700056,47.4538144],[11.070118,47.4535141],[11.0700707,47.4534864],[11.0697791,47.453538],[11.0694202,47.4535456],[11.0693039,47.4535182],[11.0692183,47.4534489],[11.0691148,47.4533532],[11.0689364,47.453236],[11.0688974,47.4530346],[11.0688429,47.4529907],[11.068591,47.4530204],[11.0684107,47.452954],[11.0682448,47.4529495],[11.068169,47.4528416],[11.0680167,47.452682],[11.0679323,47.4526123],[11.0678165,47.4525935],[11.067512,47.4526471],[11.0674393,47.4526337],[11.0673628,47.4525582],[11.0673584,47.4523913]]}},{"type":"Feature","id":911873771,"properties":{"kind":"run","name":"Ski touring route","subtype":"unknown","pisteType":"skitour","featured":false},"geometry":{"type":"LineString","coordinates":[[11.0949144,47.4817868],[11.0950048,47.481474],[11.0957498,47.4805218],[11.0957849,47.4804769],[11.0960723,47.4801469],[11.0964586,47.4792036],[11.0965518,47.4789183],[11.0967979,47.4785939],[11.0970186,47.478363],[11.0974293,47.4780975],[11.0975575,47.478019],[11.0981181,47.4773207],[11.0982075,47.476838],[11.0984701,47.47643],[11.0987696,47.4761339],[11.0989337,47.4757881],[11.0988912,47.4750949],[11.0977895,47.4740109],[11.0975773,47.4736174],[11.0971594,47.4732589],[11.0965215,47.4724716],[11.0962385,47.4721532],[11.0953068,47.4711872]]}},{"type":"Feature","id":911873772,"properties":{"kind":"run","name":"Standard-Tonihütten Abfahrt","subtype":"intermediate","pisteType":"downhill","featured":false},"geometry":{"type":"LineString","coordinates":[[11.0953068,47.4711872],[11.0957406,47.4712697]]}},{"type":"Feature","id":911873774,"properties":{"kind":"run","name":"Ski touring route","subtype":"unknown","pisteType":"skitour","featured":false},"geometry":{"type":"LineString","coordinates":[[11.0841791,47.4599122],[11.0833807,47.4596002],[11.0823727,47.459186],[11.081824,47.4590531],[11.0812797,47.4590398],[11.081064,47.4591052],[11.0807642,47.4591433],[11.0806285,47.4590794],[11.080681,47.4588544],[11.0814079,47.4583624],[11.0813121,47.4580171],[11.0811211,47.4576968],[11.0811017,47.4576277],[11.0811279,47.4575205],[11.0813128,47.457378]]}},{"type":"Feature","id":912172499,"properties":{"kind":"run","name":"Mapped ski run","subtype":"intermediate","pisteType":"downhill","featured":false},"geometry":{"type":"LineString","coordinates":[[11.0791903,47.4648096],[11.0788945,47.4647762],[11.0786734,47.4648425],[11.0779514,47.4653809],[11.0779198,47.465505],[11.0779499,47.4656457]]}},{"type":"Feature","id":912172500,"properties":{"kind":"run","name":"Kreuzwankl-Umfahrung","subtype":"easy","pisteType":"downhill","featured":false},"geometry":{"type":"LineString","coordinates":[[11.0841791,47.4599122],[11.0846365,47.4602137],[11.0852083,47.4606969],[11.0856085,47.4610332],[11.0858595,47.4613619],[11.0860424,47.4615884],[11.0861673,47.4617301]]}},{"type":"Feature","id":912172503,"properties":{"kind":"run","name":"Ski touring route","subtype":"unknown","pisteType":"skitour","featured":false},"geometry":{"type":"LineString","coordinates":[[11.0875768,47.4627928],[11.0876269,47.462683],[11.0877276,47.4625953],[11.0882193,47.46247],[11.0887876,47.4624456],[11.0910789,47.4627937],[11.0929859,47.4631467]]}},{"type":"Feature","id":912173775,"properties":{"kind":"run","name":"Hochalmweg","subtype":"easy","pisteType":"downhill","featured":false},"geometry":{"type":"LineString","coordinates":[[11.0666328,47.4509864],[11.0665704,47.4509337],[11.0664933,47.4508535],[11.0664617,47.4507847],[11.0664228,47.4506837],[11.0664071,47.4506008],[11.0664163,47.4504577],[11.066365,47.4502844],[11.0662639,47.4501359],[11.0660949,47.4499534],[11.0659302,47.4497589],[11.0658496,47.4496856],[11.0657274,47.4495796],[11.0654905,47.4494264],[11.0654229,47.4493861],[11.0653262,47.4493286]]}},{"type":"Feature","id":1010008581,"properties":{"kind":"run","name":"Loipe Krepbach","subtype":"easy","pisteType":"nordic","featured":false},"geometry":{"type":"LineString","coordinates":[[11.0299614,47.4786256],[11.029673,47.478627]]}},{"type":"Feature","id":1010008582,"properties":{"kind":"run","name":"Loipe Krepbach","subtype":"easy","pisteType":"nordic","featured":false},"geometry":{"type":"LineString","coordinates":[[11.030045,47.4786253],[11.0299614,47.4786256]]}},{"type":"Feature","id":1017193141,"properties":{"kind":"run","name":"Mapped ski run","subtype":"intermediate","pisteType":"downhill","featured":false},"geometry":{"type":"LineString","coordinates":[[11.0618064,47.4363195],[11.0617134,47.4364322],[11.0616816,47.4364968],[11.061672,47.4365779]]}},{"type":"Feature","id":1018463937,"properties":{"kind":"run","name":"Hexenkessel","subtype":"intermediate","pisteType":"downhill","featured":false},"geometry":{"type":"LineString","coordinates":[[11.066594,47.4514227],[11.0667056,47.4513963],[11.0668701,47.4513953],[11.0669746,47.4514177],[11.0671201,47.4514727],[11.0675776,47.4517715],[11.0676877,47.4518834],[11.0678754,47.452048],[11.0679133,47.452088],[11.0681598,47.4522922],[11.0686711,47.452548],[11.0688685,47.4526422],[11.069688,47.4530214],[11.0703843,47.453338],[11.0708712,47.4535714],[11.0711484,47.453663],[11.0712303,47.4536723],[11.0712963,47.4536797],[11.0714987,47.4536778]]}},{"type":"Feature","id":1018463938,"properties":{"kind":"run","name":"Mapped ski run","subtype":"intermediate","pisteType":"downhill","featured":false},"geometry":{"type":"LineString","coordinates":[[11.0671201,47.4523362],[11.0671468,47.4522289],[11.0672916,47.4520773],[11.067392,47.4520426],[11.0675041,47.4520205],[11.0676722,47.452022],[11.0678754,47.452048]]}},{"type":"Feature","id":1018463939,"properties":{"kind":"run","name":"Hexenkessel","subtype":"intermediate","pisteType":"downhill","featured":false},"geometry":{"type":"LineString","coordinates":[[11.0717164,47.4527721],[11.0716402,47.4528072],[11.0713874,47.4529021],[11.0712404,47.4529819],[11.0711686,47.4530469],[11.0710994,47.4531775],[11.071073,47.4533259],[11.0710792,47.45344],[11.0711076,47.4535514],[11.0711686,47.4536173],[11.0712303,47.4536723]]}},{"type":"Feature","id":1018463940,"properties":{"kind":"run","name":"Mapped ski run","subtype":"intermediate","pisteType":"downhill","featured":false},"geometry":{"type":"LineString","coordinates":[[11.0678754,47.452048],[11.0681103,47.4520567],[11.0683651,47.4520621],[11.0685253,47.4520558]]}},{"type":"Feature","id":1018463942,"properties":{"kind":"run","name":"Mapped ski run","subtype":"intermediate","pisteType":"downhill","featured":false},"geometry":{"type":"LineString","coordinates":[[11.0686711,47.452548],[11.0689617,47.4525649],[11.0693126,47.4525631],[11.0696485,47.4525419],[11.0698944,47.4525043],[11.0700959,47.4524609],[11.0702688,47.4524081],[11.0704321,47.4523608],[11.0706066,47.4523352],[11.0706511,47.4523229]]}},{"type":"Feature","id":1020776788,"properties":{"kind":"run","name":"Kreuzwankl-Abfahrt","subtype":"easy","pisteType":"downhill","featured":false},"geometry":{"type":"LineString","coordinates":[[11.0847516,47.4569712],[11.0847573,47.4569372],[11.0848231,47.4568958],[11.0849016,47.4569015],[11.085023,47.4569676],[11.0851959,47.4570814],[11.0853554,47.4572116],[11.085487,47.4573698],[11.0857276,47.4576182],[11.0859038,47.4577668],[11.0861625,47.4579362],[11.0864774,47.4580959],[11.086908,47.4582751],[11.0872582,47.4583981],[11.0881684,47.4588554],[11.0890095,47.459284],[11.0898764,47.4595392],[11.0904922,47.4597529],[11.0907546,47.4598712],[11.0909889,47.4600021],[11.091284,47.4603068],[11.0918043,47.4611301],[11.0921208,47.4616016],[11.0930787,47.4621819],[11.0936246,47.4625054],[11.0941538,47.4628113]]}},{"type":"Feature","id":1020776789,"properties":{"kind":"run","name":"Kreuzwankl-Abfahrt","subtype":"easy","pisteType":"downhill","featured":false},"geometry":{"type":"LineString","coordinates":[[11.0847516,47.4569712],[11.0845972,47.4568766],[11.0845261,47.4568076],[11.0844388,47.4567054],[11.0843232,47.4565933],[11.0842415,47.4565309],[11.0841492,47.4565025],[11.0840897,47.4565001],[11.0840535,47.4564985],[11.084029,47.4565056],[11.0839813,47.4565251]]}},{"type":"Feature","id":1020776790,"properties":{"kind":"run","name":"Kreuzwankl-Abfahrt","subtype":"easy","pisteType":"downhill","featured":false},"geometry":{"type":"LineString","coordinates":[[11.0857617,47.4581392],[11.0858691,47.4582607],[11.0859576,47.4583373],[11.0860407,47.4583672],[11.0861411,47.4583958],[11.0862338,47.4584321],[11.0863752,47.4585095],[11.0864508,47.4585499],[11.0866926,47.4586788],[11.0873577,47.4590305],[11.0875988,47.459168],[11.0882655,47.4595483],[11.0888903,47.4599339],[11.0892454,47.4601349],[11.0893976,47.460221],[11.0911042,47.4611871],[11.0915385,47.461405],[11.0921208,47.4616016]]}},{"type":"Feature","id":1020776791,"properties":{"kind":"run","name":"Trögllifthang","subtype":"intermediate","pisteType":"downhill","featured":false},"geometry":{"type":"LineString","coordinates":[[11.0866926,47.4586788],[11.0866947,47.4589594],[11.0867318,47.4594675],[11.0868258,47.4600037],[11.0870229,47.4612951],[11.0870393,47.4614122],[11.0870045,47.4616073],[11.0869671,47.4616772],[11.0868133,47.4616826],[11.0867416,47.461668]]}},{"type":"Feature","id":1020776792,"properties":{"kind":"run","name":"Mapped ski run","subtype":"intermediate","pisteType":"downhill","featured":false},"geometry":{"type":"LineString","coordinates":[[11.0870393,47.4614122],[11.0871625,47.4615627],[11.08729,47.4616869],[11.0873836,47.4617679],[11.0875311,47.4618606]]}},{"type":"Feature","id":1020776793,"properties":{"kind":"run","name":"Mapped ski run","subtype":"easy","pisteType":"downhill","featured":false},"geometry":{"type":"LineString","coordinates":[[11.0864774,47.4580959],[11.0866068,47.4582236],[11.0866799,47.458438],[11.0866926,47.4586788]]}},{"type":"Feature","id":1020776794,"properties":{"kind":"run","name":"Mapped ski run","subtype":"easy","pisteType":"downhill","featured":false},"geometry":{"type":"LineString","coordinates":[[11.0860675,47.4585619],[11.0861217,47.4585476],[11.086205,47.4585475],[11.0864508,47.4585499]]}},{"type":"Feature","id":1020776795,"properties":{"kind":"run","name":"Kreuzwankl-Abfahrt","subtype":"easy","pisteType":"downhill","featured":false},"geometry":{"type":"LineString","coordinates":[[11.0875988,47.459168],[11.0879939,47.459213],[11.0885357,47.459242],[11.0890095,47.459284]]}},{"type":"Feature","id":1020776796,"properties":{"kind":"run","name":"Mapped ski run","subtype":"novice","pisteType":"downhill","featured":false},"geometry":{"type":"LineString","coordinates":[[11.0927434,47.4637571],[11.0926383,47.4637053],[11.0925636,47.46364],[11.0925053,47.4635646],[11.0924738,47.463496],[11.0924563,47.463421],[11.0924446,47.4633042],[11.0924492,47.4632237],[11.0924796,47.4631589],[11.0925497,47.4631179],[11.0926372,47.463104]]}},{"type":"Feature","id":1020776797,"properties":{"kind":"run","name":"Mapped ski run","subtype":"easy","pisteType":"downhill","featured":false},"geometry":{"type":"LineString","coordinates":[[11.0930787,47.4621819],[11.0931419,47.4622721],[11.0932374,47.4625283],[11.0932806,47.4628491],[11.0932799,47.4630434],[11.09317,47.4630605],[11.0929728,47.4630762],[11.0928388,47.4630814],[11.0926372,47.463104]]}},{"type":"Feature","id":1020776798,"properties":{"kind":"run","name":"Kreuzwankl-Abfahrt","subtype":"easy","pisteType":"downhill","featured":false},"geometry":{"type":"LineString","coordinates":[[11.0892454,47.4601349],[11.0894151,47.4603504],[11.08968,47.4607962],[11.0901237,47.4615003],[11.0902506,47.4617027],[11.0905506,47.4619554],[11.0908513,47.4621762],[11.0910105,47.462332],[11.0910425,47.4624579],[11.0909357,47.4626553]]}},{"type":"Feature","id":1020776799,"properties":{"kind":"lift","name":"Rimmlermooslift 1","subtype":"t-bar","status":"active"},"geometry":{"type":"LineString","coordinates":[[11.0907812,47.4636106],[11.0887842,47.4616982],[11.0885054,47.4614311]]}},{"type":"Feature","id":1020776801,"properties":{"kind":"run","name":"Rimmlermoos-Abfahrt","subtype":"easy","pisteType":"downhill","featured":false},"geometry":{"type":"LineString","coordinates":[[11.0891314,47.4608935],[11.0890991,47.4609845],[11.0890803,47.4612148],[11.0891286,47.461465],[11.0893107,47.4617665],[11.0893803,47.4618816],[11.0896436,47.4621686],[11.0898442,47.4623594],[11.0900674,47.4626002],[11.09019,47.4627374],[11.0903785,47.4629484],[11.090636,47.4632857],[11.090754,47.4634688],[11.0907783,47.4635415],[11.0907812,47.4636106]]}},{"type":"Feature","id":1020776802,"properties":{"kind":"run","name":"Rimmlermoos-Abfahrt","subtype":"easy","pisteType":"downhill","featured":false},"geometry":{"type":"LineString","coordinates":[[11.0909357,47.4626553],[11.0909196,47.4626934],[11.0907375,47.4629365],[11.0906534,47.4631322],[11.090636,47.4632857]]}},{"type":"Feature","id":1020776803,"properties":{"kind":"run","name":"Mapped ski run","subtype":"intermediate","pisteType":"downhill","featured":false},"geometry":{"type":"LineString","coordinates":[[11.0875311,47.4618606],[11.0876152,47.4619536],[11.0877107,47.4621744],[11.0877107,47.4623077],[11.0876398,47.4624869],[11.0875875,47.4625994],[11.0875743,47.4626877],[11.0875768,47.4627928]]}},{"type":"Feature","id":1021922899,"properties":{"kind":"run","name":"Mapped ski run","subtype":"easy","pisteType":"downhill","featured":false},"geometry":{"type":"LineString","coordinates":[[11.0666328,47.4509864],[11.0668855,47.4511652],[11.067105,47.4512711],[11.0677422,47.4516876],[11.0680385,47.4518761],[11.0681899,47.4519596],[11.0683317,47.4520104],[11.0685253,47.4520558],[11.0687799,47.4520802],[11.0691065,47.4520813],[11.0693807,47.4520646],[11.0697581,47.4520813],[11.0701432,47.4521749]]}},{"type":"Feature","id":1027300439,"properties":{"kind":"run","name":"Mapped ski run","subtype":"intermediate","pisteType":"downhill","featured":false},"geometry":{"type":"LineString","coordinates":[[11.0781907,47.4654547],[11.078463,47.4651528],[11.0789188,47.464859],[11.0794744,47.4650324],[11.0796715,47.4651979],[11.0806917,47.4654405],[11.0815257,47.4656984],[11.0814518,47.4654712],[11.0797016,47.4650169],[11.0789127,47.4645329],[11.078643,47.4647239],[11.0777165,47.4652996],[11.0781907,47.4654547]]}},{"type":"Feature","id":1062648471,"properties":{"kind":"run","name":"Mapped ski run","subtype":"easy","pisteType":"downhill","featured":false},"geometry":{"type":"LineString","coordinates":[[11.0653262,47.4493286],[11.0655806,47.4495376],[11.0657423,47.4496963],[11.0660063,47.4500281]]}},{"type":"Feature","id":1062648472,"properties":{"kind":"run","name":"Rimmlermoos-Abfahrt","subtype":"easy","pisteType":"downhill","featured":false},"geometry":{"type":"LineString","coordinates":[[11.0893107,47.4617665],[11.0891597,47.4617226],[11.0889544,47.4616963],[11.0887842,47.4616982]]}},{"type":"Feature","id":1062648473,"properties":{"kind":"run","name":"Rimmlermoos-Abfahrt","subtype":"easy","pisteType":"downhill","featured":false},"geometry":{"type":"LineString","coordinates":[[11.09019,47.4627374],[11.0902996,47.4627919],[11.0904216,47.4628276],[11.090482,47.4628217]]}},{"type":"Feature","id":1062648474,"properties":{"kind":"run","name":"Kochelberg-Abfahrt","subtype":"intermediate","pisteType":"downhill","featured":false},"geometry":{"type":"LineString","coordinates":[[11.0956563,47.4635084],[11.0955763,47.463524],[11.0955332,47.4635355],[11.0954931,47.4635709],[11.0954839,47.4636271],[11.0955054,47.4636802],[11.0955545,47.4637304]]}},{"type":"Feature","id":1147663033,"properties":{"kind":"run","name":"Olympia Abfahrt","subtype":"intermediate","pisteType":"downhill","featured":false},"geometry":{"type":"LineString","coordinates":[[11.0752437,47.4629401],[11.0749837,47.4629917],[11.074644,47.4630993],[11.0743626,47.4632936],[11.0738953,47.4636537]]}},{"type":"Feature","id":1147663034,"properties":{"kind":"run","name":"Olympia Abfahrt","subtype":"easy","pisteType":"downhill","featured":false},"geometry":{"type":"LineString","coordinates":[[11.0759359,47.4621464],[11.0759578,47.4621825],[11.0760012,47.4622113],[11.0762783,47.462326],[11.0769972,47.4625462],[11.0773179,47.4627145],[11.0774669,47.4629535],[11.0776118,47.4632804],[11.0776646,47.4634806],[11.0775717,47.4635904],[11.0773082,47.4636696],[11.0769931,47.4637057],[11.0767362,47.4637002],[11.076525,47.463655],[11.0761733,47.463582],[11.0757573,47.4635236],[11.0753738,47.4635322],[11.0751558,47.4635649],[11.0748518,47.4637581]]}},{"type":"Feature","id":1147663035,"properties":{"kind":"run","name":"Mittlerer Skiweg","subtype":"easy","pisteType":"downhill","featured":false},"geometry":{"type":"LineString","coordinates":[[11.0814945,47.456754],[11.0819347,47.4569246],[11.0824112,47.4571303],[11.0827293,47.4572992],[11.0828392,47.4573853]]}},{"type":"Feature","id":1147663036,"properties":{"kind":"run","name":"Mittlerer Skiweg","subtype":"easy","pisteType":"downhill","featured":false},"geometry":{"type":"LineString","coordinates":[[11.0701432,47.4521749],[11.0706511,47.4523229],[11.0710178,47.452453],[11.0712161,47.4525249],[11.0714418,47.4526364],[11.0717164,47.4527721],[11.0718398,47.4528484],[11.0719037,47.4529164],[11.0721432,47.4531999],[11.0722525,47.4532868],[11.0723455,47.4533506],[11.0724433,47.4534085],[11.072605,47.4534886],[11.0729314,47.4536753],[11.0732313,47.4538357],[11.0734826,47.4539429],[11.0736489,47.4539837],[11.0740164,47.4540391],[11.0744079,47.4541173],[11.0745702,47.454156],[11.0747003,47.4542231],[11.0747821,47.4542902],[11.0748948,47.4544044],[11.0750262,47.454535],[11.0751335,47.454633],[11.0752434,47.4547309],[11.0753413,47.4547726],[11.075489,47.4548034],[11.0758932,47.4548516],[11.0762756,47.4549179],[11.076649,47.4550057],[11.0769067,47.455101],[11.077011,47.4551589],[11.0771931,47.455292],[11.0773722,47.455444],[11.0777218,47.4558336],[11.0779901,47.4560603],[11.0783056,47.4562831],[11.0785731,47.4563885],[11.078851,47.4564796],[11.0791273,47.4565526],[11.0792596,47.4565726],[11.0796787,47.4565663],[11.0802483,47.4565399],[11.0803606,47.4565443]]}},{"type":"Feature","id":1147663037,"properties":{"kind":"run","name":"Längenfelder Abfahrt II","subtype":"intermediate","pisteType":"downhill","featured":false},"geometry":{"type":"LineString","coordinates":[[11.0579375,47.4442785],[11.0580928,47.444273],[11.0582294,47.4442796],[11.0585394,47.4442043],[11.0587369,47.4441097],[11.058959,47.4440148],[11.0592013,47.4439801],[11.0595772,47.4439706],[11.0599126,47.4439514],[11.0601707,47.4439446],[11.0605224,47.4439326],[11.0608329,47.4438628],[11.0610643,47.4437768],[11.0612798,47.443459],[11.0613488,47.4432788],[11.0613253,47.4428501],[11.0612923,47.4427491],[11.0611356,47.4427428],[11.0610268,47.4428191],[11.0609404,47.4430087],[11.0608527,47.4431679],[11.0607834,47.4434528],[11.0607347,47.4435795],[11.0606214,47.4436543],[11.0604187,47.4436731],[11.0596741,47.4436985],[11.0592991,47.4436796],[11.0589256,47.4437333],[11.0587066,47.4437903],[11.0585132,47.4438757],[11.0580797,47.4441079],[11.0579648,47.4441418],[11.0577789,47.4440769],[11.0579375,47.4442785]]}},{"type":"Feature","id":1147663038,"properties":{"kind":"run","name":"Längenfelder Abfahrt I","subtype":"intermediate","pisteType":"downhill","featured":false},"geometry":{"type":"LineString","coordinates":[[11.0571117,47.4436461],[11.0573858,47.4435684],[11.0577789,47.4440769],[11.0579375,47.4442785],[11.0580094,47.44437],[11.0582728,47.4446473],[11.0586076,47.4449188],[11.0589865,47.445235],[11.0593517,47.4454862],[11.0597976,47.4457997],[11.0604267,47.4462812],[11.0606583,47.4464863],[11.0608124,47.4465988],[11.0607632,47.4466558],[11.0607808,47.446704],[11.0608901,47.4467551],[11.0606897,47.4468345],[11.0603799,47.4468277],[11.0601165,47.4466975],[11.0599587,47.4465961],[11.0597206,47.4465167],[11.0595865,47.4464299],[11.0594599,47.4462531],[11.0592493,47.445896],[11.0591069,47.4456862],[11.0587224,47.4453398],[11.0585867,47.4452422],[11.0581312,47.4451412],[11.0580401,47.4450816],[11.0580086,47.4449577],[11.057884,47.4448226],[11.057615,47.4444574],[11.0572451,47.4439728],[11.0572632,47.4439194],[11.0572898,47.4438567],[11.0572099,47.4437565],[11.0571117,47.4436461]]}},{"type":"Feature","id":1147663041,"properties":{"kind":"run","name":"Längenfelder Abfahrt II","subtype":"intermediate","pisteType":"downhill","featured":false},"geometry":{"type":"LineString","coordinates":[[11.0610653,47.4413793],[11.0610367,47.4412456],[11.0610387,47.4411303],[11.0610875,47.4409902],[11.0611038,47.4408795],[11.0611065,47.4408303],[11.061097,47.440703],[11.0610763,47.4405523],[11.061074,47.4404359],[11.0610985,47.4403416],[11.061128,47.4403066],[11.0611601,47.4402824],[11.0612351,47.4402541],[11.061326,47.4402457],[11.061417,47.4402591],[11.0615103,47.4402786],[11.0615903,47.4403109],[11.0617249,47.4403867]]}},{"type":"Feature","id":1147663042,"properties":{"kind":"run","name":"Osterfelder-Abfahrt","subtype":"intermediate","pisteType":"downhill","featured":false},"geometry":{"type":"LineString","coordinates":[[11.0603341,47.4372721],[11.0602117,47.4373443],[11.0601938,47.4374007],[11.0603031,47.4376232],[11.0603623,47.4378238],[11.0603553,47.4381015],[11.0603479,47.43837],[11.0603138,47.4384707],[11.0603199,47.4385676],[11.0603732,47.4386167],[11.0607367,47.4387118],[11.0610412,47.4387821],[11.0611892,47.4388507],[11.0613085,47.4389305],[11.0614305,47.4390208],[11.0615342,47.4391008],[11.0616448,47.439299],[11.0616095,47.4395968],[11.061512,47.4400186],[11.0615095,47.4401239],[11.0615547,47.4402056],[11.0617249,47.4403867],[11.0618006,47.4405105],[11.0620109,47.4407292],[11.062113,47.4408098],[11.0621911,47.4408715]]}},{"type":"Feature","id":1147663043,"properties":{"kind":"run","name":"Osterfelder-Abfahrt","subtype":"intermediate","pisteType":"downhill","featured":false},"geometry":{"type":"LineString","coordinates":[[11.0508365,47.4389697],[11.0512138,47.4390545],[11.05139,47.4388838],[11.0514898,47.4387564],[11.051692,47.4385541],[11.0518652,47.4383523],[11.0519838,47.4381836],[11.0521709,47.437973],[11.0522583,47.4378301],[11.0523745,47.4377173],[11.0525083,47.4376478],[11.052884,47.4374243],[11.0530852,47.4373084],[11.0533236,47.4371768],[11.0536044,47.4369837],[11.0538603,47.436782],[11.054131,47.4365588],[11.0542971,47.4363481],[11.0543455,47.4362122],[11.0543517,47.435971],[11.0543618,47.4358844],[11.0544101,47.4358062],[11.0543268,47.435791],[11.0540141,47.4360241],[11.0536473,47.4363036],[11.0532924,47.4366026],[11.0531297,47.4367875],[11.0528683,47.436962],[11.0526712,47.4370095],[11.0523215,47.4370977],[11.0520843,47.4371459],[11.0517176,47.4371995],[11.0514721,47.4372661],[11.0511612,47.4374915],[11.0507115,47.4376131],[11.0501839,47.4377875],[11.0496283,47.4380228],[11.0496819,47.4381661],[11.0497624,47.4383058],[11.0498656,47.4384201],[11.0501017,47.4382732],[11.0503136,47.4381671],[11.0507722,47.4380174],[11.050905,47.4380183],[11.050988,47.4380888],[11.0510298,47.4382725],[11.0509242,47.4383442],[11.0506929,47.438502],[11.0505479,47.4386762],[11.0503308,47.4387817],[11.0502102,47.4389006],[11.0501739,47.4389998],[11.050178,47.4391059],[11.050271,47.4391729],[11.05052,47.4391073],[11.050683,47.4390468],[11.0507543,47.4389818],[11.0508365,47.4389697]]}},{"type":"Feature","id":1147663044,"properties":{"kind":"run","name":"Osterfelder-Abfahrt","subtype":"intermediate","pisteType":"downhill","featured":false},"geometry":{"type":"LineString","coordinates":[[11.0544994,47.4353027],[11.0541527,47.4351921],[11.0538579,47.4350556],[11.0536952,47.4349516],[11.0536235,47.4348612],[11.0536193,47.4348112],[11.0536507,47.4347265],[11.0538602,47.4345984],[11.0541419,47.4344841],[11.0548039,47.4342115],[11.0552506,47.4339745],[11.0557681,47.4337826]]}},{"type":"Feature","id":1148324459,"properties":{"kind":"run","name":"Hochalmweg","subtype":"easy","pisteType":"downhill","featured":false},"geometry":{"type":"LineString","coordinates":[[11.066594,47.4514227],[11.0665932,47.4512908],[11.0666125,47.4511116],[11.0666328,47.4509864]]}},{"type":"Feature","id":1148324460,"properties":{"kind":"run","name":"Hexenkessel","subtype":"intermediate","pisteType":"downhill","featured":false},"geometry":{"type":"LineString","coordinates":[[11.0713753,47.4538389],[11.0714056,47.4537537],[11.0713193,47.4537244],[11.0713048,47.4536078],[11.071311,47.4534639],[11.0712798,47.4533234],[11.0712585,47.4530847],[11.0713137,47.4529762],[11.0714896,47.4529166],[11.0717531,47.4528702],[11.0715732,47.4527767],[11.0713769,47.4526701],[11.0711708,47.4525664],[11.0709535,47.452479],[11.0708064,47.4524171],[11.070641,47.4523395],[11.0703848,47.4522716],[11.0701705,47.452211],[11.0698905,47.4521408],[11.0696308,47.452116],[11.0696216,47.4522689],[11.0691763,47.4523081],[11.0690927,47.4521228],[11.0688785,47.4521443],[11.0685006,47.4521041],[11.0680829,47.4519558],[11.0677208,47.4517138],[11.067543,47.4515719],[11.0673456,47.4514371],[11.0670436,47.4512626],[11.0667721,47.451156],[11.0665847,47.4511755],[11.0665288,47.4512651],[11.0664823,47.4513425],[11.0666202,47.451375],[11.0668944,47.451448],[11.067047,47.4515513],[11.0671219,47.4516413],[11.067182,47.4517412],[11.0673799,47.4518016],[11.067399,47.4518908],[11.0673458,47.4519109],[11.0672288,47.4518376],[11.0670331,47.4518045],[11.0669629,47.4517211],[11.066876,47.4516861],[11.0667947,47.4516835],[11.0667345,47.4517128],[11.0666846,47.451754],[11.0666912,47.4518224],[11.0668942,47.4519987],[11.0670077,47.4520639],[11.0672761,47.4521396],[11.0673605,47.4521207],[11.0675217,47.4520895],[11.0676282,47.4520782],[11.0678446,47.4521939],[11.0679142,47.4523525],[11.0680744,47.4524974],[11.068256,47.4525814],[11.0685257,47.4526424],[11.0686485,47.4527422],[11.0688365,47.4528893],[11.0693468,47.4531259],[11.0696265,47.4532364],[11.0699269,47.4533721],[11.0704065,47.4535797],[11.070817,47.4537456],[11.0713753,47.4538389]]}},{"type":"Feature","id":1148324461,"properties":{"kind":"run","name":"Osterfelder-Abfahrt","subtype":"intermediate","pisteType":"downhill","featured":false},"geometry":{"type":"LineString","coordinates":[[11.0605229,47.4372004],[11.0604804,47.4373798],[11.0605365,47.4374997],[11.0607954,47.4378403],[11.060991,47.4380329],[11.0611709,47.4381788],[11.0613405,47.4384135],[11.0614963,47.4385504],[11.0618953,47.4388281],[11.0621831,47.4390486],[11.0622894,47.4391353],[11.0624248,47.4392551],[11.0625689,47.4393963],[11.0626907,47.4395741],[11.0626952,47.439789],[11.0625868,47.4400059],[11.0622005,47.440608],[11.0623032,47.4407028],[11.0622533,47.4408958],[11.0622086,47.4410175],[11.062203,47.4410781],[11.0610285,47.4410697],[11.0610653,47.440846],[11.0616113,47.4407824],[11.061648,47.4406085],[11.0614061,47.4405497],[11.0611053,47.4405014],[11.0611189,47.440395],[11.0611535,47.4403178],[11.0612313,47.4402304],[11.0614174,47.4401801],[11.0615862,47.4401421],[11.0618656,47.4402969],[11.0620088,47.4403145],[11.0621496,47.4400164],[11.0621323,47.439826],[11.062054,47.4396474],[11.0618361,47.4394928],[11.0617507,47.4392337],[11.0616191,47.4389566],[11.0611787,47.4387321],[11.060839,47.4386523],[11.0605046,47.4385575],[11.0603959,47.4385125],[11.0604016,47.4384049],[11.0604017,47.4382047],[11.0604424,47.4380307],[11.0604538,47.4378666],[11.0604193,47.4377436],[11.0603006,47.4375415],[11.0602357,47.4374017],[11.0601987,47.4373163],[11.0602315,47.4372432],[11.0603014,47.437207],[11.0603743,47.4371977],[11.0605229,47.4372004]]}},{"type":"Feature","id":1148324462,"properties":{"kind":"run","name":"Mapped ski run","subtype":"intermediate","pisteType":"downhill","featured":false},"geometry":{"type":"LineString","coordinates":[[11.0605645,47.4360114],[11.0609704,47.4361364],[11.0613707,47.4364006],[11.0615631,47.4367128],[11.0616396,47.4368471],[11.0617825,47.4369547],[11.062078,47.4370179],[11.0624232,47.4370372],[11.0627616,47.4369814],[11.0631083,47.4369349],[11.0633485,47.4368996],[11.0635987,47.4368683],[11.0638067,47.4368215],[11.0640226,47.436772],[11.0642879,47.4367202],[11.0644901,47.4366762],[11.0648261,47.4366097],[11.065101,47.4365524],[11.0654619,47.4364639],[11.0657579,47.4363887],[11.0659606,47.4363072],[11.0660591,47.4361925],[11.0661438,47.4360809],[11.0661691,47.4359689],[11.0661458,47.4358283],[11.0661552,47.4357636],[11.066318,47.4356236],[11.0663899,47.4355901],[11.0664637,47.4355525],[11.0666555,47.4354953],[11.0669276,47.4354165],[11.0672697,47.4353042],[11.0674741,47.4352643],[11.0676623,47.4352676],[11.067881,47.4352905],[11.068194,47.4353453],[11.0686824,47.4353795],[11.0688693,47.4353989],[11.0690963,47.4353828],[11.0692541,47.4353168],[11.0696044,47.4351116],[11.0697975,47.4349859],[11.069996,47.4348479],[11.070139,47.4348091],[11.0703017,47.4348169],[11.0704552,47.4347926],[11.0706832,47.4347509],[11.0709898,47.4346943],[11.0711949,47.4346718],[11.0714395,47.434701],[11.0715638,47.4347404],[11.071804,47.4347562],[11.0719972,47.4348346],[11.0722828,47.4348483],[11.0724593,47.4348558],[11.0727401,47.4349475],[11.0728931,47.4351623],[11.0730123,47.4353241],[11.0737619,47.4355564],[11.074035,47.4356522],[11.0741857,47.4357086],[11.074413,47.4356991],[11.0743838,47.4355102],[11.0741907,47.4354841],[11.0739832,47.4353938],[11.0736884,47.4352971],[11.0731741,47.4351075],[11.0728888,47.43475],[11.072721,47.434663],[11.0724165,47.4346228],[11.0721542,47.434547],[11.0718165,47.4344685],[11.0716178,47.4343995],[11.07139,47.4343472],[11.071184,47.4343455],[11.0710226,47.43437],[11.0707546,47.4345024],[11.0702922,47.4345753],[11.0699859,47.4345405],[11.0698714,47.4345493],[11.069764,47.4345861],[11.0695778,47.4347346],[11.0692328,47.4351264],[11.0690835,47.435207],[11.0689857,47.435237],[11.068869,47.4352418],[11.068684,47.4352182],[11.0685638,47.4351841],[11.0681443,47.4351393],[11.0674518,47.4350497],[11.0673112,47.4350496],[11.0669176,47.4352125],[11.066374,47.4354359],[11.0661869,47.4354621],[11.0659907,47.4355073],[11.0657929,47.4357151],[11.0657402,47.4358356],[11.0657553,47.436018],[11.0656893,47.4361522],[11.0654692,47.4361965],[11.0651465,47.4362479],[11.0648681,47.4363685],[11.0644896,47.436511],[11.0641221,47.4365821],[11.0635167,47.4366964],[11.0630142,47.4367579],[11.0627551,47.4368136],[11.0626297,47.4368494],[11.0624871,47.436848],[11.0622678,47.4368089],[11.0619572,47.4367138],[11.061864,47.436659],[11.0618013,47.4365755],[11.0618492,47.4364336],[11.0618646,47.4363205],[11.0617578,47.4363251],[11.0616521,47.4364062],[11.0614595,47.4362915],[11.0612078,47.4361335],[11.0609835,47.4360152],[11.0607064,47.4358678],[11.0604938,47.4357963],[11.0604768,47.4358181],[11.060475,47.4358726],[11.0605264,47.4359482],[11.0605645,47.4360114]]}},{"type":"Feature","id":1254192144,"properties":{"kind":"run","name":"Osterfelder-Abfahrt","subtype":"intermediate","pisteType":"downhill","featured":false},"geometry":{"type":"LineString","coordinates":[[11.0502259,47.4389938],[11.0503122,47.4388737],[11.0503022,47.438795],[11.0502455,47.4386229],[11.0502039,47.4385159],[11.0501265,47.4384319],[11.0500118,47.4383657],[11.0498831,47.4382659],[11.0498321,47.4381988],[11.0499313,47.438099],[11.0504356,47.437923],[11.0512537,47.437709],[11.0518947,47.4375529],[11.0523834,47.4374506]]}},{"type":"Feature","id":1279203180,"properties":{"kind":"run","name":"Mapped ski run","subtype":"easy","pisteType":"downhill","featured":false},"geometry":{"type":"LineString","coordinates":[[11.0949184,47.4636762],[11.094467,47.463681],[11.0943046,47.4636544],[11.0941047,47.4635742],[11.0938802,47.4634274],[11.0937646,47.4632825],[11.0936633,47.4632044],[11.0932799,47.4630434]]}},{"type":"Feature","id":1279203181,"properties":{"kind":"run","name":"Kreuzwankl-Umfahrung","subtype":"easy","pisteType":"downhill","featured":false},"geometry":{"type":"LineString","coordinates":[[11.0949184,47.4636762],[11.0949603,47.4636758],[11.0952848,47.4637028]]}},{"type":"Feature","id":1279203182,"properties":{"kind":"run","name":"Mapped ski run","subtype":"easy","pisteType":"downhill","featured":false},"geometry":{"type":"LineString","coordinates":[[11.0949355,47.46393],[11.0949184,47.4636762]]}},{"type":"Feature","id":1323581798,"properties":{"kind":"run","name":"Loipe Skistadion - Hausberg","subtype":"easy","pisteType":"nordic","featured":false},"geometry":{"type":"LineString","coordinates":[[11.0950951,47.4841894],[11.0952489,47.4841372],[11.09587,47.4838595]]}},{"type":"Feature","id":1323581799,"properties":{"kind":"run","name":"Loipe Skistadion - Hausberg","subtype":"easy","pisteType":"nordic","featured":false},"geometry":{"type":"LineString","coordinates":[[11.1127809,47.4814046],[11.1130812,47.4813535],[11.11332,47.4812088],[11.1137805,47.4813241],[11.1140211,47.48145]]}},{"type":"Feature","id":1323582047,"properties":{"kind":"run","name":"Loipe Hammersbach","subtype":"easy","pisteType":"nordic","featured":false},"geometry":{"type":"LineString","coordinates":[[11.0612533,47.4721849],[11.0612322,47.4721136],[11.061037,47.4719923],[11.0601217,47.471428],[11.0598351,47.4712469],[11.0594675,47.4711289],[11.0577918,47.4706679],[11.0542901,47.4696349],[11.0536787,47.4693887],[11.0533405,47.4693623],[11.0531583,47.4694502],[11.0529002,47.4695987],[11.0523201,47.4698458],[11.0515582,47.4704615],[11.0511832,47.4707083]]}},{"type":"Feature","id":1353997047,"properties":{"kind":"run","name":"Mapped ski run","subtype":"unknown","pisteType":"sled","featured":false},"geometry":{"type":"LineString","coordinates":[[11.0800606,47.4988979],[11.0802497,47.4988553],[11.0803731,47.4988037],[11.0806547,47.4986352]]}},{"type":"Feature","id":1366679757,"properties":{"kind":"run","name":"Mapped ski run","subtype":"easy","pisteType":"downhill","featured":false},"geometry":{"type":"LineString","coordinates":[[11.0632765,47.4711527],[11.0630438,47.471246],[11.0626758,47.4712779],[11.0621343,47.4711985]]}},{"type":"Feature","id":1367985168,"properties":{"kind":"run","name":"Mapped ski run","subtype":"easy","pisteType":"downhill","featured":false},"geometry":{"type":"LineString","coordinates":[[11.0665841,47.4508213],[11.0666397,47.4508795],[11.0667115,47.4509264],[11.066954,47.4510686],[11.0672007,47.4511949],[11.0674239,47.4513008],[11.0676084,47.4513966],[11.0677586,47.4515112],[11.0678402,47.4516099],[11.0678694,47.4517408]]}},{"type":"Feature","id":1456703723,"properties":{"kind":"run","name":"Längenfelder Abfahrt I","subtype":"intermediate","pisteType":"downhill","featured":false},"geometry":{"type":"LineString","coordinates":[[11.0613715,47.4480638],[11.0615031,47.4480374],[11.0616445,47.4480208],[11.061823,47.4480338],[11.0618777,47.4480406],[11.0619646,47.4480593]]}},{"type":"Feature","id":1456703724,"properties":{"kind":"run","name":"Hochalmweg","subtype":"easy","pisteType":"downhill","featured":false},"geometry":{"type":"LineString","coordinates":[[11.0638269,47.4483618],[11.0640146,47.4484138],[11.0641312,47.448455],[11.064312,47.4485331],[11.0645004,47.4486495],[11.0647448,47.4488271],[11.0649082,47.4489482],[11.0650614,47.4490925],[11.06512,47.4491477]]}},{"type":"Feature","id":1456703725,"properties":{"kind":"run","name":"Hochalmweg","subtype":"easy","pisteType":"downhill","featured":false},"geometry":{"type":"LineString","coordinates":[[11.06512,47.4491477],[11.0652226,47.449235],[11.0653262,47.4493286]]}},{"type":"Feature","id":1472589095,"properties":{"kind":"run","name":"Kandahar-Abfahrt","subtype":"advanced","pisteType":"downhill","featured":true},"geometry":{"type":"LineString","coordinates":[[11.0649357,47.4627726],[11.064683,47.4633512],[11.0647051,47.4639246],[11.0649175,47.4649035],[11.0653644,47.4655906],[11.0653983,47.4658155],[11.0653115,47.4660403],[11.0650506,47.4664154],[11.0647795,47.4674908],[11.0641965,47.4680662],[11.062932,47.4686016],[11.0618591,47.4691673],[11.0604559,47.4699137],[11.060377,47.4699971],[11.0603443,47.470076],[11.0603489,47.470166],[11.0604237,47.4702528],[11.0606408,47.470387],[11.060893,47.4705227],[11.0609841,47.4705906],[11.0610845,47.4706411],[11.0611125,47.4706616],[11.0611849,47.4707153],[11.0612152,47.4707358],[11.0612502,47.4707405],[11.0612946,47.4707295],[11.061304,47.4707027],[11.0613001,47.4706827]]}},{"type":"Feature","id":1472589096,"properties":{"kind":"run","name":"Kandahar-Abfahrt","subtype":"advanced","pisteType":"downhill","featured":true},"geometry":{"type":"LineString","coordinates":[[11.0649357,47.4627726],[11.0640948,47.4633701],[11.0634045,47.463758],[11.0630249,47.4642843],[11.0627743,47.4646318],[11.0624834,47.465267],[11.0622459,47.4660816],[11.0624418,47.4663736],[11.0631987,47.4668385],[11.0638475,47.4672794],[11.0641586,47.4676202],[11.0641965,47.4680662],[11.0643488,47.4685407],[11.0642823,47.4690612],[11.0641007,47.4695858],[11.0634192,47.4705521],[11.0632765,47.4711527],[11.0632451,47.4712849],[11.0632959,47.4713505],[11.0633762,47.4713604],[11.0634269,47.4713848],[11.0634685,47.4715326],[11.0634598,47.4715763],[11.063639,47.4715913],[11.0636755,47.471519]]}}]}