{"type":"FeatureCollection","features":[{"type":"Feature","id":1535153375,"properties":{"kind":"lift","name":"Valley Carpet Lift","subtype":"magic_carpet","status":"active"},"geometry":{"type":"LineString","coordinates":[[148.921904,-35.5144819],[148.9216419,-35.5137249]]}},{"type":"Feature","id":1535153376,"properties":{"kind":"lift","name":"Magic Carpet","subtype":"magic_carpet","status":"active"},"geometry":{"type":"LineString","coordinates":[[148.9214234,-35.5146312],[148.9215141,-35.5144291]]}},{"type":"Feature","id":1535153377,"properties":{"kind":"run","name":"Joey Ski Area","subtype":"easy","pisteType":"downhill"},"geometry":{"type":"LineString","coordinates":[[148.9215301,-35.5144326],[148.9215137,-35.5144701],[148.9215287,-35.5145342],[148.9214598,-35.5145781],[148.9214129,-35.5146686],[148.9215813,-35.5146321],[148.9216522,-35.5144748],[148.9216016,-35.5144001],[148.9215234,-35.5143892],[148.921508,-35.514418],[148.9215301,-35.5144326]]}},{"type":"Feature","id":1535153378,"properties":{"kind":"run","name":"Ski Area","subtype":"easy","pisteType":"downhill"},"geometry":{"type":"LineString","coordinates":[[148.9216348,-35.5137109],[148.9216662,-35.5137174],[148.921929,-35.5145079],[148.9220236,-35.5144752],[148.9220513,-35.5143927],[148.9220966,-35.5143765],[148.9221914,-35.5142707],[148.9224377,-35.5141694],[148.9224792,-35.5141085],[148.9222722,-35.5137341],[148.9221448,-35.5135397],[148.9218266,-35.5136267],[148.9217258,-35.5136563],[148.9216429,-35.5136806],[148.9216348,-35.5137109]]}},{"type":"Feature","id":1535153379,"properties":{"kind":"run","name":"Snowplay Area","subtype":"unknown","pisteType":"sled"},"geometry":{"type":"LineString","coordinates":[[148.9215125,-35.5137253],[148.9216254,-35.5140448],[148.9212537,-35.5142103],[148.9211373,-35.5141239],[148.9210656,-35.513972],[148.921138,-35.5138699],[148.9212223,-35.5138148],[148.9215125,-35.5137253]]}},{"type":"Feature","id":1535153380,"properties":{"kind":"lift","name":"Chair Lift","subtype":"chair_lift","status":"active"},"geometry":{"type":"LineString","coordinates":[[148.9221575,-35.5136326],[148.9208793,-35.5118942]]}},{"type":"Feature","id":1535153381,"properties":{"kind":"run","name":"Mapped ski run","subtype":"easy","pisteType":"downhill"},"geometry":{"type":"LineString","coordinates":[[148.9207961,-35.5119137],[148.9206805,-35.5120144],[148.9199595,-35.5130905],[148.91979,-35.5134721],[148.9197881,-35.5135535],[148.9198567,-35.5136367],[148.9200898,-35.5137608],[148.9205874,-35.5137884],[148.9210725,-35.513706],[148.9215652,-35.5135723],[148.9216687,-35.5135979],[148.9217258,-35.5136563]]}},{"type":"Feature","id":1535153382,"properties":{"kind":"run","name":"Mapped ski run","subtype":"intermediate","pisteType":"downhill"},"geometry":{"type":"LineString","coordinates":[[148.920867,-35.5119449],[148.9211557,-35.5123801],[148.9211366,-35.5125126],[148.9207188,-35.5128311],[148.9199595,-35.5130905]]}}]}