{"type":"FeatureCollection","features":[{"type":"Feature","id":"building-1302269636","properties":{"kind":"building","name":"Resort building","height":7.2},"geometry":{"type":"Polygon","coordinates":[[[148.9148179,-35.5188811],[148.9148709,-35.5188697],[148.9148856,-35.5189144],[148.91483,-35.5189251],[148.9148179,-35.5188811]]]}},{"type":"Feature","id":"pylon-corin-forest-0","properties":{"kind":"pylon","name":"Lift tower","height":13},"geometry":{"type":"Polygon","coordinates":[[[148.9214166636613,-35.512592014350005],[148.92140955249454,-35.51257803990769],[148.92139238461928,-35.51257225150415],[148.92137521674402,-35.51257803990769],[148.92136810557727,-35.512592014350005],[148.92137521674402,-35.51260598879232],[148.92139238461928,-35.51261177719586],[148.92140955249454,-35.51260598879232],[148.9214166636613,-35.512592014350005]]]}},{"type":"Feature","id":"marker-corin-forest-summit zone \u00b7 1217 m","properties":{"kind":"marker","name":"Summit zone \u00b7 1217 m","height":26},"geometry":{"type":"Polygon","coordinates":[[[148.90657725997397,-35.5214],[148.90656250463192,-35.52136303901575],[148.90652387464493,-35.52134019587123],[148.90647612535506,-35.52134019587123],[148.90643749536807,-35.52136303901575],[148.90642274002602,-35.5214],[148.90643749536807,-35.521436960984246],[148.90647612535506,-35.52145980412877],[148.90652387464493,-35.52145980412877],[148.90656250463192,-35.521436960984246],[148.90657725997397,-35.5214]]]}},{"type":"Feature","id":"marker-corin-forest-resort base \u00b7 1205 m","properties":{"kind":"marker","name":"Resort base \u00b7 1205 m","height":18},"geometry":{"type":"Polygon","coordinates":[[[148.9125772657504,-35.5274],[148.91256250930516,-35.52736303901575],[148.91252387642996,-35.52734019587123],[148.91247612357003,-35.52734019587123],[148.91243749069483,-35.52736303901575],[148.9124227342496,-35.5274],[148.91243749069483,-35.52743696098425],[148.91247612357003,-35.52745980412877],[148.91252387642996,-35.52745980412877],[148.91256250930516,-35.52743696098425],[148.9125772657504,-35.5274]]]}}]}