{"type":"FeatureCollection","features":[{"type":"Feature","id":200252643,"properties":{"kind":"lift","name":"Saddle Basin Quad","subtype":"chair_lift","status":"active"},"geometry":{"type":"LineString","coordinates":[[168.8842195,-44.6399205],[168.8840606,-44.6398716],[168.8831527,-44.6395732],[168.8824596,-44.6393399],[168.8816335,-44.6390587],[168.8810363,-44.6388673],[168.8797283,-44.6384313],[168.8784335,-44.638],[168.8773005,-44.6376231],[168.8759854,-44.6371853],[168.8747324,-44.6367756],[168.874081,-44.6365603],[168.8736136,-44.6363963],[168.8733784,-44.6363174]]}},{"type":"Feature","id":200252645,"properties":{"kind":"lift","name":"Home Basin Express","subtype":"chair_lift","status":"active"},"geometry":{"type":"LineString","coordinates":[[168.8960699,-44.6325287],[168.8953184,-44.6323167],[168.8937711,-44.6318949],[168.8923507,-44.6315052],[168.8911583,-44.6311769],[168.8900228,-44.630867],[168.8888877,-44.6305491],[168.8877161,-44.6302293],[168.88657,-44.6299143],[168.8852175,-44.6295423],[168.8837441,-44.629134],[168.8835469,-44.6290823],[168.8832294,-44.629002],[168.8831705,-44.6289838],[168.8828629,-44.628894]]}},{"type":"Feature","id":200528980,"properties":{"kind":"lift","name":"Nice ‘n’ Easy Platter","subtype":"platter","status":"active"},"geometry":{"type":"LineString","coordinates":[[168.8965305,-44.6323902],[168.8967432,-44.6319803],[168.8973499,-44.6308114],[168.8977584,-44.6300242],[168.8978679,-44.6298133],[168.8980509,-44.6294607]]}},{"type":"Feature","id":426503304,"properties":{"kind":"run","name":"Nice 'n' Easy","subtype":"novice","pisteType":"downhill","featured":false},"geometry":{"type":"LineString","coordinates":[[168.8978679,-44.6298133],[168.8975336,-44.6300685],[168.8973004,-44.6305331],[168.8969739,-44.6311554],[168.8965192,-44.6320599],[168.8965305,-44.6323902]]}},{"type":"Feature","id":426504352,"properties":{"kind":"run","name":"Triple Threat","subtype":"easy","pisteType":"downhill","featured":false},"geometry":{"type":"LineString","coordinates":[[168.8828629,-44.628894],[168.8827261,-44.6287741],[168.882936,-44.6284919],[168.8832275,-44.6284587],[168.8834723,-44.6285749],[168.8835656,-44.6287824],[168.8835469,-44.6290823],[168.8833955,-44.6296887],[168.883508,-44.6298272],[168.8836492,-44.6299175],[168.883873,-44.6298823],[168.883962,-44.629803],[168.8843118,-44.629554],[168.8847632,-44.6292575],[168.885058,-44.6288653],[168.8853766,-44.6286706],[168.8855852,-44.6286797],[168.8855827,-44.6289898],[168.8855944,-44.6293549],[168.8853579,-44.6301129],[168.8853985,-44.6301391],[168.8854447,-44.6301373],[168.8855181,-44.6301177],[168.8864338,-44.6294628],[168.8865415,-44.6294326],[168.8866304,-44.6294616],[168.8866961,-44.629523],[168.886667,-44.6296287],[168.8866452,-44.6297275],[168.8865023,-44.6299415],[168.8864318,-44.6302853],[168.886442,-44.6306854],[168.8865684,-44.6309568],[168.8867121,-44.6310543],[168.886839,-44.6311343],[168.8868796,-44.6310586],[168.8869363,-44.6309615],[168.8869602,-44.6308619],[168.88703,-44.6307539],[168.8871262,-44.6306598],[168.8872872,-44.6305951],[168.8875705,-44.6305358],[168.8878524,-44.6303544],[168.8887656,-44.6296089],[168.889128,-44.6293674],[168.8894771,-44.6293027],[168.8895046,-44.6294573],[168.8893601,-44.6297046],[168.8891903,-44.6304955],[168.8891549,-44.6309992],[168.8891407,-44.6313518],[168.8891859,-44.6314819],[168.8893404,-44.6314992],[168.8897424,-44.6310949],[168.8899406,-44.6309636],[168.8901034,-44.6311201],[168.8900963,-44.6315181],[168.8899406,-44.6321225],[168.8896538,-44.6329564],[168.8896882,-44.6330381],[168.8899237,-44.6329598],[168.8900397,-44.6327975],[168.8905562,-44.6324675],[168.890882,-44.6320621],[168.8912713,-44.6318656],[168.891396,-44.6317814],[168.891427,-44.6314828],[168.8917314,-44.6312914],[168.8922935,-44.6309592],[168.8924258,-44.6309758],[168.8926056,-44.6312191],[168.8926012,-44.6315014],[168.8925383,-44.6317599],[168.8924639,-44.6322186],[168.8924605,-44.6326867],[168.8923755,-44.6336035],[168.8924959,-44.6336538],[168.8926925,-44.6336421],[168.8928235,-44.6335007],[168.8930037,-44.6333077],[168.8933269,-44.6332468],[168.8934371,-44.6333131],[168.8934373,-44.6337243],[168.8934136,-44.6339755],[168.893607,-44.6340263],[168.8940117,-44.6339408],[168.8943627,-44.6337551],[168.8945862,-44.6335687],[168.8946504,-44.6335151],[168.8949773,-44.6331154],[168.8954232,-44.6327864],[168.8958015,-44.6326615],[168.8960563,-44.6326464],[168.8960699,-44.6325287]]}},{"type":"Feature","id":426504357,"properties":{"kind":"run","name":"Easy Rider","subtype":"novice","pisteType":"downhill","featured":false},"geometry":{"type":"LineString","coordinates":[[168.8923755,-44.6336035],[168.8925383,-44.6339208],[168.8929984,-44.6340769],[168.8934136,-44.6339755]]}},{"type":"Feature","id":426504360,"properties":{"kind":"run","name":"Easy Rider","subtype":"easy","pisteType":"downhill","featured":false},"geometry":{"type":"LineString","coordinates":[[168.8893601,-44.6297046],[168.8895725,-44.6303544],[168.8899406,-44.6309636]]}},{"type":"Feature","id":426504362,"properties":{"kind":"run","name":"Roller Coaster","subtype":"easy","pisteType":"downhill","featured":false},"geometry":{"type":"LineString","coordinates":[[168.8848866,-44.630289],[168.8851202,-44.6305207],[168.885329,-44.6307874],[168.8855575,-44.6309122],[168.8857975,-44.6310467],[168.8860424,-44.6311227],[168.8862897,-44.6311454],[168.8865674,-44.6311437],[168.8867222,-44.6311414],[168.886839,-44.6311343]]}},{"type":"Feature","id":426504365,"properties":{"kind":"run","name":"Main Street","subtype":"intermediate","pisteType":"downhill","featured":false},"geometry":{"type":"LineString","coordinates":[[168.882936,-44.6284919],[168.883136,-44.628254],[168.8835028,-44.6281287],[168.883719,-44.6280548],[168.8846167,-44.6279553],[168.8853513,-44.6277561],[168.8864473,-44.6272334],[168.886902,-44.6271504],[168.8871235,-44.6275404],[168.8871702,-44.6280631],[168.8873917,-44.6284117],[168.8878347,-44.6284863],[168.8887442,-44.6282291],[168.8899218,-44.6279387],[168.8902496,-44.6279036],[168.8912393,-44.6277976],[168.891824,-44.6277626],[168.8923469,-44.6277312],[168.8955216,-44.628387],[168.897476,-44.6287391],[168.8977431,-44.6288417],[168.897738,-44.6289896],[168.897582,-44.6291004],[168.8967828,-44.629525],[168.8963578,-44.6299882],[168.8962829,-44.6302645],[168.8961712,-44.6306769],[168.8960313,-44.6314402],[168.8959847,-44.632104],[168.8960583,-44.6322661],[168.8961945,-44.6323944]]}},{"type":"Feature","id":426504368,"properties":{"kind":"run","name":"Camel","subtype":"intermediate","pisteType":"downhill","featured":false},"geometry":{"type":"LineString","coordinates":[[168.886902,-44.6271504],[168.8876598,-44.6269844],[168.8886626,-44.6268434],[168.8896303,-44.6269346],[168.8905514,-44.6272749],[168.8911343,-44.6274989],[168.891824,-44.6277626]]}},{"type":"Feature","id":426504370,"properties":{"kind":"run","name":"Big Skite","subtype":"intermediate","pisteType":"downhill","featured":false},"geometry":{"type":"LineString","coordinates":[[168.8832275,-44.6284587],[168.883719,-44.628337],[168.8848966,-44.6283868],[168.8897119,-44.6290174]]}},{"type":"Feature","id":426504373,"properties":{"kind":"run","name":"Midwave","subtype":"intermediate","pisteType":"downhill","featured":false},"geometry":{"type":"LineString","coordinates":[[168.8894771,-44.6293027],[168.8895911,-44.6292228],[168.8898635,-44.6294489],[168.8898285,-44.6297227],[168.8899101,-44.6299716],[168.8903532,-44.6298969],[168.8907496,-44.6297974],[168.8909334,-44.6298008],[168.8911046,-44.6299324],[168.8913082,-44.6302959],[168.8915558,-44.6302889],[168.8918106,-44.6301707],[168.892207,-44.6298969],[168.892825,-44.6295816],[168.8932913,-44.6293825]]}},{"type":"Feature","id":426504375,"properties":{"kind":"run","name":"Mapped ski run","subtype":"easy","pisteType":"downhill","featured":false},"geometry":{"type":"LineString","coordinates":[[168.8895911,-44.6292228],[168.8897119,-44.6290174],[168.8900262,-44.6283663],[168.8902496,-44.6279036]]}},{"type":"Feature","id":426504377,"properties":{"kind":"run","name":"Kea's Crossing","subtype":"novice","pisteType":"downhill","featured":false},"geometry":{"type":"LineString","coordinates":[[168.8922935,-44.6309592],[168.8923003,-44.6308511],[168.89272,-44.6303035],[168.8932447,-44.6295567],[168.8932913,-44.6293825],[168.8937461,-44.6290672],[168.8947371,-44.6286191],[168.8955216,-44.628387]]}},{"type":"Feature","id":426504380,"properties":{"kind":"run","name":"Lower Sinclair's","subtype":"intermediate","pisteType":"downhill","featured":false},"geometry":{"type":"LineString","coordinates":[[168.8932913,-44.6293825],[168.8962829,-44.6302645]]}},{"type":"Feature","id":426504382,"properties":{"kind":"run","name":"Upper High Street","subtype":"intermediate","pisteType":"downhill","featured":false},"geometry":{"type":"LineString","coordinates":[[168.874753,-44.6342581],[168.8750001,-44.6340986],[168.8751928,-44.6339777],[168.8756124,-44.6339146],[168.8758638,-44.6338229],[168.8759875,-44.6337534],[168.8760543,-44.6335021],[168.8760017,-44.6332597],[168.8759019,-44.633023],[168.8759309,-44.6328014],[168.87603,-44.6325193],[168.8764648,-44.6322898],[168.87666,-44.6321868],[168.8776439,-44.6315773],[168.8782537,-44.6312778],[168.8790525,-44.6310182],[168.8792881,-44.6308303]]}},{"type":"Feature","id":426504385,"properties":{"kind":"run","name":"Lower High Street","subtype":"intermediate","pisteType":"downhill","featured":false},"geometry":{"type":"LineString","coordinates":[[168.8792881,-44.6308303],[168.8795109,-44.6304792],[168.8796471,-44.6301669],[168.8798806,-44.629779],[168.880093,-44.6294465],[168.8806026,-44.6291795],[168.8810606,-44.6288292],[168.8815461,-44.6284156],[168.8820396,-44.6278899],[168.8825138,-44.6275323],[168.8829,-44.6273659],[168.883116,-44.6273377],[168.8830677,-44.6276577],[168.8829014,-44.6279679],[168.8827762,-44.6281376],[168.8828144,-44.628384],[168.882936,-44.6284919]]}},{"type":"Feature","id":426504388,"properties":{"kind":"run","name":"Saddle Track","subtype":"intermediate","pisteType":"downhill","featured":false},"geometry":{"type":"LineString","coordinates":[[168.8833955,-44.6296887],[168.8833307,-44.629912],[168.8830682,-44.6306318],[168.8831283,-44.6307585],[168.883261,-44.6309448],[168.8836204,-44.6313373],[168.8836739,-44.6315744],[168.8837181,-44.6318446],[168.8835473,-44.6323086],[168.883621,-44.632847],[168.8839603,-44.6334881],[168.8840303,-44.6342348],[168.8844151,-44.6351807],[168.8845163,-44.6353226],[168.8846115,-44.6355849]]}},{"type":"Feature","id":426504390,"properties":{"kind":"run","name":"Pete's Treat","subtype":"easy","pisteType":"downhill","featured":false},"geometry":{"type":"LineString","coordinates":[[168.8861806,-44.6389233],[168.8861756,-44.6393206],[168.8860474,-44.6395861],[168.8856043,-44.6397105],[168.8850796,-44.6397354],[168.8846249,-44.6397686],[168.8842195,-44.6399205]]}},{"type":"Feature","id":426512778,"properties":{"kind":"run","name":"South Ridge","subtype":"intermediate","pisteType":"downhill","featured":false},"geometry":{"type":"LineString","coordinates":[[168.8733784,-44.6363174],[168.873179,-44.6363231],[168.8730445,-44.636454],[168.8730711,-44.6366581],[168.8730799,-44.636726],[168.8733489,-44.6369275],[168.8741416,-44.6374413],[168.8754087,-44.6381917],[168.8768102,-44.6390278],[168.8773623,-44.639252],[168.8779144,-44.6394761],[168.878594,-44.6395667],[168.8792098,-44.6398387],[168.8797477,-44.6402416],[168.8804626,-44.6405237],[168.8811139,-44.6406798],[168.8818288,-44.6406899],[168.8825295,-44.6404834],[168.8833648,-44.6402416],[168.8839735,-44.6400502],[168.8842195,-44.6399205]]}},{"type":"Feature","id":426512779,"properties":{"kind":"run","name":"Saddle Back","subtype":"intermediate","pisteType":"downhill","featured":false},"geometry":{"type":"LineString","coordinates":[[168.8764648,-44.6322898],[168.876796,-44.6326511],[168.8771189,-44.6330413],[168.8773128,-44.6332757],[168.8776553,-44.6337624],[168.8780282,-44.6340786],[168.8782913,-44.634175],[168.8786762,-44.634277],[168.8791531,-44.6347062],[168.8792452,-44.6348372],[168.8799432,-44.6352258],[168.8802841,-44.6355494],[168.8807102,-44.6361574],[168.8812815,-44.636497],[168.8821268,-44.6368709],[168.8823783,-44.6373471],[168.8825663,-44.6378329],[168.8829605,-44.63814],[168.8834426,-44.6383982],[168.8834999,-44.6388181],[168.8836479,-44.639053],[168.8839098,-44.6393401],[168.8841576,-44.6396171],[168.8842567,-44.6397631],[168.8842195,-44.6399205]]}},{"type":"Feature","id":426512780,"properties":{"kind":"run","name":"Raffils Run","subtype":"intermediate","pisteType":"downhill","featured":false},"geometry":{"type":"LineString","coordinates":[[168.8790525,-44.6310182],[168.8791667,-44.6310842],[168.8797298,-44.6313275],[168.8803282,-44.6315228],[168.8807322,-44.6317378],[168.8811493,-44.6320618],[168.8816518,-44.6325604],[168.8822039,-44.6332253],[168.8826569,-44.6336736],[168.8831878,-44.6340565],[168.8836692,-44.6345249],[168.8837513,-44.6347541],[168.8839452,-44.6350689],[168.8846115,-44.6355849]]}},{"type":"Feature","id":426512781,"properties":{"kind":"run","name":"Bullet","subtype":"intermediate","pisteType":"downhill","featured":false},"geometry":{"type":"LineString","coordinates":[[168.8776439,-44.6315773],[168.877872,-44.6315782],[168.8780313,-44.6316582],[168.8781126,-44.6316991],[168.8783533,-44.6319862],[168.8786081,-44.6321776],[168.8790894,-44.6324849],[168.8795283,-44.6328123],[168.8800733,-44.6330591],[168.8805405,-44.6333613],[168.8810667,-44.6336197],[168.8813011,-44.6337406],[168.8815346,-44.6338982],[168.8819533,-44.6341442],[168.8827321,-44.6345052],[168.8830295,-44.6347606],[168.8832647,-44.6349625],[168.8836673,-44.6354627],[168.8839672,-44.6356708],[168.884743,-44.6360183]]}},{"type":"Feature","id":426512782,"properties":{"kind":"run","name":"Side Saddle","subtype":"intermediate","pisteType":"downhill","featured":false},"geometry":{"type":"LineString","coordinates":[[168.8797298,-44.6313275],[168.8800167,-44.6318351],[168.8806434,-44.6323582],[168.8811738,-44.6330452],[168.881506,-44.6334208],[168.8822773,-44.6339209],[168.8837513,-44.6347541]]}},{"type":"Feature","id":427158677,"properties":{"kind":"run","name":"Sunset Boulevard","subtype":"advanced","pisteType":"downhill","featured":false},"geometry":{"type":"LineString","coordinates":[[168.8748046,-44.6430129],[168.8752094,-44.6437012],[168.8760683,-44.6440454],[168.8765312,-44.6441126],[168.8775196,-44.6442561],[168.877786,-44.6442601],[168.8784673,-44.6442702],[168.8792176,-44.6444809],[168.8794151,-44.6446355],[168.880195,-44.6446565],[168.8813007,-44.6451412]]}},{"type":"Feature","id":427158678,"properties":{"kind":"run","name":"Hollywood Bowl 5","subtype":"advanced","pisteType":"downhill","featured":false},"geometry":{"type":"LineString","coordinates":[[168.8708457,-44.6413762],[168.8711913,-44.6419803],[168.8719811,-44.6423245],[168.8733336,-44.6426335],[168.8742221,-44.6427951],[168.8748046,-44.6430129]]}},{"type":"Feature","id":427158679,"properties":{"kind":"run","name":"Hollywood Bowl 4","subtype":"advanced","pisteType":"downhill","featured":false},"geometry":{"type":"LineString","coordinates":[[168.8713788,-44.6408212],[168.8718132,-44.6412849],[168.8724155,-44.6417414],[168.8731756,-44.6421629],[168.8740444,-44.642472],[168.8748046,-44.6430129]]}},{"type":"Feature","id":427158680,"properties":{"kind":"run","name":"Hollywood Bowl 3","subtype":"advanced","pisteType":"downhill","featured":false},"geometry":{"type":"LineString","coordinates":[[168.8725142,-44.6403225],[168.873067,-44.6410882],[168.8737088,-44.6419733],[168.8744393,-44.6426125],[168.8748046,-44.6430129]]}},{"type":"Feature","id":427158681,"properties":{"kind":"run","name":"Hollywood Bowl 2","subtype":"advanced","pisteType":"downhill","featured":false},"geometry":{"type":"LineString","coordinates":[[168.8735705,-44.6401539],[168.8738667,-44.6407791],[168.8741728,-44.6413481],[168.8743307,-44.6419311],[168.8744393,-44.6426125]]}},{"type":"Feature","id":427158682,"properties":{"kind":"run","name":"Hollywood Bowl 1","subtype":"advanced","pisteType":"downhill","featured":false},"geometry":{"type":"LineString","coordinates":[[168.8749724,-44.6402241],[168.8750415,-44.6409968],[168.8749033,-44.6417204],[168.8747158,-44.6424931],[168.8748046,-44.6430129]]}},{"type":"Feature","id":427158683,"properties":{"kind":"run","name":"Chute 1","subtype":"advanced","pisteType":"downhill","featured":false},"geometry":{"type":"LineString","coordinates":[[168.8819128,-44.6408704],[168.8822386,-44.6412216],[168.882697,-44.6415712],[168.8831319,-44.6417711],[168.8835875,-44.6418191]]}},{"type":"Feature","id":427158684,"properties":{"kind":"run","name":"Chute 2","subtype":"advanced","pisteType":"downhill","featured":false},"geometry":{"type":"LineString","coordinates":[[168.8813842,-44.640909],[168.8815321,-44.6409866],[168.8817647,-44.641313],[168.8820807,-44.641601],[168.8825536,-44.6419432],[168.8830101,-44.6420882],[168.8834667,-44.6421057]]}},{"type":"Feature","id":427158685,"properties":{"kind":"run","name":"Chute 3","subtype":"advanced","pisteType":"downhill","featured":false},"geometry":{"type":"LineString","coordinates":[[168.8809551,-44.6409201],[168.8812119,-44.6414534],[168.8814784,-44.6417695],[168.881921,-44.6420823],[168.8825649,-44.6423654],[168.8833203,-44.6426058]]}},{"type":"Feature","id":427158686,"properties":{"kind":"run","name":"Chute 4","subtype":"advanced","pisteType":"downhill","featured":false},"geometry":{"type":"LineString","coordinates":[[168.8805312,-44.6408575],[168.8804792,-44.6409973],[168.8804714,-44.6414534],[168.8805208,-44.6420927],[168.88058,-44.6427389],[168.8803727,-44.6432587]]}},{"type":"Feature","id":427158687,"properties":{"kind":"run","name":"Chute 5","subtype":"advanced","pisteType":"downhill","featured":false},"geometry":{"type":"LineString","coordinates":[[168.8799752,-44.6405994],[168.8799996,-44.6407325],[168.8798495,-44.6414183],[168.87981,-44.641889],[168.8797804,-44.6423315]]}},{"type":"Feature","id":427158688,"properties":{"kind":"run","name":"Chute 6","subtype":"advanced","pisteType":"downhill","featured":false},"geometry":{"type":"LineString","coordinates":[[168.8792867,-44.6403295],[168.8792571,-44.6409266],[168.8793361,-44.6414043],[168.8797804,-44.6423315]]}},{"type":"Feature","id":427158689,"properties":{"kind":"run","name":"Chute 7","subtype":"advanced","pisteType":"downhill","featured":false},"geometry":{"type":"LineString","coordinates":[[168.8778372,-44.6401158],[168.8783291,-44.6405964],[168.8788326,-44.6409758],[168.8793361,-44.6414043]]}},{"type":"Feature","id":427158690,"properties":{"kind":"run","name":"Chute 8","subtype":"advanced","pisteType":"downhill","featured":false},"geometry":{"type":"LineString","coordinates":[[168.8783291,-44.6405964],[168.8784159,-44.6409413],[168.8786664,-44.6414168],[168.8790498,-44.6417485],[168.8791584,-44.6421348],[168.8791584,-44.6424088]]}},{"type":"Feature","id":427158691,"properties":{"kind":"run","name":"Chute 9","subtype":"advanced","pisteType":"downhill","featured":false},"geometry":{"type":"LineString","coordinates":[[168.8766541,-44.6402945],[168.8772247,-44.640876],[168.8780033,-44.641334],[168.8784081,-44.6420786],[168.8791584,-44.6424088],[168.8796027,-44.6427249],[168.8800173,-44.6432166],[168.8802246,-44.6437153],[168.88058,-44.6441859],[168.8813024,-44.6445926],[168.8817532,-44.6445522]]}},{"type":"Feature","id":427158692,"properties":{"kind":"run","name":"Chute 10","subtype":"advanced","pisteType":"downhill","featured":false},"geometry":{"type":"LineString","coordinates":[[168.8760288,-44.6403295],[168.8764192,-44.6406527],[168.8766545,-44.6409465],[168.8769963,-44.6412708],[168.8773813,-44.6417695],[168.8778157,-44.6421699],[168.8791584,-44.6424088]]}},{"type":"Feature","id":427158693,"properties":{"kind":"run","name":"Chute 11","subtype":"advanced","pisteType":"downhill","featured":false},"geometry":{"type":"LineString","coordinates":[[168.8766545,-44.6409465],[168.8767682,-44.641445],[168.8769371,-44.6417836],[168.8770555,-44.6422472],[168.8774899,-44.6426054],[168.8784377,-44.6432095],[168.8793855,-44.6437364],[168.8799285,-44.644214],[168.880195,-44.6446565]]}},{"type":"Feature","id":427158694,"properties":{"kind":"run","name":"Chute 12","subtype":"advanced","pisteType":"downhill","featured":false},"geometry":{"type":"LineString","coordinates":[[168.8754455,-44.6402713],[168.8756107,-44.6407611],[168.8758222,-44.6412292],[168.8761374,-44.6415939],[168.8763349,-44.6420365],[168.8770555,-44.6422472]]}},{"type":"Feature","id":427158695,"properties":{"kind":"run","name":"Chute 13 - The Fickle Finger of Fear","subtype":"advanced","pisteType":"downhill","featured":false},"geometry":{"type":"LineString","coordinates":[[168.8759794,-44.6424017],[168.8764632,-44.6428092],[168.8772629,-44.6429918],[168.8777071,-44.6433219],[168.8780625,-44.6437083],[168.8784673,-44.6442702]]}},{"type":"Feature","id":427158696,"properties":{"kind":"run","name":"Chute 22","subtype":"advanced","pisteType":"downhill","featured":false},"geometry":{"type":"LineString","coordinates":[[168.8757919,-44.6430269],[168.8759005,-44.6433079],[168.8758807,-44.6437293],[168.8760683,-44.6440454]]}},{"type":"Feature","id":427158697,"properties":{"kind":"run","name":"Chute 23","subtype":"advanced","pisteType":"downhill","featured":false},"geometry":{"type":"LineString","coordinates":[[168.8762657,-44.6429988],[168.8764731,-44.643357],[168.8764434,-44.6436731],[168.8765312,-44.6441126]]}},{"type":"Feature","id":427158698,"properties":{"kind":"run","name":"Chute 24","subtype":"advanced","pisteType":"downhill","featured":false},"geometry":{"type":"LineString","coordinates":[[168.8762657,-44.6429988],[168.87671,-44.643336],[168.8772727,-44.643631],[168.877559,-44.6438558],[168.8777466,-44.6440103],[168.877786,-44.6442601]]}},{"type":"Feature","id":427158699,"properties":{"kind":"run","name":"No Man's Land","subtype":"advanced","pisteType":"downhill","featured":false},"geometry":{"type":"LineString","coordinates":[[168.8756107,-44.6407611],[168.8755724,-44.6412053],[168.875703,-44.641622],[168.8757524,-44.6420154],[168.8759794,-44.6424017]]}},{"type":"Feature","id":427158700,"properties":{"kind":"run","name":"Mapped ski run","subtype":"advanced","pisteType":"downhill","featured":false},"geometry":{"type":"LineString","coordinates":[[168.8797804,-44.6423315],[168.8800568,-44.6427951],[168.8803727,-44.6432587],[168.8806689,-44.643631],[168.8811527,-44.6439752],[168.8814336,-44.6443071],[168.8817903,-44.6444039]]}},{"type":"Feature","id":427158701,"properties":{"kind":"run","name":"The Meadows","subtype":"advanced","pisteType":"downhill","featured":false},"geometry":{"type":"LineString","coordinates":[[168.8740444,-44.6395217],[168.8744294,-44.639901],[168.8749724,-44.6402241],[168.8754455,-44.6402713],[168.8760288,-44.6403295],[168.8766541,-44.6402945],[168.8769075,-44.6402803],[168.8776856,-44.640094],[168.8778372,-44.6401158]]}},{"type":"Feature","id":949552459,"properties":{"kind":"run","name":"Main Street","subtype":"easy","pisteType":"downhill","featured":false},"geometry":{"type":"LineString","coordinates":[[168.8961945,-44.6323944],[168.8960699,-44.6325287]]}},{"type":"Feature","id":949552467,"properties":{"kind":"run","name":"Upper High Street","subtype":"intermediate","pisteType":"downhill","featured":false},"geometry":{"type":"LineString","coordinates":[[168.8733784,-44.6363174],[168.8735869,-44.6360534],[168.8737968,-44.6355805],[168.8740533,-44.6350827],[168.8745817,-44.6344796],[168.8746167,-44.6344397],[168.8746665,-44.6343828],[168.8746713,-44.6343774],[168.874753,-44.6342581]]}},{"type":"Feature","id":949552468,"properties":{"kind":"run","name":"Upper High Street","subtype":"intermediate","pisteType":"downhill","featured":false},"geometry":{"type":"LineString","coordinates":[[168.8730177,-44.6364915],[168.8731088,-44.6363186],[168.8731822,-44.6362711],[168.8735347,-44.6361773],[168.8737745,-44.6361073],[168.8742952,-44.6358067],[168.8744889,-44.6354768],[168.8747016,-44.635147],[168.8747919,-44.6349831],[168.8748858,-44.6348126],[168.8749112,-44.634433],[168.874753,-44.6342581]]}},{"type":"Feature","id":949552469,"properties":{"kind":"run","name":"Pete's Treat","subtype":"easy","pisteType":"downhill","featured":false},"geometry":{"type":"LineString","coordinates":[[168.8846115,-44.6355849],[168.884743,-44.6360183],[168.8849869,-44.6364125],[168.885318,-44.636821],[168.8855927,-44.6374291],[168.8859259,-44.6381792],[168.8859963,-44.6385916],[168.8861806,-44.6389233]]}},{"type":"Feature","id":1360499572,"properties":{"kind":"run","name":"Mapped ski run","subtype":"intermediate","pisteType":"downhill","featured":false},"geometry":{"type":"LineString","coordinates":[[168.8782537,-44.6312778],[168.8782457,-44.6313424],[168.8781809,-44.631462],[168.8780849,-44.6316123],[168.8780313,-44.6316582],[168.8778904,-44.6317797],[168.8777584,-44.6319164],[168.8776912,-44.6320343],[168.8775807,-44.6321385],[168.8774295,-44.6322444],[168.8772999,-44.6323606],[168.8771942,-44.6324853],[168.8771198,-44.6326664],[168.8770982,-44.6328116],[168.8771078,-44.6329756],[168.8771189,-44.6330413]]}},{"type":"Feature","id":1426594818,"properties":{"kind":"run","name":"Dave's Ditch","subtype":"advanced","pisteType":"downhill","featured":false},"geometry":{"type":"LineString","coordinates":[[168.8818236,-44.6346367],[168.8823396,-44.6350966],[168.8823475,-44.6353956],[168.8826029,-44.6357496],[168.8829789,-44.6363858],[168.8831543,-44.6367649],[168.8834897,-44.6371877],[168.8835279,-44.6374189],[168.8834945,-44.6377795],[168.8834706,-44.6378441],[168.8834768,-44.6380949],[168.8834426,-44.6383982]]}},{"type":"Feature","id":1426594819,"properties":{"kind":"run","name":"Superpipe","subtype":"advanced","pisteType":"downhill","featured":false},"geometry":{"type":"LineString","coordinates":[[168.8775072,-44.6327059],[168.8776829,-44.6329589],[168.8779731,-44.6331247],[168.8783245,-44.6334126],[168.8787945,-44.633779],[168.8791296,-44.6339361],[168.8799051,-44.6341034],[168.8806912,-44.6343204],[168.8810434,-44.6344672],[168.8813957,-44.6345833],[168.8818236,-44.6346367],[168.8823052,-44.6346256],[168.8830295,-44.6347606]]}},{"type":"Feature","id":1426594820,"properties":{"kind":"run","name":"Ego Alley","subtype":"intermediate","pisteType":"downhill","featured":false},"geometry":{"type":"LineString","coordinates":[[168.8839672,-44.6356708],[168.8840803,-44.6359152],[168.8840063,-44.6364273],[168.884241,-44.6371104],[168.8845503,-44.6377669],[168.8846943,-44.6384386],[168.8850569,-44.639114],[168.8847689,-44.6394783],[168.8844756,-44.6396984]]}},{"type":"Feature","id":1426594821,"properties":{"kind":"run","name":"Shooter","subtype":"intermediate","pisteType":"downhill","featured":false},"geometry":{"type":"LineString","coordinates":[[168.8791531,-44.6347062],[168.8794318,-44.6347736],[168.879711,-44.6348808],[168.8799167,-44.634988],[168.8801408,-44.6350507],[168.8803576,-44.6351893],[168.8807396,-44.6354324],[168.8811474,-44.6354638],[168.8815442,-44.63555],[168.8820365,-44.6359082],[168.8821555,-44.6361995],[168.88209,-44.6365534],[168.8821268,-44.6368709]]}},{"type":"Feature","id":1426603045,"properties":{"kind":"run","name":"Triple Threat","subtype":"easy","pisteType":"downhill","featured":false},"geometry":{"type":"LineString","coordinates":[[168.8847632,-44.6292575],[168.884909,-44.6293954],[168.8849202,-44.6296902],[168.8848493,-44.6300779],[168.8848866,-44.630289],[168.8852075,-44.630208],[168.8853985,-44.6301391]]}},{"type":"Feature","id":1426603046,"properties":{"kind":"run","name":"Dream Weaver","subtype":"advanced","pisteType":"downhill","featured":false},"geometry":{"type":"LineString","coordinates":[[168.886839,-44.6311343],[168.8869354,-44.6313133],[168.8876182,-44.6317615],[168.8881704,-44.6320324],[168.8888197,-44.6324307],[168.8890884,-44.632752],[168.8896882,-44.6330381]]}},{"type":"Feature","id":1426603047,"properties":{"kind":"run","name":"Upper Sinclair's","subtype":"advanced","pisteType":"downhill","featured":false},"geometry":{"type":"LineString","coordinates":[[168.8900262,-44.6283663],[168.8911063,-44.6285616],[168.892101,-44.6288754],[168.8926547,-44.629123],[168.8932913,-44.6293825]]}},{"type":"Feature","id":1426603048,"properties":{"kind":"run","name":"Upper Camel","subtype":"intermediate","pisteType":"downhill","featured":false},"geometry":{"type":"LineString","coordinates":[[168.8859662,-44.6260577],[168.886809,-44.6261205],[168.8875881,-44.6263018],[168.8883819,-44.6265146],[168.8892002,-44.6267552],[168.8896303,-44.6269346]]}},{"type":"Feature","id":1426603049,"properties":{"kind":"run","name":"Upper Gunbarrel","subtype":"advanced","pisteType":"downhill","featured":false},"geometry":{"type":"LineString","coordinates":[[168.8796471,-44.6301669],[168.880407,-44.6303268],[168.8815145,-44.6305381],[168.8820284,-44.6305226],[168.8823728,-44.6305428],[168.8826868,-44.630658],[168.8830645,-44.6307278],[168.8831283,-44.6307585]]}},{"type":"Feature","id":1426603050,"properties":{"kind":"run","name":"Lower Gunbarrel","subtype":"advanced","pisteType":"downhill","featured":false},"geometry":{"type":"LineString","coordinates":[[168.8831283,-44.6307585],[168.8835699,-44.6307523],[168.8840457,-44.6309094],[168.8845609,-44.6309268],[168.8849239,-44.6309827],[168.8852624,-44.6311154],[168.8856107,-44.6312306],[168.8859443,-44.6313458],[168.886327,-44.6314156],[168.8865625,-44.6314051],[168.8867146,-44.6315867],[168.8866851,-44.6317578],[168.8867734,-44.6319044],[168.8869157,-44.6321558],[168.8868765,-44.632278],[168.8870138,-44.6324106],[168.887318,-44.6324979],[168.8874897,-44.6326306],[168.8877792,-44.6327982],[168.8879754,-44.6328819],[168.8883973,-44.6329727],[168.8888438,-44.6331333],[168.8893491,-44.6331508],[168.8896882,-44.6330381]]}},{"type":"Feature","id":1426603051,"properties":{"kind":"run","name":"Upper Mineshaft","subtype":"advanced","pisteType":"downhill","featured":false},"geometry":{"type":"LineString","coordinates":[[168.8737745,-44.6361073],[168.8749727,-44.6362079],[168.8755864,-44.6363793],[168.8763983,-44.6366529],[168.876876,-44.6368105]]}},{"type":"Feature","id":1426603052,"properties":{"kind":"run","name":"Mineshaft","subtype":"advanced","pisteType":"downhill","featured":false},"geometry":{"type":"LineString","coordinates":[[168.876876,-44.6368105],[168.8777966,-44.6371974],[168.8785696,-44.6375871],[168.8793154,-44.6379022],[168.879665,-44.6380073],[168.879968,-44.6380902],[168.880201,-44.6381897],[168.8802779,-44.6382501],[168.8803875,-44.6383362],[168.8809041,-44.6383776],[168.8816797,-44.6384957],[168.8826833,-44.6385802],[168.8834999,-44.6388181]]}},{"type":"Feature","id":1426603053,"properties":{"kind":"run","name":"Payback","subtype":"advanced","pisteType":"downhill","featured":false},"geometry":{"type":"LineString","coordinates":[[168.8782994,-44.6392979],[168.8790742,-44.6393571],[168.8794473,-44.6394004],[168.8798118,-44.6394642],[168.8801762,-44.6394745],[168.8805812,-44.6395321],[168.8809109,-44.6395485],[168.8813815,-44.6396206],[168.8821835,-44.6398101],[168.8829008,-44.639869],[168.8842195,-44.6399205]]}},{"type":"Feature","id":1426603054,"properties":{"kind":"run","name":"Drop Off","subtype":"advanced","pisteType":"downhill","featured":false},"geometry":{"type":"LineString","coordinates":[[168.8783829,-44.6384989],[168.8791871,-44.6385184],[168.8797217,-44.6385655],[168.8798751,-44.6385908],[168.8800689,-44.6386218],[168.8802321,-44.6386655],[168.8808303,-44.6387314]]}},{"type":"Feature","id":1426603055,"properties":{"kind":"run","name":"Drop Off","subtype":"advanced","pisteType":"downhill","featured":false},"geometry":{"type":"LineString","coordinates":[[168.8783829,-44.6384989],[168.8786994,-44.6384058],[168.8788868,-44.6383863],[168.8791791,-44.6383863],[168.8795021,-44.6383989],[168.8796523,-44.638346],[168.879951,-44.6382736],[168.8801852,-44.6382403],[168.8802779,-44.6382501]]}},{"type":"Feature","id":1426603056,"properties":{"kind":"run","name":"Drop Off","subtype":"advanced","pisteType":"downhill","featured":false},"geometry":{"type":"LineString","coordinates":[[168.8783829,-44.6384989],[168.8790757,-44.6386012],[168.8793535,-44.6386218],[168.8795747,-44.6387],[168.8799058,-44.6387747],[168.8800899,-44.6388137],[168.8802369,-44.6388057],[168.8803952,-44.638785],[168.8808303,-44.6387314],[168.8814133,-44.6387259],[168.8821465,-44.6388006],[168.8828288,-44.6388933],[168.8836479,-44.639053]]}},{"type":"Feature","id":1426603057,"properties":{"kind":"run","name":"Wide Glide","subtype":"intermediate","pisteType":"downhill","featured":false},"geometry":{"type":"LineString","coordinates":[[168.8730711,-44.6366581],[168.8735807,-44.6367644],[168.8743278,-44.6370795],[168.8749486,-44.6374566],[168.8760427,-44.6377126],[168.8768907,-44.6381597],[168.8777123,-44.6387146],[168.8781325,-44.6391457],[168.8782994,-44.6392979],[168.878594,-44.6395667]]}},{"type":"Feature","id":1426603058,"properties":{"kind":"run","name":"The Crags","subtype":"advanced","pisteType":"downhill","featured":false},"geometry":{"type":"LineString","coordinates":[[168.8751928,-44.6339777],[168.8754756,-44.6341531],[168.8756777,-44.6342451],[168.8759405,-44.6343343],[168.8761589,-44.634412],[168.8764176,-44.6345041],[168.8767694,-44.6345271],[168.8771252,-44.6344983],[168.8773961,-44.6345587],[168.8776912,-44.6346767],[168.8780066,-44.6347947],[168.8783058,-44.6348436],[168.8785322,-44.6348724],[168.8788435,-44.6348637],[168.8790254,-44.6348033],[168.8791531,-44.6347062]]}},{"type":"Feature","id":1426603059,"properties":{"kind":"run","name":"The Crags","subtype":"advanced","pisteType":"downhill","featured":false},"geometry":{"type":"LineString","coordinates":[[168.8747919,-44.6349831],[168.8757575,-44.6348748],[168.8761854,-44.6347631],[168.8766432,-44.6349101],[168.8768826,-44.6350421],[168.8772507,-44.6350442],[168.8775679,-44.6349824],[168.8778611,-44.6349058],[168.8780066,-44.6347947]]}},{"type":"Feature","id":1426603060,"properties":{"kind":"run","name":"Cloud Nine","subtype":"unknown","pisteType":"downhill","featured":false},"geometry":{"type":"LineString","coordinates":[[168.8773655,-44.6361217],[168.8776562,-44.6361742],[168.878367,-44.636276],[168.8792161,-44.6364627],[168.879822,-44.6366359],[168.8804422,-44.6368294],[168.8814869,-44.6372333],[168.8819449,-44.6374607],[168.8824458,-44.6377832],[168.8825663,-44.6378329]]}},{"type":"Feature","id":1426603061,"properties":{"kind":"run","name":"Upper Cloud Nine","subtype":"intermediate","pisteType":"downhill","featured":false},"geometry":{"type":"LineString","coordinates":[[168.8744889,-44.6354768],[168.8749704,-44.6356226],[168.8757051,-44.6358229],[168.8764779,-44.6359315],[168.8769263,-44.6360537],[168.8770742,-44.6360537],[168.8773655,-44.6361217]]}},{"type":"Feature","id":1507402380,"properties":{"kind":"run","name":"Connection","subtype":"intermediate","pisteType":"downhill","featured":false},"geometry":{"type":"LineString","coordinates":[[168.8835028,-44.6281287],[168.8837232,-44.6277154],[168.8842604,-44.6273727],[168.8845062,-44.6270709],[168.8846762,-44.6268427],[168.8849186,-44.6267061],[168.8851915,-44.6265595],[168.8855375,-44.6263171],[168.8857327,-44.6261647],[168.8859662,-44.6260577]]}},{"type":"Feature","id":1507402382,"properties":{"kind":"run","name":"Motatapu Gate 1 Route 1","subtype":"advanced","pisteType":"downhill","featured":false},"geometry":{"type":"LineString","coordinates":[[168.8730799,-44.636726],[168.8732101,-44.6370021],[168.873293,-44.6372824],[168.8734071,-44.6374374],[168.8736092,-44.6376808],[168.8738892,-44.6380128],[168.8739825,-44.6383263],[168.8740032,-44.6386177],[168.8740239,-44.6388907],[168.8740615,-44.6392029],[168.8740444,-44.6395217],[168.8737958,-44.6397464],[168.8736455,-44.6399714],[168.8735705,-44.6401539]]}},{"type":"Feature","id":1507402383,"properties":{"kind":"run","name":"Motatapu Gate 1 Route 2","subtype":"advanced","pisteType":"downhill","featured":false},"geometry":{"type":"LineString","coordinates":[[168.8737958,-44.6397464],[168.8733345,-44.6398681],[168.8729146,-44.6400267],[168.872645,-44.6401632],[168.8725142,-44.6403225],[168.8720852,-44.6404067],[168.8717638,-44.6405542],[168.8714735,-44.6406907],[168.8713788,-44.6408212],[168.8711313,-44.6410189],[168.8709655,-44.641196],[168.8708457,-44.6413762]]}},{"type":"Feature","id":1507402384,"properties":{"kind":"run","name":"Motatapu Gate 2 Route","subtype":"advanced","pisteType":"downhill","featured":false},"geometry":{"type":"LineString","coordinates":[[168.8773623,-44.639252],[168.8774967,-44.6394671],[168.8776777,-44.6396842],[168.877721,-44.6397821],[168.8779831,-44.6399289],[168.878298,-44.6400446],[168.8787167,-44.6401587],[168.8790734,-44.640269],[168.8792867,-44.6403295],[168.8796059,-44.6404713],[168.879885,-44.6405559],[168.8799752,-44.6405994],[168.8801745,-44.6406957],[168.8805312,-44.6408575],[168.8809551,-44.6409201],[168.8813842,-44.640909],[168.8817099,-44.6408796],[168.8819128,-44.6408704]]}},{"type":"Feature","id":1507402385,"properties":{"kind":"run","name":"Motatapu Gate 2 Route 2","subtype":"advanced","pisteType":"downhill","featured":false},"geometry":{"type":"LineString","coordinates":[[168.8779831,-44.6399289],[168.8779282,-44.6400282],[168.8778372,-44.6401158]]}},{"type":"Feature","id":1507402386,"properties":{"kind":"run","name":"Chute 23 Connector","subtype":"advanced","pisteType":"downhill","featured":false},"geometry":{"type":"LineString","coordinates":[[168.8759794,-44.6424017],[168.8759762,-44.6425233],[168.8761117,-44.6427511],[168.8761982,-44.6428769],[168.8762657,-44.6429988]]}},{"type":"Feature","id":1507402387,"properties":{"kind":"run","name":"Chute 22 Connector","subtype":"advanced","pisteType":"downhill","featured":false},"geometry":{"type":"LineString","coordinates":[[168.8759762,-44.6425233],[168.8759271,-44.6426854],[168.8758741,-44.642814],[168.875825,-44.6429132],[168.8757919,-44.6430269]]}},{"type":"Feature","id":1507402388,"properties":{"kind":"run","name":"Drop Off Connector","subtype":"advanced","pisteType":"downhill","featured":false},"geometry":{"type":"LineString","coordinates":[[168.8768907,-44.6381597],[168.8773194,-44.6382599],[168.8776896,-44.6383468],[168.8780849,-44.6384389],[168.8783829,-44.6384989]]}},{"type":"Feature","id":1507402389,"properties":{"kind":"run","name":"Shooter DD Connector","subtype":"intermediate","pisteType":"downhill","featured":false},"geometry":{"type":"LineString","coordinates":[[168.8820365,-44.6359082],[168.882234,-44.6360432],[168.8825047,-44.6362124],[168.8827205,-44.6362853],[168.8829789,-44.6363858]]}}]}