{"type":"FeatureCollection","features":[{"type":"Feature","id":"building-855778740","properties":{"kind":"building","name":"Alpine building","height":7.2},"geometry":{"type":"Polygon","coordinates":[[[168.8841614,-44.6399437],[168.8841366,-44.639989],[168.8841952,-44.6400053],[168.88422,-44.6399599],[168.8841614,-44.6399437]]]}},{"type":"Feature","id":"building-1360316338","properties":{"kind":"building","name":"Saddle Hut","height":7.2},"geometry":{"type":"Polygon","coordinates":[[[168.8844038,-44.6353128],[168.8844434,-44.6352849],[168.8845065,-44.6353302],[168.8844668,-44.6353581],[168.8844038,-44.6353128]]]}},{"type":"Feature","id":"building-855778730","properties":{"kind":"building","name":"Ski Patrol","height":7.2},"geometry":{"type":"Polygon","coordinates":[[[168.8734081,-44.6363723],[168.8733488,-44.6364549],[168.8734188,-44.6364803],[168.873478,-44.6363976],[168.8734081,-44.6363723]]]}},{"type":"Feature","id":"building-855778739","properties":{"kind":"building","name":"Alpine building","height":7.2},"geometry":{"type":"Polygon","coordinates":[[[168.8872561,-44.6310327],[168.887219,-44.6311607],[168.887158,-44.6311517],[168.8871647,-44.6311288],[168.8870607,-44.6311135],[168.88708,-44.6310471],[168.8871228,-44.6310534],[168.8871287,-44.6310329],[168.8872052,-44.6310441],[168.8872104,-44.631026],[168.8872561,-44.6310327]]]}},{"type":"Feature","id":"pylon-treble-cone-0","properties":{"kind":"pylon","name":"Lift tower","height":13},"geometry":{"type":"Polygon","coordinates":[[[168.883198269647,-44.6289838],[168.88319013610572,-44.62896982555768],[168.8831705,-44.62896403715415],[168.8831508638943,-44.62896982555768],[168.883142730353,-44.6289838],[168.8831508638943,-44.62899777444232],[168.8831705,-44.62900356284585],[168.88319013610572,-44.62899777444232],[168.883198269647,-44.6289838]]]}},{"type":"Feature","id":"pylon-treble-cone-1","properties":{"kind":"pylon","name":"Lift tower","height":13},"geometry":{"type":"Polygon","coordinates":[[[168.88325716965574,-44.629002],[168.8832490361119,-44.62898802555768],[168.8832294,-44.62898223715415],[168.88320976388812,-44.62898802555768],[168.88320163034427,-44.629002],[168.88320976388812,-44.62901597444232],[168.8832294,-44.62902176284585],[168.8832490361119,-44.62901597444232],[168.88325716965574,-44.629002]]]}},{"type":"Feature","id":"pylon-treble-cone-2","properties":{"kind":"pylon","name":"Lift tower","height":13},"geometry":{"type":"Polygon","coordinates":[[[168.88377186971888,-44.629134],[168.88376373615654,-44.62912002555768],[168.8837441,-44.62911423715415],[168.88372446384346,-44.62912002555768],[168.88371633028112,-44.629134],[168.88372446384346,-44.62914797444232],[168.8837441,-44.62915376284585],[168.88376373615654,-44.62914797444232],[168.88377186971888,-44.629134]]]}},{"type":"Feature","id":"pylon-treble-cone-3","properties":{"kind":"pylon","name":"Lift tower","height":13},"geometry":{"type":"Polygon","coordinates":[[[168.88524526991424,-44.6295423],[168.88523713629468,-44.62952832555768],[168.8852175,-44.629522537154145],[168.88519786370534,-44.62952832555768],[168.88518973008578,-44.6295423],[168.88519786370534,-44.629556274442315],[168.8852175,-44.62956206284585],[168.88523713629468,-44.629556274442315],[168.88524526991424,-44.6295423]]]}},{"type":"Feature","id":"pylon-treble-cone-4","properties":{"kind":"pylon","name":"Lift tower","height":13},"geometry":{"type":"Polygon","coordinates":[[[168.8865977700922,-44.6299143],[168.88658963642052,-44.629900325557685],[168.88657,-44.62989453715415],[168.8865503635795,-44.629900325557685],[168.8865422299078,-44.6299143],[168.8865503635795,-44.62992827444232],[168.88657,-44.629934062845855],[168.88658963642052,-44.62992827444232],[168.8865977700922,-44.6299143]]]}},{"type":"Feature","id":"pylon-treble-cone-5","properties":{"kind":"pylon","name":"Lift tower","height":13},"geometry":{"type":"Polygon","coordinates":[[[168.88774387024293,-44.6302293],[168.8877357365271,-44.630215325557685],[168.8877161,-44.63020953715415],[168.8876964634729,-44.630215325557685],[168.88768832975708,-44.6302293],[168.8876964634729,-44.63024327444232],[168.8877161,-44.630249062845856],[168.8877357365271,-44.63024327444232],[168.88774387024293,-44.6302293]]]}},{"type":"Feature","id":"pylon-treble-cone-6","properties":{"kind":"pylon","name":"Lift tower","height":13},"geometry":{"type":"Polygon","coordinates":[[[168.88891547039594,-44.6305491],[168.8889073366353,-44.630535125557685],[168.8888877,-44.63052933715415],[168.8888680633647,-44.630535125557685],[168.88885992960405,-44.6305491],[168.8888680633647,-44.63056307444232],[168.8888877,-44.630568862845855],[168.8889073366353,-44.63056307444232],[168.88891547039594,-44.6305491]]]}},{"type":"Feature","id":"pylon-treble-cone-7","properties":{"kind":"pylon","name":"Lift tower","height":13},"geometry":{"type":"Polygon","coordinates":[[[168.89005057054806,-44.630867],[168.89004243674285,-44.630853025557684],[168.8900228,-44.63084723715415],[168.89000316325715,-44.630853025557684],[168.88999502945194,-44.630867],[168.89000316325715,-44.63088097444232],[168.8900228,-44.630886762845854],[168.89004243674285,-44.63088097444232],[168.89005057054806,-44.630867]]]}},{"type":"Feature","id":"pylon-treble-cone-8","properties":{"kind":"pylon","name":"Lift tower","height":13},"geometry":{"type":"Polygon","coordinates":[[[168.89118607069634,-44.6311769],[168.8911779368477,-44.63116292555768],[168.8911583,-44.63115713715415],[168.8911386631523,-44.63116292555768],[168.89113052930367,-44.6311769],[168.8911386631523,-44.63119087444232],[168.8911583,-44.63119666284585],[168.8911779368477,-44.63119087444232],[168.89118607069634,-44.6311769]]]}},{"type":"Feature","id":"pylon-treble-cone-9","properties":{"kind":"pylon","name":"Lift tower","height":13},"geometry":{"type":"Polygon","coordinates":[[[168.89237847085343,-44.6315052],[168.89237033695878,-44.63149122555768],[168.8923507,-44.63148543715415],[168.89233106304124,-44.63149122555768],[168.8923229291466,-44.6315052],[168.89233106304124,-44.63151917444232],[168.8923507,-44.63152496284585],[168.89237033695878,-44.63151917444232],[168.89237847085343,-44.6315052]]]}},{"type":"Feature","id":"pylon-treble-cone-10","properties":{"kind":"pylon","name":"Lift tower","height":13},"geometry":{"type":"Polygon","coordinates":[[[168.8937988710399,-44.6318949],[168.89379073709065,-44.63188092555768],[168.8937711,-44.63187513715415],[168.89375146290936,-44.63188092555768],[168.8937433289601,-44.6318949],[168.89375146290936,-44.63190887444232],[168.8937711,-44.63191466284585],[168.89379073709065,-44.63190887444232],[168.8937988710399,-44.6318949]]]}},{"type":"Feature","id":"pylon-treble-cone-11","properties":{"kind":"pylon","name":"Lift tower","height":13},"geometry":{"type":"Polygon","coordinates":[[[168.89534617124175,-44.6323167],[168.89533803723336,-44.63230272555768],[168.8953184,-44.632296937154145],[168.89529876276666,-44.63230272555768],[168.89529062875826,-44.6323167],[168.89529876276666,-44.632330674442315],[168.8953184,-44.63233646284585],[168.89533803723336,-44.632330674442315],[168.89534617124175,-44.6323167]]]}},{"type":"Feature","id":"pylon-treble-cone-12","properties":{"kind":"pylon","name":"Lift tower","height":13},"geometry":{"type":"Polygon","coordinates":[[[168.89677097108077,-44.6319803],[168.89676283711952,-44.631966325557684],[168.8967432,-44.63196053715415],[168.89672356288048,-44.631966325557684],[168.89671542891924,-44.6319803],[168.89672356288048,-44.63199427444232],[168.8967432,-44.632000062845854],[168.89676283711952,-44.63199427444232],[168.89677097108077,-44.6319803]]]}},{"type":"Feature","id":"pylon-treble-cone-13","properties":{"kind":"pylon","name":"Lift tower","height":13},"geometry":{"type":"Polygon","coordinates":[[[168.89737767052145,-44.6308114],[168.89736953672403,-44.63079742555768],[168.8973499,-44.63079163715415],[168.89733026327596,-44.63079742555768],[168.89732212947854,-44.6308114],[168.89733026327596,-44.63082537444232],[168.8973499,-44.63083116284585],[168.89736953672403,-44.63082537444232],[168.89737767052145,-44.6308114]]]}},{"type":"Feature","id":"pylon-treble-cone-14","properties":{"kind":"pylon","name":"Lift tower","height":13},"geometry":{"type":"Polygon","coordinates":[[[168.89778617014477,-44.6300242],[168.89777803645768,-44.63001022555768],[168.8977584,-44.63000443715415],[168.8977387635423,-44.63001022555768],[168.8977306298552,-44.6300242],[168.8977387635423,-44.63003817444232],[168.8977584,-44.63004396284585],[168.89777803645768,-44.63003817444232],[168.89778617014477,-44.6300242]]]}},{"type":"Feature","id":"pylon-treble-cone-15","properties":{"kind":"pylon","name":"Lift tower","height":13},"geometry":{"type":"Polygon","coordinates":[[[168.87410877327258,-44.6365603],[168.87410063866938,-44.63654632555768],[168.874081,-44.63654053715415],[168.8740613613306,-44.63654632555768],[168.8740532267274,-44.6365603],[168.8740613613306,-44.63657427444232],[168.874081,-44.63658006284585],[168.87410063866938,-44.63657427444232],[168.87410877327258,-44.6365603]]]}},{"type":"Feature","id":"pylon-treble-cone-16","properties":{"kind":"pylon","name":"Lift tower","height":13},"geometry":{"type":"Polygon","coordinates":[[[168.8736413731941,-44.6363963],[168.87363323861388,-44.63638232555768],[168.8736136,-44.63637653715415],[168.87359396138612,-44.63638232555768],[168.8735858268059,-44.6363963],[168.87359396138612,-44.63641027444232],[168.8736136,-44.63641606284585],[168.87363323861388,-44.63641027444232],[168.8736413731941,-44.6363963]]]}},{"type":"Feature","id":"pylon-treble-cone-17","properties":{"kind":"pylon","name":"Lift tower","height":13},"geometry":{"type":"Polygon","coordinates":[[[168.87476017337565,-44.6367756],[168.87475203874226,-44.63676162555768],[168.8747324,-44.63675583715415],[168.87471276125774,-44.63676162555768],[168.87470462662435,-44.6367756],[168.87471276125774,-44.63678957444232],[168.8747324,-44.63679536284585],[168.87475203874226,-44.63678957444232],[168.87476017337565,-44.6367756]]]}},{"type":"Feature","id":"pylon-treble-cone-18","properties":{"kind":"pylon","name":"Lift tower","height":13},"geometry":{"type":"Polygon","coordinates":[[[168.87601317357172,-44.6371853],[168.87600503888092,-44.63717132555768],[168.8759854,-44.63716553715415],[168.87596576111906,-44.63717132555768],[168.87595762642826,-44.6371853],[168.87596576111906,-44.63719927444232],[168.8759854,-44.63720506284585],[168.87600503888092,-44.63719927444232],[168.87601317357172,-44.6371853]]]}},{"type":"Feature","id":"pylon-treble-cone-19","properties":{"kind":"pylon","name":"Lift tower","height":13},"geometry":{"type":"Polygon","coordinates":[[[168.87732827378127,-44.6376231],[168.87732013902908,-44.63760912555768],[168.8773005,-44.63760333715415],[168.8772808609709,-44.63760912555768],[168.8772727262187,-44.6376231],[168.8772808609709,-44.63763707444232],[168.8773005,-44.63764286284585],[168.87732013902908,-44.63763707444232],[168.87732827378127,-44.6376231]]]}},{"type":"Feature","id":"pylon-treble-cone-20","properties":{"kind":"pylon","name":"Lift tower","height":13},"geometry":{"type":"Polygon","coordinates":[[[168.8784612739617,-44.638],[168.87845313915665,-44.63798602555768],[168.8784335,-44.637980237154146],[168.87841386084335,-44.63798602555768],[168.8784057260383,-44.638],[168.87841386084335,-44.638013974442316],[168.8784335,-44.63801976284585],[168.87845313915665,-44.638013974442316],[168.8784612739617,-44.638]]]}},{"type":"Feature","id":"pylon-treble-cone-21","properties":{"kind":"pylon","name":"Lift tower","height":13},"geometry":{"type":"Polygon","coordinates":[[[168.87975607416817,-44.6384313],[168.87974793930266,-44.63841732555768],[168.8797283,-44.63841153715415],[168.87970866069736,-44.63841732555768],[168.87970052583185,-44.6384313],[168.87970866069736,-44.63844527444232],[168.8797283,-44.63845106284585],[168.87974793930266,-44.63844527444232],[168.87975607416817,-44.6384313]]]}},{"type":"Feature","id":"pylon-treble-cone-22","properties":{"kind":"pylon","name":"Lift tower","height":13},"geometry":{"type":"Polygon","coordinates":[[[168.88106407437687,-44.6388673],[168.88105593945022,-44.63885332555768],[168.8810363,-44.63884753715415],[168.8810166605498,-44.63885332555768],[168.88100852562314,-44.6388673],[168.8810166605498,-44.63888127444232],[168.8810363,-44.63888706284585],[168.88105593945022,-44.63888127444232],[168.88106407437687,-44.6388673]]]}},{"type":"Feature","id":"pylon-treble-cone-23","properties":{"kind":"pylon","name":"Lift tower","height":13},"geometry":{"type":"Polygon","coordinates":[[[168.88166127446846,-44.6390587],[168.88165313951498,-44.63904472555768],[168.8816335,-44.63903893715415],[168.881613860485,-44.63904472555768],[168.88160572553153,-44.6390587],[168.881613860485,-44.63907267444232],[168.8816335,-44.63907846284585],[168.88165313951498,-44.63907267444232],[168.88166127446846,-44.6390587]]]}},{"type":"Feature","id":"pylon-treble-cone-24","properties":{"kind":"pylon","name":"Lift tower","height":13},"geometry":{"type":"Polygon","coordinates":[[[168.88248737460307,-44.6393399],[168.88247923961018,-44.639325925557685],[168.8824596,-44.63932013715415],[168.88243996038983,-44.639325925557685],[168.88243182539694,-44.6393399],[168.88243996038983,-44.63935387444232],[168.8824596,-44.639359662845855],[168.88247923961018,-44.63935387444232],[168.88248737460307,-44.6393399]]]}},{"type":"Feature","id":"pylon-treble-cone-25","properties":{"kind":"pylon","name":"Lift tower","height":13},"geometry":{"type":"Polygon","coordinates":[[[168.88318047471478,-44.6395732],[168.88317233968917,-44.63955922555768],[168.8831527,-44.63955343715415],[168.88313306031085,-44.63955922555768],[168.88312492528524,-44.6395732],[168.88313306031085,-44.63958717444232],[168.8831527,-44.63959296284585],[168.88317233968917,-44.63958717444232],[168.88318047471478,-44.6395732]]]}},{"type":"Feature","id":"pylon-treble-cone-26","properties":{"kind":"pylon","name":"Lift tower","height":13},"geometry":{"type":"Polygon","coordinates":[[[168.8840883748576,-44.6398716],[168.88408023979017,-44.63985762555768],[168.8840606,-44.63985183715415],[168.88404096020983,-44.63985762555768],[168.88403282514238,-44.6398716],[168.88404096020983,-44.63988557444232],[168.8840606,-44.63989136284585],[168.88408023979017,-44.63988557444232],[168.8840883748576,-44.6398716]]]}},{"type":"Feature","id":"marker-treble-cone-summit","properties":{"kind":"marker","markerType":"summit","name":"Upper mountain · 1960 m","height":26},"geometry":{"type":"Polygon","coordinates":[[[168.87608836865047,-44.636],[168.87607149174,-44.635963039015756],[168.87602730741477,-44.635940195871235],[168.87597269258524,-44.635940195871235],[168.87592850826002,-44.635963039015756],[168.87591163134954,-44.636],[168.87592850826002,-44.63603696098425],[168.87597269258524,-44.63605980412877],[168.87602730741477,-44.63605980412877],[168.87607149174,-44.63603696098425],[168.87608836865047,-44.636]]]}},{"type":"Feature","id":"marker-treble-cone-base","properties":{"kind":"marker","markerType":"base","name":"Base · 1260 m","height":18},"geometry":{"type":"Polygon","coordinates":[[[168.88008837474248,-44.64],[168.88007149666853,-44.639963039015754],[168.8800273092973,-44.63994019587123],[168.8799726907027,-44.63994019587123],[168.87992850333146,-44.639963039015754],[168.8799116252575,-44.64],[168.87992850333146,-44.64003696098425],[168.8799726907027,-44.64005980412877],[168.8800273092973,-44.64005980412877],[168.88007149666853,-44.64003696098425],[168.88008837474248,-44.64]]]}},{"type":"Feature","id":"marker-treble-cone-peak","properties":{"kind":"marker","markerType":"peak","name":"Peak · 2088 m","height":22},"geometry":{"type":"Polygon","coordinates":[[[168.8840883656049,-44.634],[168.88407148927607,-44.633963039015754],[168.88402730647363,-44.63394019587123],[168.88397269352635,-44.63394019587123],[168.8839285107239,-44.633963039015754],[168.88391163439508,-44.634],[168.8839285107239,-44.63403696098425],[168.88397269352635,-44.63405980412877],[168.88402730647363,-44.63405980412877],[168.88407148927607,-44.63403696098425],[168.8840883656049,-44.634]]]}},{"type":"Feature","id":"marker-treble-cone-featured-run","properties":{"kind":"marker","markerType":"featured-run","name":"Powder · Motatapu Chutes","height":20},"geometry":{"type":"Polygon","coordinates":[[[168.88308837931234,-44.643],[168.88307150036562,-44.642963039015754],[168.88302731070945,-44.64294019587123],[168.8829726892905,-44.64294019587123],[168.88292849963435,-44.642963039015754],[168.88291162068762,-44.643],[168.88292849963435,-44.64303696098425],[168.8829726892905,-44.64305980412877],[168.88302731070945,-44.64305980412877],[168.88307150036562,-44.64303696098425],[168.88308837931234,-44.643]]]}}]}