{"type":"FeatureCollection","features":[{"type":"Feature","id":"building-470063013","properties":{"kind":"building","name":"Hotel Escorpio","height":7.2},"geometry":{"type":"Polygon","coordinates":[[[-70.084776,-35.14775],[-70.0848026,-35.1479127],[-70.0842943,-35.1479682],[-70.0843019,-35.1480148],[-70.0842109,-35.1480248],[-70.0842216,-35.1480902],[-70.0841331,-35.1480999],[-70.0840882,-35.1478252],[-70.084776,-35.14775]]]}},{"type":"Feature","id":"building-470061841","properties":{"kind":"building","name":"Hotel Piscis","height":7.2},"geometry":{"type":"Polygon","coordinates":[[[-70.084699,-35.1490018],[-70.0846217,-35.1490816],[-70.0843412,-35.149158],[-70.0843412,-35.149188],[-70.0842193,-35.1491647],[-70.084142,-35.1491514],[-70.0840648,-35.1491348],[-70.0840688,-35.1490982],[-70.0838452,-35.1490616],[-70.0838737,-35.1489952],[-70.0838086,-35.1489785],[-70.0838249,-35.1488921],[-70.083642,-35.1487459],[-70.083642,-35.1486594],[-70.0837348,-35.1486458],[-70.0838005,-35.1486362],[-70.0840404,-35.148809],[-70.084077,-35.1487857],[-70.0840951,-35.1486894],[-70.0841014,-35.1486561],[-70.0844266,-35.1487026],[-70.0844063,-35.1488489],[-70.084264,-35.1488821],[-70.0843006,-35.1489819],[-70.0845933,-35.1489054],[-70.0846746,-35.1489453],[-70.084699,-35.1490018]]]}},{"type":"Feature","id":"building-470063020","properties":{"kind":"building","name":"Innsbruck","height":7.2},"geometry":{"type":"Polygon","coordinates":[[[-70.0838842,-35.1475078],[-70.0838994,-35.1475988],[-70.0839852,-35.1475892],[-70.0839951,-35.1476484],[-70.0840497,-35.1476423],[-70.0840623,-35.1477179],[-70.0839482,-35.1477307],[-70.0839518,-35.1477525],[-70.0839306,-35.1477549],[-70.083828,-35.1477663],[-70.08381,-35.1476587],[-70.0836845,-35.1476727],[-70.0836611,-35.1475327],[-70.0838842,-35.1475078]]]}},{"type":"Feature","id":"building-470063326","properties":{"kind":"building","name":"Centro Comercial La Pirámide","height":10.3},"geometry":{"type":"Polygon","coordinates":[[[-70.0838974,-35.1481624],[-70.0836909,-35.1483161],[-70.0836338,-35.1483218],[-70.08354,-35.1483312],[-70.0833089,-35.1481574],[-70.0834136,-35.1480466],[-70.0834753,-35.1480869],[-70.0837002,-35.1480743],[-70.083731,-35.148039],[-70.0838974,-35.1481624]]]}},{"type":"Feature","id":"building-1546784857","properties":{"kind":"building","name":"UFO Point Las Leñas","height":7.2},"geometry":{"type":"Polygon","coordinates":[[[-70.0833343,-35.1471482],[-70.0831068,-35.1471742],[-70.0831427,-35.147447],[-70.0834005,-35.1474267],[-70.0833343,-35.1471482]]]}},{"type":"Feature","id":"building-470063012","properties":{"kind":"building","name":"Hotel Acuario","height":7.2},"geometry":{"type":"Polygon","coordinates":[[[-70.0831008,-35.1472071],[-70.0831298,-35.1473606],[-70.0829277,-35.1473832],[-70.0825096,-35.1474265],[-70.0824707,-35.1472586],[-70.0830476,-35.1472066],[-70.0831008,-35.1472071]]]}},{"type":"Feature","id":"building-470063015","properties":{"kind":"building","name":"Atenas","height":7.2},"geometry":{"type":"Polygon","coordinates":[[[-70.0827278,-35.1479333],[-70.082747,-35.1480268],[-70.0826865,-35.1480351],[-70.0827159,-35.1481782],[-70.0825425,-35.1482019],[-70.082515,-35.148068],[-70.0823832,-35.148086],[-70.0824078,-35.1482058],[-70.0822231,-35.1482312],[-70.0821966,-35.1481017],[-70.0821282,-35.1481111],[-70.08209,-35.1479247],[-70.0822833,-35.1478982],[-70.0822904,-35.1479327],[-70.0824296,-35.1479136],[-70.0824361,-35.1479451],[-70.0825806,-35.1479253],[-70.0825862,-35.1479527],[-70.0827278,-35.1479333]]]}},{"type":"Feature","id":"building-525414257","properties":{"kind":"building","name":"Ski Rental Oficial","height":7.2},"geometry":{"type":"Polygon","coordinates":[[[-70.0821844,-35.1468925],[-70.0821651,-35.1472127],[-70.0820631,-35.1472104],[-70.0820686,-35.1471202],[-70.0820273,-35.1471202],[-70.0820217,-35.1471969],[-70.0819335,-35.1471901],[-70.081939,-35.1468812],[-70.08203,-35.1468835],[-70.0820162,-35.1470594],[-70.0820741,-35.1470571],[-70.0820769,-35.1468857],[-70.0821844,-35.1468925]]]}},{"type":"Feature","id":"building-470063014","properties":{"kind":"building","name":"Corinto","height":7.2},"geometry":{"type":"Polygon","coordinates":[[[-70.0822059,-35.1484548],[-70.0822292,-35.1485527],[-70.0821198,-35.1485701],[-70.0821535,-35.148712],[-70.0820187,-35.1487335],[-70.0819834,-35.1485849],[-70.0818465,-35.1486067],[-70.0818779,-35.1487385],[-70.0817245,-35.1487629],[-70.0816885,-35.1486117],[-70.0816249,-35.1486218],[-70.0815846,-35.1484529],[-70.0817756,-35.1484225],[-70.0817832,-35.1484542],[-70.0819163,-35.148433],[-70.0819255,-35.1484718],[-70.0820612,-35.1484502],[-70.0820675,-35.1484769],[-70.0822059,-35.1484548]]]}},{"type":"Feature","id":"building-525414259","properties":{"kind":"building","name":"Centro médico las Leñas","height":7.2},"geometry":{"type":"Polygon","coordinates":[[[-70.0818811,-35.146888],[-70.0818646,-35.1471744],[-70.081757,-35.1471676],[-70.0817708,-35.1469669],[-70.0816963,-35.1469647],[-70.0816991,-35.1468925],[-70.0818149,-35.1469015],[-70.0818149,-35.1468767],[-70.0818811,-35.146888]]]}},{"type":"Feature","id":"building-470063016","properties":{"kind":"building","name":"Esparta","height":7.2},"geometry":{"type":"Polygon","coordinates":[[[-70.0819624,-35.1475483],[-70.0819844,-35.1476453],[-70.0818925,-35.1476541],[-70.0819235,-35.1478001],[-70.0818068,-35.1478135],[-70.0817728,-35.1476664],[-70.0815892,-35.1476925],[-70.0816101,-35.147794],[-70.0814759,-35.1478124],[-70.0814519,-35.1476949],[-70.0813711,-35.147706],[-70.0813357,-35.147533],[-70.081501,-35.1475104],[-70.0815119,-35.1475451],[-70.0816679,-35.1475251],[-70.0816762,-35.1475646],[-70.0818029,-35.1475468],[-70.0818079,-35.1475704],[-70.0819624,-35.1475483]]]}},{"type":"Feature","id":"building-470061846","properties":{"kind":"building","name":"Hotel Virgo","height":7.2},"geometry":{"type":"Polygon","coordinates":[[[-70.0820817,-35.1462087],[-70.0818394,-35.1463178],[-70.0816249,-35.1459993],[-70.081442,-35.1457277],[-70.0814814,-35.14571],[-70.0814516,-35.1456657],[-70.0816168,-35.1455914],[-70.0816441,-35.1456319],[-70.0816813,-35.1456152],[-70.081856,-35.1458749],[-70.0818891,-35.145924],[-70.0819629,-35.1460337],[-70.0820383,-35.1459998],[-70.0821188,-35.1461193],[-70.0820442,-35.1461529],[-70.0820817,-35.1462087]]]}},{"type":"Feature","id":"building-525414262","properties":{"kind":"building","name":"Alpine building","height":7.2},"geometry":{"type":"Polygon","coordinates":[[[-70.0815336,-35.146676],[-70.0815088,-35.1467662],[-70.0816688,-35.1467978],[-70.0816826,-35.1467053],[-70.0815336,-35.146676]]]}},{"type":"Feature","id":"building-470061860","properties":{"kind":"building","name":"Tebas","height":7.2},"geometry":{"type":"Polygon","coordinates":[[[-70.0814453,-35.148115],[-70.0814747,-35.1482548],[-70.0813687,-35.1482696],[-70.0813958,-35.1483985],[-70.0812577,-35.1484179],[-70.0812293,-35.1482829],[-70.0810772,-35.1483043],[-70.0810978,-35.1484025],[-70.0809531,-35.1484228],[-70.0809223,-35.1482759],[-70.0808414,-35.1482873],[-70.0808074,-35.1481255],[-70.0810022,-35.1480981],[-70.0810076,-35.1481242],[-70.0811458,-35.1481047],[-70.0811505,-35.1481274],[-70.0812997,-35.1481064],[-70.0813056,-35.1481346],[-70.0814453,-35.148115]]]}},{"type":"Feature","id":"building-773607884","properties":{"kind":"building","name":"Alpine building","height":7.2},"geometry":{"type":"Polygon","coordinates":[[[-70.0816168,-35.1455914],[-70.0815965,-35.1455604],[-70.081552,-35.1454922],[-70.0813834,-35.1455615],[-70.0814321,-35.145636],[-70.0814516,-35.1456657],[-70.0816168,-35.1455914]]]}},{"type":"Feature","id":"building-525414263","properties":{"kind":"building","name":"Pizza House","height":7.2},"geometry":{"type":"Polygon","coordinates":[[[-70.0810648,-35.1465317],[-70.0810235,-35.1466287],[-70.0811393,-35.1466535],[-70.0811751,-35.1465588],[-70.0810648,-35.1465317]]]}},{"type":"Feature","id":"building-470061856","properties":{"kind":"building","name":"Hostel Las Leñas","height":7.2},"geometry":{"type":"Polygon","coordinates":[[[-70.0809828,-35.1476862],[-70.0810123,-35.1478375],[-70.0807629,-35.1478616],[-70.0807334,-35.1477103],[-70.0809828,-35.1476862]]]}},{"type":"Feature","id":"building-470061853","properties":{"kind":"building","name":"Informes","height":7.2},"geometry":{"type":"Polygon","coordinates":[[[-70.0809962,-35.1467255],[-70.0810445,-35.1469975],[-70.0810123,-35.1469975],[-70.0808702,-35.1467606],[-70.0808943,-35.1467519],[-70.0808862,-35.146719],[-70.0809962,-35.1467255]]]}},{"type":"Feature","id":"building-525414265","properties":{"kind":"building","name":"Alpine building","height":7.2},"geometry":{"type":"Polygon","coordinates":[[[-70.0830049,-35.1422468],[-70.0827099,-35.1426723],[-70.0828171,-35.1427161],[-70.08308,-35.1422906],[-70.0830049,-35.1422468]]]}},{"type":"Feature","id":"building-470063018","properties":{"kind":"building","name":"Alpine building","height":7.2},"geometry":{"type":"Polygon","coordinates":[[[-70.0809358,-35.1473837],[-70.0809553,-35.1474995],[-70.0808763,-35.1475084],[-70.0808939,-35.1476127],[-70.0807759,-35.147626],[-70.0807566,-35.1475109],[-70.0805203,-35.1475375],[-70.0805026,-35.1474324],[-70.0806622,-35.1474159],[-70.0807248,-35.1474077],[-70.0809358,-35.1473837]]]}},{"type":"Feature","id":"building-470063019","properties":{"kind":"building","name":"Apart Hotel Géminis","height":7.2},"geometry":{"type":"Polygon","coordinates":[[[-70.080896,-35.1471833],[-70.0809276,-35.1473446],[-70.0807178,-35.147372],[-70.0807248,-35.1474077],[-70.0806622,-35.1474159],[-70.0806552,-35.1473796],[-70.0805166,-35.1473977],[-70.0804851,-35.1472371],[-70.080896,-35.1471833]]]}},{"type":"Feature","id":"building-470063017","properties":{"kind":"building","name":"Apart Hotel Delphos","height":7.2},"geometry":{"type":"Polygon","coordinates":[[[-70.0806901,-35.1481945],[-70.0806984,-35.148079],[-70.0806587,-35.1480045],[-70.080563,-35.1479663],[-70.0804789,-35.1479816],[-70.0804135,-35.1480427],[-70.0804036,-35.1481808],[-70.0806901,-35.1481945]]]}},{"type":"Feature","id":"building-496122544","properties":{"kind":"building","name":"Alpine building","height":7.2},"geometry":{"type":"Polygon","coordinates":[[[-70.0804115,-35.1479851],[-70.0798767,-35.1479766],[-70.0798684,-35.1480709],[-70.0804029,-35.1481],[-70.0804115,-35.1479851]]]}},{"type":"Feature","id":"building-496122546","properties":{"kind":"building","name":"Alpine building","height":7.2},"geometry":{"type":"Polygon","coordinates":[[[-70.0802666,-35.1475909],[-70.0797126,-35.147584],[-70.0797107,-35.1476883],[-70.0802647,-35.1476951],[-70.0802666,-35.1475909]]]}},{"type":"Feature","id":"building-496122551","properties":{"kind":"building","name":"Alpine building","height":7.2},"geometry":{"type":"Polygon","coordinates":[[[-70.07972,-35.147794],[-70.0795805,-35.1477927],[-70.0795795,-35.1478572],[-70.0797191,-35.1478585],[-70.07972,-35.147794]]]}},{"type":"Feature","id":"building-496122548","properties":{"kind":"building","name":"Alpine building","height":7.2},"geometry":{"type":"Polygon","coordinates":[[[-70.0796959,-35.1475633],[-70.0794817,-35.1475197],[-70.0794442,-35.1476429],[-70.0796584,-35.1476865],[-70.0796959,-35.1475633]]]}},{"type":"Feature","id":"building-496122601","properties":{"kind":"building","name":"Club de la Nieve","height":7.2},"geometry":{"type":"Polygon","coordinates":[[[-70.0829571,-35.140329],[-70.082756,-35.1403216],[-70.0827317,-35.1405013],[-70.0829451,-35.1405232],[-70.0830025,-35.1405504],[-70.0831226,-35.140424],[-70.0830409,-35.140378],[-70.0829642,-35.1403811],[-70.0829571,-35.140329]]]}},{"type":"Feature","id":"building-496122549","properties":{"kind":"building","name":"Alpine building","height":7.2},"geometry":{"type":"Polygon","coordinates":[[[-70.0795721,-35.1479496],[-70.0792895,-35.1478883],[-70.079067,-35.1477594],[-70.0790059,-35.1478299],[-70.0792638,-35.1479794],[-70.0795428,-35.1480399],[-70.0795721,-35.1479496]]]}},{"type":"Feature","id":"building-496122553","properties":{"kind":"building","name":"Alpine building","height":7.2},"geometry":{"type":"Polygon","coordinates":[[[-70.0793897,-35.1475228],[-70.0789671,-35.14721],[-70.0788752,-35.147293],[-70.0792978,-35.1476058],[-70.0793897,-35.1475228]]]}},{"type":"Feature","id":"building-470068350","properties":{"kind":"building","name":"Apartur","height":7.2},"geometry":{"type":"Polygon","coordinates":[[[-70.0786817,-35.1474767],[-70.0785728,-35.1476137],[-70.0784901,-35.1475698],[-70.0784691,-35.1475962],[-70.0783713,-35.1475442],[-70.0784115,-35.1474937],[-70.0783349,-35.147453],[-70.0784246,-35.1473401],[-70.0786817,-35.1474767]]]}},{"type":"Feature","id":"building-496122581","properties":{"kind":"building","name":"Alpine building","height":7.2},"geometry":{"type":"Polygon","coordinates":[[[-70.0788951,-35.1444194],[-70.078793,-35.1443827],[-70.0787408,-35.1444799],[-70.0788428,-35.1445166],[-70.0788951,-35.1444194]]]}},{"type":"Feature","id":"building-496122583","properties":{"kind":"building","name":"Alpine building","height":7.2},"geometry":{"type":"Polygon","coordinates":[[[-70.078815,-35.1445772],[-70.0787129,-35.1445406],[-70.0786607,-35.1446378],[-70.0787627,-35.1446744],[-70.078815,-35.1445772]]]}},{"type":"Feature","id":"building-496122555","properties":{"kind":"building","name":"Alpine building","height":7.2},"geometry":{"type":"Polygon","coordinates":[[[-70.0789431,-35.1440819],[-70.0788184,-35.1440375],[-70.0784798,-35.144674],[-70.0786045,-35.1447183],[-70.0789431,-35.1440819]]]}},{"type":"Feature","id":"building-496122599","properties":{"kind":"building","name":"villa Capricornio","height":7.2},"geometry":{"type":"Polygon","coordinates":[[[-70.0818498,-35.1397098],[-70.0817158,-35.1397213],[-70.081751,-35.1399963],[-70.0818945,-35.1399847],[-70.0818498,-35.1397098]]]}},{"type":"Feature","id":"building-496122556","properties":{"kind":"building","name":"Alpine building","height":7.2},"geometry":{"type":"Polygon","coordinates":[[[-70.0788535,-35.1437242],[-70.0786422,-35.143621],[-70.0785688,-35.1437122],[-70.078786,-35.1438178],[-70.0788535,-35.1437242]]]}},{"type":"Feature","id":"building-496122597","properties":{"kind":"building","name":"Alpine building","height":7.2},"geometry":{"type":"Polygon","coordinates":[[[-70.0819086,-35.1392964],[-70.0817616,-35.1393079],[-70.0817934,-35.13958],[-70.0819497,-35.1395637],[-70.0819086,-35.1392964]]]}},{"type":"Feature","id":"building-496122576","properties":{"kind":"building","name":"Alpine building","height":7.2},"geometry":{"type":"Polygon","coordinates":[[[-70.078523,-35.1440636],[-70.0782594,-35.1439683],[-70.0782152,-35.14405],[-70.0784788,-35.1441454],[-70.078523,-35.1440636]]]}},{"type":"Feature","id":"building-470068349","properties":{"kind":"building","name":"Apart Hotel Cirrus","height":7.2},"geometry":{"type":"Polygon","coordinates":[[[-70.0779733,-35.147037],[-70.0778617,-35.1471604],[-70.0772794,-35.1468083],[-70.077391,-35.1466849],[-70.0779733,-35.147037]]]}},{"type":"Feature","id":"building-496122578","properties":{"kind":"building","name":"Alpine building","height":7.2},"geometry":{"type":"Polygon","coordinates":[[[-70.0784523,-35.1441635],[-70.0781887,-35.1440681],[-70.0781445,-35.1441499],[-70.0784081,-35.1442452],[-70.0784523,-35.1441635]]]}},{"type":"Feature","id":"building-496122579","properties":{"kind":"building","name":"Alpine building","height":7.2},"geometry":{"type":"Polygon","coordinates":[[[-70.0783879,-35.1442881],[-70.0781288,-35.1441984],[-70.078075,-35.1443023],[-70.0783342,-35.144392],[-70.0783879,-35.1442881]]]}},{"type":"Feature","id":"building-496122558","properties":{"kind":"building","name":"Alpine building","height":7.2},"geometry":{"type":"Polygon","coordinates":[[[-70.0781458,-35.1436341],[-70.0780181,-35.1435872],[-70.0777892,-35.1440047],[-70.0778059,-35.1440086],[-70.0778681,-35.1440327],[-70.077917,-35.1440515],[-70.0781458,-35.1436341]]]}},{"type":"Feature","id":"building-496122560","properties":{"kind":"building","name":"Alpine building","height":7.2},"geometry":{"type":"Polygon","coordinates":[[[-70.0778267,-35.1441043],[-70.0777644,-35.1440802],[-70.0778059,-35.1440086],[-70.0778681,-35.1440327],[-70.0778267,-35.1441043]]]}},{"type":"Feature","id":"building-496122567","properties":{"kind":"building","name":"Alpine building","height":7.2},"geometry":{"type":"Polygon","coordinates":[[[-70.0775759,-35.1445139],[-70.0773989,-35.1444518],[-70.0773418,-35.1445609],[-70.0775188,-35.1446229],[-70.0775759,-35.1445139]]]}},{"type":"Feature","id":"building-496122562","properties":{"kind":"building","name":"Alpine building","height":7.2},"geometry":{"type":"Polygon","coordinates":[[[-70.0778361,-35.1435363],[-70.0776927,-35.1434862],[-70.0773821,-35.1440811],[-70.0775255,-35.1441312],[-70.0778361,-35.1435363]]]}},{"type":"Feature","id":"building-496122569","properties":{"kind":"building","name":"Alpine building","height":7.2},"geometry":{"type":"Polygon","coordinates":[[[-70.0773359,-35.1444389],[-70.0772233,-35.1444],[-70.077119,-35.1446015],[-70.0772316,-35.1446404],[-70.0773359,-35.1444389]]]}},{"type":"Feature","id":"building-496122565","properties":{"kind":"building","name":"Alpine building","height":7.2},"geometry":{"type":"Polygon","coordinates":[[[-70.0772778,-35.1438163],[-70.0771891,-35.1437856],[-70.0771161,-35.1439276],[-70.0772068,-35.1439582],[-70.0772778,-35.1438163]]]}},{"type":"Feature","id":"building-496122570","properties":{"kind":"building","name":"Alpine building","height":7.2},"geometry":{"type":"Polygon","coordinates":[[[-70.077102,-35.1443053],[-70.076981,-35.1442661],[-70.0768159,-35.1446074],[-70.076937,-35.1446465],[-70.077102,-35.1443053]]]}},{"type":"Feature","id":"building-496122563","properties":{"kind":"building","name":"Alpine building","height":7.2},"geometry":{"type":"Polygon","coordinates":[[[-70.0772778,-35.1433469],[-70.077124,-35.1432953],[-70.0768005,-35.1439518],[-70.0769484,-35.1439969],[-70.0772778,-35.1433469]]]}},{"type":"Feature","id":"building-496122572","properties":{"kind":"building","name":"Alpine building","height":7.2},"geometry":{"type":"Polygon","coordinates":[[[-70.0768658,-35.144234],[-70.0767452,-35.144192],[-70.0765756,-35.1445176],[-70.0766962,-35.1445596],[-70.0768658,-35.144234]]]}},{"type":"Feature","id":"building-496122595","properties":{"kind":"building","name":"Alpine building","height":7.2},"geometry":{"type":"Polygon","coordinates":[[[-70.0779085,-35.1422303],[-70.0773477,-35.1422428],[-70.0773517,-35.1423632],[-70.0779125,-35.1423507],[-70.0779085,-35.1422303]]]}},{"type":"Feature","id":"building-496122584","properties":{"kind":"building","name":"Alpine building","height":7.2},"geometry":{"type":"Polygon","coordinates":[[[-70.077228,-35.1426058],[-70.0771097,-35.1425656],[-70.0769793,-35.1428224],[-70.0769391,-35.1428088],[-70.0768845,-35.1429164],[-70.076925,-35.1429302],[-70.0767922,-35.1431917],[-70.0769306,-35.1432387],[-70.0770606,-35.1429826],[-70.0770991,-35.1429956],[-70.0771476,-35.1429002],[-70.0770887,-35.1428802],[-70.077228,-35.1426058]]]}},{"type":"Feature","id":"building-496122574","properties":{"kind":"building","name":"Alpine building","height":7.2},"geometry":{"type":"Polygon","coordinates":[[[-70.0765782,-35.1441574],[-70.0760748,-35.1439945],[-70.0760117,-35.1441248],[-70.0765152,-35.1442878],[-70.0765782,-35.1441574]]]}},{"type":"Feature","id":"building-496122592","properties":{"kind":"building","name":"Alpine building","height":7.2},"geometry":{"type":"Polygon","coordinates":[[[-70.0768431,-35.1428811],[-70.0767506,-35.1428544],[-70.0766325,-35.143128],[-70.0767249,-35.1431547],[-70.0768431,-35.1428811]]]}},{"type":"Feature","id":"building-496122594","properties":{"kind":"building","name":"Alpine building","height":7.2},"geometry":{"type":"Polygon","coordinates":[[[-70.0767093,-35.1428402],[-70.0766114,-35.1428123],[-70.0765206,-35.1430255],[-70.0766186,-35.1430534],[-70.0767093,-35.1428402]]]}},{"type":"Feature","id":"building-496122587","properties":{"kind":"building","name":"Alpine building","height":7.2},"geometry":{"type":"Polygon","coordinates":[[[-70.0767966,-35.1425731],[-70.0766557,-35.1425383],[-70.0765933,-35.1427078],[-70.0767301,-35.142748],[-70.0767966,-35.1425731]]]}},{"type":"Feature","id":"building-496122588","properties":{"kind":"building","name":"Alpine building","height":7.2},"geometry":{"type":"Polygon","coordinates":[[[-70.0766544,-35.1424872],[-70.0765401,-35.1424633],[-70.0764391,-35.1427502],[-70.0765508,-35.1427774],[-70.0766544,-35.1424872]]]}},{"type":"Feature","id":"building-496122590","properties":{"kind":"building","name":"Alpine building","height":7.2},"geometry":{"type":"Polygon","coordinates":[[[-70.0764316,-35.1424974],[-70.0763292,-35.1424673],[-70.0762338,-35.142684],[-70.0763362,-35.1427141],[-70.0764316,-35.1424974]]]}},{"type":"Feature","id":"building-1228244440","properties":{"kind":"building","name":"Alpine building","height":7.2},"geometry":{"type":"Polygon","coordinates":[[[-70.0752301,-35.151932],[-70.0753643,-35.1519392],[-70.0753729,-35.1518317],[-70.0752388,-35.1518245],[-70.0752301,-35.151932]]]}},{"type":"Feature","id":"building-1228244438","properties":{"kind":"building","name":"Alpine building","height":7.2},"geometry":{"type":"Polygon","coordinates":[[[-70.075247,-35.1522148],[-70.0751101,-35.1522069],[-70.0751,-35.1523256],[-70.075171,-35.1523297],[-70.0751734,-35.1523015],[-70.0752393,-35.1523053],[-70.075247,-35.1522148]]]}},{"type":"Feature","id":"building-1228244441","properties":{"kind":"building","name":"Alpine building","height":7.2},"geometry":{"type":"Polygon","coordinates":[[[-70.0748927,-35.151822],[-70.0748859,-35.1519078],[-70.0749674,-35.1519121],[-70.0749742,-35.1518263],[-70.0748927,-35.151822]]]}},{"type":"Feature","id":"building-1228244439","properties":{"kind":"building","name":"Alpine building","height":7.2},"geometry":{"type":"Polygon","coordinates":[[[-70.0749469,-35.1523141],[-70.0750488,-35.152318],[-70.0750554,-35.1522057],[-70.0749534,-35.1522017],[-70.0749469,-35.1523141]]]}},{"type":"Feature","id":"building-496130596","properties":{"kind":"building","name":"Alpine building","height":7.2},"geometry":{"type":"Polygon","coordinates":[[[-70.1112041,-35.1437854],[-70.1111619,-35.143784],[-70.11114,-35.1438975],[-70.111182,-35.1438997],[-70.1112041,-35.1437854]]]}},{"type":"Feature","id":"building-470062529","properties":{"kind":"building","name":"Hotel Aries","height":7.2},"geometry":{"type":"Polygon","coordinates":[[[-70.0791168,-35.1378285],[-70.0791255,-35.1380808],[-70.078868,-35.1380868],[-70.0788655,-35.1380133],[-70.0788411,-35.1380138],[-70.0788571,-35.1384701],[-70.0786087,-35.1384759],[-70.0785928,-35.138025],[-70.0784853,-35.1380275],[-70.0784817,-35.1379249],[-70.0782459,-35.1379304],[-70.0782418,-35.1378121],[-70.0784847,-35.1378064],[-70.07847,-35.1373869],[-70.078626,-35.1373833],[-70.078641,-35.1378103],[-70.0787417,-35.1378079],[-70.0787448,-35.1378957],[-70.0789845,-35.1378901],[-70.0789825,-35.1378316],[-70.0791168,-35.1378285]]]}},{"type":"Feature","id":"building-496130595","properties":{"kind":"building","name":"Alpine building","height":7.2},"geometry":{"type":"Polygon","coordinates":[[[-70.1113441,-35.1439269],[-70.1112653,-35.1439155],[-70.1112487,-35.1439675],[-70.1113327,-35.1439831],[-70.1113441,-35.1439269]]]}},{"type":"Feature","id":"building-496130594","properties":{"kind":"building","name":"Alpine building","height":7.2},"geometry":{"type":"Polygon","coordinates":[[[-70.1126228,-35.1449566],[-70.1124032,-35.1450257],[-70.1124756,-35.1451796],[-70.1126952,-35.1451105],[-70.1126228,-35.1449566]]]}},{"type":"Feature","id":"building-496130598","properties":{"kind":"building","name":"Alpine building","height":7.2},"geometry":{"type":"Polygon","coordinates":[[[-70.1126764,-35.1447003],[-70.1126393,-35.1447114],[-70.112655,-35.1447465],[-70.1126921,-35.1447353],[-70.1126764,-35.1447003]]]}},{"type":"Feature","id":"building-496130597","properties":{"kind":"building","name":"Alpine building","height":7.2},"geometry":{"type":"Polygon","coordinates":[[[-70.1126497,-35.1445694],[-70.112611,-35.1445755],[-70.112621,-35.1446176],[-70.1126597,-35.1446114],[-70.1126497,-35.1445694]]]}},{"type":"Feature","id":"building-183173225","properties":{"kind":"building","name":"Alpine building","height":7.2},"geometry":{"type":"Polygon","coordinates":[[[-70.0721183,-35.1454966],[-70.0720409,-35.1458673],[-70.0717613,-35.1458282],[-70.0718387,-35.1454576],[-70.0721183,-35.1454966]]]}},{"type":"Feature","id":"pylon-las-lenas-0","properties":{"kind":"pylon","name":"Lift tower","height":13},"geometry":{"type":"Polygon","coordinates":[[[-70.08916413172476,-35.142945],[-70.0891712104487,-35.14293102555768],[-70.0891883,-35.142925237154145],[-70.08920538955131,-35.14293102555768],[-70.08921246827525,-35.142945],[-70.08920538955131,-35.142958974442315],[-70.0891883,-35.14296476284585],[-70.0891712104487,-35.142958974442315],[-70.08916413172476,-35.142945]]]}},{"type":"Feature","id":"pylon-las-lenas-1","properties":{"kind":"pylon","name":"Lift tower","height":13},"geometry":{"type":"Polygon","coordinates":[[[-70.09031213186022,-35.1424888],[-70.09031921054448,-35.142474825557684],[-70.0903363,-35.14246903715415],[-70.09035338945553,-35.142474825557684],[-70.09036046813979,-35.1424888],[-70.09035338945553,-35.14250277444232],[-70.0903363,-35.142508562845855],[-70.09031921054448,-35.14250277444232],[-70.09031213186022,-35.1424888]]]}},{"type":"Feature","id":"pylon-las-lenas-2","properties":{"kind":"pylon","name":"Lift tower","height":13},"geometry":{"type":"Polygon","coordinates":[[[-70.09732603011489,-35.148366],[-70.09733310931033,-35.148352025557685],[-70.0973502,-35.14834623715415],[-70.09736729068966,-35.148352025557685],[-70.0973743698851,-35.148366],[-70.09736729068966,-35.14837997444232],[-70.0973502,-35.148385762845855],[-70.09733310931033,-35.14837997444232],[-70.09732603011489,-35.148366]]]}},{"type":"Feature","id":"pylon-las-lenas-3","properties":{"kind":"pylon","name":"Lift tower","height":13},"geometry":{"type":"Polygon","coordinates":[[[-70.0984389301944,-35.1480983],[-70.09844600936655,-35.14808432555768],[-70.0984631,-35.14807853715415],[-70.09848019063345,-35.14808432555768],[-70.0984872698056,-35.1480983],[-70.09848019063345,-35.14811227444232],[-70.0984631,-35.14811806284585],[-70.09844600936655,-35.14811227444232],[-70.0984389301944,-35.1480983]]]}},{"type":"Feature","id":"pylon-las-lenas-4","properties":{"kind":"pylon","name":"Lift tower","height":13},"geometry":{"type":"Polygon","coordinates":[[[-70.09914833024509,-35.1479276],[-70.0991554094024,-35.147913625557685],[-70.0991725,-35.14790783715415],[-70.09918959059759,-35.147913625557685],[-70.0991966697549,-35.1479276],[-70.09918959059759,-35.14794157444232],[-70.0991725,-35.147947362845855],[-70.0991554094024,-35.14794157444232],[-70.09914833024509,-35.1479276]]]}},{"type":"Feature","id":"pylon-las-lenas-5","properties":{"kind":"pylon","name":"Lift tower","height":13},"geometry":{"type":"Polygon","coordinates":[[[-70.10031673032859,-35.1476465],[-70.10032380946144,-35.14763252555768],[-70.1003409,-35.14762673715415],[-70.10035799053857,-35.14763252555768],[-70.10036506967143,-35.1476465],[-70.10035799053857,-35.14766047444232],[-70.1003409,-35.14766626284585],[-70.10032380946144,-35.14766047444232],[-70.10031673032859,-35.1476465]]]}},{"type":"Feature","id":"pylon-las-lenas-6","properties":{"kind":"pylon","name":"Lift tower","height":13},"geometry":{"type":"Polygon","coordinates":[[[-70.10116503038917,-35.1474425],[-70.10117210950428,-35.14742852555768],[-70.1011892,-35.147422737154145],[-70.10120629049571,-35.14742852555768],[-70.10121336961082,-35.1474425],[-70.10120629049571,-35.147456474442315],[-70.1011892,-35.14746226284585],[-70.10117210950428,-35.147456474442315],[-70.10116503038917,-35.1474425]]]}},{"type":"Feature","id":"pylon-las-lenas-7","properties":{"kind":"pylon","name":"Lift tower","height":13},"geometry":{"type":"Polygon","coordinates":[[[-70.1029305305153,-35.1470178],[-70.10293760959347,-35.14700382555768],[-70.1029547,-35.14699803715415],[-70.10297179040653,-35.14700382555768],[-70.1029788694847,-35.1470178],[-70.10297179040653,-35.14703177444232],[-70.1029547,-35.14703756284585],[-70.10293760959347,-35.14703177444232],[-70.1029305305153,-35.1470178]]]}},{"type":"Feature","id":"pylon-las-lenas-8","properties":{"kind":"pylon","name":"Lift tower","height":13},"geometry":{"type":"Polygon","coordinates":[[[-70.10371733057153,-35.1468285],[-70.10372440963323,-35.14681452555768],[-70.1037415,-35.146808737154146],[-70.10375859036677,-35.14681452555768],[-70.10376566942847,-35.1468285],[-70.10375859036677,-35.146842474442316],[-70.1037415,-35.14684826284585],[-70.10372440963323,-35.146842474442316],[-70.10371733057153,-35.1468285]]]}},{"type":"Feature","id":"pylon-las-lenas-9","properties":{"kind":"pylon","name":"Lift tower","height":13},"geometry":{"type":"Polygon","coordinates":[[[-70.10612853074377,-35.1462485],[-70.10613560975501,-35.14623452555768],[-70.1061527,-35.146228737154146],[-70.10616979024498,-35.14623452555768],[-70.10617686925622,-35.1462485],[-70.10616979024498,-35.14626247444232],[-70.1061527,-35.14626826284585],[-70.10613560975501,-35.14626247444232],[-70.10612853074377,-35.1462485]]]}},{"type":"Feature","id":"pylon-las-lenas-10","properties":{"kind":"pylon","name":"Lift tower","height":13},"geometry":{"type":"Polygon","coordinates":[[[-70.10703093080824,-35.1460314],[-70.10703800980062,-35.14601742555768],[-70.1070551,-35.146011637154146],[-70.10707219019937,-35.14601742555768],[-70.10707926919176,-35.1460314],[-70.10707219019937,-35.146045374442316],[-70.1070551,-35.14605116284585],[-70.10703800980062,-35.146045374442316],[-70.10703093080824,-35.1460314]]]}},{"type":"Feature","id":"pylon-las-lenas-11","properties":{"kind":"pylon","name":"Lift tower","height":13},"geometry":{"type":"Polygon","coordinates":[[[-70.10805203088121,-35.1457857],[-70.1080591098522,-35.14577172555768],[-70.1080762,-35.145765937154145],[-70.10809329014779,-35.14577172555768],[-70.10810036911879,-35.1457857],[-70.10809329014779,-35.145799674442316],[-70.1080762,-35.14580546284585],[-70.1080591098522,-35.145799674442316],[-70.10805203088121,-35.1457857]]]}},{"type":"Feature","id":"pylon-las-lenas-12","properties":{"kind":"pylon","name":"Lift tower","height":13},"geometry":{"type":"Polygon","coordinates":[[[-70.10931293097129,-35.1454824],[-70.1093200099159,-35.14546842555768],[-70.1093371,-35.14546263715415],[-70.1093541900841,-35.14546842555768],[-70.10936126902872,-35.1454824],[-70.1093541900841,-35.14549637444232],[-70.1093371,-35.14550216284585],[-70.1093200099159,-35.14549637444232],[-70.10931293097129,-35.1454824]]]}},{"type":"Feature","id":"pylon-las-lenas-13","properties":{"kind":"pylon","name":"Lift tower","height":13},"geometry":{"type":"Polygon","coordinates":[[[-70.11084793108094,-35.1451131],[-70.11085500999344,-35.145099125557685],[-70.1108721,-35.14509333715415],[-70.11088919000655,-35.145099125557685],[-70.11089626891905,-35.1451131],[-70.11088919000655,-35.14512707444232],[-70.1108721,-35.145132862845855],[-70.11085500999344,-35.14512707444232],[-70.11084793108094,-35.1451131]]]}},{"type":"Feature","id":"pylon-las-lenas-14","properties":{"kind":"pylon","name":"Lift tower","height":13},"geometry":{"type":"Polygon","coordinates":[[[-70.11203713116588,-35.1448271],[-70.1120442100535,-35.14481312555768],[-70.1120613,-35.14480733715415],[-70.11207838994649,-35.14481312555768],[-70.11208546883411,-35.1448271],[-70.11207838994649,-35.14484107444232],[-70.1120613,-35.14484686284585],[-70.1120442100535,-35.14484107444232],[-70.11203713116588,-35.1448271]]]}},{"type":"Feature","id":"pylon-las-lenas-15","properties":{"kind":"pylon","name":"Lift tower","height":13},"geometry":{"type":"Polygon","coordinates":[[[-70.11247473119715,-35.1447218],[-70.11248181007562,-35.14470782555768],[-70.1124989,-35.14470203715415],[-70.11251598992439,-35.14470782555768],[-70.11252306880286,-35.1447218],[-70.11251598992439,-35.14473577444232],[-70.1124989,-35.14474156284585],[-70.11248181007562,-35.14473577444232],[-70.11247473119715,-35.1447218]]]}},{"type":"Feature","id":"pylon-las-lenas-16","properties":{"kind":"pylon","name":"Lift tower","height":13},"geometry":{"type":"Polygon","coordinates":[[[-70.11119333150965,-35.1436694],[-70.11120041029659,-35.14365542555768],[-70.1112175,-35.14364963715415],[-70.1112345897034,-35.14365542555768],[-70.11124166849034,-35.1436694],[-70.1112345897034,-35.14368337444232],[-70.1112175,-35.14368916284585],[-70.11120041029659,-35.14368337444232],[-70.11119333150965,-35.1436694]]]}},{"type":"Feature","id":"pylon-las-lenas-17","properties":{"kind":"pylon","name":"Lift tower","height":13},"geometry":{"type":"Polygon","coordinates":[[[-70.11131583164426,-35.1432161],[-70.11132291039176,-35.14320212555768],[-70.11134,-35.143196337154144],[-70.11135708960823,-35.14320212555768],[-70.11136416835573,-35.1432161],[-70.11135708960823,-35.143230074442315],[-70.11134,-35.14323586284585],[-70.11132291039176,-35.143230074442315],[-70.11131583164426,-35.1432161]]]}},{"type":"Feature","id":"pylon-las-lenas-18","properties":{"kind":"pylon","name":"Lift tower","height":13},"geometry":{"type":"Polygon","coordinates":[[[-70.11144543178662,-35.1427367],[-70.11145251049243,-35.14272272555768],[-70.1114696,-35.14271693715415],[-70.11148668950759,-35.14272272555768],[-70.11149376821339,-35.1427367],[-70.11148668950759,-35.14275067444232],[-70.1114696,-35.14275646284585],[-70.11145251049243,-35.14275067444232],[-70.11144543178662,-35.1427367]]]}},{"type":"Feature","id":"pylon-las-lenas-19","properties":{"kind":"pylon","name":"Lift tower","height":13},"geometry":{"type":"Polygon","coordinates":[[[-70.11157823193246,-35.1422455],[-70.11158531059554,-35.14223152555768],[-70.1116024,-35.14222573715415],[-70.11161948940445,-35.14223152555768],[-70.11162656806754,-35.1422455],[-70.11161948940445,-35.14225947444232],[-70.1116024,-35.142265262845854],[-70.11158531059554,-35.14225947444232],[-70.11157823193246,-35.1422455]]]}},{"type":"Feature","id":"pylon-las-lenas-20","properties":{"kind":"pylon","name":"Lift tower","height":13},"geometry":{"type":"Polygon","coordinates":[[[-70.11180113217736,-35.1414207],[-70.11180821076873,-35.14140672555768],[-70.1118253,-35.141400937154145],[-70.11184238923128,-35.14140672555768],[-70.11184946782265,-35.1414207],[-70.11184238923128,-35.141434674442316],[-70.1118253,-35.14144046284585],[-70.11180821076873,-35.141434674442316],[-70.11180113217736,-35.1414207]]]}},{"type":"Feature","id":"pylon-las-lenas-21","properties":{"kind":"pylon","name":"Lift tower","height":13},"geometry":{"type":"Polygon","coordinates":[[[-70.11210183250763,-35.1403083],[-70.11210891100227,-35.14029432555768],[-70.112126,-35.14028853715415],[-70.11214308899774,-35.14029432555768],[-70.11215016749237,-35.1403083],[-70.11214308899774,-35.14032227444232],[-70.112126,-35.14032806284585],[-70.11210891100227,-35.14032227444232],[-70.11210183250763,-35.1403083]]]}},{"type":"Feature","id":"pylon-las-lenas-22","properties":{"kind":"pylon","name":"Lift tower","height":13},"geometry":{"type":"Polygon","coordinates":[[[-70.11249333293772,-35.1388596],[-70.11250041130637,-35.138845625557686],[-70.1125175,-35.13883983715415],[-70.11253458869362,-35.138845625557686],[-70.11254166706227,-35.1388596],[-70.11253458869362,-35.13887357444232],[-70.1125175,-35.138879362845856],[-70.11250041130637,-35.13887357444232],[-70.11249333293772,-35.1388596]]]}},{"type":"Feature","id":"pylon-las-lenas-23","properties":{"kind":"pylon","name":"Lift tower","height":13},"geometry":{"type":"Polygon","coordinates":[[[-70.11273793320632,-35.1379548],[-70.1127450114963,-35.137940825557685],[-70.1127621,-35.13793503715415],[-70.1127791885037,-35.137940825557685],[-70.11278626679368,-35.1379548],[-70.1127791885037,-35.13796877444232],[-70.1127621,-35.137974562845855],[-70.1127450114963,-35.13796877444232],[-70.11273793320632,-35.1379548]]]}},{"type":"Feature","id":"pylon-las-lenas-24","properties":{"kind":"pylon","name":"Lift tower","height":13},"geometry":{"type":"Polygon","coordinates":[[[-70.11310703361171,-35.1365891],[-70.11311411178296,-35.136575125557684],[-70.1131312,-35.13656933715415],[-70.11314828821703,-35.136575125557684],[-70.11315536638828,-35.1365891],[-70.11314828821703,-35.13660307444232],[-70.1131312,-35.136608862845854],[-70.11311411178296,-35.13660307444232],[-70.11310703361171,-35.1365891]]]}},{"type":"Feature","id":"pylon-las-lenas-25","properties":{"kind":"pylon","name":"Lift tower","height":13},"geometry":{"type":"Polygon","coordinates":[[[-70.11325863377827,-35.136028],[-70.11326571190074,-35.136014025557685],[-70.1132828,-35.13600823715415],[-70.11329988809925,-35.136014025557685],[-70.11330696622171,-35.136028],[-70.11329988809925,-35.13604197444232],[-70.1132828,-35.136047762845855],[-70.11326571190074,-35.13604197444232],[-70.11325863377827,-35.136028]]]}},{"type":"Feature","id":"pylon-las-lenas-26","properties":{"kind":"pylon","name":"Lift tower","height":13},"geometry":{"type":"Polygon","coordinates":[[[-70.11353963408678,-35.1349886],[-70.11354671211889,-35.13497462555768],[-70.1135638,-35.13496883715415],[-70.1135808878811,-35.13497462555768],[-70.11358796591321,-35.1349886],[-70.1135808878811,-35.13500257444232],[-70.1135638,-35.13500836284585],[-70.11354671211889,-35.13500257444232],[-70.11353963408678,-35.1349886]]]}},{"type":"Feature","id":"pylon-las-lenas-27","properties":{"kind":"pylon","name":"Lift tower","height":13},"geometry":{"type":"Polygon","coordinates":[[[-70.11393613452229,-35.1335213],[-70.11394321242685,-35.13350732555768],[-70.1139603,-35.133501537154146],[-70.11397738757316,-35.13350732555768],[-70.11398446547771,-35.1335213],[-70.11397738757316,-35.133535274442316],[-70.1139603,-35.13354106284585],[-70.11394321242685,-35.133535274442316],[-70.11393613452229,-35.1335213]]]}},{"type":"Feature","id":"pylon-las-lenas-28","properties":{"kind":"pylon","name":"Lift tower","height":13},"geometry":{"type":"Polygon","coordinates":[[[-70.11426193488,-35.132316],[-70.11426901267978,-35.132302025557685],[-70.1142861,-35.13229623715415],[-70.11430318732022,-35.132302025557685],[-70.11431026512,-35.132316],[-70.11430318732022,-35.13232997444232],[-70.1142861,-35.132335762845855],[-70.11426901267978,-35.13232997444232],[-70.11426193488,-35.132316]]]}},{"type":"Feature","id":"pylon-las-lenas-29","properties":{"kind":"pylon","name":"Lift tower","height":13},"geometry":{"type":"Polygon","coordinates":[[[-70.11448483512477,-35.1314912],[-70.11449191285286,-35.13147722555768],[-70.114509,-35.13147143715415],[-70.11452608714714,-35.13147722555768],[-70.11453316487523,-35.1314912],[-70.11452608714714,-35.13150517444232],[-70.114509,-35.13151096284585],[-70.11449191285286,-35.13150517444232],[-70.11448483512477,-35.1314912]]]}},{"type":"Feature","id":"pylon-las-lenas-30","properties":{"kind":"pylon","name":"Lift tower","height":13},"geometry":{"type":"Polygon","coordinates":[[[-70.11451343515627,-35.1313851],[-70.11452051287513,-35.131371125557685],[-70.1145376,-35.13136533715415],[-70.11455468712488,-35.131371125557685],[-70.11456176484374,-35.1313851],[-70.11455468712488,-35.13139907444232],[-70.1145376,-35.131404862845855],[-70.11452051287513,-35.13139907444232],[-70.11451343515627,-35.1313851]]]}},{"type":"Feature","id":"pylon-las-lenas-31","properties":{"kind":"pylon","name":"Lift tower","height":13},"geometry":{"type":"Polygon","coordinates":[[[-70.11453713518226,-35.1312975],[-70.1145442128935,-35.131283525557684],[-70.1145613,-35.13127773715415],[-70.1145783871065,-35.131283525557684],[-70.11458546481775,-35.1312975],[-70.1145783871065,-35.13131147444232],[-70.1145613,-35.131317262845855],[-70.1145442128935,-35.13131147444232],[-70.11453713518226,-35.1312975]]]}},{"type":"Feature","id":"pylon-las-lenas-32","properties":{"kind":"pylon","name":"Lift tower","height":13},"geometry":{"type":"Polygon","coordinates":[[[-70.11496253598013,-35.1286087],[-70.11496961345769,-35.12859472555768],[-70.1149867,-35.12858893715415],[-70.11500378654232,-35.12859472555768],[-70.11501086401988,-35.1286087],[-70.11500378654232,-35.12862267444232],[-70.1149867,-35.12862846284585],[-70.11496961345769,-35.12862267444232],[-70.11496253598013,-35.1286087]]]}},{"type":"Feature","id":"pylon-las-lenas-33","properties":{"kind":"pylon","name":"Lift tower","height":13},"geometry":{"type":"Polygon","coordinates":[[[-70.11438073588597,-35.128926],[-70.1143878133911,-35.12891202555768],[-70.1144049,-35.12890623715415],[-70.11442198660889,-35.12891202555768],[-70.11442906411402,-35.128926],[-70.11442198660889,-35.12893997444232],[-70.1144049,-35.12894576284585],[-70.1143878133911,-35.12893997444232],[-70.11438073588597,-35.128926]]]}},{"type":"Feature","id":"pylon-las-lenas-34","properties":{"kind":"pylon","name":"Lift tower","height":13},"geometry":{"type":"Polygon","coordinates":[[[-70.11358073575654,-35.1293622],[-70.11358781329959,-35.129348225557685],[-70.1136049,-35.12934243715415],[-70.11362198670041,-35.129348225557685],[-70.11362906424345,-35.1293622],[-70.11362198670041,-35.12937617444232],[-70.1136049,-35.129381962845855],[-70.11358781329959,-35.12937617444232],[-70.11358073575654,-35.1293622]]]}},{"type":"Feature","id":"pylon-las-lenas-35","properties":{"kind":"pylon","name":"Lift tower","height":13},"geometry":{"type":"Polygon","coordinates":[[[-70.11282363563406,-35.129775],[-70.11283071321297,-35.129761025557684],[-70.1128478,-35.12975523715415],[-70.11286488678702,-35.129761025557684],[-70.11287196436594,-35.129775],[-70.11286488678702,-35.12978897444232],[-70.1128478,-35.129794762845854],[-70.11283071321297,-35.12978897444232],[-70.11282363563406,-35.129775]]]}},{"type":"Feature","id":"pylon-las-lenas-36","properties":{"kind":"pylon","name":"Lift tower","height":13},"geometry":{"type":"Polygon","coordinates":[[[-70.11185023547658,-35.1303057],[-70.11185731310162,-35.13029172555768],[-70.1118744,-35.13028593715415],[-70.11189148689839,-35.13029172555768],[-70.11189856452343,-35.1303057],[-70.11189148689839,-35.13031967444232],[-70.1118744,-35.13032546284585],[-70.11185731310162,-35.13031967444232],[-70.11185023547658,-35.1303057]]]}},{"type":"Feature","id":"pylon-las-lenas-37","properties":{"kind":"pylon","name":"Lift tower","height":13},"geometry":{"type":"Polygon","coordinates":[[[-70.11162793544061,-35.1304269],[-70.1116350130762,-35.130412925557685],[-70.1116521,-35.13040713715415],[-70.1116691869238,-35.130412925557685],[-70.11167626455939,-35.1304269],[-70.1116691869238,-35.13044087444232],[-70.1116521,-35.130446662845856],[-70.1116350130762,-35.13044087444232],[-70.11162793544061,-35.1304269]]]}},{"type":"Feature","id":"pylon-las-lenas-38","properties":{"kind":"pylon","name":"Lift tower","height":13},"geometry":{"type":"Polygon","coordinates":[[[-70.09648023005445,-35.1485695],[-70.0964873092676,-35.14855552555768],[-70.0965044,-35.14854973715415],[-70.0965214907324,-35.14855552555768],[-70.09652856994555,-35.1485695],[-70.0965214907324,-35.14858347444232],[-70.0965044,-35.14858926284585],[-70.0964873092676,-35.14858347444232],[-70.09648023005445,-35.1485695]]]}},{"type":"Feature","id":"pylon-las-lenas-39","properties":{"kind":"pylon","name":"Lift tower","height":13},"geometry":{"type":"Polygon","coordinates":[[[-70.09495973014441,-35.1482666],[-70.09496680933121,-35.14825262555768],[-70.0949839,-35.14824683715415],[-70.0950009906688,-35.14825262555768],[-70.0950080698556,-35.1482666],[-70.0950009906688,-35.14828057444232],[-70.0949839,-35.14828636284585],[-70.09496680933121,-35.14828057444232],[-70.09495973014441,-35.1482666]]]}},{"type":"Feature","id":"pylon-las-lenas-40","properties":{"kind":"pylon","name":"Lift tower","height":13},"geometry":{"type":"Polygon","coordinates":[[[-70.09451883016125,-35.1482099],[-70.09452590934312,-35.14819592555768],[-70.094543,-35.148190137154145],[-70.09456009065688,-35.14819592555768],[-70.09456716983875,-35.1482099],[-70.09456009065688,-35.148223874442316],[-70.094543,-35.14822966284585],[-70.09452590934312,-35.148223874442316],[-70.09451883016125,-35.1482099]]]}},{"type":"Feature","id":"pylon-las-lenas-41","properties":{"kind":"pylon","name":"Lift tower","height":13},"geometry":{"type":"Polygon","coordinates":[[[-70.0932729302088,-35.1480498],[-70.09328000937674,-35.148035825557685],[-70.0932971,-35.14803003715415],[-70.09331419062326,-35.148035825557685],[-70.0933212697912,-35.1480498],[-70.09331419062326,-35.14806377444232],[-70.0932971,-35.148069562845855],[-70.09328000937674,-35.14806377444232],[-70.0932729302088,-35.1480498]]]}},{"type":"Feature","id":"pylon-las-lenas-42","properties":{"kind":"pylon","name":"Lift tower","height":13},"geometry":{"type":"Polygon","coordinates":[[[-70.09215723025142,-35.1479063],[-70.09216430940688,-35.147892325557685],[-70.0921814,-35.14788653715415],[-70.09219849059312,-35.147892325557685],[-70.09220556974859,-35.1479063],[-70.09219849059312,-35.14792027444232],[-70.0921814,-35.147926062845855],[-70.09216430940688,-35.14792027444232],[-70.09215723025142,-35.1479063]]]}},{"type":"Feature","id":"pylon-las-lenas-43","properties":{"kind":"pylon","name":"Lift tower","height":13},"geometry":{"type":"Polygon","coordinates":[[[-70.09116973028911,-35.1477794],[-70.09117680943352,-35.14776542555768],[-70.0911939,-35.147759637154145],[-70.09121099056647,-35.14776542555768],[-70.09121806971088,-35.1477794],[-70.09121099056647,-35.147793374442315],[-70.0911939,-35.14779916284585],[-70.09117680943352,-35.147793374442315],[-70.09116973028911,-35.1477794]]]}},{"type":"Feature","id":"pylon-las-lenas-44","properties":{"kind":"pylon","name":"Lift tower","height":13},"geometry":{"type":"Polygon","coordinates":[[[-70.09014803032814,-35.147648],[-70.09015510946112,-35.14763402555768],[-70.0901722,-35.147628237154144],[-70.09018929053887,-35.14763402555768],[-70.09019636967186,-35.147648],[-70.09018929053887,-35.147661974442315],[-70.0901722,-35.14766776284585],[-70.09015510946112,-35.147661974442315],[-70.09014803032814,-35.147648]]]}},{"type":"Feature","id":"pylon-las-lenas-45","properties":{"kind":"pylon","name":"Lift tower","height":13},"geometry":{"type":"Polygon","coordinates":[[[-70.08897723037283,-35.1474975],[-70.08898430949273,-35.14748352555768],[-70.0890014,-35.14747773715415],[-70.08901849050727,-35.14748352555768],[-70.08902556962717,-35.1474975],[-70.08901849050727,-35.14751147444232],[-70.0890014,-35.14751726284585],[-70.08898430949273,-35.14751147444232],[-70.08897723037283,-35.1474975]]]}},{"type":"Feature","id":"pylon-las-lenas-46","properties":{"kind":"pylon","name":"Lift tower","height":13},"geometry":{"type":"Polygon","coordinates":[[[-70.08777733041863,-35.1473433],[-70.08778440952511,-35.147329325557685],[-70.0878015,-35.14732353715415],[-70.08781859047488,-35.147329325557685],[-70.08782566958136,-35.1473433],[-70.08781859047488,-35.14735727444232],[-70.0878015,-35.147363062845855],[-70.08778440952511,-35.14735727444232],[-70.08777733041863,-35.1473433]]]}},{"type":"Feature","id":"pylon-las-lenas-47","properties":{"kind":"pylon","name":"Lift tower","height":13},"geometry":{"type":"Polygon","coordinates":[[[-70.08667453046074,-35.1472015],[-70.0866816095549,-35.14718752555768],[-70.0866987,-35.14718173715415],[-70.0867157904451,-35.14718752555768],[-70.08672286953926,-35.1472015],[-70.0867157904451,-35.14721547444232],[-70.0866987,-35.147221262845854],[-70.0866816095549,-35.14721547444232],[-70.08667453046074,-35.1472015]]]}},{"type":"Feature","id":"pylon-las-lenas-48","properties":{"kind":"pylon","name":"Lift tower","height":13},"geometry":{"type":"Polygon","coordinates":[[[-70.08534583051147,-35.1470307],[-70.08535290959077,-35.147016725557684],[-70.08537,-35.14701093715415],[-70.08538709040923,-35.147016725557684],[-70.08539416948852,-35.1470307],[-70.08538709040923,-35.14704467444232],[-70.08537,-35.147050462845854],[-70.08535290959077,-35.14704467444232],[-70.08534583051147,-35.1470307]]]}},{"type":"Feature","id":"pylon-las-lenas-49","properties":{"kind":"pylon","name":"Lift tower","height":13},"geometry":{"type":"Polygon","coordinates":[[[-70.09460982983187,-35.1493189],[-70.0946169091102,-35.14930492555768],[-70.094634,-35.149299137154145],[-70.0946510908898,-35.14930492555768],[-70.09465817016813,-35.1493189],[-70.0946510908898,-35.149332874442315],[-70.094634,-35.14933866284585],[-70.0946169091102,-35.149332874442315],[-70.09460982983187,-35.1493189]]]}},{"type":"Feature","id":"pylon-las-lenas-50","properties":{"kind":"pylon","name":"Lift tower","height":13},"geometry":{"type":"Polygon","coordinates":[[[-70.09261832994389,-35.1489417],[-70.09262540918942,-35.148927725557684],[-70.0926425,-35.14892193715415],[-70.09265959081057,-35.148927725557684],[-70.0926666700561,-35.1489417],[-70.09265959081057,-35.14895567444232],[-70.0926425,-35.148961462845854],[-70.09262540918942,-35.14895567444232],[-70.09261832994389,-35.1489417]]]}},{"type":"Feature","id":"pylon-las-lenas-51","properties":{"kind":"pylon","name":"Lift tower","height":13},"geometry":{"type":"Polygon","coordinates":[[[-70.09143243001061,-35.1487171],[-70.0914395092366,-35.14870312555768],[-70.0914566,-35.14869733715415],[-70.09147369076341,-35.14870312555768],[-70.09148076998939,-35.1487171],[-70.09147369076341,-35.14873107444232],[-70.0914566,-35.14873686284585],[-70.0914395092366,-35.14873107444232],[-70.09143243001061,-35.1487171]]]}},{"type":"Feature","id":"pylon-las-lenas-52","properties":{"kind":"pylon","name":"Lift tower","height":13},"geometry":{"type":"Polygon","coordinates":[[[-70.09046283006514,-35.1485335],[-70.09046990927516,-35.14851952555768],[-70.090487,-35.14851373715415],[-70.09050409072483,-35.14851952555768],[-70.09051116993486,-35.1485335],[-70.09050409072483,-35.14854747444232],[-70.090487,-35.14855326284585],[-70.09046990927516,-35.14854747444232],[-70.09046283006514,-35.1485335]]]}},{"type":"Feature","id":"pylon-las-lenas-53","properties":{"kind":"pylon","name":"Lift tower","height":13},"geometry":{"type":"Polygon","coordinates":[[[-70.08866343016636,-35.1481927],[-70.08867050934673,-35.148178725557685],[-70.0886876,-35.14817293715415],[-70.08870469065327,-35.148178725557685],[-70.08871176983364,-35.1481927],[-70.08870469065327,-35.14820667444232],[-70.0886876,-35.148212462845855],[-70.08867050934673,-35.14820667444232],[-70.08866343016636,-35.1481927]]]}},{"type":"Feature","id":"pylon-las-lenas-54","properties":{"kind":"pylon","name":"Lift tower","height":13},"geometry":{"type":"Polygon","coordinates":[[[-70.08755243022888,-35.1479822],[-70.08755950939094,-35.14796822555768],[-70.0875766,-35.14796243715415],[-70.08759369060907,-35.14796822555768],[-70.08760076977113,-35.1479822],[-70.08759369060907,-35.14799617444232],[-70.0875766,-35.14800196284585],[-70.08755950939094,-35.14799617444232],[-70.08755243022888,-35.1479822]]]}},{"type":"Feature","id":"pylon-las-lenas-55","properties":{"kind":"pylon","name":"Lift tower","height":13},"geometry":{"type":"Polygon","coordinates":[[[-70.08539763035009,-35.1475741],[-70.08540470947665,-35.14756012555768],[-70.0854218,-35.14755433715415],[-70.08543889052336,-35.14756012555768],[-70.08544596964992,-35.1475741],[-70.08543889052336,-35.14758807444232],[-70.0854218,-35.14759386284585],[-70.08540470947665,-35.14758807444232],[-70.08539763035009,-35.1475741]]]}},{"type":"Feature","id":"pylon-las-lenas-56","properties":{"kind":"pylon","name":"Lift tower","height":13},"geometry":{"type":"Polygon","coordinates":[[[-70.08364233066953,-35.1464985],[-70.08364940970253,-35.14648452555768],[-70.0836665,-35.14647873715415],[-70.08368359029748,-35.14648452555768],[-70.08369066933048,-35.1464985],[-70.08368359029748,-35.14651247444232],[-70.0836665,-35.14651826284585],[-70.08364940970253,-35.14651247444232],[-70.08364233066953,-35.1464985]]]}},{"type":"Feature","id":"pylon-las-lenas-57","properties":{"kind":"pylon","name":"Lift tower","height":13},"geometry":{"type":"Polygon","coordinates":[[[-70.08396983081306,-35.1460152],[-70.08397690980402,-35.14600122555768],[-70.083994,-35.14599543715415],[-70.08401109019599,-35.14600122555768],[-70.08401816918695,-35.1460152],[-70.08401109019599,-35.14602917444232],[-70.083994,-35.14603496284585],[-70.08397690980402,-35.14602917444232],[-70.08396983081306,-35.1460152]]]}},{"type":"Feature","id":"pylon-las-lenas-58","properties":{"kind":"pylon","name":"Lift tower","height":13},"geometry":{"type":"Polygon","coordinates":[[[-70.08426233094126,-35.1455835],[-70.08426940989467,-35.14556952555768],[-70.0842865,-35.14556373715415],[-70.08430359010534,-35.14556952555768],[-70.08431066905875,-35.1455835],[-70.08430359010534,-35.14559747444232],[-70.0842865,-35.14560326284585],[-70.08426940989467,-35.14559747444232],[-70.08426233094126,-35.1455835]]]}},{"type":"Feature","id":"pylon-las-lenas-59","properties":{"kind":"pylon","name":"Lift tower","height":13},"geometry":{"type":"Polygon","coordinates":[[[-70.08450593104804,-35.1452239],[-70.08451300997018,-35.14520992555768],[-70.0845301,-35.145204137154145],[-70.08454719002981,-35.14520992555768],[-70.08455426895195,-35.1452239],[-70.08454719002981,-35.145237874442316],[-70.0845301,-35.14524366284585],[-70.08451300997018,-35.145237874442316],[-70.08450593104804,-35.1452239]]]}},{"type":"Feature","id":"pylon-las-lenas-60","properties":{"kind":"pylon","name":"Lift tower","height":13},"geometry":{"type":"Polygon","coordinates":[[[-70.08340463106128,-35.1451793],[-70.08341170997954,-35.145165325557684],[-70.0834288,-35.14515953715415],[-70.08344589002044,-35.145165325557684],[-70.0834529689387,-35.1451793],[-70.08344589002044,-35.14519327444232],[-70.0834288,-35.145199062845855],[-70.08341170997954,-35.14519327444232],[-70.08340463106128,-35.1451793]]]}},{"type":"Feature","id":"pylon-las-lenas-61","properties":{"kind":"pylon","name":"Lift tower","height":13},"geometry":{"type":"Polygon","coordinates":[[[-70.08313273092297,-35.1456451],[-70.08313980988174,-35.145631125557685],[-70.0831569,-35.14562533715415],[-70.08317399011827,-35.145631125557685],[-70.08318106907704,-35.1456451],[-70.08317399011827,-35.14565907444232],[-70.0831569,-35.145664862845855],[-70.08313980988174,-35.14565907444232],[-70.08313273092297,-35.1456451]]]}},{"type":"Feature","id":"pylon-las-lenas-62","properties":{"kind":"pylon","name":"Lift tower","height":13},"geometry":{"type":"Polygon","coordinates":[[[-70.08286763078812,-35.1460992],[-70.08287470978638,-35.146085225557684],[-70.0828918,-35.14607943715415],[-70.08290889021362,-35.146085225557684],[-70.08291596921188,-35.1460992],[-70.08290889021362,-35.14611317444232],[-70.0828918,-35.146118962845854],[-70.08287470978638,-35.14611317444232],[-70.08286763078812,-35.1460992]]]}},{"type":"Feature","id":"pylon-las-lenas-63","properties":{"kind":"pylon","name":"Lift tower","height":13},"geometry":{"type":"Polygon","coordinates":[[[-70.08261613090772,-35.1456964],[-70.08262320987096,-35.14568242555768],[-70.0826403,-35.145676637154146],[-70.08265739012903,-35.14568242555768],[-70.08266446909226,-35.1456964],[-70.08265739012903,-35.14571037444232],[-70.0826403,-35.14571616284585],[-70.08262320987096,-35.14571037444232],[-70.08261613090772,-35.1456964]]]}},{"type":"Feature","id":"pylon-las-lenas-64","properties":{"kind":"pylon","name":"Lift tower","height":13},"geometry":{"type":"Polygon","coordinates":[[[-70.08298493111047,-35.1450137],[-70.08299201001432,-35.14499972555768],[-70.0830091,-35.14499393715415],[-70.08302618998567,-35.14499972555768],[-70.08303326888952,-35.1450137],[-70.08302618998567,-35.14502767444232],[-70.0830091,-35.14503346284585],[-70.08299201001432,-35.14502767444232],[-70.08298493111047,-35.1450137]]]}},{"type":"Feature","id":"pylon-las-lenas-65","properties":{"kind":"pylon","name":"Lift tower","height":13},"geometry":{"type":"Polygon","coordinates":[[[-70.08344023136083,-35.1441706],[-70.08344731019135,-35.144156625557684],[-70.0834644,-35.14415083715415],[-70.08348148980865,-35.144156625557684],[-70.08348856863917,-35.1441706],[-70.08348148980865,-35.14418457444232],[-70.0834644,-35.144190362845855],[-70.08344731019135,-35.14418457444232],[-70.08344023136083,-35.1441706]]]}},{"type":"Feature","id":"pylon-las-lenas-66","properties":{"kind":"pylon","name":"Lift tower","height":13},"geometry":{"type":"Polygon","coordinates":[[[-70.08388073160302,-35.143355],[-70.0838878103626,-35.14334102555768],[-70.0839049,-35.14333523715415],[-70.08392198963739,-35.14334102555768],[-70.08392906839697,-35.143355],[-70.08392198963739,-35.14336897444232],[-70.0839049,-35.14337476284585],[-70.0838878103626,-35.14336897444232],[-70.08388073160302,-35.143355]]]}},{"type":"Feature","id":"pylon-las-lenas-67","properties":{"kind":"pylon","name":"Lift tower","height":13},"geometry":{"type":"Polygon","coordinates":[[[-70.08429633183145,-35.1425857],[-70.08430341052413,-35.14257172555768],[-70.0843205,-35.142565937154146],[-70.08433758947588,-35.14257172555768],[-70.08434466816855,-35.1425857],[-70.08433758947588,-35.142599674442316],[-70.0843205,-35.14260546284585],[-70.08430341052413,-35.142599674442316],[-70.08429633183145,-35.1425857]]]}},{"type":"Feature","id":"pylon-las-lenas-68","properties":{"kind":"pylon","name":"Lift tower","height":13},"geometry":{"type":"Polygon","coordinates":[[[-70.08465293202752,-35.1419253],[-70.08466001066277,-35.14191132555768],[-70.0846771,-35.141905537154145],[-70.08469418933721,-35.14191132555768],[-70.08470126797246,-35.1419253],[-70.08469418933721,-35.141939274442315],[-70.0846771,-35.14194506284585],[-70.08466001066277,-35.141939274442315],[-70.08465293202752,-35.1419253]]]}},{"type":"Feature","id":"pylon-las-lenas-69","properties":{"kind":"pylon","name":"Lift tower","height":13},"geometry":{"type":"Polygon","coordinates":[[[-70.08501543222683,-35.1412541],[-70.0850225108037,-35.14124012555768],[-70.0850396,-35.141234337154145],[-70.0850566891963,-35.14124012555768],[-70.08506376777318,-35.1412541],[-70.0850566891963,-35.141268074442316],[-70.0850396,-35.14127386284585],[-70.0850225108037,-35.141268074442316],[-70.08501543222683,-35.1412541]]]}},{"type":"Feature","id":"pylon-las-lenas-70","properties":{"kind":"pylon","name":"Lift tower","height":13},"geometry":{"type":"Polygon","coordinates":[[[-70.08521573233695,-35.1408832],[-70.08522281088158,-35.14086922555768],[-70.0852399,-35.140863437154145],[-70.08525698911843,-35.14086922555768],[-70.08526406766306,-35.1408832],[-70.08525698911843,-35.140897174442316],[-70.0852399,-35.14090296284585],[-70.08522281088158,-35.140897174442316],[-70.08521573233695,-35.1408832]]]}},{"type":"Feature","id":"pylon-las-lenas-71","properties":{"kind":"pylon","name":"Lift tower","height":13},"geometry":{"type":"Polygon","coordinates":[[[-70.08586033269128,-35.1396897],[-70.08586741113213,-35.13967572555768],[-70.0858845,-35.139669937154146],[-70.08590158886788,-35.13967572555768],[-70.08590866730873,-35.1396897],[-70.08590158886788,-35.139703674442316],[-70.0858845,-35.13970946284585],[-70.08586741113213,-35.139703674442316],[-70.08586033269128,-35.1396897]]]}},{"type":"Feature","id":"pylon-las-lenas-72","properties":{"kind":"pylon","name":"Lift tower","height":13},"geometry":{"type":"Polygon","coordinates":[[[-70.08645553301844,-35.1385877],[-70.08646261136344,-35.138573725557684],[-70.0864797,-35.13856793715415],[-70.08649678863655,-35.138573725557684],[-70.08650386698156,-35.1385877],[-70.08649678863655,-35.13860167444232],[-70.0864797,-35.138607462845854],[-70.08646261136344,-35.13860167444232],[-70.08645553301844,-35.1385877]]]}},{"type":"Feature","id":"pylon-las-lenas-73","properties":{"kind":"pylon","name":"Lift tower","height":13},"geometry":{"type":"Polygon","coordinates":[[[-70.08521843321695,-35.137919],[-70.08522551150382,-35.13790502555768],[-70.0852426,-35.137899237154144],[-70.08525968849618,-35.13790502555768],[-70.08526676678305,-35.137919],[-70.08525968849618,-35.137932974442315],[-70.0852426,-35.13793876284585],[-70.08522551150382,-35.137932974442315],[-70.08521843321695,-35.137919]]]}},{"type":"Feature","id":"pylon-las-lenas-74","properties":{"kind":"pylon","name":"Lift tower","height":13},"geometry":{"type":"Polygon","coordinates":[[[-70.0859755333503,-35.1374698],[-70.08598261159811,-35.13745582555768],[-70.0859997,-35.137450037154146],[-70.08601678840189,-35.13745582555768],[-70.08602386664971,-35.1374698],[-70.08601678840189,-35.137483774442316],[-70.0859997,-35.13748956284585],[-70.08598261159811,-35.137483774442316],[-70.0859755333503,-35.1374698]]]}},{"type":"Feature","id":"pylon-las-lenas-75","properties":{"kind":"pylon","name":"Lift tower","height":13},"geometry":{"type":"Polygon","coordinates":[[[-70.08652813344759,-35.137142],[-70.08653521166691,-35.13712802555768],[-70.0865523,-35.137122237154145],[-70.08656938833307,-35.13712802555768],[-70.0865764665524,-35.137142],[-70.08656938833307,-35.137155974442315],[-70.0865523,-35.13716176284585],[-70.08653521166691,-35.137155974442315],[-70.08652813344759,-35.137142]]]}},{"type":"Feature","id":"pylon-las-lenas-76","properties":{"kind":"pylon","name":"Lift tower","height":13},"geometry":{"type":"Polygon","coordinates":[[[-70.08726773357785,-35.1367032],[-70.08727481175902,-35.13668922555768],[-70.0872919,-35.13668343715415],[-70.08730898824098,-35.13668922555768],[-70.08731606642215,-35.1367032],[-70.08730898824098,-35.13671717444232],[-70.0872919,-35.13672296284585],[-70.08727481175902,-35.13671717444232],[-70.08726773357785,-35.1367032]]]}},{"type":"Feature","id":"pylon-las-lenas-77","properties":{"kind":"pylon","name":"Lift tower","height":13},"geometry":{"type":"Polygon","coordinates":[[[-70.08767203364906,-35.1364633],[-70.08767911180936,-35.136449325557685],[-70.0876962,-35.13644353715415],[-70.08771328819063,-35.136449325557685],[-70.08772036635094,-35.1364633],[-70.08771328819063,-35.13647727444232],[-70.0876962,-35.136483062845855],[-70.08767911180936,-35.13647727444232],[-70.08767203364906,-35.1364633]]]}},{"type":"Feature","id":"pylon-las-lenas-78","properties":{"kind":"pylon","name":"Lift tower","height":13},"geometry":{"type":"Polygon","coordinates":[[[-70.08864583382054,-35.1358856],[-70.08865291193062,-35.135871625557684],[-70.08867,-35.13586583715415],[-70.08868708806936,-35.135871625557684],[-70.08869416617945,-35.1358856],[-70.08868708806936,-35.13589957444232],[-70.08867,-35.135905362845854],[-70.08865291193062,-35.13589957444232],[-70.08864583382054,-35.1358856]]]}},{"type":"Feature","id":"pylon-las-lenas-79","properties":{"kind":"pylon","name":"Lift tower","height":13},"geometry":{"type":"Polygon","coordinates":[[[-70.0897022340066,-35.1352588],[-70.08970931206218,-35.135244825557685],[-70.0897264,-35.13523903715415],[-70.08974348793782,-35.135244825557685],[-70.08975056599341,-35.1352588],[-70.08974348793782,-35.13527277444232],[-70.0897264,-35.135278562845855],[-70.08970931206218,-35.13527277444232],[-70.0897022340066,-35.1352588]]]}},{"type":"Feature","id":"pylon-las-lenas-80","properties":{"kind":"pylon","name":"Lift tower","height":13},"geometry":{"type":"Polygon","coordinates":[[[-70.09035793412205,-35.1348698],[-70.09036501214382,-35.13485582555768],[-70.0903821,-35.134850037154145],[-70.09039918785618,-35.13485582555768],[-70.09040626587795,-35.1348698],[-70.09039918785618,-35.134883774442315],[-70.0903821,-35.13488956284585],[-70.09036501214382,-35.134883774442315],[-70.09035793412205,-35.1348698]]]}},{"type":"Feature","id":"pylon-las-lenas-81","properties":{"kind":"pylon","name":"Lift tower","height":13},"geometry":{"type":"Polygon","coordinates":[[[-70.09138373430268,-35.1342612],[-70.09139081227156,-35.13424722555768],[-70.0914079,-35.134241437154145],[-70.09142498772843,-35.13424722555768],[-70.0914320656973,-35.1342612],[-70.09142498772843,-35.134275174442315],[-70.0914079,-35.13428096284585],[-70.09139081227156,-35.134275174442315],[-70.09138373430268,-35.1342612]]]}},{"type":"Feature","id":"pylon-las-lenas-82","properties":{"kind":"pylon","name":"Lift tower","height":13},"geometry":{"type":"Polygon","coordinates":[[[-70.09247543449492,-35.1336135],[-70.09248251240749,-35.133599525557685],[-70.0924996,-35.13359373715415],[-70.09251668759251,-35.133599525557685],[-70.09252376550508,-35.1336135],[-70.09251668759251,-35.13362747444232],[-70.0924996,-35.133633262845855],[-70.09248251240749,-35.13362747444232],[-70.09247543449492,-35.1336135]]]}},{"type":"Feature","id":"pylon-las-lenas-83","properties":{"kind":"pylon","name":"Lift tower","height":13},"geometry":{"type":"Polygon","coordinates":[[[-70.09384583473623,-35.1328004],[-70.09385291257811,-35.13278642555768],[-70.09387,-35.13278063715415],[-70.09388708742188,-35.13278642555768],[-70.09389416526376,-35.1328004],[-70.09388708742188,-35.13281437444232],[-70.09387,-35.13282016284585],[-70.09385291257811,-35.13281437444232],[-70.09384583473623,-35.1328004]]]}},{"type":"Feature","id":"pylon-las-lenas-84","properties":{"kind":"pylon","name":"Lift tower","height":13},"geometry":{"type":"Polygon","coordinates":[[[-70.09555453503711,-35.1317866],[-70.09556161279087,-35.13177262555768],[-70.0955787,-35.131766837154146],[-70.09559578720913,-35.13177262555768],[-70.0956028649629,-35.1317866],[-70.09559578720913,-35.131800574442316],[-70.0955787,-35.13180636284585],[-70.09556161279087,-35.131800574442316],[-70.09555453503711,-35.1317866]]]}},{"type":"Feature","id":"pylon-las-lenas-85","properties":{"kind":"pylon","name":"Lift tower","height":13},"geometry":{"type":"Polygon","coordinates":[[[-70.09588833509589,-35.1315885],[-70.09589541283243,-35.13157452555768],[-70.0959125,-35.13156873715415],[-70.09592958716756,-35.13157452555768],[-70.0959366649041,-35.1315885],[-70.09592958716756,-35.13160247444232],[-70.0959125,-35.13160826284585],[-70.09589541283243,-35.13160247444232],[-70.09588833509589,-35.1315885]]]}},{"type":"Feature","id":"pylon-las-lenas-86","properties":{"kind":"pylon","name":"Lift tower","height":13},"geometry":{"type":"Polygon","coordinates":[[[-70.09727303533968,-35.130767],[-70.09728011300483,-35.13075302555768],[-70.0972972,-35.13074723715415],[-70.09731428699517,-35.13075302555768],[-70.09732136466032,-35.130767],[-70.09731428699517,-35.13078097444232],[-70.0972972,-35.13078676284585],[-70.09728011300483,-35.13078097444232],[-70.09727303533968,-35.130767]]]}},{"type":"Feature","id":"pylon-las-lenas-87","properties":{"kind":"pylon","name":"Lift tower","height":13},"geometry":{"type":"Polygon","coordinates":[[[-70.09786503544393,-35.1304157],[-70.09787211307854,-35.13040172555768],[-70.0978892,-35.13039593715415],[-70.09790628692146,-35.13040172555768],[-70.09791336455606,-35.1304157],[-70.09790628692146,-35.13042967444232],[-70.0978892,-35.13043546284585],[-70.09787211307854,-35.13042967444232],[-70.09786503544393,-35.1304157]]]}},{"type":"Feature","id":"pylon-las-lenas-88","properties":{"kind":"pylon","name":"Lift tower","height":13},"geometry":{"type":"Polygon","coordinates":[[[-70.09854663556393,-35.1300113],[-70.0985537131634,-35.12999732555768],[-70.0985708,-35.12999153715415],[-70.09858788683661,-35.12999732555768],[-70.09859496443607,-35.1300113],[-70.09858788683661,-35.13002527444232],[-70.0985708,-35.13003106284585],[-70.0985537131634,-35.13002527444232],[-70.09854663556393,-35.1300113]]]}},{"type":"Feature","id":"pylon-las-lenas-89","properties":{"kind":"pylon","name":"Lift tower","height":13},"geometry":{"type":"Polygon","coordinates":[[[-70.09882503561296,-35.1298461],[-70.09883211319806,-35.129832125557684],[-70.0988492,-35.12982633715415],[-70.09886628680195,-35.129832125557684],[-70.09887336438705,-35.1298461],[-70.09886628680195,-35.12986007444232],[-70.0988492,-35.129865862845854],[-70.09883211319806,-35.12986007444232],[-70.09882503561296,-35.1298461]]]}},{"type":"Feature","id":"pylon-las-lenas-90","properties":{"kind":"pylon","name":"Lift tower","height":13},"geometry":{"type":"Polygon","coordinates":[[[-70.08747613411386,-35.1348974],[-70.08748321213804,-35.13488342555768],[-70.0875003,-35.13487763715415],[-70.08751738786196,-35.13488342555768],[-70.08752446588615,-35.1348974],[-70.08751738786196,-35.13491137444232],[-70.0875003,-35.13491716284585],[-70.08748321213804,-35.13491137444232],[-70.08747613411386,-35.1348974]]]}},{"type":"Feature","id":"pylon-las-lenas-91","properties":{"kind":"pylon","name":"Lift tower","height":13},"geometry":{"type":"Polygon","coordinates":[[[-70.08650733406608,-35.1350584],[-70.08651441210425,-35.13504442555768],[-70.0865315,-35.135038637154146],[-70.08654858789576,-35.13504442555768],[-70.08655566593393,-35.1350584],[-70.08654858789576,-35.135072374442316],[-70.0865315,-35.13507816284585],[-70.08651441210425,-35.135072374442316],[-70.08650733406608,-35.1350584]]]}},{"type":"Feature","id":"pylon-las-lenas-92","properties":{"kind":"pylon","name":"Lift tower","height":13},"geometry":{"type":"Polygon","coordinates":[[[-70.08568823402571,-35.1351944],[-70.0856953120757,-35.135180425557685],[-70.0857124,-35.13517463715415],[-70.08572948792431,-35.135180425557685],[-70.0857365659743,-35.1351944],[-70.08572948792431,-35.13520837444232],[-70.0857124,-35.135214162845855],[-70.0856953120757,-35.13520837444232],[-70.08568823402571,-35.1351944]]]}},{"type":"Feature","id":"pylon-las-lenas-93","properties":{"kind":"pylon","name":"Lift tower","height":13},"geometry":{"type":"Polygon","coordinates":[[[-70.085105933997,-35.1352911],[-70.0851130120554,-35.135277125557685],[-70.0851301,-35.13527133715415],[-70.0851471879446,-35.135277125557685],[-70.085154266003,-35.1352911],[-70.0851471879446,-35.13530507444232],[-70.0851301,-35.135310862845856],[-70.0851130120554,-35.13530507444232],[-70.085105933997,-35.1352911]]]}},{"type":"Feature","id":"pylon-las-lenas-94","properties":{"kind":"pylon","name":"Lift tower","height":13},"geometry":{"type":"Polygon","coordinates":[[[-70.08413663394921,-35.1354521],[-70.08414371202161,-35.135438125557684],[-70.0841608,-35.13543233715415],[-70.0841778879784,-35.135438125557684],[-70.0841849660508,-35.1354521],[-70.0841778879784,-35.13546607444232],[-70.0841608,-35.135471862845854],[-70.08414371202161,-35.13546607444232],[-70.08413663394921,-35.1354521]]]}},{"type":"Feature","id":"pylon-las-lenas-95","properties":{"kind":"pylon","name":"Lift tower","height":13},"geometry":{"type":"Polygon","coordinates":[[[-70.08218863385315,-35.1357757],[-70.08219571195369,-35.135761725557686],[-70.0822128,-35.13575593715415],[-70.0822298880463,-35.135761725557686],[-70.08223696614684,-35.1357757],[-70.0822298880463,-35.13578967444232],[-70.0822128,-35.135795462845856],[-70.08219571195369,-35.13578967444232],[-70.08218863385315,-35.1357757]]]}},{"type":"Feature","id":"pylon-las-lenas-96","properties":{"kind":"pylon","name":"Lift tower","height":13},"geometry":{"type":"Polygon","coordinates":[[[-70.08142243381538,-35.135903],[-70.08142951192698,-35.13588902555768],[-70.0814466,-35.13588323715415],[-70.08146368807303,-35.13588902555768],[-70.08147076618464,-35.135903],[-70.08146368807303,-35.13591697444232],[-70.0814466,-35.13592276284585],[-70.08142951192698,-35.13591697444232],[-70.08142243381538,-35.135903]]]}},{"type":"Feature","id":"pylon-las-lenas-97","properties":{"kind":"pylon","name":"Lift tower","height":13},"geometry":{"type":"Polygon","coordinates":[[[-70.08065083377736,-35.1360311],[-70.08065791190009,-35.13601712555768],[-70.080675,-35.136011337154144],[-70.08069208809991,-35.13601712555768],[-70.08069916622264,-35.1360311],[-70.08069208809991,-35.136045074442315],[-70.080675,-35.13605086284585],[-70.08065791190009,-35.136045074442315],[-70.08065083377736,-35.1360311]]]}},{"type":"Feature","id":"pylon-las-lenas-98","properties":{"kind":"pylon","name":"Lift tower","height":13},"geometry":{"type":"Polygon","coordinates":[[[-70.0849442320203,-35.1419496],[-70.08495131065767,-35.14193562555768],[-70.0849684,-35.141929837154144],[-70.08498548934232,-35.14193562555768],[-70.08499256797968,-35.1419496],[-70.08498548934232,-35.141963574442315],[-70.0849684,-35.14196936284585],[-70.08495131065767,-35.141963574442315],[-70.0849442320203,-35.1419496]]]}},{"type":"Feature","id":"pylon-las-lenas-99","properties":{"kind":"pylon","name":"Lift tower","height":13},"geometry":{"type":"Polygon","coordinates":[[[-70.0841302319482,-35.1421925],[-70.08413731060668,-35.14217852555768],[-70.0841544,-35.14217273715415],[-70.08417148939333,-35.14217852555768],[-70.08417856805181,-35.1421925],[-70.08417148939333,-35.14220647444232],[-70.0841544,-35.14221226284585],[-70.08413731060668,-35.14220647444232],[-70.0841302319482,-35.1421925]]]}},{"type":"Feature","id":"pylon-las-lenas-100","properties":{"kind":"pylon","name":"Lift tower","height":13},"geometry":{"type":"Polygon","coordinates":[[[-70.08571863208891,-35.1417186],[-70.08572571070619,-35.14170462555768],[-70.0857428,-35.141698837154145],[-70.08575988929383,-35.14170462555768],[-70.0857669679111,-35.1417186],[-70.08575988929383,-35.141732574442315],[-70.0857428,-35.14173836284585],[-70.08572571070619,-35.141732574442315],[-70.08571863208891,-35.1417186]]]}},{"type":"Feature","id":"pylon-las-lenas-101","properties":{"kind":"pylon","name":"Lift tower","height":13},"geometry":{"type":"Polygon","coordinates":[[[-70.08679713218442,-35.1413969],[-70.0868042107737,-35.14138292555768],[-70.0868213,-35.141377137154144],[-70.08683838922629,-35.14138292555768],[-70.08684546781558,-35.1413969],[-70.08683838922629,-35.141410874442315],[-70.0868213,-35.14141666284585],[-70.0868042107737,-35.141410874442315],[-70.08679713218442,-35.1413969]]]}},{"type":"Feature","id":"pylon-las-lenas-102","properties":{"kind":"pylon","name":"Lift tower","height":13},"geometry":{"type":"Polygon","coordinates":[[[-70.08841983232817,-35.1409127],[-70.08842691087537,-35.14089872555768],[-70.088444,-35.14089293715415],[-70.08846108912462,-35.14089872555768],[-70.08846816767182,-35.1409127],[-70.08846108912462,-35.14092667444232],[-70.088444,-35.14093246284585],[-70.08842691087537,-35.14092667444232],[-70.08841983232817,-35.1409127]]]}},{"type":"Feature","id":"pylon-las-lenas-103","properties":{"kind":"pylon","name":"Lift tower","height":13},"geometry":{"type":"Polygon","coordinates":[[[-70.08901573238094,-35.140735],[-70.08902281091268,-35.14072102555768],[-70.0890399,-35.14071523715415],[-70.08905698908733,-35.14072102555768],[-70.08906406761906,-35.140735],[-70.08905698908733,-35.14074897444232],[-70.0890399,-35.14075476284585],[-70.08902281091268,-35.14074897444232],[-70.08901573238094,-35.140735]]]}},{"type":"Feature","id":"pylon-las-lenas-104","properties":{"kind":"pylon","name":"Lift tower","height":13},"geometry":{"type":"Polygon","coordinates":[[[-70.08953003242651,-35.1405815],[-70.0895371109449,-35.140567525557685],[-70.0895542,-35.14056173715415],[-70.08957128905509,-35.140567525557685],[-70.08957836757348,-35.1405815],[-70.08957128905509,-35.14059547444232],[-70.0895542,-35.140601262845856],[-70.0895371109449,-35.14059547444232],[-70.08953003242651,-35.1405815]]]}},{"type":"Feature","id":"pylon-las-lenas-105","properties":{"kind":"pylon","name":"Lift tower","height":13},"geometry":{"type":"Polygon","coordinates":[[[-70.09063643252449,-35.1402515],[-70.09064351101419,-35.14023752555768],[-70.0906606,-35.140231737154146],[-70.09067768898582,-35.14023752555768],[-70.09068476747552,-35.1402515],[-70.09067768898582,-35.140265474442316],[-70.0906606,-35.14027126284585],[-70.09064351101419,-35.140265474442316],[-70.09063643252449,-35.1402515]]]}},{"type":"Feature","id":"pylon-las-lenas-106","properties":{"kind":"pylon","name":"Lift tower","height":13},"geometry":{"type":"Polygon","coordinates":[[[-70.0917586326239,-35.1399167],[-70.09176571108446,-35.13990272555768],[-70.0917828,-35.13989693715415],[-70.09179988891555,-35.13990272555768],[-70.09180696737612,-35.1399167],[-70.09179988891555,-35.13993067444232],[-70.0917828,-35.13993646284585],[-70.09176571108446,-35.13993067444232],[-70.0917586326239,-35.1399167]]]}},{"type":"Feature","id":"pylon-las-lenas-107","properties":{"kind":"pylon","name":"Lift tower","height":13},"geometry":{"type":"Polygon","coordinates":[[[-70.0927127327084,-35.139632],[-70.09271981114424,-35.13961802555768],[-70.0927369,-35.13961223715415],[-70.09275398885578,-35.13961802555768],[-70.0927610672916,-35.139632],[-70.09275398885578,-35.13964597444232],[-70.0927369,-35.13965176284585],[-70.09271981114424,-35.13964597444232],[-70.0927127327084,-35.139632]]]}},{"type":"Feature","id":"pylon-las-lenas-108","properties":{"kind":"pylon","name":"Lift tower","height":13},"geometry":{"type":"Polygon","coordinates":[[[-70.0938304328074,-35.1392986],[-70.09383751121422,-35.13928462555768],[-70.0938546,-35.139278837154144],[-70.09387168878578,-35.13928462555768],[-70.0938787671926,-35.1392986],[-70.09387168878578,-35.139312574442314],[-70.0938546,-35.13931836284585],[-70.09383751121422,-35.139312574442314],[-70.0938304328074,-35.1392986]]]}},{"type":"Feature","id":"pylon-las-lenas-109","properties":{"kind":"pylon","name":"Lift tower","height":13},"geometry":{"type":"Polygon","coordinates":[[[-70.09494993290654,-35.1389646],[-70.09495701128434,-35.13895062555768],[-70.0949741,-35.13894483715415],[-70.09499118871567,-35.13895062555768],[-70.09499826709346,-35.1389646],[-70.09499118871567,-35.13897857444232],[-70.0949741,-35.138984362845854],[-70.09495701128434,-35.13897857444232],[-70.09494993290654,-35.1389646]]]}},{"type":"Feature","id":"pylon-las-lenas-110","properties":{"kind":"pylon","name":"Lift tower","height":13},"geometry":{"type":"Polygon","coordinates":[[[-70.08621703171954,-35.1429626],[-70.086224110445,-35.14294862555768],[-70.0862412,-35.142942837154145],[-70.086258289555,-35.14294862555768],[-70.08626536828046,-35.1429626],[-70.086258289555,-35.142976574442315],[-70.0862412,-35.14298236284585],[-70.086224110445,-35.142976574442315],[-70.08621703171954,-35.1429626]]]}},{"type":"Feature","id":"pylon-las-lenas-111","properties":{"kind":"pylon","name":"Lift tower","height":13},"geometry":{"type":"Polygon","coordinates":[[[-70.08672763177351,-35.1427808],[-70.08673471048317,-35.14276682555768],[-70.0867518,-35.142761037154145],[-70.08676888951683,-35.14276682555768],[-70.08677596822649,-35.1427808],[-70.08676888951683,-35.142794774442315],[-70.0867518,-35.14280056284585],[-70.08673471048317,-35.142794774442315],[-70.08672763177351,-35.1427808]]]}},{"type":"Feature","id":"pylon-las-lenas-112","properties":{"kind":"pylon","name":"Lift tower","height":13},"geometry":{"type":"Polygon","coordinates":[[[-70.0874413316828,-35.1430863],[-70.08744841041901,-35.14307232555768],[-70.0874655,-35.14306653715415],[-70.08748258958097,-35.14307232555768],[-70.08748966831719,-35.1430863],[-70.08748258958097,-35.14310027444232],[-70.0874655,-35.14310606284585],[-70.08744841041901,-35.14310027444232],[-70.0874413316828,-35.1430863]]]}},{"type":"Feature","id":"pylon-las-lenas-113","properties":{"kind":"pylon","name":"Lift tower","height":13},"geometry":{"type":"Polygon","coordinates":[[[-70.08805113174704,-35.14287],[-70.08805821046444,-35.142856025557684],[-70.0880753,-35.14285023715415],[-70.08809238953556,-35.142856025557684],[-70.08809946825296,-35.14287],[-70.08809238953556,-35.14288397444232],[-70.0880753,-35.142889762845854],[-70.08805821046444,-35.14288397444232],[-70.08805113174704,-35.14287]]]}},{"type":"Feature","id":"pylon-las-lenas-114","properties":{"kind":"pylon","name":"Lift tower","height":13},"geometry":{"type":"Polygon","coordinates":[[[-70.08861463164759,-35.1432049],[-70.08862171039412,-35.14319092555768],[-70.0886388,-35.14318513715415],[-70.08865588960587,-35.14319092555768],[-70.08866296835241,-35.1432049],[-70.08865588960587,-35.14321887444232],[-70.0886388,-35.14322466284585],[-70.08862171039412,-35.14321887444232],[-70.08861463164759,-35.1432049]]]}},{"type":"Feature","id":"pylon-las-lenas-115","properties":{"kind":"pylon","name":"Lift tower","height":13},"geometry":{"type":"Polygon","coordinates":[[[-70.09013203160207,-35.1433582],[-70.09013911036193,-35.143344225557684],[-70.0901562,-35.14333843715415],[-70.09017328963806,-35.143344225557684],[-70.09018036839792,-35.1433582],[-70.09017328963806,-35.14337217444232],[-70.0901562,-35.143377962845854],[-70.09013911036193,-35.14337217444232],[-70.09013203160207,-35.1433582]]]}},{"type":"Feature","id":"pylon-las-lenas-116","properties":{"kind":"pylon","name":"Lift tower","height":13},"geometry":{"type":"Polygon","coordinates":[[[-70.09109403217198,-35.1414388],[-70.09110111076491,-35.141424825557685],[-70.0911182,-35.14141903715415],[-70.09113528923508,-35.141424825557685],[-70.09114236782801,-35.1414388],[-70.09113528923508,-35.14145277444232],[-70.0911182,-35.141458562845855],[-70.09110111076491,-35.14145277444232],[-70.09109403217198,-35.1414388]]]}},{"type":"Feature","id":"pylon-las-lenas-117","properties":{"kind":"pylon","name":"Lift tower","height":13},"geometry":{"type":"Polygon","coordinates":[[[-70.09161003237773,-35.1407458],[-70.0916171109104,-35.14073182555768],[-70.0916342,-35.140726037154145],[-70.0916512890896,-35.14073182555768],[-70.09165836762227,-35.1407458],[-70.0916512890896,-35.140759774442316],[-70.0916342,-35.14076556284585],[-70.0916171109104,-35.140759774442316],[-70.09161003237773,-35.1407458]]]}},{"type":"Feature","id":"pylon-las-lenas-118","properties":{"kind":"pylon","name":"Lift tower","height":13},"geometry":{"type":"Polygon","coordinates":[[[-70.09208763256818,-35.1401043],[-70.09209471104508,-35.14009032555768],[-70.0921118,-35.140084537154145],[-70.09212888895492,-35.14009032555768],[-70.09213596743182,-35.1401043],[-70.09212888895492,-35.140118274442315],[-70.0921118,-35.14012406284585],[-70.09209471104508,-35.140118274442315],[-70.09208763256818,-35.1401043]]]}},{"type":"Feature","id":"pylon-las-lenas-119","properties":{"kind":"pylon","name":"Lift tower","height":13},"geometry":{"type":"Polygon","coordinates":[[[-70.09291963289989,-35.138987],[-70.09292671127963,-35.13897302555768],[-70.0929438,-35.13896723715415],[-70.09296088872037,-35.13897302555768],[-70.09296796710011,-35.138987],[-70.09296088872037,-35.13900097444232],[-70.0929438,-35.13900676284585],[-70.09292671127963,-35.13900097444232],[-70.09291963289989,-35.138987]]]}},{"type":"Feature","id":"pylon-las-lenas-120","properties":{"kind":"pylon","name":"Lift tower","height":13},"geometry":{"type":"Polygon","coordinates":[[[-70.0910472315746,-35.1434507],[-70.09105431034251,-35.143436725557684],[-70.0910714,-35.14343093715415],[-70.0910884896575,-35.143436725557684],[-70.0910955684254,-35.1434507],[-70.0910884896575,-35.14346467444232],[-70.0910714,-35.143470462845855],[-70.09105431034251,-35.14346467444232],[-70.0910472315746,-35.1434507]]]}},{"type":"Feature","id":"pylon-las-lenas-121","properties":{"kind":"pylon","name":"Lift tower","height":13},"geometry":{"type":"Polygon","coordinates":[[[-70.09300133151595,-35.1436482],[-70.09300841030104,-35.14363422555768],[-70.0930255,-35.14362843715415],[-70.09304258969895,-35.14363422555768],[-70.09304966848404,-35.1436482],[-70.09304258969895,-35.14366217444232],[-70.0930255,-35.14366796284585],[-70.09300841030104,-35.14366217444232],[-70.09300133151595,-35.1436482]]]}},{"type":"Feature","id":"pylon-las-lenas-122","properties":{"kind":"pylon","name":"Lift tower","height":13},"geometry":{"type":"Polygon","coordinates":[[[-70.09169213155525,-35.1435159],[-70.09169921032883,-35.14350192555768],[-70.0917163,-35.143496137154145],[-70.09173338967118,-35.14350192555768],[-70.09174046844475,-35.1435159],[-70.09173338967118,-35.143529874442315],[-70.0917163,-35.14353566284585],[-70.09169921032883,-35.143529874442315],[-70.09169213155525,-35.1435159]]]}},{"type":"Feature","id":"pylon-las-lenas-123","properties":{"kind":"pylon","name":"Lift tower","height":13},"geometry":{"type":"Polygon","coordinates":[[[-70.09460403146785,-35.1438102],[-70.09461111026702,-35.14379622555768],[-70.0946282,-35.143790437154145],[-70.09464528973298,-35.14379622555768],[-70.09465236853215,-35.1438102],[-70.09464528973298,-35.143824174442315],[-70.0946282,-35.14382996284585],[-70.09461111026702,-35.143824174442315],[-70.09460403146785,-35.1438102]]]}},{"type":"Feature","id":"pylon-las-lenas-124","properties":{"kind":"pylon","name":"Lift tower","height":13},"geometry":{"type":"Polygon","coordinates":[[[-70.09381053149167,-35.14373],[-70.09381761028386,-35.14371602555768],[-70.0938347,-35.143710237154146],[-70.09385178971614,-35.14371602555768],[-70.09385886850833,-35.14373],[-70.09385178971614,-35.143743974442316],[-70.0938347,-35.14374976284585],[-70.09381761028386,-35.143743974442316],[-70.09381053149167,-35.14373]]]}},{"type":"Feature","id":"pylon-las-lenas-125","properties":{"kind":"pylon","name":"Lift tower","height":13},"geometry":{"type":"Polygon","coordinates":[[[-70.09576713143294,-35.1439278],[-70.09577421024234,-35.14391382555768],[-70.0957913,-35.14390803715415],[-70.09580838975766,-35.14391382555768],[-70.09581546856707,-35.1439278],[-70.09580838975766,-35.14394177444232],[-70.0957913,-35.14394756284585],[-70.09577421024234,-35.14394177444232],[-70.09576713143294,-35.1439278]]]}},{"type":"Feature","id":"pylon-las-lenas-126","properties":{"kind":"pylon","name":"Lift tower","height":13},"geometry":{"type":"Polygon","coordinates":[[[-70.09662633140715,-35.1440146],[-70.0966334102241,-35.14400062555768],[-70.0966505,-35.143994837154146],[-70.09666758977589,-35.14400062555768],[-70.09667466859284,-35.1440146],[-70.09666758977589,-35.144028574442316],[-70.0966505,-35.14403436284585],[-70.0966334102241,-35.144028574442316],[-70.09662633140715,-35.1440146]]]}},{"type":"Feature","id":"marker-las-lenas-summit","properties":{"kind":"marker","markerType":"summit","name":"Upper mountain · 3430 m","height":26},"geometry":{"type":"Polygon","coordinates":[[[-70.09692309994566,-35.144000000000005],[-70.09693778654918,-35.14396303901576],[-70.09697623657635,-35.14394019587124],[-70.09702376342366,-35.14394019587124],[-70.09706221345084,-35.14396303901576],[-70.09707690005436,-35.144000000000005],[-70.09706221345084,-35.14403696098425],[-70.09702376342366,-35.14405980412877],[-70.09697623657635,-35.14405980412877],[-70.09693778654918,-35.14403696098425],[-70.09692309994566,-35.144000000000005]]]}},{"type":"Feature","id":"marker-las-lenas-base","properties":{"kind":"marker","markerType":"base","name":"Base · 2240 m","height":18},"geometry":{"type":"Polygon","coordinates":[[[-70.09292309616598,-35.148],[-70.09293778349135,-35.14796303901576],[-70.09297623540836,-35.147940195871236],[-70.09302376459165,-35.147940195871236],[-70.09306221650866,-35.14796303901576],[-70.09307690383403,-35.148],[-70.09306221650866,-35.14803696098425],[-70.09302376459165,-35.14805980412877],[-70.09297623540836,-35.14805980412877],[-70.09293778349135,-35.14803696098425],[-70.09292309616598,-35.148]]]}},{"type":"Feature","id":"marker-las-lenas-featured-run","properties":{"kind":"marker","markerType":"featured-run","name":"Powder · Eduardo's","height":20},"geometry":{"type":"Polygon","coordinates":[[[-70.08992309333073,-35.151],[-70.08993778119758,-35.15096303901576],[-70.08997623453222,-35.150940195871236],[-70.09002376546779,-35.150940195871236],[-70.09006221880243,-35.15096303901576],[-70.09007690666928,-35.151],[-70.09006221880243,-35.15103696098425],[-70.09002376546779,-35.15105980412877],[-70.08997623453222,-35.15105980412877],[-70.08993778119758,-35.15103696098425],[-70.08992309333073,-35.151]]]}}]}