{"type":"FeatureCollection","features":[{"type":"Feature","id":"marker-annapurna-machapuchare-base-camp-summit","properties":{"kind":"marker","markerType":"summit","name":"Upper mountain · 4300 m","height":26},"geometry":{"type":"Polygon","coordinates":[[[83.92107156564063,28.519000000000002],[83.92105789781948,28.519036960984245],[83.92102211499916,28.519059804128766],[83.92097788500082,28.519059804128766],[83.9209421021805,28.519036960984245],[83.92092843435935,28.519000000000002],[83.9209421021805,28.51896303901576],[83.92097788500082,28.518940195871238],[83.92102211499916,28.518940195871238],[83.92105789781948,28.51896303901576],[83.92107156564063,28.519000000000002]]]}},{"type":"Feature","id":"marker-annapurna-machapuchare-base-camp-base","properties":{"kind":"marker","markerType":"base","name":"Base · 3700 m","height":18},"geometry":{"type":"Polygon","coordinates":[[[83.92507156292604,28.515],[83.92505789562333,28.515036960984244],[83.92502211416031,28.515059804128764],[83.92497788583968,28.515059804128764],[83.92494210437667,28.515036960984244],[83.92492843707396,28.515],[83.92494210437667,28.514963039015758],[83.92497788583968,28.514940195871237],[83.92502211416031,28.514940195871237],[83.92505789562333,28.514963039015758],[83.92507156292604,28.515]]]}},{"type":"Feature","id":"marker-annapurna-machapuchare-base-camp-peak","properties":{"kind":"marker","markerType":"peak","name":"Peak · 6993 m","height":22},"geometry":{"type":"Polygon","coordinates":[[[83.92907156699815,28.521],[83.92905789891773,28.521036960984244],[83.92902211541866,28.521059804128765],[83.92897788458134,28.521059804128765],[83.92894210108227,28.521036960984244],[83.92892843300186,28.521],[83.92894210108227,28.520963039015758],[83.92897788458134,28.520940195871237],[83.92902211541866,28.520940195871237],[83.92905789891773,28.520963039015758],[83.92907156699815,28.521]]]}},{"type":"Feature","id":"marker-annapurna-machapuchare-base-camp-featured-run","properties":{"kind":"marker","markerType":"featured-run","name":"Powder · Fishtail Base Camp Run","height":20},"geometry":{"type":"Polygon","coordinates":[[[83.92807156089046,28.512],[83.92805789397651,28.512036960984243],[83.92802211353128,28.512059804128764],[83.92797788646871,28.512059804128764],[83.92794210602348,28.512036960984243],[83.92792843910954,28.512],[83.92794210602348,28.511963039015757],[83.92797788646871,28.511940195871237],[83.92802211353128,28.511940195871237],[83.92805789397651,28.511963039015757],[83.92807156089046,28.512]]]}}]}