{"type":"FeatureCollection","features":[{"type":"Feature","id":258825568,"properties":{"kind":"lift","name":"New Chum Chairlift","subtype":"chair_lift","status":"active"},"geometry":{"type":"LineString","coordinates":[[148.4504741,-35.9075389],[148.4504282,-35.9072974],[148.4503429,-35.9068484],[148.4502497,-35.9063577],[148.4502112,-35.906155]]}},{"type":"Feature","id":258825569,"properties":{"kind":"lift","name":"Boomerang Platter","subtype":"platter","status":"active"},"geometry":{"type":"LineString","coordinates":[[148.4507519,-35.9080676],[148.4493462,-35.9062478]]}},{"type":"Feature","id":258825570,"properties":{"kind":"lift","name":"Snowflake Tube Lift","subtype":"rope_tow","status":"active"},"geometry":{"type":"LineString","coordinates":[[148.4501644,-35.9074398],[148.4495486,-35.9066343]]}},{"type":"Feature","id":258825571,"properties":{"kind":"lift","name":"Powerline Poma","subtype":"platter","status":"active"},"geometry":{"type":"LineString","coordinates":[[148.4516967,-35.9088738],[148.4507585,-35.9090293],[148.4480409,-35.9094799]]}},{"type":"Feature","id":258825572,"properties":{"kind":"lift","name":"Township Triple Chair","subtype":"chair_lift","status":"active"},"geometry":{"type":"LineString","coordinates":[[148.45108,-35.9083774],[148.4514898,-35.9081426],[148.452131,-35.9077752],[148.4528999,-35.9073345],[148.4535732,-35.9069487],[148.454389,-35.9064812],[148.454898,-35.9061895],[148.4553041,-35.9059568]]}},{"type":"Feature","id":258825573,"properties":{"kind":"lift","name":"Wombat T-Bar","subtype":"t-bar","status":"active"},"geometry":{"type":"LineString","coordinates":[[148.450738,-35.907499],[148.4541888,-35.9062063]]}},{"type":"Feature","id":258825574,"properties":{"kind":"lift","name":"Home Run Poma","subtype":"platter","status":"active"},"geometry":{"type":"LineString","coordinates":[[148.4509666,-35.9060318],[148.4530813,-35.9062182],[148.455541,-35.9055703]]}},{"type":"Feature","id":258825575,"properties":{"kind":"lift","name":"Racecourse T-Bar","subtype":"t-bar","status":"active"},"geometry":{"type":"LineString","coordinates":[[148.4545841,-35.9108918],[148.4547512,-35.9098593],[148.4548377,-35.9093251],[148.4549906,-35.9083799],[148.4552743,-35.906627]]}},{"type":"Feature","id":1357616923,"properties":{"kind":"run","name":"Home Run","subtype":"easy","pisteType":"downhill"},"geometry":{"type":"LineString","coordinates":[[148.455541,-35.9055703],[148.4549083,-35.9058845],[148.454155,-35.9061059],[148.4532693,-35.9063662],[148.4505817,-35.9061521]]}},{"type":"Feature","id":1357616924,"properties":{"kind":"run","name":"Mapped ski run","subtype":"intermediate","pisteType":"downhill"},"geometry":{"type":"LineString","coordinates":[[148.454155,-35.9061059],[148.4525864,-35.9067088],[148.4516876,-35.9069765],[148.4508196,-35.9073619],[148.4505827,-35.9076211],[148.4504055,-35.9078151]]}},{"type":"Feature","id":1357616925,"properties":{"kind":"run","name":"Easy Street","subtype":"easy","pisteType":"downhill"},"geometry":{"type":"LineString","coordinates":[[148.4504496,-35.9061878],[148.4505509,-35.9070157],[148.4505156,-35.9072584],[148.4505827,-35.9076211]]}},{"type":"Feature","id":1357616926,"properties":{"kind":"run","name":"Beginner Bliss","subtype":"easy","pisteType":"downhill"},"geometry":{"type":"LineString","coordinates":[[148.4498548,-35.9062913],[148.4503438,-35.9074868],[148.4505068,-35.9076331],[148.4504892,-35.9079578],[148.4505905,-35.9080756],[148.4506919,-35.9081184],[148.4507994,-35.9081251]]}},{"type":"Feature","id":1357616927,"properties":{"kind":"run","name":"The Lookout","subtype":"easy","pisteType":"downhill"},"geometry":{"type":"LineString","coordinates":[[148.4493733,-35.9067492],[148.4496854,-35.9071042],[148.4497618,-35.9072764],[148.4496556,-35.9075157]]}},{"type":"Feature","id":1357616928,"properties":{"kind":"run","name":"Sunny Side","subtype":"easy","pisteType":"downhill"},"geometry":{"type":"LineString","coordinates":[[148.4488935,-35.9072896],[148.4496556,-35.9075157]]}},{"type":"Feature","id":1359237904,"properties":{"kind":"run","name":"Long Arm","subtype":"easy","pisteType":"downhill"},"geometry":{"type":"LineString","coordinates":[[148.4480409,-35.9094799],[148.4482444,-35.9096506],[148.4483447,-35.9096858],[148.4484478,-35.9097238],[148.4485972,-35.9097653],[148.4487068,-35.9097931],[148.4487904,-35.9098531],[148.4488727,-35.909938],[148.4491033,-35.9101835],[148.4494632,-35.9105666],[148.4504205,-35.9115857],[148.4505083,-35.9117116],[148.4507043,-35.911947],[148.4507584,-35.9120072],[148.4508192,-35.912051],[148.4509071,-35.9121003],[148.4509747,-35.9121386],[148.4510761,-35.9121605],[148.4511775,-35.9121769],[148.4512788,-35.9121933],[148.451414,-35.9121933],[148.4515086,-35.9121933],[148.4516506,-35.9121933],[148.4517317,-35.912166],[148.4518263,-35.9121331],[148.4519142,-35.9121003],[148.4519953,-35.9120619],[148.4520831,-35.9120182],[148.452171,-35.9119744],[148.4522453,-35.9119415],[148.4523467,-35.9118868],[148.4524346,-35.911843],[148.4525089,-35.9118047],[148.4525897,-35.9117645],[148.4535092,-35.9113065],[148.4537187,-35.9111861],[148.4539269,-35.9111033],[148.454104,-35.9110328],[148.4541986,-35.9110109],[148.4542865,-35.9109781],[148.4543676,-35.9109507],[148.4544487,-35.9109288],[148.4545841,-35.9108918]]}},{"type":"Feature","id":1359237905,"properties":{"kind":"run","name":"Plum Pine","subtype":"intermediate","pisteType":"downhill"},"geometry":{"type":"LineString","coordinates":[[148.4552743,-35.906627],[148.4553655,-35.9066654],[148.4554245,-35.906748],[148.4554299,-35.9068001],[148.4554352,-35.9068566],[148.4554567,-35.9069131],[148.4554889,-35.9069609],[148.4555532,-35.9070044],[148.4556123,-35.9070304],[148.455682,-35.9070522],[148.4557571,-35.9070782],[148.4558322,-35.9070956],[148.4558858,-35.907126],[148.4559448,-35.9071608],[148.4560092,-35.9072042],[148.4560629,-35.9072607],[148.4561004,-35.9073085],[148.4561326,-35.9073867],[148.4561326,-35.9074432],[148.456138,-35.9074997],[148.456138,-35.9075649],[148.456138,-35.9076387],[148.4561272,-35.9076996],[148.4561219,-35.9077604],[148.4561165,-35.9078125],[148.4561111,-35.9078647],[148.4561058,-35.9079211],[148.4561058,-35.9079907],[148.4561111,-35.9080515],[148.4561219,-35.9081167],[148.4561219,-35.9081732],[148.4561165,-35.9082253],[148.4561004,-35.9082905],[148.4560736,-35.9083426],[148.4560414,-35.9083947],[148.4560092,-35.9084425],[148.455977,-35.9084903],[148.4559395,-35.9085555],[148.4559019,-35.908612],[148.4558751,-35.9086598],[148.4558322,-35.9087206],[148.4557839,-35.9087771],[148.455741,-35.9088379],[148.4556981,-35.9088857],[148.4556552,-35.9089379],[148.4556123,-35.9089857],[148.4555532,-35.9090682],[148.4555103,-35.9091247],[148.4554728,-35.9091725],[148.4554299,-35.909229],[148.4553548,-35.9092811],[148.455226,-35.9093984],[148.455167,-35.9094375],[148.4551134,-35.9094853],[148.4550651,-35.9095244],[148.4550222,-35.9095679],[148.4549739,-35.9096157],[148.4549363,-35.9096591],[148.4549042,-35.9097069],[148.4548694,-35.9097782],[148.4548366,-35.9098905],[148.454717,-35.9107046],[148.4546835,-35.9108002],[148.4546435,-35.9108486],[148.4545841,-35.9108918]]}},{"type":"Feature","id":1359237906,"properties":{"kind":"run","name":"Boomerang","subtype":"intermediate","pisteType":"downhill"},"geometry":{"type":"LineString","coordinates":[[148.4553041,-35.9059568],[148.4553923,-35.9059746],[148.4554889,-35.9060224],[148.4555617,-35.9060954],[148.4556659,-35.9061484],[148.4558,-35.9061831],[148.4558805,-35.9062092],[148.4559556,-35.9062222],[148.4560414,-35.9062396],[148.4561058,-35.9062527],[148.4561755,-35.9062657],[148.4562399,-35.9062744],[148.4563096,-35.9062961],[148.456374,-35.9063135],[148.4564276,-35.9063439],[148.4564867,-35.9063743],[148.4565403,-35.9064091],[148.4565886,-35.9064438],[148.4566422,-35.9065047],[148.4566744,-35.9065568],[148.4566851,-35.9066133],[148.4566905,-35.9067002],[148.4566905,-35.9067784],[148.4566905,-35.9068349],[148.4566905,-35.9068914],[148.4566905,-35.9069522],[148.4566959,-35.9070174],[148.4566959,-35.9070739],[148.4566851,-35.9071391],[148.4566798,-35.9071955],[148.4566744,-35.9072564],[148.4566583,-35.9073129],[148.4566422,-35.9073737],[148.4566261,-35.9074302],[148.4566047,-35.9074867],[148.4565779,-35.9075431],[148.4565618,-35.9075953],[148.4565349,-35.9076518],[148.4564974,-35.9077082],[148.4564545,-35.9077691],[148.4564276,-35.9078473],[148.4563901,-35.9079168],[148.4563472,-35.9080124],[148.4562667,-35.9082123],[148.4562292,-35.9082557],[148.4561648,-35.9082992],[148.4560736,-35.9083426]]}},{"type":"Feature","id":1359237907,"properties":{"kind":"run","name":"Mapped ski run","subtype":"unknown","pisteType":"downhill"},"geometry":{"type":"LineString","coordinates":[[148.4556659,-35.9061484],[148.4556337,-35.9062136],[148.4555693,-35.9063656],[148.4554996,-35.906509],[148.4552743,-35.906627]]}},{"type":"Feature","id":1359237908,"properties":{"kind":"run","name":"Summit","subtype":"intermediate","pisteType":"downhill"},"geometry":{"type":"LineString","coordinates":[[148.4555693,-35.9063656],[148.455682,-35.9063917],[148.4558268,-35.9064438],[148.4558858,-35.9064699],[148.4559395,-35.9065003],[148.4559931,-35.9065307],[148.4560468,-35.9065655],[148.4560897,-35.9066046],[148.4561433,-35.906635],[148.4562184,-35.9066568],[148.4562882,-35.9066654],[148.4563525,-35.9066785],[148.4564169,-35.9066915],[148.4564867,-35.9067219],[148.4565457,-35.9067654],[148.4565886,-35.9068088],[148.4566261,-35.9068566],[148.4566905,-35.9068914]]}},{"type":"Feature","id":1359237909,"properties":{"kind":"run","name":"Meadows","subtype":"intermediate","pisteType":"downhill"},"geometry":{"type":"LineString","coordinates":[[148.454007,-35.9077603],[148.4540226,-35.9078614],[148.4539958,-35.9079614],[148.453985,-35.9080135],[148.4539636,-35.9080657],[148.4539421,-35.9081178],[148.4539207,-35.908183],[148.4538831,-35.9082525],[148.4538563,-35.9083177],[148.4538348,-35.9083828],[148.4538134,-35.9084393],[148.4537758,-35.9084915],[148.453749,-35.9085393],[148.4537355,-35.9085655],[148.4537222,-35.9085914],[148.4536793,-35.9086609],[148.4536417,-35.9087217],[148.4535934,-35.9087869],[148.4535505,-35.9088477],[148.4535076,-35.9089129],[148.4534701,-35.9089651],[148.4534325,-35.9090129],[148.4533896,-35.909065],[148.4533306,-35.9091302],[148.4532769,-35.9091867],[148.453234,-35.9092431],[148.4531973,-35.9093051],[148.4531673,-35.9093679],[148.4531544,-35.9094374],[148.4531524,-35.909483],[148.4531903,-35.9095705],[148.4532862,-35.9096567],[148.4542166,-35.9102502],[148.4542633,-35.9103066],[148.454324,-35.9106301],[148.4543289,-35.9106904],[148.4543608,-35.9107453],[148.4543927,-35.9107725],[148.4544518,-35.9108116],[148.4545841,-35.9108918]]}},{"type":"Feature","id":1359237910,"properties":{"kind":"run","name":"Race Course","subtype":"advanced","pisteType":"downhill"},"geometry":{"type":"LineString","coordinates":[[148.4554245,-35.906748],[148.4553798,-35.9067926],[148.4553369,-35.9068925],[148.4553047,-35.9070142],[148.4552081,-35.9075269],[148.4550579,-35.9086653],[148.4550579,-35.9087348],[148.4550579,-35.9087956],[148.4550472,-35.9088651],[148.4550365,-35.9089216],[148.4550257,-35.9089781],[148.4550097,-35.9090433],[148.4549882,-35.9091041],[148.4549614,-35.9091562],[148.4549131,-35.9092301],[148.4548809,-35.9092822],[148.4548377,-35.9093251],[148.4547951,-35.9093952],[148.4547307,-35.9094726],[148.4546626,-35.9095622]]}},{"type":"Feature","id":1359237911,"properties":{"kind":"run","name":"Short Circuit","subtype":"intermediate","pisteType":"downhill"},"geometry":{"type":"LineString","coordinates":[[148.4535934,-35.9087869],[148.4536042,-35.9088738],[148.4536042,-35.9089781],[148.4536203,-35.9090302],[148.4536471,-35.9090911],[148.4536793,-35.9091389],[148.4537329,-35.9091823],[148.4537919,-35.9092301],[148.4538563,-35.9092822],[148.4539046,-35.9093213],[148.4539743,-35.9093604],[148.4540494,-35.9093996],[148.4541245,-35.9094387],[148.4541889,-35.9094778],[148.4542425,-35.9095212],[148.4542908,-35.9095777],[148.4543445,-35.9096298],[148.4543927,-35.9096733],[148.4544464,-35.9097211],[148.4544947,-35.9097732],[148.4545136,-35.909845]]}},{"type":"Feature","id":1359237912,"properties":{"kind":"run","name":"Pig Gully","subtype":"advanced","pisteType":"downhill"},"geometry":{"type":"LineString","coordinates":[[148.4550097,-35.9073878],[148.4550245,-35.9074379],[148.4549862,-35.9075552],[148.4549734,-35.9076],[148.4549606,-35.9076414],[148.4549521,-35.9076862],[148.4549478,-35.9077276],[148.4549351,-35.907769],[148.4549266,-35.9078207],[148.454918,-35.9078621],[148.4549095,-35.9079069],[148.454901,-35.9079552],[148.4548925,-35.9079966],[148.4548882,-35.9080414],[148.454884,-35.9080897],[148.4548669,-35.9081414],[148.4548457,-35.9082035],[148.4548244,-35.9082483],[148.4548031,-35.9082932],[148.4547818,-35.9083345],[148.4547562,-35.9083794],[148.454735,-35.9084276],[148.4547179,-35.908469],[148.4547051,-35.9085139],[148.4546966,-35.9085552],[148.4546796,-35.9086035],[148.4546626,-35.9086449],[148.4546455,-35.9086966],[148.4546285,-35.908738],[148.4546157,-35.9087828],[148.4546072,-35.9088311],[148.4545987,-35.9088967],[148.4545987,-35.9089449],[148.454603,-35.9089932],[148.45462,-35.909038],[148.4546328,-35.9090794],[148.454637,-35.9091208],[148.454637,-35.9091725],[148.4546413,-35.9092139],[148.4546413,-35.9092656],[148.4546498,-35.9093484],[148.4546626,-35.909445],[148.4546626,-35.9095036],[148.4546626,-35.9095622],[148.4546626,-35.9096139],[148.4546498,-35.9096553],[148.4546285,-35.9096967],[148.4545987,-35.9097381],[148.4545646,-35.9097691],[148.4545136,-35.909845],[148.4544965,-35.9098864],[148.4544752,-35.9099243],[148.4544582,-35.9099657],[148.4544454,-35.9100174],[148.4544284,-35.9100588],[148.4544156,-35.9101036],[148.4544114,-35.910145],[148.4544028,-35.9101967],[148.4544071,-35.9102381],[148.4544114,-35.9102864],[148.4544241,-35.9103278],[148.4544412,-35.9103968],[148.4544243,-35.910526],[148.4544402,-35.9105774],[148.4544537,-35.9106294],[148.4544639,-35.9106623],[148.454474,-35.9106951],[148.4544841,-35.910728],[148.454501,-35.9107663],[148.4545179,-35.9108019],[148.4545841,-35.9108918]]}},{"type":"Feature","id":1359237913,"properties":{"kind":"run","name":"The Connector","subtype":"intermediate","pisteType":"downhill"},"geometry":{"type":"LineString","coordinates":[[148.454901,-35.9079552],[148.4548672,-35.9079758],[148.4547523,-35.9080448],[148.4546884,-35.9080758],[148.454633,-35.9081],[148.4545819,-35.9081207],[148.4545181,-35.9081344],[148.454467,-35.9081586],[148.4544159,-35.9081862],[148.4543563,-35.9082207],[148.4543052,-35.9082483],[148.4542669,-35.9082758],[148.45422,-35.9083069],[148.4541775,-35.9083345],[148.4541349,-35.908369],[148.4541008,-35.9084],[148.4540625,-35.9084276],[148.4540029,-35.9084552],[148.4539433,-35.9084828],[148.4538965,-35.9085069],[148.4538496,-35.9085276],[148.4538028,-35.9085517],[148.4537355,-35.9085655],[148.4536708,-35.9085862],[148.4534622,-35.9086552],[148.4534026,-35.9086828],[148.4533515,-35.9087035],[148.4533046,-35.9087242],[148.4532408,-35.9087448],[148.4531939,-35.9087621],[148.4531386,-35.9087793],[148.4530875,-35.9087966],[148.4530279,-35.9088138],[148.452964,-35.9088311],[148.4529087,-35.9088449],[148.4528405,-35.9088552],[148.4527767,-35.9088655],[148.4527171,-35.9088759],[148.452666,-35.9088828],[148.4526021,-35.9088931],[148.4525425,-35.9089],[148.4524744,-35.9089],[148.452402,-35.9088966],[148.4523509,-35.9088862],[148.4522955,-35.9088759],[148.4522444,-35.9088655],[148.4521934,-35.9088587],[148.4521295,-35.9088518],[148.4520529,-35.9088518],[148.451972,-35.9088552],[148.4519123,-35.9088621],[148.4518442,-35.9088655],[148.4517931,-35.9088724],[148.4516967,-35.9088738]]}},{"type":"Feature","id":1359237914,"properties":{"kind":"run","name":"Emu's Chase","subtype":"intermediate","pisteType":"downhill"},"geometry":{"type":"LineString","coordinates":[[148.4552743,-35.906627],[148.4552028,-35.9066362],[148.4551545,-35.9066753],[148.4551277,-35.9067274],[148.4551223,-35.9067795],[148.4551223,-35.9068404],[148.4551062,-35.9068969],[148.4550901,-35.9069664],[148.4550794,-35.9070272],[148.4550687,-35.9070924],[148.4550633,-35.9071445],[148.4550579,-35.907201],[148.4550472,-35.9072705],[148.4550365,-35.9073314],[148.4550097,-35.9073878],[148.4549775,-35.90744],[148.4549238,-35.9074921],[148.4548702,-35.9075225],[148.4548112,-35.9075616],[148.4547361,-35.9075921],[148.4546449,-35.9076268],[148.4545698,-35.9076485],[148.4545054,-35.9076572],[148.4544357,-35.9076703],[148.4543659,-35.907679],[148.4542962,-35.907692],[148.4542104,-35.9077094],[148.4541299,-35.9077224],[148.454007,-35.9077603],[148.45383,-35.907782],[148.4537603,-35.907795],[148.4537013,-35.9078168],[148.4536423,-35.9078428],[148.4535725,-35.9078646],[148.4534971,-35.9078863],[148.4534384,-35.9079167],[148.4533794,-35.9079515],[148.453315,-35.9079819],[148.4532614,-35.9080166],[148.4532185,-35.9080557],[148.4531595,-35.9080948],[148.4531112,-35.9081296],[148.4530629,-35.9081644],[148.4529985,-35.9082122],[148.4529449,-35.9082513],[148.4528752,-35.908286],[148.4528161,-35.9083164],[148.4527464,-35.9083425],[148.452682,-35.9083686],[148.4526177,-35.9083946],[148.4525533,-35.9084164],[148.4524889,-35.9084337],[148.4524031,-35.9084555],[148.4523334,-35.9084642],[148.4522582,-35.9084815],[148.4521885,-35.9084946],[148.4521241,-35.9085033],[148.452049,-35.9085163],[148.4519417,-35.908525],[148.451813,-35.908538],[148.4517433,-35.9085424],[148.4516735,-35.9085424],[148.4515877,-35.9085424],[148.4514858,-35.9085424],[148.4514107,-35.9085424],[148.4513463,-35.908525],[148.4512712,-35.9085076],[148.4512122,-35.9084772],[148.4511532,-35.9084468],[148.45108,-35.9083774]]}},{"type":"Feature","id":1359237915,"properties":{"kind":"run","name":"Tunnel Run","subtype":"intermediate","pisteType":"downhill"},"geometry":{"type":"LineString","coordinates":[[148.4551277,-35.9067274],[148.455048,-35.9067414],[148.4548436,-35.9067621],[148.4547871,-35.9067674],[148.4547244,-35.9067552],[148.4546733,-35.9067517],[148.4546137,-35.9067517],[148.4545583,-35.9067517],[148.4544902,-35.9067586],[148.4544306,-35.906769],[148.454371,-35.9067828],[148.4543029,-35.9067965],[148.454222,-35.9068207],[148.4541581,-35.9068552],[148.4541155,-35.9068793],[148.4540687,-35.9069104],[148.4540219,-35.9069345],[148.4539665,-35.9069655],[148.4539197,-35.9069897],[148.4538771,-35.9070173],[148.4538303,-35.9070449],[148.4537792,-35.9070828],[148.4537323,-35.9071173],[148.453694,-35.9071483],[148.45366,-35.9071793],[148.4536216,-35.9072173],[148.4535705,-35.9072552],[148.4535152,-35.9072966],[148.4534684,-35.9073311],[148.45343,-35.9073587],[148.4533789,-35.9073932],[148.4533364,-35.9074173],[148.4532895,-35.9074449],[148.4532384,-35.9074656],[148.4531788,-35.9074897],[148.4531277,-35.907507],[148.4530809,-35.9075311],[148.4530298,-35.9075621],[148.4529659,-35.9076035],[148.4529106,-35.907638],[148.452868,-35.9076656],[148.4528297,-35.9076932],[148.4527743,-35.9077346],[148.4527318,-35.9077725],[148.4526892,-35.9078001],[148.4526381,-35.907838],[148.4525785,-35.9078863],[148.4525402,-35.9079174],[148.4524635,-35.9079691],[148.452421,-35.9079932],[148.4523826,-35.9080208],[148.4523358,-35.9080553],[148.4522847,-35.9080898],[148.4522421,-35.9081139],[148.4521996,-35.9081415],[148.4521357,-35.908176],[148.4520761,-35.9082105],[148.4520335,-35.9082381],[148.4519739,-35.9082691],[148.4519228,-35.9082932],[148.4517951,-35.9083519],[148.4517142,-35.9083933],[148.4515353,-35.9084519],[148.45148,-35.9084588],[148.4514246,-35.9084657],[148.4513693,-35.9084726],[148.4513012,-35.9084795],[148.4512122,-35.9084772]]}},{"type":"Feature","id":1359237916,"properties":{"kind":"run","name":"Kangaroo Ridge","subtype":"intermediate","pisteType":"downhill"},"geometry":{"type":"LineString","coordinates":[[148.4483447,-35.9096858],[148.4484348,-35.9096537],[148.448644,-35.9095973],[148.4487191,-35.9095886],[148.4487888,-35.9095886],[148.4488693,-35.9095886],[148.4489444,-35.9095886],[148.4490195,-35.9096016],[148.4490785,-35.9096277],[148.4491429,-35.9096668],[148.4491965,-35.9097015],[148.4492341,-35.9097493],[148.4492609,-35.9098058],[148.4492985,-35.9098493],[148.4493467,-35.9098971],[148.4494004,-35.9099448],[148.4494701,-35.9099796],[148.4495291,-35.91001],[148.4495881,-35.9100361],[148.4496471,-35.9100578],[148.4497061,-35.9100795],[148.449792,-35.9101143],[148.449851,-35.910136],[148.4499422,-35.9101621],[148.4500226,-35.9101838],[148.4500817,-35.9102142],[148.450146,-35.9102446],[148.4502211,-35.9102794],[148.4502801,-35.9103055],[148.4503445,-35.9103359],[148.4504089,-35.9103663],[148.4504625,-35.9104011],[148.4505323,-35.9104402],[148.4505913,-35.9104706],[148.450661,-35.9105053],[148.4507468,-35.9105227],[148.4508273,-35.9105314],[148.4508917,-35.9105357],[148.4509829,-35.9105357],[148.4510633,-35.9105271],[148.4511492,-35.9105184],[148.4512189,-35.9105184],[148.4512887,-35.9105227],[148.451353,-35.9105314],[148.4514228,-35.9105531],[148.4515086,-35.9105835],[148.4515891,-35.9106053],[148.4516749,-35.9106357],[148.4517554,-35.9106748],[148.4518251,-35.9107095],[148.4518948,-35.91074],[148.4519753,-35.9107747],[148.4520504,-35.9108008],[148.4521416,-35.9108225],[148.452206,-35.9108355],[148.4522757,-35.9108399],[148.4523401,-35.9108442],[148.4524313,-35.9108529],[148.4524956,-35.9108573],[148.4525654,-35.9108616],[148.4526351,-35.910866],[148.4526995,-35.9108703],[148.4527692,-35.9108703],[148.452839,-35.9108703],[148.4529194,-35.910879],[148.4530053,-35.9109094],[148.4530696,-35.9109355],[148.453134,-35.9109789],[148.453193,-35.9110137],[148.4532574,-35.9110484],[148.4533218,-35.9110919],[148.4533808,-35.9111266],[148.4534451,-35.911144],[148.4535095,-35.9111484],[148.4535793,-35.9111484],[148.4537885,-35.9111093],[148.4539269,-35.9111033]]}},{"type":"Feature","id":1359237917,"properties":{"kind":"run","name":"Tantangara Drive","subtype":"intermediate","pisteType":"downhill"},"geometry":{"type":"LineString","coordinates":[[148.4493467,-35.9098971],[148.4494362,-35.9098848],[148.4496448,-35.9098227],[148.4497001,-35.9097951],[148.4497512,-35.9097675],[148.4497895,-35.9097365],[148.4498321,-35.9097124],[148.4498747,-35.9096848],[148.449913,-35.9096572],[148.4499641,-35.9096123],[148.4500195,-35.909571],[148.4500706,-35.9095261],[148.4501216,-35.9094882],[148.450177,-35.9094537],[148.4502238,-35.9094192],[148.4502622,-35.9093916],[148.450309,-35.9093606],[148.4503516,-35.9093261],[148.4503899,-35.9092951],[148.4504282,-35.9092675],[148.4504836,-35.909233],[148.4505261,-35.909202],[148.4505645,-35.9091675],[148.4506241,-35.9091296],[148.4506666,-35.909102],[148.4507177,-35.9090675],[148.4507585,-35.9090293],[148.4508199,-35.9089985],[148.4508625,-35.9089744],[148.4509093,-35.9089468],[148.4509562,-35.9089192],[148.4510243,-35.9088778],[148.4510669,-35.9088537],[148.4511392,-35.9088295],[148.4512074,-35.9088157],[148.4512627,-35.9088088],[148.4513351,-35.9088019],[148.4513947,-35.9088019],[148.4514543,-35.9087985],[148.4515182,-35.9087985],[148.4515693,-35.9088157],[148.4516289,-35.9088364],[148.4516967,-35.9088738]]}},{"type":"Feature","id":1359237918,"properties":{"kind":"run","name":"Mystery Pass","subtype":"intermediate","pisteType":"downhill"},"geometry":{"type":"LineString","coordinates":[[148.449913,-35.9096572],[148.4500152,-35.9096503],[148.4502494,-35.9096744],[148.450292,-35.9096986],[148.450326,-35.9097296],[148.4503686,-35.9097606],[148.4504112,-35.9097951],[148.4504538,-35.9098262],[148.4505006,-35.9098434],[148.4505517,-35.9098468],[148.450607,-35.9098468],[148.4506752,-35.9098503],[148.4507433,-35.9098537],[148.4508071,-35.9098606],[148.4508795,-35.9098675],[148.4509391,-35.9098779],[148.451003,-35.9098951],[148.4510626,-35.9099124],[148.4511265,-35.9099296],[148.4512031,-35.90994],[148.4512585,-35.9099469],[148.4513096,-35.9099537],[148.4513862,-35.9099641],[148.4514458,-35.9099744],[148.4515054,-35.9099882],[148.4515608,-35.9099986],[148.4516161,-35.9100227],[148.4516672,-35.9100503],[148.4517098,-35.9100882],[148.4517438,-35.9101227],[148.4517822,-35.9101676],[148.4518162,-35.9102055],[148.4518503,-35.9102365],[148.4518929,-35.9102745],[148.4519354,-35.910302],[148.4519865,-35.9103365],[148.4520334,-35.9103641],[148.4520845,-35.9103848],[148.4521398,-35.9103952],[148.4521909,-35.9104021],[148.4522548,-35.9104055],[148.4523059,-35.910409],[148.452357,-35.9104124],[148.4524208,-35.9104227],[148.4524762,-35.9104365],[148.4525315,-35.9104503],[148.4525869,-35.910471],[148.4526465,-35.9105021],[148.4526933,-35.91054],[148.4527274,-35.9105779],[148.4527572,-35.9106366],[148.4527998,-35.9107055],[148.4528211,-35.9107538],[148.4528423,-35.9107986],[148.4528594,-35.91084],[148.4529194,-35.910879]]}},{"type":"Feature","id":1359237919,"properties":{"kind":"run","name":"Brumby's Rush","subtype":"intermediate","pisteType":"downhill"},"geometry":{"type":"LineString","coordinates":[[148.4480409,-35.9094799],[148.4478906,-35.9095158],[148.4476862,-35.9095365],[148.4476309,-35.9095572],[148.4475798,-35.9095744],[148.4475287,-35.909602],[148.4474946,-35.9096399],[148.4474648,-35.9096744],[148.447435,-35.9097124],[148.447418,-35.9097606],[148.447401,-35.9098055],[148.447401,-35.9098675],[148.4474052,-35.9099227],[148.4474222,-35.9099779],[148.4474478,-35.9100158],[148.4474818,-35.9100469],[148.4475457,-35.9100848],[148.4476053,-35.9101124],[148.4476692,-35.9101331],[148.4477501,-35.9101607],[148.4478267,-35.9101779],[148.4479161,-35.910202],[148.4479672,-35.9102158],[148.4480396,-35.9102331],[148.4480992,-35.9102469],[148.4481546,-35.9102572],[148.4482099,-35.910271],[148.448278,-35.9102848],[148.4483291,-35.9102917],[148.4483845,-35.9102986],[148.4484356,-35.910302],[148.4485378,-35.9103331],[148.4486059,-35.9103641],[148.4486612,-35.9103917],[148.4487038,-35.9104158],[148.4487592,-35.9104434],[148.448806,-35.9104641],[148.4488528,-35.9104814],[148.4489082,-35.9105055],[148.4489721,-35.9105193],[148.4490274,-35.9105262],[148.4490785,-35.9105331],[148.4491339,-35.9105365],[148.4491849,-35.9105434],[148.4492403,-35.9105503],[148.4493042,-35.9105572],[148.4493723,-35.9105607],[148.4494632,-35.9105666]]}},{"type":"Feature","id":1359237920,"properties":{"kind":"run","name":"Brumby's Rush","subtype":"intermediate","pisteType":"downhill"},"geometry":{"type":"LineString","coordinates":[[148.4484356,-35.910302],[148.4485063,-35.9102949],[148.4485378,-35.9102917],[148.4485889,-35.9102814],[148.4486527,-35.9102607],[148.4487081,-35.9102434],[148.4487677,-35.9102331],[148.4488273,-35.9102262],[148.4488784,-35.9102193],[148.448938,-35.9102055],[148.4489891,-35.9101986],[148.4491033,-35.9101835]]}},{"type":"Feature","id":1359237921,"properties":{"kind":"run","name":"Forget Me Not","subtype":"easy","pisteType":"downhill"},"geometry":{"type":"LineString","coordinates":[[148.4521416,-35.9108225],[148.4521088,-35.9108762],[148.4520229,-35.9110326],[148.4520122,-35.9110935],[148.4520122,-35.911163],[148.4520176,-35.9112238],[148.4520336,-35.9112977],[148.4520605,-35.9113628],[148.4520819,-35.9114237],[148.4521088,-35.9114888],[148.4521302,-35.911541],[148.452157,-35.9115888],[148.4521839,-35.9116452],[148.4522214,-35.911693],[148.452275,-35.9117278],[148.4523555,-35.9117582],[148.4524413,-35.9117669],[148.4525111,-35.9117669],[148.4525897,-35.9117645]]}},{"type":"Feature","id":1359237922,"properties":{"kind":"run","name":"Matilda's Maze","subtype":"intermediate","pisteType":"downhill"},"geometry":{"type":"LineString","coordinates":[[148.4502211,-35.9102794],[148.4502397,-35.9103326],[148.4502524,-35.9104257],[148.4502311,-35.9104706],[148.4502141,-35.9105223],[148.4501971,-35.9105809],[148.4501928,-35.9106257],[148.4501886,-35.910674],[148.4501886,-35.9107257],[148.4501971,-35.9107809],[148.4502311,-35.9108361],[148.4502737,-35.9108706],[148.4503291,-35.9109051],[148.4503929,-35.9109361],[148.4504398,-35.9109671],[148.4504909,-35.9109947],[148.4505505,-35.9110223],[148.4505973,-35.9110396],[148.4506441,-35.9110602],[148.4506867,-35.9111051],[148.4507165,-35.9111637],[148.4507293,-35.9112051],[148.4507336,-35.9112499],[148.4507378,-35.9112947],[148.4507463,-35.9113568],[148.4507463,-35.9114154],[148.4507506,-35.9114603],[148.4507591,-35.9115051],[148.4507719,-35.9115465],[148.4507889,-35.9115879],[148.4508017,-35.9116292],[148.4508187,-35.9117155],[148.4507847,-35.9118465],[148.4507761,-35.9118879],[148.4507719,-35.9119362],[148.4508192,-35.912051]]}},{"type":"Feature","id":1359237923,"properties":{"kind":"run","name":"Mapped ski run","subtype":"intermediate","pisteType":"downhill"},"geometry":{"type":"LineString","coordinates":[[148.4506441,-35.9110602],[148.4507591,-35.9110533],[148.4509975,-35.911043],[148.4510699,-35.911043],[148.4511466,-35.911043],[148.4512189,-35.9110465],[148.4513126,-35.9110533],[148.4513722,-35.9110568],[148.4514403,-35.9110602],[148.4515085,-35.9110671],[148.4515808,-35.911074],[148.4516575,-35.9110775],[148.4517128,-35.9110844],[148.4517852,-35.9110947],[148.4518448,-35.9111016],[148.4518959,-35.9111085],[148.451947,-35.9111189],[148.4520122,-35.911163]]}},{"type":"Feature","id":1359237924,"properties":{"kind":"run","name":"Mapped ski run","subtype":"intermediate","pisteType":"downhill"},"geometry":{"type":"LineString","coordinates":[[148.450661,-35.9105053],[148.450708,-35.9105637],[148.4508017,-35.9106326],[148.4508357,-35.9106844],[148.450857,-35.9107292],[148.4508741,-35.910774],[148.4508868,-35.9108154],[148.4509166,-35.9108844],[148.4509422,-35.9109395],[148.4509805,-35.910974],[148.4510103,-35.911012],[148.4510699,-35.911043]]}},{"type":"Feature","id":1359237925,"properties":{"kind":"run","name":"Mapped ski run","subtype":"unknown","pisteType":"downhill"},"geometry":{"type":"LineString","coordinates":[[148.4516749,-35.9106357],[148.451683,-35.910712],[148.4517554,-35.9108775],[148.4517724,-35.9109189],[148.4517895,-35.9109637],[148.4518108,-35.9110223],[148.4518363,-35.9110602],[148.4518959,-35.9111085]]}},{"type":"Feature","id":1359237926,"properties":{"kind":"run","name":"Mapped ski run","subtype":"unknown","pisteType":"downhill"},"geometry":{"type":"LineString","coordinates":[[148.4480409,-35.9094799],[148.4481436,-35.9094217],[148.448267,-35.9093804],[148.4483054,-35.9093528],[148.4483522,-35.9093252],[148.4483948,-35.9092942],[148.4484544,-35.9092631],[148.448497,-35.9092355],[148.4485438,-35.9092114],[148.4486077,-35.9091872],[148.4486443,-35.90915],[148.4487075,-35.9091397],[148.4487656,-35.9091302],[148.4488248,-35.9091114],[148.4488802,-35.9090907],[148.4489398,-35.9090734],[148.4490249,-35.9090631],[148.4490845,-35.9090562],[148.4491399,-35.9090424],[148.449191,-35.9090321],[148.4492506,-35.9090148],[148.4493017,-35.909001],[148.4493655,-35.9089838],[148.4494209,-35.90897],[148.4494805,-35.9089596],[148.4495316,-35.9089458],[148.4495827,-35.9089355],[148.4496338,-35.9089217],[148.4496849,-35.9089183],[148.449736,-35.9089148],[148.4498083,-35.9089114],[148.449885,-35.9089079],[148.4499616,-35.9088976],[148.450034,-35.9088872],[148.4500936,-35.9088769],[148.4501575,-35.9088596],[148.4502128,-35.9088424],[148.4502682,-35.9088286],[148.4503193,-35.9088183],[148.4503704,-35.9088114],[148.4504257,-35.9088079],[148.4504811,-35.908801],[148.4505322,-35.9087976],[148.4505833,-35.9087941],[148.4506343,-35.9087907],[148.4506854,-35.9087838],[148.450745,-35.9087769],[148.4508004,-35.9087734],[148.4508792,-35.9087819],[148.4509366,-35.9087838],[148.4510048,-35.9087941],[148.4510729,-35.9088045],[148.4511392,-35.9088295]]}},{"type":"Feature","id":1359237927,"properties":{"kind":"run","name":"Mapped ski run","subtype":"intermediate","pisteType":"downhill"},"geometry":{"type":"LineString","coordinates":[[148.4553041,-35.9059568],[148.4553309,-35.9059269],[148.4553343,-35.9058612],[148.4553073,-35.9058366],[148.4552633,-35.9058256],[148.4552228,-35.9058229],[148.4551788,-35.9058283],[148.4551383,-35.905842],[148.4551045,-35.9058612],[148.4550673,-35.9058886],[148.4550335,-35.9059159],[148.4550031,-35.9059378],[148.4549626,-35.9059652],[148.4549288,-35.9059898],[148.454895,-35.9060145],[148.4548679,-35.9060391],[148.4548308,-35.9060665],[148.4547902,-35.9060993],[148.4547429,-35.9061322],[148.4546956,-35.9061623],[148.4546618,-35.9061842],[148.4546314,-35.9062088],[148.4545874,-35.9062389],[148.4545435,-35.906269],[148.4544996,-35.9062937],[148.4544421,-35.9063238],[148.4543982,-35.9063512],[148.4543407,-35.906384],[148.454307,-35.9064059],[148.4542563,-35.9064333],[148.4542022,-35.9064634],[148.454138,-35.9065017],[148.4540738,-35.9065373],[148.4539589,-35.9065948],[148.4538913,-35.9066276],[148.4538406,-35.9066522],[148.4537696,-35.9066824],[148.4537054,-35.9067097],[148.4536514,-35.9067344],[148.4535939,-35.9067563],[148.45355,-35.9067754],[148.4534959,-35.9068001],[148.4534452,-35.9068247],[148.4534013,-35.9068466],[148.4533641,-35.9068657],[148.4532999,-35.9068986],[148.4532425,-35.9069287],[148.4531816,-35.9069643],[148.4531276,-35.9069917],[148.4530633,-35.9070272],[148.4529856,-35.907071],[148.452918,-35.9071011],[148.4528775,-35.9071258],[148.4528302,-35.9071559],[148.4527862,-35.9071887],[148.4527457,-35.9072161],[148.4527051,-35.9072407],[148.4526375,-35.9072736],[148.4525564,-35.9073174],[148.4525125,-35.9073475],[148.4520124,-35.9076486],[148.4515088,-35.9079962],[148.4513162,-35.9081194],[148.4512081,-35.9081878],[148.4511777,-35.9082097],[148.4511439,-35.9082316],[148.4511067,-35.9082617],[148.4510797,-35.9082863],[148.4510492,-35.9083192],[148.45108,-35.9083774]]}}]}