{"type":"FeatureCollection","features":[{"type":"Feature","id":"building-248786996","properties":{"kind":"building","name":"Resort building","height":7.2},"geometry":{"type":"Polygon","coordinates":[[[148.4408643,-35.8913342],[148.4410066,-35.8913507],[148.4410175,-35.8912886],[148.4408752,-35.8912722],[148.4408643,-35.8913342]]]}},{"type":"Feature","id":"building-250081981","properties":{"kind":"building","name":"Resort building","height":7.2},"geometry":{"type":"Polygon","coordinates":[[[148.4493059,-35.9064607],[148.4492171,-35.9067227],[148.4490208,-35.9066791],[148.4490888,-35.9064785],[148.4489983,-35.9064584],[148.4490334,-35.9063547],[148.4491545,-35.9063816],[148.4491402,-35.9064238],[148.4493059,-35.9064607]]]}},{"type":"Feature","id":"pylon-selwyn-0","properties":{"kind":"pylon","name":"Lift tower","height":13},"geometry":{"type":"Polygon","coordinates":[[[148.45151419983125,-35.9081426],[148.45150705328615,-35.90812862555768],[148.4514898,-35.908122837154146],[148.45147254671383,-35.90812862555768],[148.45146540016873,-35.9081426],[148.45147254671383,-35.908156574442316],[148.4514898,-35.90816236284585],[148.45150705328615,-35.908156574442316],[148.45151419983125,-35.9081426]]]}},{"type":"Feature","id":"pylon-selwyn-1","properties":{"kind":"pylon","name":"Lift tower","height":13},"geometry":{"type":"Polygon","coordinates":[[[148.45215539971798,-35.9077752],[148.45214825320605,-35.907761225557685],[148.452131,-35.90775543715415],[148.45211374679397,-35.907761225557685],[148.45210660028204,-35.9077752],[148.45211374679397,-35.90778917444232],[148.452131,-35.907794962845855],[148.45214825320605,-35.90778917444232],[148.45215539971798,-35.9077752]]]}},{"type":"Feature","id":"pylon-selwyn-2","properties":{"kind":"pylon","name":"Lift tower","height":13},"geometry":{"type":"Polygon","coordinates":[[[148.4529242995821,-35.9073345],[148.45291715310995,-35.90732052555768],[148.4528999,-35.907314737154145],[148.45288264689006,-35.90732052555768],[148.45287550041792,-35.9073345],[148.45288264689006,-35.907348474442315],[148.4528999,-35.90735426284585],[148.45291715310995,-35.907348474442315],[148.4529242995821,-35.9073345]]]}},{"type":"Feature","id":"pylon-selwyn-3","properties":{"kind":"pylon","name":"Lift tower","height":13},"geometry":{"type":"Polygon","coordinates":[[[148.4535975994631,-35.9069487],[148.45359045302584,-35.90693472555768],[148.4535732,-35.90692893715415],[148.45355594697415,-35.90693472555768],[148.45354880053688,-35.9069487],[148.45355594697415,-35.90696267444232],[148.4535732,-35.90696846284585],[148.45359045302584,-35.90696267444232],[148.4535975994631,-35.9069487]]]}},{"type":"Feature","id":"pylon-selwyn-4","properties":{"kind":"pylon","name":"Lift tower","height":13},"geometry":{"type":"Polygon","coordinates":[[[148.45441339931898,-35.9064812],[148.4544062529239,-35.906467225557684],[148.454389,-35.90646143715415],[148.4543717470761,-35.906467225557684],[148.454364600681,-35.9064812],[148.4543717470761,-35.90649517444232],[148.454389,-35.906500962845854],[148.4544062529239,-35.90649517444232],[148.45441339931898,-35.9064812]]]}},{"type":"Feature","id":"pylon-selwyn-5","properties":{"kind":"pylon","name":"Lift tower","height":13},"geometry":{"type":"Polygon","coordinates":[[[148.45492239922902,-35.9061895],[148.4549152528603,-35.906175525557686],[148.454898,-35.90616973715415],[148.45488074713967,-35.906175525557686],[148.45487360077095,-35.9061895],[148.45488074713967,-35.90620347444232],[148.454898,-35.906209262845856],[148.4549152528603,-35.90620347444232],[148.45492239922902,-35.9061895]]]}},{"type":"Feature","id":"pylon-selwyn-6","properties":{"kind":"pylon","name":"Lift tower","height":13},"geometry":{"type":"Polygon","coordinates":[[[148.45045259957064,-35.9072974],[148.45044545310188,-35.90728342555768],[148.4504282,-35.907277637154145],[148.45041094689813,-35.90728342555768],[148.45040380042937,-35.9072974],[148.45041094689813,-35.907311374442315],[148.4504282,-35.90731716284585],[148.45044545310188,-35.907311374442315],[148.45045259957064,-35.9072974]]]}},{"type":"Feature","id":"pylon-selwyn-7","properties":{"kind":"pylon","name":"Lift tower","height":13},"geometry":{"type":"Polygon","coordinates":[[[148.4503672994322,-35.9068484],[148.45036015300397,-35.90683442555768],[148.4503429,-35.90682863715415],[148.45032564699605,-35.90683442555768],[148.45031850056782,-35.9068484],[148.45032564699605,-35.90686237444232],[148.4503429,-35.90686816284585],[148.45036015300397,-35.90686237444232],[148.4503672994322,-35.9068484]]]}},{"type":"Feature","id":"pylon-selwyn-8","properties":{"kind":"pylon","name":"Lift tower","height":13},"geometry":{"type":"Polygon","coordinates":[[[148.4502740992809,-35.9063577],[148.45026695289698,-35.90634372555768],[148.4502497,-35.90633793715415],[148.45023244710302,-35.90634372555768],[148.4502253007191,-35.9063577],[148.45023244710302,-35.90637167444232],[148.4502497,-35.90637746284585],[148.45026695289698,-35.90637167444232],[148.4502740992809,-35.9063577]]]}},{"type":"Feature","id":"marker-selwyn-summit zone \u00b7 1614 m","properties":{"kind":"marker","name":"Summit zone \u00b7 1614 m","height":26},"geometry":{"type":"Polygon","coordinates":[[[148.4436776276431,-35.8998],[148.4436628020825,-35.89976303901575],[148.44362398826095,-35.89974019587123],[148.44357601173905,-35.89974019587123],[148.4435371979175,-35.89976303901575],[148.4435223723569,-35.8998],[148.4435371979175,-35.899836960984246],[148.44357601173905,-35.899859804128766],[148.44362398826095,-35.899859804128766],[148.4436628020825,-35.899836960984246],[148.4436776276431,-35.8998]]]}},{"type":"Feature","id":"marker-selwyn-resort base \u00b7 1492 m","properties":{"kind":"marker","name":"Resort base \u00b7 1492 m","height":18},"geometry":{"type":"Polygon","coordinates":[[[148.44967763352847,-35.9058],[148.44966280684386,-35.90576303901575],[148.44962399007963,-35.90574019587123],[148.44957600992038,-35.90574019587123],[148.44953719315615,-35.90576303901575],[148.44952236647154,-35.9058],[148.44953719315615,-35.905836960984246],[148.44957600992038,-35.90585980412877],[148.44962399007963,-35.90585980412877],[148.44966280684386,-35.905836960984246],[148.44967763352847,-35.9058]]]}}]}