{"type":"FeatureCollection","features":[{"type":"Feature","id":"pylon-lyngen-alps-0","properties":{"kind":"pylon","name":"Lift tower","height":13},"geometry":{"type":"Polygon","coordinates":[[[20.198356937231438,69.5776671],[20.198340348570415,69.57768107444231],[20.1983003,69.57768686284585],[20.198260251429584,69.57768107444231],[20.19824366276856,69.5776671],[20.198260251429584,69.57765312555769],[20.1983003,69.57764733715415],[20.198340348570415,69.57765312555769],[20.198356937231438,69.5776671]]]}},{"type":"Feature","id":"pylon-lyngen-alps-1","properties":{"kind":"pylon","name":"Lift tower","height":13},"geometry":{"type":"Polygon","coordinates":[[[20.199003038149765,69.578013],[20.198986449219774,69.57802697444231],[20.1989464,69.57803276284585],[20.198906350780227,69.57802697444231],[20.198889761850236,69.578013],[20.198906350780227,69.57799902555769],[20.1989464,69.57799323715415],[20.198986449219774,69.57799902555769],[20.199003038149765,69.578013]]]}},{"type":"Feature","id":"pylon-lyngen-alps-2","properties":{"kind":"pylon","name":"Lift tower","height":13},"geometry":{"type":"Polygon","coordinates":[[[20.199972139600195,69.5785593],[20.19995555024538,69.5785732744423],[20.1999155,69.57857906284585],[20.199875449754618,69.5785732744423],[20.199858860399804,69.5785593],[20.199875449754618,69.57854532555768],[20.1999155,69.57853953715414],[20.19995555024538,69.57854532555768],[20.199972139600195,69.5785593]]]}},{"type":"Feature","id":"pylon-lyngen-alps-3","properties":{"kind":"pylon","name":"Lift tower","height":13},"geometry":{"type":"Polygon","coordinates":[[[20.203146244287094,69.5803244],[20.203129653559518,69.5803383744423],[20.2030896,69.58034416284585],[20.20304954644048,69.5803383744423],[20.203032955712903,69.5803244],[20.20304954644048,69.58031042555768],[20.2030896,69.58030463715414],[20.203129653559518,69.58031042555768],[20.203146244287094,69.5803244]]]}},{"type":"Feature","id":"pylon-lyngen-alps-4","properties":{"kind":"pylon","name":"Lift tower","height":13},"geometry":{"type":"Polygon","coordinates":[[[20.20269234360994,69.5800694],[20.202675753080698,69.58008337444231],[20.2026357,69.58008916284585],[20.2025956469193,69.58008337444231],[20.202579056390057,69.5800694],[20.2025956469193,69.58005542555769],[20.2026357,69.58004963715415],[20.202675753080698,69.58005542555769],[20.20269234360994,69.5800694]]]}},{"type":"Feature","id":"pylon-lyngen-alps-5","properties":{"kind":"pylon","name":"Lift tower","height":13},"geometry":{"type":"Polygon","coordinates":[[[20.20491054691277,69.5813131],[20.204893955416154,69.58132707444231],[20.2048539,69.58133286284585],[20.204813844583846,69.58132707444231],[20.20479725308723,69.5813131],[20.204813844583846,69.58129912555769],[20.2048539,69.58129333715415],[20.204893955416154,69.58129912555769],[20.20491054691277,69.5813131]]]}},{"type":"Feature","id":"pylon-lyngen-alps-6","properties":{"kind":"pylon","name":"Lift tower","height":13},"geometry":{"type":"Polygon","coordinates":[[[20.20373544516238,69.580654],[20.20371885417844,69.5806679744423],[20.2036788,69.58067376284585],[20.203638745821557,69.5806679744423],[20.203622154837618,69.580654],[20.203638745821557,69.58064002555768],[20.2036788,69.58063423715414],[20.20371885417844,69.58064002555768],[20.20373544516238,69.580654]]]}},{"type":"Feature","id":"pylon-lyngen-alps-7","properties":{"kind":"pylon","name":"Lift tower","height":13},"geometry":{"type":"Polygon","coordinates":[[[20.201723742200713,69.5795387],[20.201707152084225,69.57955267444231],[20.2016671,69.57955846284585],[20.20162704791578,69.57955267444231],[20.20161045779929,69.5795387],[20.20162704791578,69.57952472555769],[20.2016671,69.57951893715415],[20.201707152084225,69.57952472555769],[20.201723742200713,69.5795387]]]}},{"type":"Feature","id":"marker-lyngen-alps-summit","properties":{"kind":"marker","markerType":"summit","name":"Upper mountain · 1834 m","height":26},"geometry":{"type":"Polygon","coordinates":[[[20.046180009688097,69.554],[20.046145630896824,69.55403696098425],[20.046055626052773,69.55405980412877],[20.045944373947226,69.55405980412877],[20.045854369103175,69.55403696098425],[20.0458199903119,69.554],[20.045854369103175,69.55396303901576],[20.045944373947226,69.55394019587123],[20.046055626052773,69.55394019587123],[20.046145630896824,69.55396303901576],[20.046180009688097,69.554]]]}},{"type":"Feature","id":"marker-lyngen-alps-base","properties":{"kind":"marker","markerType":"base","name":"Base · 0 m","height":18},"geometry":{"type":"Polygon","coordinates":[[[20.050179975985937,69.55],[20.050145603631204,69.55003696098424],[20.050055615638236,69.55005980412876],[20.049944384361766,69.55005980412876],[20.049854396368797,69.55003696098424],[20.049820024014064,69.55],[20.049854396368797,69.54996303901575],[20.049944384361766,69.54994019587123],[20.050055615638236,69.54994019587123],[20.050145603631204,69.54996303901575],[20.050179975985937,69.55]]]}},{"type":"Feature","id":"marker-lyngen-alps-featured-run","properties":{"kind":"marker","markerType":"featured-run","name":"Powder · Lyngen Peninsula","height":20},"geometry":{"type":"Polygon","coordinates":[[[20.053179950718174,69.547],[20.053145583189153,69.54703696098424],[20.053055607830068,69.54705980412876],[20.052944392169934,69.54705980412876],[20.05285441681085,69.54703696098424],[20.052820049281827,69.547],[20.05285441681085,69.54696303901575],[20.052944392169934,69.54694019587123],[20.053055607830068,69.54694019587123],[20.053145583189153,69.54696303901575],[20.053179950718174,69.547]]]}}]}