{"type":"FeatureCollection","features":[{"type":"Feature","id":25948316,"properties":{"kind":"run","name":"Echo Flat Trail","subtype":"easy","pisteType":"nordic"},"geometry":{"type":"LineString","coordinates":[[145.8814139,-37.4899158],[145.88134,-37.489775],[145.881252,-37.489661],[145.881137,-37.489563],[145.880796,-37.489328],[145.88069,-37.489236],[145.880641,-37.489157],[145.880614,-37.488989],[145.880617,-37.488683],[145.880646,-37.488552],[145.880725,-37.488425],[145.880946,-37.488188],[145.881021,-37.48807],[145.881097,-37.487756],[145.881149,-37.48763],[145.881259,-37.487474],[145.881388,-37.48735],[145.882132,-37.486999],[145.882284,-37.486907],[145.882394,-37.486807],[145.8824258,-37.4867355]]}},{"type":"Feature","id":25948317,"properties":{"kind":"run","name":"Royston Road","subtype":"intermediate","pisteType":"nordic"},"geometry":{"type":"LineString","coordinates":[[145.876272,-37.487962],[145.876134,-37.488125],[145.875857,-37.488372],[145.875641,-37.488591],[145.875554,-37.488706],[145.875481,-37.488883],[145.875454,-37.489158],[145.875525,-37.48941],[145.875653,-37.489714],[145.875763,-37.48991],[145.876122,-37.490311],[145.876271,-37.490522],[145.87635,-37.490736],[145.876524,-37.491453],[145.8765925,-37.491945],[145.876643,-37.492122],[145.8767396,-37.4922635],[145.876927,-37.492541],[145.877364,-37.49324],[145.877421,-37.493338],[145.8774988,-37.4934877],[145.877533,-37.4936645],[145.877383,-37.494191],[145.877355,-37.494431],[145.8773873,-37.4948884]]}},{"type":"Feature","id":25948321,"properties":{"kind":"run","name":"Upper Muster Trail","subtype":"easy","pisteType":"nordic"},"geometry":{"type":"LineString","coordinates":[[145.8754395,-37.47625],[145.8759686,-37.4763497],[145.8762003,-37.4765544],[145.8764994,-37.476657],[145.8767038,-37.4770972],[145.8765919,-37.4774312],[145.8766638,-37.4777235],[145.8770597,-37.4779678],[145.8771675,-37.4781479],[145.8770391,-37.4784238],[145.8769841,-37.4786215],[145.877115,-37.4787043],[145.8772662,-37.4786432],[145.8774808,-37.4783365],[145.8776847,-37.4781023],[145.8778094,-37.4778712],[145.8779527,-37.4777438],[145.878059,-37.4776841],[145.8782493,-37.4777274],[145.8784312,-37.4780083],[145.8786644,-37.4782559],[145.878616,-37.4783926],[145.8781945,-37.4788066],[145.8781403,-37.4789478]]}},{"type":"Feature","id":25948327,"properties":{"kind":"run","name":"Panorama Trail","subtype":"intermediate","pisteType":"nordic"},"geometry":{"type":"LineString","coordinates":[[145.876349,-37.473731],[145.876548,-37.473632],[145.876802,-37.473543],[145.876863,-37.473491],[145.876953,-37.473368],[145.87698,-37.4733],[145.87704,-37.473035],[145.877023,-37.472812],[145.876882,-37.472377],[145.876744,-37.472026],[145.876727,-37.47192],[145.87674,-37.47185],[145.876779,-37.471777],[145.876932,-37.471646],[145.877056,-37.471585],[145.877235,-37.47153],[145.87739,-37.471511],[145.877569,-37.471522],[145.877684,-37.471557],[145.877908,-37.471679],[145.87809,-37.471746],[145.878235,-37.471764],[145.878377,-37.471749],[145.87852,-37.471666],[145.878826,-37.471415],[145.878975,-37.471356],[145.879165,-37.471349],[145.87946,-37.471411],[145.879591,-37.471462],[145.879849,-37.471588],[145.880102,-37.471738],[145.880203,-37.471807],[145.880403,-37.472011],[145.880511,-37.472087],[145.880656,-37.472137],[145.88083,-37.472151],[145.880911,-37.472124],[145.881025,-37.472026],[145.881105,-37.471917],[145.881254,-37.471617],[145.881332,-37.471499],[145.881544,-37.471304],[145.881638,-37.471112],[145.8816529,-37.4710115]]}},{"type":"Feature","id":60118651,"properties":{"kind":"run","name":"Snowgum Trail","subtype":"easy","pisteType":"nordic"},"geometry":{"type":"LineString","coordinates":[[145.8828466,-37.486772],[145.88294,-37.48654],[145.883021,-37.486466],[145.883105,-37.486425],[145.883424,-37.486315],[145.883529,-37.486265],[145.884146,-37.485817],[145.884283,-37.4857],[145.884378,-37.485578],[145.884444,-37.485465],[145.884522,-37.485215],[145.884563,-37.485154],[145.884655,-37.485093],[145.884738,-37.485075],[145.884893,-37.485095],[145.885222,-37.485208],[145.885363,-37.485295],[145.885509,-37.485415],[145.885588,-37.485444],[145.885676,-37.485452],[145.885815,-37.485422],[145.885922,-37.485358],[145.886442,-37.484855],[145.886486,-37.484795],[145.886492,-37.484742],[145.886421,-37.4847],[145.886211,-37.484742],[145.886142,-37.484737],[145.886088,-37.484714],[145.885917,-37.484589],[145.885843,-37.484497],[145.885773,-37.48426],[145.885751,-37.484102],[145.885797,-37.483985],[145.885917,-37.483835],[145.885946,-37.483769],[145.885953,-37.4836],[145.885931,-37.48347]]}},{"type":"Feature","id":66233603,"properties":{"kind":"run","name":"Woolybutt Trail","subtype":"intermediate","pisteType":"nordic"},"geometry":{"type":"LineString","coordinates":[[145.889003,-37.481022],[145.889091,-37.480956],[145.889197,-37.480798],[145.889229,-37.480678],[145.889209,-37.480622],[145.889128,-37.480552],[145.888855,-37.480424],[145.888722,-37.480385],[145.888325,-37.480438],[145.888126,-37.480439],[145.888065,-37.480421],[145.887992,-37.480369],[145.887951,-37.480306],[145.887883,-37.48007],[145.887807,-37.479932],[145.887712,-37.479844],[145.887415,-37.479622],[145.887262,-37.479531],[145.887043,-37.479462],[145.886775,-37.479439],[145.886493,-37.479443],[145.885896,-37.479566],[145.885468,-37.479593],[145.88536,-37.479616],[145.885281,-37.479649],[145.885177,-37.479729],[145.8850437,-37.479872],[145.885019,-37.479915],[145.884914,-37.48012],[145.884814,-37.480209],[145.884608,-37.480253],[145.884396,-37.480247],[145.884263,-37.480285],[145.884158,-37.480365],[145.884023,-37.480506],[145.883892,-37.480574],[145.883763,-37.480603],[145.883673,-37.480605],[145.883565,-37.480587],[145.883498,-37.480558],[145.883309,-37.480394]]}},{"type":"Feature","id":74315965,"properties":{"kind":"run","name":"Lower Muster Trail","subtype":"easy","pisteType":"nordic"},"geometry":{"type":"LineString","coordinates":[[145.8781403,-37.4789478],[145.878165,-37.479097],[145.87816,-37.479197],[145.878114,-37.479353],[145.877993,-37.479639],[145.877727,-37.480143],[145.877524,-37.480664],[145.877438,-37.48096],[145.877365,-37.481304],[145.877409,-37.481605],[145.877406,-37.481692],[145.877357,-37.481799],[145.877078,-37.482101],[145.877037,-37.482211],[145.87703,-37.482613],[145.87697,-37.482757],[145.876766,-37.483037],[145.876691,-37.483176],[145.876577,-37.48356],[145.876557,-37.48371],[145.876616,-37.483862],[145.876754,-37.484047],[145.876899,-37.484196],[145.877031,-37.484293],[145.877521,-37.48461],[145.877671,-37.484669],[145.878046,-37.484687],[145.878265,-37.484776],[145.878346,-37.484837],[145.878443,-37.484947],[145.878478,-37.485021],[145.878491,-37.4851],[145.878468,-37.485241],[145.878234,-37.485855],[145.878228,-37.485934],[145.878305,-37.48623],[145.878303,-37.486336],[145.878258,-37.486473],[145.878108,-37.486792]]}},{"type":"Feature","id":74328610,"properties":{"kind":"run","name":"Boundary Hut Trail","subtype":"advanced","pisteType":"nordic"},"geometry":{"type":"LineString","coordinates":[[145.8713121,-37.4619014],[145.8713463,-37.461947],[145.8713549,-37.4621122],[145.8713549,-37.4623116],[145.8713976,-37.4624939],[145.8714004,-37.4627104],[145.8714432,-37.4628044],[145.87156,-37.4629383],[145.8716198,-37.4630893],[145.8716511,-37.4632117],[145.8717366,-37.4633228],[145.8718847,-37.463451],[145.8719901,-37.4636162],[145.8720442,-37.4637843],[145.872104,-37.4639239],[145.8722236,-37.4640492],[145.872406,-37.4641233],[145.8726053,-37.4642201],[145.8727193,-37.4643483],[145.8727962,-37.4645277],[145.8727706,-37.4646189],[145.8727421,-37.4648468],[145.8726652,-37.4650291],[145.8725028,-37.4651943],[145.8723632,-37.4652541],[145.8720613,-37.4652797],[145.8717707,-37.465294],[145.8714603,-37.4653566],[145.8711868,-37.4653908],[145.8709475,-37.4654962],[145.8708507,-37.4656443],[145.870809,-37.465747]]}},{"type":"Feature","id":76698260,"properties":{"kind":"run","name":"Jubilee Trail","subtype":"advanced","pisteType":"nordic"},"geometry":{"type":"LineString","coordinates":[[145.891367,-37.481829],[145.891682,-37.48211],[145.891823,-37.482197],[145.891964,-37.482251],[145.892127,-37.482274],[145.892595,-37.48227],[145.892681,-37.482244],[145.892743,-37.482187],[145.892901,-37.481963],[145.893047,-37.481884],[145.893203,-37.481838],[145.893335,-37.481838],[145.893401,-37.481862],[145.893445,-37.481898],[145.893488,-37.481969],[145.893557,-37.482289],[145.893533,-37.482387],[145.893462,-37.482466],[145.893348,-37.482553],[145.893084,-37.482719],[145.892805,-37.482865],[145.892752,-37.482926],[145.892745,-37.48303],[145.892891,-37.483328],[145.892964,-37.483425],[145.893254,-37.48362],[145.893501,-37.483739],[145.893638,-37.483879],[145.893735,-37.483946],[145.89386,-37.483976],[145.893965,-37.483951],[145.894022,-37.483887],[145.894123,-37.483699],[145.894231,-37.483587],[145.894392,-37.483342],[145.894497,-37.483262],[145.894652,-37.483222],[145.894746,-37.483229],[145.894901,-37.483282],[145.895134,-37.483332],[145.895207,-37.483363],[145.895277,-37.48343],[145.895628,-37.483865],[145.89572,-37.484007],[145.895723,-37.484245],[145.895703,-37.48432],[145.895659,-37.484379],[145.895518,-37.484481],[145.895426,-37.48459],[145.895149,-37.485894],[145.895114,-37.485946],[145.894939,-37.486082],[145.894897,-37.48614],[145.894884,-37.486253],[145.894933,-37.486396],[145.895141,-37.486693],[145.89527,-37.486805],[145.895769,-37.487156],[145.89586,-37.48719],[145.89627,-37.487203],[145.896465,-37.487237],[145.896577,-37.487274],[145.896693,-37.487343],[145.896753,-37.487396],[145.896792,-37.487472],[145.896788,-37.487513],[145.896688,-37.4877],[145.896681,-37.487768],[145.896704,-37.487843],[145.896825,-37.4879788]]}},{"type":"Feature","id":86793591,"properties":{"kind":"run","name":"Nordic trail","subtype":"easy","pisteType":"nordic"},"geometry":{"type":"LineString","coordinates":[[145.8824258,-37.4867355],[145.8828466,-37.486772]]}},{"type":"Feature","id":86801689,"properties":{"kind":"run","name":"Panorama Trail","subtype":"intermediate","pisteType":"nordic"},"geometry":{"type":"LineString","coordinates":[[145.8754395,-37.47625],[145.875369,-37.476089],[145.875336,-37.475912],[145.875345,-37.475751],[145.875398,-37.475577],[145.875441,-37.475504],[145.875728,-37.475228],[145.875841,-37.475083],[145.8759,-37.474958],[145.876021,-37.474602]]}},{"type":"Feature","id":86804298,"properties":{"kind":"run","name":"Home Trail","subtype":"easy","pisteType":"nordic"},"geometry":{"type":"LineString","coordinates":[[145.8817935,-37.4936507],[145.8816374,-37.4936223],[145.8815118,-37.4936519],[145.8814802,-37.4937241],[145.8815326,-37.493847],[145.8816379,-37.4939329],[145.8817712,-37.4941755],[145.881988,-37.4943072],[145.8820034,-37.4943921],[145.881738,-37.4945151],[145.8815644,-37.4945057]]}},{"type":"Feature","id":86804864,"properties":{"kind":"run","name":"Taggerty Return Trail","subtype":"easy","pisteType":"nordic"},"geometry":{"type":"LineString","coordinates":[[145.8804332,-37.493537],[145.880442,-37.493641],[145.88039,-37.49372],[145.880304,-37.493788],[145.880213,-37.493818],[145.880123,-37.493823],[145.879962,-37.493786],[145.879759,-37.493712],[145.879652,-37.493708],[145.8793792,-37.493798]]}},{"type":"Feature","id":86805631,"properties":{"kind":"run","name":"Jubilee Link","subtype":"advanced","pisteType":"nordic"},"geometry":{"type":"LineString","coordinates":[[145.889003,-37.481022],[145.889075,-37.481312],[145.889147,-37.481431],[145.889207,-37.48148],[145.889338,-37.48151],[145.889595,-37.481512],[145.889779,-37.481492],[145.889895,-37.481448],[145.890089,-37.481339],[145.890209,-37.481315],[145.89037,-37.481323],[145.890887,-37.481508],[145.890994,-37.481572],[145.891245,-37.481764],[145.891367,-37.481829]]}},{"type":"Feature","id":125571004,"properties":{"kind":"run","name":"Jubilee Trail","subtype":"advanced","pisteType":"nordic"},"geometry":{"type":"LineString","coordinates":[[145.89141,-37.482944],[145.891305,-37.482987],[145.891118,-37.483017],[145.890743,-37.483135],[145.890602,-37.483207],[145.890516,-37.483288],[145.890308,-37.48355],[145.890214,-37.483622],[145.889881,-37.483772],[145.889768,-37.48387],[145.889723,-37.483939],[145.889685,-37.484222],[145.889622,-37.484381],[145.889534,-37.484464],[145.889368,-37.484513],[145.889235,-37.484522],[145.889045,-37.484481],[145.888688,-37.484248],[145.888546,-37.484178],[145.888326,-37.484111],[145.887854,-37.483885],[145.887771,-37.483881],[145.887721,-37.483895],[145.887452,-37.484038],[145.887228,-37.48423],[145.887064,-37.484345],[145.886921,-37.48438],[145.886867,-37.484374],[145.88672,-37.484313],[145.886644,-37.484231],[145.886595,-37.484123],[145.886512,-37.484021],[145.886338,-37.483854],[145.886269,-37.483752],[145.885999,-37.483558],[145.885931,-37.48347]]}},{"type":"Feature","id":175009841,"properties":{"kind":"run","name":"Long Heath Trail - Not Groomed","subtype":"advanced","pisteType":"nordic"},"geometry":{"type":"LineString","coordinates":[[145.8754395,-37.47625],[145.875344,-37.476302],[145.87518,-37.476338],[145.874779,-37.476322],[145.874582,-37.476289],[145.874497,-37.476256],[145.87443,-37.476192],[145.874337,-37.476],[145.874311,-37.475872],[145.874311,-37.475711],[145.874276,-37.47546],[145.874287,-37.475397],[145.874428,-37.475187],[145.874433,-37.474957],[145.874393,-37.474809],[145.874345,-37.474712],[145.874149,-37.47455],[145.874055,-37.474506],[145.873669,-37.474385],[145.873523,-37.474403],[145.873357,-37.47448],[145.87321,-37.474511],[145.8731121,-37.4744924],[145.87299,-37.474424],[145.8728251,-37.4743706],[145.872497,-37.474281],[145.872044,-37.474012],[145.871605,-37.473853],[145.87148,-37.473735],[145.8714,-37.473683],[145.871332,-37.473675],[145.871023,-37.473717],[145.870791,-37.473702],[145.870585,-37.473728],[145.870276,-37.47369],[145.87019,-37.473703],[145.870011,-37.473773],[145.86974,-37.473943],[145.869586,-37.474138],[145.869325,-37.474355],[145.869271,-37.474462],[145.869181,-37.47481],[145.869151,-37.475156],[145.869205,-37.475707],[145.869202,-37.475833],[145.869182,-37.475896],[145.869096,-37.475939],[145.868769,-37.475956],[145.868484,-37.475918],[145.868335,-37.475927],[145.868223,-37.475972],[145.868203,-37.476019],[145.86825,-37.476059],[145.868376,-37.476105],[145.868412,-37.476159],[145.868229,-37.476283],[145.86819,-37.476347],[145.868159,-37.476466],[145.868243,-37.476857],[145.868241,-37.476945],[145.868199,-37.477044],[145.868037,-37.477254],[145.868019,-37.477358],[145.868121,-37.477993],[145.868108,-37.4782011],[145.8681948,-37.4782263],[145.8682779,-37.4784319],[145.8682448,-37.4784906],[145.8681722,-37.4784897],[145.8680026,-37.478375],[145.8679489,-37.4782874],[145.8678654,-37.4782946],[145.8676948,-37.4784645],[145.8676621,-37.4785754],[145.86764,-37.478919],[145.867613,-37.479394],[145.867638,-37.479459],[145.867807,-37.479684],[145.867938,-37.479791],[145.868241,-37.479943],[145.868314,-37.479957],[145.868435,-37.47995],[145.868562,-37.479917],[145.868633,-37.479867],[145.868903,-37.479519],[145.869036,-37.479441],[145.869086,-37.47935],[145.869113,-37.479236],[145.869202,-37.479115],[145.86938,-37.478985],[145.869638,-37.478702],[145.869674,-37.478641],[145.869684,-37.478584],[145.869663,-37.478452],[145.869669,-37.478364],[145.869806,-37.47789],[145.869857,-37.477564],[145.869981,-37.477293],[145.869987,-37.477136],[145.870025,-37.47705],[145.870251,-37.476894],[145.870385,-37.47684],[145.870816,-37.476774],[145.870903,-37.476711],[145.871033,-37.476525],[145.871052,-37.476452],[145.871,-37.476359],[145.870674,-37.475988],[145.870612,-37.475835],[145.870559,-37.475468],[145.870649,-37.475081],[145.870805,-37.474834],[145.870918,-37.474754],[145.871165,-37.474652],[145.871363,-37.474603],[145.871447,-37.474601],[145.871668,-37.474682],[145.871915,-37.474725],[145.872103,-37.474802],[145.872244,-37.474904],[145.8722752,-37.4749347],[145.872482,-37.475158],[145.872723,-37.475315],[145.87277,-37.47539],[145.872812,-37.475841],[145.872866,-37.475925],[145.872962,-37.476011],[145.873067,-37.476061],[145.8732,-37.476099],[145.873289,-37.476152],[145.873426,-37.476252],[145.873541,-37.476371],[145.87371,-37.476482],[145.873784,-37.476505],[145.874111,-37.476508],[145.874266,-37.476527],[145.8744,-37.476592],[145.874435,-37.476623],[145.874462,-37.476708],[145.874411,-37.476874],[145.874405,-37.476955],[145.87443,-37.477019],[145.874564,-37.477192],[145.87477,-37.477295],[145.874829,-37.477345],[145.874903,-37.47752],[145.874893,-37.477586],[145.874845,-37.477642],[145.874654,-37.477738],[145.87442,-37.477808],[145.874315,-37.477894],[145.874167,-37.478272],[145.874099,-37.478539],[145.874139,-37.478921],[145.874121,-37.478988],[145.874024,-37.479065],[145.873931,-37.479098],[145.873836,-37.479155],[145.873805,-37.479233],[145.873837,-37.4794295],[145.8739267,-37.4795652],[145.8738481,-37.4796335],[145.8737978,-37.4796186],[145.8737078,-37.4795953],[145.8735798,-37.4795805],[145.8734534,-37.4795495],[145.8734112,-37.479449],[145.873284,-37.4792927],[145.873266,-37.4792114],[145.8730106,-37.4789761],[145.8729149,-37.4789551],[145.8728423,-37.4790208],[145.8728107,-37.4793194],[145.8727687,-37.4795906],[145.872838,-37.4796515],[145.872845,-37.4798271],[145.8727806,-37.4799087],[145.8728563,-37.4799573],[145.8728516,-37.4800905],[145.8727091,-37.4803706],[145.872637,-37.480596],[145.8727138,-37.4807097],[145.872871,-37.480665],[145.87297,-37.480624],[145.873249,-37.480371],[145.87342,-37.480255],[145.873567,-37.480078],[145.873641,-37.480012],[145.873712,-37.479968],[145.874027,-37.47984],[145.874169,-37.479766],[145.874277,-37.479755],[145.87438,-37.47979],[145.874528,-37.479891],[145.87497,-37.480096],[145.875248,-37.480157],[145.875573,-37.480293],[145.875766,-37.480347],[145.875849,-37.480396],[145.875909,-37.480465]]}},{"type":"Feature","id":270327943,"properties":{"kind":"run","name":"Lookout Rock - Not Groomed","subtype":"intermediate","pisteType":"nordic"},"geometry":{"type":"LineString","coordinates":[[145.876021,-37.474602],[145.876302,-37.474518],[145.876469,-37.474507],[145.876468,-37.474437],[145.876413,-37.474384]]}},{"type":"Feature","id":549477881,"properties":{"kind":"run","name":"Lower Muster Trail","subtype":"easy","pisteType":"nordic"},"geometry":{"type":"LineString","coordinates":[[145.88058,-37.491605],[145.8806427,-37.4917031]]}},{"type":"Feature","id":549477882,"properties":{"kind":"run","name":"Lower Muster Trail","subtype":"easy","pisteType":"nordic"},"geometry":{"type":"LineString","coordinates":[[145.8806427,-37.4917031],[145.8806858,-37.4919762]]}},{"type":"Feature","id":549477887,"properties":{"kind":"run","name":"Panorama Lookout - Not Groomed","subtype":"intermediate","pisteType":"nordic"},"geometry":{"type":"LineString","coordinates":[[145.8812496,-37.4705011],[145.8814003,-37.4704605],[145.8816015,-37.4705089],[145.881878,-37.4706122],[145.8819735,-37.4706993],[145.8818495,-37.4708816],[145.8816529,-37.4710115]]}},{"type":"Feature","id":1063450353,"properties":{"kind":"run","name":"Taggerty Return Trail","subtype":"easy","pisteType":"nordic"},"geometry":{"type":"LineString","coordinates":[[145.8817657,-37.4916477],[145.881527,-37.491677],[145.881212,-37.491698],[145.881009,-37.491746],[145.880917,-37.491797],[145.880747,-37.491939],[145.8806858,-37.4919762]]}},{"type":"Feature","id":1063450354,"properties":{"kind":"run","name":"Taggerty Return Trail","subtype":"easy","pisteType":"nordic"},"geometry":{"type":"LineString","coordinates":[[145.877781,-37.494435],[145.8778395,-37.4945849],[145.877902,-37.494715]]}},{"type":"Feature","id":1063450355,"properties":{"kind":"run","name":"Snowgum Trail","subtype":"easy","pisteType":"nordic"},"geometry":{"type":"LineString","coordinates":[[145.885931,-37.48347],[145.885842,-37.483287]]}},{"type":"Feature","id":1063450356,"properties":{"kind":"run","name":"Woolybutt Trail","subtype":"intermediate","pisteType":"nordic"},"geometry":{"type":"LineString","coordinates":[[145.8858287,-37.4831138],[145.885938,-37.482931],[145.886004,-37.482431],[145.88607,-37.482223],[145.886151,-37.482107],[145.886217,-37.48206],[145.886307,-37.482024],[145.886701,-37.481957],[145.886957,-37.48197],[145.887041,-37.481988],[145.887262,-37.482093],[145.887333,-37.48216],[145.887486,-37.482399],[145.887586,-37.482461],[145.887752,-37.482471],[145.887832,-37.482445],[145.887891,-37.482395],[145.887924,-37.482339],[145.887981,-37.482138],[145.887991,-37.482044],[145.887896,-37.481667],[145.887889,-37.48158],[145.887907,-37.481511],[145.887959,-37.481432],[145.888075,-37.481335],[145.888187,-37.481276],[145.888355,-37.481228],[145.888511,-37.481215],[145.888681,-37.48117],[145.889003,-37.481022]]}},{"type":"Feature","id":1063450357,"properties":{"kind":"run","name":"Lower Echo Flat","subtype":"easy","pisteType":"nordic"},"geometry":{"type":"LineString","coordinates":[[145.877781,-37.494435],[145.8780371,-37.4943305],[145.8782258,-37.4942814],[145.878386,-37.494237]]}},{"type":"Feature","id":1063450358,"properties":{"kind":"run","name":"Lower Echo Flat","subtype":"easy","pisteType":"nordic"},"geometry":{"type":"LineString","coordinates":[[145.8774711,-37.4953926],[145.8774238,-37.4952795],[145.8773993,-37.4951679],[145.877384,-37.4949703],[145.8773873,-37.4948884]]}},{"type":"Feature","id":1063450359,"properties":{"kind":"run","name":"Lower Echo Flat","subtype":"easy","pisteType":"nordic"},"geometry":{"type":"LineString","coordinates":[[145.8773873,-37.4948884],[145.8774093,-37.4947847],[145.877459,-37.494667],[145.877621,-37.494517],[145.87769,-37.494478],[145.8777113,-37.4944651],[145.8777476,-37.4944493],[145.877781,-37.494435]]}},{"type":"Feature","id":1063450360,"properties":{"kind":"run","name":"Lower Echo Flat","subtype":"easy","pisteType":"nordic"},"geometry":{"type":"LineString","coordinates":[[145.8809061,-37.4940396],[145.880988,-37.493996],[145.881117,-37.493887],[145.881154,-37.493814],[145.881173,-37.493681],[145.881141,-37.493541],[145.881011,-37.493173]]}},{"type":"Feature","id":1063450361,"properties":{"kind":"run","name":"Echo Flat Trail","subtype":"easy","pisteType":"nordic"},"geometry":{"type":"LineString","coordinates":[[145.885842,-37.483287],[145.885877,-37.483224],[145.885867,-37.483149],[145.8858287,-37.4831138]]}},{"type":"Feature","id":1063450362,"properties":{"kind":"run","name":"Echo Flat Trail","subtype":"easy","pisteType":"nordic"},"geometry":{"type":"LineString","coordinates":[[145.882941,-37.48171],[145.882812,-37.481739],[145.882742,-37.481781],[145.882684,-37.481865],[145.88266,-37.481962],[145.882643,-37.482266],[145.882543,-37.482577],[145.882503,-37.482807],[145.882447,-37.482952],[145.882276,-37.483264],[145.882177,-37.483379],[145.882067,-37.483414],[145.88167,-37.483412],[145.88108,-37.483344],[145.88089,-37.483359],[145.880642,-37.483349],[145.880473,-37.483307],[145.880337,-37.483213],[145.880159,-37.483051],[145.880062,-37.48293],[145.879915,-37.48264],[145.879866,-37.482485],[145.879866,-37.482396],[145.879923,-37.482271],[145.879997,-37.482181],[145.88014,-37.48195],[145.88047,-37.481713],[145.88057,-37.481476],[145.880642,-37.481387],[145.881039,-37.481137],[145.881096,-37.481064],[145.881111,-37.480968],[145.881094,-37.480898],[145.881049,-37.480817],[145.880932,-37.480665],[145.880891,-37.480573],[145.880876,-37.480459],[145.880905,-37.480263],[145.880882,-37.480134],[145.880692,-37.479879],[145.880579,-37.479516],[145.880406,-37.479072],[145.88007,-37.478515],[145.880022,-37.478349]]}},{"type":"Feature","id":1063450363,"properties":{"kind":"run","name":"Echo Flat Trail","subtype":"easy","pisteType":"nordic"},"geometry":{"type":"LineString","coordinates":[[145.8781403,-37.4789478],[145.877986,-37.479039],[145.87766,-37.479381],[145.877119,-37.479813],[145.87683,-37.480144],[145.876714,-37.480241],[145.876584,-37.480311],[145.876405,-37.480362],[145.875977,-37.480435],[145.875909,-37.480465]]}},{"type":"Feature","id":1063450364,"properties":{"kind":"run","name":"Echo Flat Trail","subtype":"easy","pisteType":"nordic"},"geometry":{"type":"LineString","coordinates":[[145.880022,-37.478349],[145.879672,-37.478371],[145.87951,-37.478401],[145.879407,-37.478454],[145.879354,-37.4785],[145.879207,-37.478669],[145.879073,-37.478746],[145.878966,-37.478771],[145.878593,-37.478791],[145.878428,-37.478818],[145.878282,-37.478864],[145.8781403,-37.4789478]]}},{"type":"Feature","id":1063450365,"properties":{"kind":"run","name":"Royston Road","subtype":"intermediate","pisteType":"nordic"},"geometry":{"type":"LineString","coordinates":[[145.875909,-37.480465],[145.875913,-37.480234],[145.875939,-37.480156],[145.876173,-37.479532],[145.876366,-37.479121],[145.876527,-37.478825],[145.876561,-37.478695],[145.876565,-37.478579],[145.876479,-37.478183],[145.876183,-37.477411],[145.876121,-37.477287],[145.875691,-37.476739],[145.875525,-37.476445],[145.8754395,-37.47625]]}},{"type":"Feature","id":1063450366,"properties":{"kind":"run","name":"Panorama Trail","subtype":"intermediate","pisteType":"nordic"},"geometry":{"type":"LineString","coordinates":[[145.876349,-37.473731],[145.876466,-37.473635],[145.87651,-37.473564],[145.876621,-37.473152],[145.876631,-37.473054],[145.876592,-37.472869],[145.876424,-37.472546],[145.876328,-37.472404],[145.876166,-37.47222],[145.875998,-37.471916],[145.875948,-37.471779],[145.875947,-37.471699],[145.876003,-37.471489],[145.876007,-37.4714],[145.875986,-37.471184],[145.8760084,-37.4710068],[145.8760377,-37.4709321]]}},{"type":"Feature","id":1063450367,"properties":{"kind":"run","name":"Boundary Hut Trail - Not Groomed","subtype":"advanced","pisteType":"nordic"},"geometry":{"type":"LineString","coordinates":[[145.870809,-37.465747],[145.8707168,-37.4656586],[145.8706114,-37.4655247],[145.8705032,-37.4653538],[145.870421,-37.4651803],[145.8702744,-37.4651125],[145.8702582,-37.4650519],[145.8701813,-37.4648753],[145.8701727,-37.4647072],[145.8702297,-37.4645733],[145.8703123,-37.4644622],[145.8703949,-37.4643682],[145.8705117,-37.4643283],[145.8706883,-37.464317],[145.870825,-37.4641888],[145.8709447,-37.4639552],[145.8710073,-37.4637216],[145.8711156,-37.4634738],[145.8710928,-37.4632516],[145.87107,-37.4631605],[145.8710843,-37.462944],[145.8710985,-37.4627446],[145.8710472,-37.4626477],[145.8710017,-37.4625623],[145.8709874,-37.4624113],[145.8710244,-37.4622347],[145.871107,-37.4620724],[145.8711925,-37.4619271],[145.8713121,-37.4619014]]}},{"type":"Feature","id":1063450368,"properties":{"kind":"run","name":"Boundary Hut Trail","subtype":"advanced","pisteType":"nordic"},"geometry":{"type":"LineString","coordinates":[[145.8760377,-37.4709321],[145.875755,-37.470693],[145.875629,-37.470545],[145.875505,-37.470443],[145.875236,-37.470305],[145.875181,-37.470238],[145.875135,-37.470137],[145.87509,-37.469938],[145.874959,-37.469726],[145.874674,-37.469501],[145.874389,-37.469181],[145.874238,-37.469062],[145.874026,-37.468848],[145.873664,-37.468598],[145.873564,-37.468565],[145.873325,-37.468522],[145.873154,-37.468457],[145.872892,-37.468304],[145.872802,-37.468269],[145.872455,-37.468213],[145.872301,-37.468163],[145.871901,-37.467983],[145.871642,-37.467806],[145.871595,-37.467736],[145.871544,-37.46759],[145.871521,-37.467307],[145.87138,-37.466998],[145.871328,-37.46691],[145.871111,-37.466672],[145.870776,-37.466201],[145.870741,-37.466054],[145.870809,-37.465747]]}},{"type":"Feature","id":1063454752,"properties":{"kind":"run","name":"Tube Run - Tubing Area","subtype":"easy","pisteType":"nordic"},"geometry":{"type":"LineString","coordinates":[[145.8772185,-37.4951606],[145.8765936,-37.4950776]]}},{"type":"Feature","id":1063454753,"properties":{"kind":"run","name":"Snow Play Area - Snow Play","subtype":"easy","pisteType":"nordic"},"geometry":{"type":"LineString","coordinates":[[145.8766177,-37.4952414],[145.8770791,-37.4952776]]}},{"type":"Feature","id":1063454756,"properties":{"kind":"run","name":"Village Toboggan Slope","subtype":"easy","pisteType":"nordic"},"geometry":{"type":"LineString","coordinates":[[145.8787594,-37.4950657],[145.8785784,-37.4955159]]}},{"type":"Feature","id":1063454757,"properties":{"kind":"run","name":"Koala Creek Toboggan Slope","subtype":"easy","pisteType":"nordic"},"geometry":{"type":"LineString","coordinates":[[145.879678,-37.495666],[145.8798777,-37.4961632]]}},{"type":"Feature","id":1063454758,"properties":{"kind":"run","name":"Leadbeater's - Toboggan Run","subtype":"easy","pisteType":"nordic"},"geometry":{"type":"LineString","coordinates":[[145.8789633,-37.4978887],[145.8789928,-37.4982749]]}},{"type":"Feature","id":1063457880,"properties":{"kind":"run","name":"Jubilee Trail","subtype":"advanced","pisteType":"nordic"},"geometry":{"type":"LineString","coordinates":[[145.895802,-37.488215],[145.8960235,-37.4882674],[145.8963346,-37.488344],[145.8965324,-37.4884449]]}},{"type":"Feature","id":1063457882,"properties":{"kind":"run","name":"Jubilee Trail","subtype":"advanced","pisteType":"nordic"},"geometry":{"type":"LineString","coordinates":[[145.896825,-37.4879788],[145.8965324,-37.4884449]]}},{"type":"Feature","id":1063457884,"properties":{"kind":"run","name":"Jubilee Trail","subtype":"advanced","pisteType":"nordic"},"geometry":{"type":"LineString","coordinates":[[145.898556,-37.490727],[145.8986011,-37.4908064],[145.8986896,-37.4908809],[145.8987755,-37.4909149],[145.8988854,-37.490932],[145.8990249,-37.4909383],[145.8991671,-37.4909277],[145.8992368,-37.4908894],[145.899281,-37.490821]]}},{"type":"Feature","id":1063458637,"properties":{"kind":"run","name":"Jubilee Trail","subtype":"advanced","pisteType":"nordic"},"geometry":{"type":"LineString","coordinates":[[145.896825,-37.4879788],[145.896952,-37.488065],[145.897157,-37.488143],[145.897259,-37.488169],[145.897349,-37.488173],[145.897551,-37.488164],[145.897819,-37.488109],[145.898009,-37.488099],[145.898144,-37.488127],[145.898228,-37.48818],[145.898313,-37.488289],[145.898324,-37.488495],[145.89839,-37.488744],[145.89847,-37.488868],[145.898609,-37.488994],[145.898671,-37.489103],[145.898776,-37.489519],[145.898855,-37.489637],[145.899104,-37.48989],[145.899133,-37.489947],[145.899221,-37.490265],[145.899227,-37.490452],[145.899283,-37.490697],[145.899281,-37.490821]]}},{"type":"Feature","id":1063458638,"properties":{"kind":"run","name":"Jubilee Trail","subtype":"advanced","pisteType":"nordic"},"geometry":{"type":"LineString","coordinates":[[145.8963778,-37.4886912],[145.896309,-37.488663],[145.896067,-37.48852],[145.895991,-37.488457],[145.895802,-37.488215]]}},{"type":"Feature","id":1063458639,"properties":{"kind":"run","name":"Jubilee Trail","subtype":"advanced","pisteType":"nordic"},"geometry":{"type":"LineString","coordinates":[[145.898556,-37.490727],[145.898474,-37.490426],[145.898337,-37.490187],[145.897986,-37.489853],[145.897936,-37.489757],[145.897898,-37.4896],[145.897896,-37.489507],[145.897945,-37.489336],[145.897958,-37.489221],[145.897941,-37.489107],[145.897902,-37.489047],[145.897848,-37.489003],[145.897557,-37.488842],[145.897372,-37.488814],[145.896859,-37.488812],[145.896716,-37.488795],[145.8966807,-37.4887872],[145.896514,-37.488747],[145.8963778,-37.4886912]]}},{"type":"Feature","id":1063458640,"properties":{"kind":"run","name":"Jubilee Trail","subtype":"advanced","pisteType":"nordic"},"geometry":{"type":"LineString","coordinates":[[145.8965324,-37.4884449],[145.8963778,-37.4886912]]}},{"type":"Feature","id":1063458641,"properties":{"kind":"run","name":"Jubilee Trail","subtype":"advanced","pisteType":"nordic"},"geometry":{"type":"LineString","coordinates":[[145.899281,-37.490821],[145.899228,-37.491109],[145.898765,-37.491503],[145.898689,-37.491554],[145.898447,-37.491658],[145.898154,-37.492005],[145.898075,-37.492129],[145.898042,-37.492416],[145.89799,-37.492563],[145.89799,-37.492631],[145.898027,-37.492815],[145.898157,-37.493232],[145.898171,-37.493373],[145.898076,-37.493665],[145.89799,-37.493776],[145.89786,-37.493867],[145.897762,-37.493878],[145.897575,-37.49382],[145.897501,-37.493782],[145.897402,-37.493697],[145.897337,-37.493613],[145.89729,-37.493514],[145.89725,-37.493304],[145.897202,-37.493207],[145.897058,-37.493039],[145.897015,-37.492942],[145.897022,-37.492758],[145.896972,-37.492595],[145.896933,-37.492532],[145.896855,-37.492474],[145.896597,-37.492396],[145.896447,-37.492308],[145.896375,-37.492221],[145.89635,-37.492112],[145.896352,-37.492001],[145.896376,-37.491895],[145.896413,-37.491854],[145.896532,-37.491758],[145.896812,-37.491464],[145.897136,-37.491196],[145.897208,-37.491157],[145.897413,-37.491123],[145.897565,-37.491139],[145.898092,-37.491268],[145.898176,-37.491256],[145.89827,-37.491211],[145.898436,-37.49109],[145.898532,-37.490974],[145.898553,-37.490905],[145.898556,-37.490727]]}},{"type":"Feature","id":1063458642,"properties":{"kind":"run","name":"Jubilee Trail","subtype":"advanced","pisteType":"nordic"},"geometry":{"type":"LineString","coordinates":[[145.895802,-37.488215],[145.895504,-37.48795],[145.895243,-37.487669],[145.89489,-37.487235],[145.894638,-37.487052],[145.894514,-37.486916],[145.89445,-37.486786],[145.894399,-37.486578],[145.894293,-37.486357],[145.894283,-37.486271],[145.89436,-37.486023],[145.894295,-37.485793],[145.89424,-37.485687],[145.89398,-37.485367],[145.893744,-37.485011],[145.89367,-37.484932],[145.893427,-37.484762],[145.893137,-37.484645],[145.892957,-37.48454],[145.892852,-37.484438],[145.8928084,-37.4843857],[145.892561,-37.484089],[145.892332,-37.483784],[145.892047,-37.483363],[145.891936,-37.483233],[145.891847,-37.483164],[145.891502,-37.483011],[145.89141,-37.482944]]}},{"type":"Feature","id":1063458786,"properties":{"kind":"run","name":"Panorama Trail","subtype":"intermediate","pisteType":"nordic"},"geometry":{"type":"LineString","coordinates":[[145.876021,-37.474602],[145.87605,-37.474425],[145.876011,-37.474077],[145.876018,-37.474024],[145.876059,-37.473942],[145.876122,-37.473879],[145.876349,-37.473731]]}},{"type":"Feature","id":1063458787,"properties":{"kind":"run","name":"Panorama Trail","subtype":"intermediate","pisteType":"nordic"},"geometry":{"type":"LineString","coordinates":[[145.8816529,-37.4710115],[145.881672,-37.470882],[145.881628,-37.470779],[145.881463,-37.470611],[145.8812496,-37.4705011]]}},{"type":"Feature","id":1063458788,"properties":{"kind":"run","name":"Panorama Trail","subtype":"intermediate","pisteType":"nordic"},"geometry":{"type":"LineString","coordinates":[[145.8812496,-37.4705011],[145.88114,-37.470463],[145.881063,-37.470456],[145.880739,-37.470477],[145.880222,-37.470393],[145.880046,-37.470418],[145.879812,-37.470506],[145.879627,-37.470544],[145.87918,-37.470597],[145.878408,-37.470763],[145.878062,-37.470791],[145.877559,-37.47074],[145.877201,-37.470732],[145.877097,-37.470714],[145.876918,-37.470583],[145.876797,-37.470523],[145.876677,-37.470514],[145.876591,-37.470534],[145.876376,-37.470634],[145.876241,-37.470728],[145.876089,-37.470882],[145.8760673,-37.4709025],[145.8760377,-37.4709321]]}},{"type":"Feature","id":1063458789,"properties":{"kind":"run","name":"Jubilee Trail","subtype":"advanced","pisteType":"nordic"},"geometry":{"type":"LineString","coordinates":[[145.891367,-37.481829],[145.891263,-37.481899],[145.891094,-37.482064],[145.891051,-37.48214],[145.891066,-37.482198],[145.891209,-37.482329],[145.891378,-37.482423],[145.891537,-37.48254],[145.891583,-37.482631],[145.891568,-37.482707],[145.891502,-37.48285],[145.89141,-37.482944]]}},{"type":"Feature","id":1063752956,"properties":{"kind":"run","name":"Mini Toboggan Slope","subtype":"easy","pisteType":"nordic"},"geometry":{"type":"LineString","coordinates":[[145.8784645,-37.4948637],[145.8781144,-37.4949562]]}},{"type":"Feature","id":1064754290,"properties":{"kind":"run","name":"Home Trail","subtype":"easy","pisteType":"nordic"},"geometry":{"type":"LineString","coordinates":[[145.880792,-37.4944137],[145.8806629,-37.4944182],[145.8804437,-37.494391],[145.8802193,-37.4943614],[145.8800748,-37.4943738]]}},{"type":"Feature","id":1064754291,"properties":{"kind":"run","name":"Lower Echo Flat","subtype":"easy","pisteType":"nordic"},"geometry":{"type":"LineString","coordinates":[[145.87861,-37.4942107],[145.879039,-37.494162],[145.879603,-37.4941567]]}},{"type":"Feature","id":1064754293,"properties":{"kind":"run","name":"Home Trail","subtype":"easy","pisteType":"nordic"},"geometry":{"type":"LineString","coordinates":[[145.8826373,-37.492933],[145.8825259,-37.4931005],[145.8824839,-37.4932884],[145.8822202,-37.4933908],[145.8821077,-37.4935407],[145.8817935,-37.4936507]]}},{"type":"Feature","id":1064754294,"properties":{"kind":"run","name":"Home Trail","subtype":"easy","pisteType":"nordic"},"geometry":{"type":"LineString","coordinates":[[145.8824001,-37.4905529],[145.8828876,-37.4906818],[145.8829432,-37.4909885],[145.8831757,-37.4911952],[145.8833049,-37.4914966],[145.8832471,-37.49164],[145.8830102,-37.4918942],[145.8830011,-37.49215],[145.8831259,-37.4923762],[145.8830962,-37.4925396],[145.8826824,-37.4928581],[145.8826373,-37.492933]]}},{"type":"Feature","id":1064754295,"properties":{"kind":"run","name":"Echo Flat Trail","subtype":"easy","pisteType":"nordic"},"geometry":{"type":"LineString","coordinates":[[145.8817363,-37.4917055],[145.8817657,-37.4916477]]}},{"type":"Feature","id":1064754296,"properties":{"kind":"run","name":"Lower Echo Flat","subtype":"easy","pisteType":"nordic"},"geometry":{"type":"LineString","coordinates":[[145.881011,-37.493173],[145.8810219,-37.4929963],[145.881002,-37.492824],[145.880944,-37.492543],[145.880941,-37.492383],[145.880973,-37.49229],[145.881028,-37.492213],[145.881207,-37.492052],[145.881607,-37.491806],[145.8817363,-37.4917055]]}},{"type":"Feature","id":1064754297,"properties":{"kind":"run","name":"Taggerty Return Trail","subtype":"easy","pisteType":"nordic"},"geometry":{"type":"LineString","coordinates":[[145.8806858,-37.4919762],[145.880382,-37.492161],[145.880286,-37.492271],[145.880171,-37.492504],[145.88013,-37.492762],[145.880137,-37.493001],[145.880173,-37.493121],[145.880332,-37.493293],[145.880426,-37.493425],[145.8804332,-37.493537]]}},{"type":"Feature","id":1065804625,"properties":{"kind":"run","name":"Nordic trail","subtype":"easy","pisteType":"nordic"},"geometry":{"type":"LineString","coordinates":[[145.880442,-37.493641],[145.8806008,-37.4936624],[145.8807296,-37.493739],[145.8808503,-37.4939007],[145.8809012,-37.4940071],[145.8809061,-37.4940396]]}},{"type":"Feature","id":1065985834,"properties":{"kind":"run","name":"Snowgum Trail","subtype":"easy","pisteType":"nordic"},"geometry":{"type":"LineString","coordinates":[[145.8817657,-37.4916477],[145.881949,-37.491494],[145.882028,-37.491366],[145.882221,-37.490862],[145.8824001,-37.4905529]]}},{"type":"Feature","id":1065985835,"properties":{"kind":"run","name":"Echo Flat Trail","subtype":"easy","pisteType":"nordic"},"geometry":{"type":"LineString","coordinates":[[145.8817657,-37.4916477],[145.881792,-37.491567],[145.881788,-37.491498],[145.881663,-37.491201],[145.881635,-37.491088],[145.88164,-37.490965],[145.88168,-37.490763],[145.881678,-37.490639],[145.881593,-37.490327],[145.8815,-37.49008],[145.8814139,-37.4899158]]}},{"type":"Feature","id":1065985836,"properties":{"kind":"run","name":"Snowgum Trail","subtype":"easy","pisteType":"nordic"},"geometry":{"type":"LineString","coordinates":[[145.8824001,-37.4905529],[145.882498,-37.490384],[145.882561,-37.490105],[145.882546,-37.490027],[145.882451,-37.489898],[145.8823898,-37.4898589]]}},{"type":"Feature","id":1065985837,"properties":{"kind":"run","name":"Snowgum Trail","subtype":"easy","pisteType":"nordic"},"geometry":{"type":"LineString","coordinates":[[145.8823898,-37.4898589],[145.8821238,-37.489689],[145.882066,-37.489652],[145.881998,-37.489575],[145.881976,-37.489507],[145.881981,-37.489302],[145.881961,-37.489225],[145.881774,-37.488962],[145.881725,-37.488855],[145.881723,-37.488776],[145.881741,-37.488717],[145.88187,-37.48847],[145.881967,-37.488338],[145.882082,-37.488207],[145.88228,-37.488044],[145.882463,-37.487777],[145.88251,-37.487688],[145.882536,-37.487396],[145.882588,-37.487298],[145.882735,-37.487119],[145.882798,-37.486956],[145.8828466,-37.486772]]}},{"type":"Feature","id":1065985838,"properties":{"kind":"run","name":"Echo Flat Trail","subtype":"easy","pisteType":"nordic"},"geometry":{"type":"LineString","coordinates":[[145.8824258,-37.4867355],[145.88241,-37.486647],[145.88231,-37.486527],[145.881957,-37.486191],[145.881901,-37.486038],[145.881913,-37.485887],[145.88198,-37.485736],[145.882339,-37.485302],[145.882848,-37.484978],[145.883892,-37.484647],[145.884033,-37.484559],[145.884298,-37.484339],[145.884376,-37.484262],[145.884557,-37.484027],[145.884626,-37.48397],[145.884702,-37.483933],[145.884951,-37.483877],[145.885051,-37.48384],[145.885154,-37.483758],[145.885345,-37.48356],[145.885781,-37.483337],[145.885842,-37.483287]]}},{"type":"Feature","id":1065985839,"properties":{"kind":"run","name":"Snowgum Link","subtype":"easy","pisteType":"nordic"},"geometry":{"type":"LineString","coordinates":[[145.8814139,-37.4899158],[145.8816308,-37.4899998],[145.8818614,-37.4900615],[145.8820868,-37.4900913],[145.8821806,-37.4900807],[145.8822235,-37.4900488],[145.8822826,-37.4899849],[145.8823898,-37.4898589]]}},{"type":"Feature","id":1066296782,"properties":{"kind":"run","name":"Home Trail","subtype":"easy","pisteType":"nordic"},"geometry":{"type":"LineString","coordinates":[[145.8815644,-37.4945057],[145.8812201,-37.4944805],[145.8810085,-37.494453],[145.880792,-37.4944137]]}},{"type":"Feature","id":1066296784,"properties":{"kind":"run","name":"Taggerty Return Trail","subtype":"easy","pisteType":"nordic"},"geometry":{"type":"LineString","coordinates":[[145.8793792,-37.493798],[145.8789,-37.493942],[145.878519,-37.493971],[145.878174,-37.494053],[145.878022,-37.494106],[145.877929,-37.494157],[145.877838,-37.494233],[145.877792,-37.494314],[145.877781,-37.494435]]}},{"type":"Feature","id":1066296785,"properties":{"kind":"run","name":"Home Trail","subtype":"easy","pisteType":"nordic"},"geometry":{"type":"LineString","coordinates":[[145.8795055,-37.4943661],[145.8793677,-37.4943723],[145.8791764,-37.4944298],[145.8789001,-37.4943993],[145.8787616,-37.4943813],[145.87861,-37.4942107]]}},{"type":"Feature","id":1066296786,"properties":{"kind":"run","name":"Nordic trail","subtype":"easy","pisteType":"nordic"},"geometry":{"type":"LineString","coordinates":[[145.8795055,-37.4943661],[145.8795786,-37.4942697],[145.8795925,-37.4942405],[145.879603,-37.4941567]]}},{"type":"Feature","id":1066296788,"properties":{"kind":"run","name":"Lower Echo Flat","subtype":"easy","pisteType":"nordic"},"geometry":{"type":"LineString","coordinates":[[145.880179,-37.494195],[145.880527,-37.494179],[145.880718,-37.494126],[145.8807995,-37.4940913]]}},{"type":"Feature","id":1066296789,"properties":{"kind":"run","name":"Nordic trail","subtype":"easy","pisteType":"nordic"},"geometry":{"type":"LineString","coordinates":[[145.8793792,-37.493798],[145.8795011,-37.4939752],[145.879603,-37.4941567]]}},{"type":"Feature","id":1067492155,"properties":{"kind":"run","name":"Nordic trail","subtype":"easy","pisteType":"nordic"},"geometry":{"type":"LineString","coordinates":[[145.880179,-37.494195],[145.8800748,-37.4943738]]}},{"type":"Feature","id":1067492156,"properties":{"kind":"run","name":"Woolybutt Trail","subtype":"intermediate","pisteType":"nordic"},"geometry":{"type":"LineString","coordinates":[[145.883309,-37.480394],[145.883231,-37.480295],[145.883168,-37.480245],[145.882818,-37.480006],[145.882764,-37.47995],[145.882702,-37.479845],[145.882662,-37.479742],[145.882519,-37.479089],[145.882474,-37.478978],[145.882274,-37.478698],[145.882197,-37.478559],[145.882079,-37.478251],[145.882065,-37.478082],[145.882137,-37.477693],[145.882074,-37.477555],[145.882002,-37.4775],[145.881934,-37.477471],[145.881626,-37.477418],[145.881537,-37.477418],[145.881362,-37.477475],[145.880845,-37.477794],[145.8805996,-37.47791],[145.880481,-37.477986],[145.88026,-37.478234],[145.880146,-37.478304],[145.880022,-37.478349]]}},{"type":"Feature","id":1067492157,"properties":{"kind":"run","name":"Woolybutt Link Trail","subtype":"intermediate","pisteType":"nordic"},"geometry":{"type":"LineString","coordinates":[[145.883309,-37.480394],[145.883278,-37.48066],[145.8833302,-37.4807732],[145.8832274,-37.4809169],[145.8829947,-37.4812317],[145.8828802,-37.4813922],[145.8828115,-37.4814754],[145.8827944,-37.4815057],[145.8828001,-37.4815375],[145.8828726,-37.4816223],[145.882941,-37.48171]]}},{"type":"Feature","id":1067494126,"properties":{"kind":"run","name":"Echo Flat Trail","subtype":"easy","pisteType":"nordic"},"geometry":{"type":"LineString","coordinates":[[145.8858287,-37.4831138],[145.88573,-37.483023],[145.885681,-37.482944],[145.885661,-37.482802],[145.885658,-37.482551],[145.885609,-37.482351],[145.885539,-37.482249],[145.885394,-37.482138],[145.885218,-37.482081],[145.88513,-37.482078],[145.885034,-37.482097],[145.884787,-37.482206],[145.884659,-37.482239],[145.884516,-37.48224],[145.884408,-37.482199],[145.884244,-37.48209],[145.884138,-37.482039],[145.883882,-37.481944],[145.883386,-37.481823],[145.883028,-37.481717],[145.882941,-37.48171]]}},{"type":"Feature","id":1067494127,"properties":{"kind":"run","name":"Lower Muster Trail","subtype":"easy","pisteType":"nordic"},"geometry":{"type":"LineString","coordinates":[[145.878108,-37.486792],[145.877986,-37.487219],[145.877793,-37.487553],[145.877767,-37.487629],[145.877765,-37.487745],[145.877796,-37.487885],[145.877924,-37.488112],[145.877928,-37.488209],[145.877757,-37.488595],[145.877697,-37.488804],[145.877674,-37.489034],[145.877686,-37.489094],[145.877725,-37.489153],[145.877777,-37.48918],[145.877864,-37.489192],[145.878188,-37.489148],[145.878522,-37.489073],[145.87861,-37.489069],[145.878741,-37.48909],[145.879561,-37.489507],[145.879628,-37.489578],[145.879721,-37.489721],[145.879758,-37.489812],[145.879821,-37.490146],[145.880076,-37.490672],[145.880147,-37.490763],[145.880474,-37.491057],[145.880568,-37.491197],[145.880602,-37.491336],[145.88058,-37.491605]]}},{"type":"Feature","id":1067494128,"properties":{"kind":"run","name":"Royston Road","subtype":"intermediate","pisteType":"nordic"},"geometry":{"type":"LineString","coordinates":[[145.875909,-37.480465],[145.875686,-37.480726],[145.875155,-37.481585],[145.87507,-37.481798],[145.875054,-37.481895],[145.875067,-37.482082],[145.875188,-37.482609],[145.87541,-37.483181],[145.875842,-37.484094],[145.87599,-37.484355],[145.876104,-37.48452],[145.876472,-37.484915],[145.876581,-37.485071],[145.876687,-37.485307],[145.876739,-37.485534],[145.876793,-37.486205],[145.876799,-37.486555],[145.876838,-37.486902],[145.876801,-37.48715],[145.876534,-37.487605],[145.876272,-37.487962]]}},{"type":"Feature","id":1067494129,"properties":{"kind":"run","name":"Home Trail","subtype":"easy","pisteType":"nordic"},"geometry":{"type":"LineString","coordinates":[[145.8800748,-37.4943738],[145.8800322,-37.4943774],[145.8798601,-37.4944049],[145.8796677,-37.4943484],[145.8795055,-37.4943661]]}},{"type":"Feature","id":1067494130,"properties":{"kind":"run","name":"Lower Echo Flat","subtype":"easy","pisteType":"nordic"},"geometry":{"type":"LineString","coordinates":[[145.879603,-37.4941567],[145.879752,-37.494167],[145.880179,-37.494195]]}},{"type":"Feature","id":1068699461,"properties":{"kind":"run","name":"Lower Echo Flat","subtype":"easy","pisteType":"nordic"},"geometry":{"type":"LineString","coordinates":[[145.8807995,-37.4940913],[145.880847,-37.494071],[145.8809061,-37.4940396]]}},{"type":"Feature","id":1068699462,"properties":{"kind":"run","name":"Lower Echo Flat","subtype":"easy","pisteType":"nordic"},"geometry":{"type":"LineString","coordinates":[[145.878386,-37.494237],[145.8784926,-37.4942231],[145.87861,-37.4942107]]}},{"type":"Feature","id":1068699463,"properties":{"kind":"run","name":"Nordic trail","subtype":"easy","pisteType":"nordic"},"geometry":{"type":"LineString","coordinates":[[145.878386,-37.494237],[145.8781577,-37.4943844],[145.8780471,-37.4944946],[145.8779611,-37.4946285],[145.877902,-37.494715]]}},{"type":"Feature","id":1068699464,"properties":{"kind":"run","name":"Nordic trail","subtype":"easy","pisteType":"nordic"},"geometry":{"type":"LineString","coordinates":[[145.8807995,-37.4940913],[145.8808009,-37.4942856],[145.880792,-37.4944137]]}},{"type":"Feature","id":1422763929,"properties":{"kind":"lift","name":"Magic Carpet","subtype":"magic_carpet","status":"active"},"geometry":{"type":"LineString","coordinates":[[145.8782409,-37.4950107],[145.8785366,-37.4949307]]}},{"type":"Feature","id":1422763930,"properties":{"kind":"lift","name":"Magic Carpet","subtype":"magic_carpet","status":"active"},"geometry":{"type":"LineString","coordinates":[[145.8784938,-37.4955454],[145.8785844,-37.4950118]]}}]}