{"type":"FeatureCollection","features":[{"type":"Feature","id":"building-195441436","properties":{"kind":"building","name":"Snowsports Office and Retail","height":7.2},"geometry":{"type":"Polygon","coordinates":[[[145.8774592,-37.49486],[145.8777263,-37.4948202],[145.8778419,-37.4953084],[145.8775748,-37.4953482],[145.8774592,-37.49486]]]}},{"type":"Feature","id":"building-195441438","properties":{"kind":"building","name":"Resort building","height":7.2},"geometry":{"type":"Polygon","coordinates":[[[145.8789966,-37.494454],[145.8790275,-37.4945143],[145.8791004,-37.4944908],[145.8790696,-37.4944305],[145.8789966,-37.494454]]]}},{"type":"Feature","id":"building-195441439","properties":{"kind":"building","name":"Resort building","height":7.2},"geometry":{"type":"Polygon","coordinates":[[[145.8785783,-37.4945874],[145.8784697,-37.4943684],[145.8786321,-37.4943177],[145.8787407,-37.4945366],[145.8785783,-37.4945874]]]}},{"type":"Feature","id":"building-195441440","properties":{"kind":"building","name":"Resort building","height":7.2},"geometry":{"type":"Polygon","coordinates":[[[145.8790678,-37.4945619],[145.8788881,-37.4946206],[145.8789079,-37.4946587],[145.8790876,-37.4946],[145.8790678,-37.4945619]]]}},{"type":"Feature","id":"building-195441443","properties":{"kind":"building","name":"Resort building","height":7.2},"geometry":{"type":"Polygon","coordinates":[[[145.8781998,-37.4950935],[145.8783898,-37.4951064],[145.8783433,-37.4955377],[145.8782845,-37.4955337],[145.878282,-37.4955573],[145.8781904,-37.4955511],[145.8781964,-37.4954955],[145.8781568,-37.4954928],[145.8781801,-37.4952762],[145.8781998,-37.4950935]]]}},{"type":"Feature","id":"building-195441444","properties":{"kind":"building","name":"Resort building","height":7.2},"geometry":{"type":"Polygon","coordinates":[[[145.8788325,-37.4945306],[145.8787891,-37.4944481],[145.8788969,-37.4944124],[145.8789404,-37.4944949],[145.8788325,-37.4945306]]]}},{"type":"Feature","id":"building-549477883","properties":{"kind":"building","name":"Resort building","height":7.2},"geometry":{"type":"Polygon","coordinates":[[[145.8808303,-37.4933693],[145.8808498,-37.4933836],[145.8808626,-37.493402],[145.8808674,-37.4934227],[145.8808636,-37.4934436],[145.8808517,-37.4934624],[145.8808329,-37.4934772],[145.8808092,-37.4934866],[145.8807829,-37.4934895],[145.8807568,-37.4934857],[145.8807336,-37.4934755],[145.8807157,-37.49346],[145.8807043,-37.4934391],[145.8807026,-37.4934164],[145.8807108,-37.4933946],[145.8807279,-37.4933763],[145.8807519,-37.4933638],[145.8807798,-37.4933585],[145.8808062,-37.4933606],[145.8808303,-37.4933693]]]}},{"type":"Feature","id":"building-549477884","properties":{"kind":"building","name":"Resort building","height":7.2},"geometry":{"type":"Polygon","coordinates":[[[145.8808814,-37.4932398],[145.880898,-37.4932546],[145.8809074,-37.4932729],[145.8809085,-37.4932927],[145.880901,-37.4933116],[145.8808859,-37.4933274],[145.8808649,-37.4933382],[145.8808406,-37.4933427],[145.8808158,-37.4933405],[145.8807934,-37.4933317],[145.8807761,-37.4933174],[145.8807666,-37.4933015],[145.8807637,-37.4932841],[145.8807674,-37.4932668],[145.8807776,-37.4932511],[145.8807932,-37.4932387],[145.8808129,-37.4932305],[145.8808347,-37.4932274],[145.8808594,-37.4932304],[145.8808814,-37.4932398]]]}},{"type":"Feature","id":"building-549477886","properties":{"kind":"building","name":"Resort building","height":7.2},"geometry":{"type":"Polygon","coordinates":[[[145.8806681,-37.4931701],[145.8806822,-37.4931828],[145.8806901,-37.4931985],[145.8806909,-37.4932155],[145.8806843,-37.4932316],[145.8806713,-37.4932451],[145.8806532,-37.4932542],[145.8806324,-37.493258],[145.8806112,-37.4932559],[145.8805921,-37.4932482],[145.8805774,-37.4932359],[145.8805694,-37.4932223],[145.880567,-37.4932074],[145.8805704,-37.4931926],[145.8805792,-37.4931793],[145.8805927,-37.4931687],[145.8806095,-37.4931618],[145.8806282,-37.4931593],[145.8806493,-37.4931619],[145.8806681,-37.4931701]]]}},{"type":"Feature","id":"building-1239823975","properties":{"kind":"building","name":"Resort building","height":7.2},"geometry":{"type":"Polygon","coordinates":[[[145.8805583,-37.5037975],[145.8806363,-37.5038285],[145.8806064,-37.5038614],[145.8806338,-37.5038726],[145.8805931,-37.5039306],[145.8804794,-37.5038891],[145.8805001,-37.5038647],[145.8805583,-37.5037975]]]}},{"type":"Feature","id":"marker-lake-mountain-summit zone \u00b7 1480 m","properties":{"kind":"marker","name":"Summit zone \u00b7 1480 m","height":26},"geometry":{"type":"Polygon","coordinates":[[[145.86937924982132,-37.4897],[145.86936411445225,-37.48966303901575],[145.86932448954158,-37.48964019587123],[145.86927551045844,-37.48964019587123],[145.86923588554777,-37.48966303901575],[145.8692207501787,-37.4897],[145.86923588554777,-37.489736960984246],[145.86927551045844,-37.48975980412877],[145.86932448954158,-37.48975980412877],[145.86936411445225,-37.489736960984246],[145.86937924982132,-37.4897]]]}},{"type":"Feature","id":"marker-lake-mountain-resort base \u00b7 1340 m","properties":{"kind":"marker","name":"Resort base \u00b7 1340 m","height":18},"geometry":{"type":"Polygon","coordinates":[[[145.87537925618795,-37.4957],[145.87536411960298,-37.49566303901575],[145.875324491509,-37.49564019587123],[145.87527550849103,-37.49564019587123],[145.87523588039704,-37.49566303901575],[145.87522074381206,-37.4957],[145.87523588039704,-37.495736960984246],[145.87527550849103,-37.49575980412877],[145.875324491509,-37.49575980412877],[145.87536411960298,-37.495736960984246],[145.87537925618795,-37.4957]]]}}]}