{"type":"FeatureCollection","features":[{"type":"Feature","id":"building-172816197","properties":{"kind":"building","name":"Alpine building","height":7.2},"geometry":{"type":"Polygon","coordinates":[[[-118.1457575,50.9539731],[-118.1457176,50.9539734],[-118.1457162,50.9538904],[-118.1457471,50.9538902],[-118.1457476,50.9539189],[-118.1457566,50.9539189],[-118.1457575,50.9539731]]]}},{"type":"Feature","id":"building-172813803","properties":{"kind":"building","name":"Revelation Lodge","height":7.2},"geometry":{"type":"Polygon","coordinates":[[[-118.1506958,50.9548087],[-118.1503429,50.9548229],[-118.150323,50.9546256],[-118.1503914,50.9546229],[-118.150377,50.9544812],[-118.1501261,50.9544913],[-118.150115,50.9543824],[-118.1503207,50.9543741],[-118.1503169,50.9543366],[-118.1503942,50.9543335],[-118.1504685,50.9543305],[-118.1504722,50.9543671],[-118.1506504,50.9543599],[-118.1506958,50.9548087]]]}},{"type":"Feature","id":"building-172813838","properties":{"kind":"building","name":"Mid-Mountain","height":7.2},"geometry":{"type":"Polygon","coordinates":[[[-118.1502345,50.9562655],[-118.1497513,50.9563325],[-118.1497125,50.9562214],[-118.1501957,50.9561544],[-118.1502345,50.9562655]]]}},{"type":"Feature","id":"building-172813828","properties":{"kind":"building","name":"Alpine building","height":7.2},"geometry":{"type":"Polygon","coordinates":[[[-118.1499902,50.9569019],[-118.1498805,50.9568676],[-118.1499101,50.9568301],[-118.1500197,50.9568643],[-118.1499902,50.9569019]]]}},{"type":"Feature","id":"building-172813807","properties":{"kind":"building","name":"Alpine building","height":7.2},"geometry":{"type":"Polygon","coordinates":[[[-118.150541,50.9618921],[-118.150458,50.961882],[-118.1504901,50.9617772],[-118.1504712,50.9617749],[-118.1504813,50.9617417],[-118.1504981,50.9617438],[-118.1505028,50.9617286],[-118.1505618,50.9617358],[-118.1505571,50.9617509],[-118.1505832,50.9617541],[-118.150541,50.9618921]]]}},{"type":"Feature","id":"building-172813841","properties":{"kind":"building","name":"Alpine building","height":7.2},"geometry":{"type":"Polygon","coordinates":[[[-118.150191,50.9622307],[-118.1500242,50.9622315],[-118.1500206,50.9619199],[-118.1501874,50.9619191],[-118.150191,50.9622307]]]}},{"type":"Feature","id":"building-172813839","properties":{"kind":"building","name":"Alpine building","height":7.2},"geometry":{"type":"Polygon","coordinates":[[[-118.1505227,50.9624202],[-118.1504003,50.9624208],[-118.1503995,50.962346],[-118.1505218,50.9623455],[-118.1505227,50.9624202]]]}},{"type":"Feature","id":"building-172813842","properties":{"kind":"building","name":"Alpine building","height":7.2},"geometry":{"type":"Polygon","coordinates":[[[-118.1503052,50.9627098],[-118.1502126,50.9627271],[-118.150178,50.9626536],[-118.1502706,50.9626363],[-118.1503052,50.9627098]]]}},{"type":"Feature","id":"building-172813826","properties":{"kind":"building","name":"Alpine building","height":7.2},"geometry":{"type":"Polygon","coordinates":[[[-118.1592633,50.9579452],[-118.1592957,50.9578439],[-118.1594187,50.9578595],[-118.1593864,50.9579608],[-118.1592633,50.9579452]]]}},{"type":"Feature","id":"building-172816187","properties":{"kind":"building","name":"Alpine building","height":7.2},"geometry":{"type":"Polygon","coordinates":[[[-118.1277435,50.9642429],[-118.1276795,50.9642393],[-118.1276859,50.9641936],[-118.1277499,50.9641972],[-118.1277435,50.9642429]]]}},{"type":"Feature","id":"building-172816189","properties":{"kind":"building","name":"Alpine building","height":7.2},"geometry":{"type":"Polygon","coordinates":[[[-118.1277704,50.9643397],[-118.1275277,50.9643263],[-118.1275359,50.9642671],[-118.1277787,50.9642805],[-118.1277704,50.9643397]]]}},{"type":"Feature","id":"building-172813829","properties":{"kind":"building","name":"Alpine building","height":7.2},"geometry":{"type":"Polygon","coordinates":[[[-118.1637908,50.9567619],[-118.1636665,50.9567851],[-118.1636306,50.9567086],[-118.1637549,50.9566855],[-118.1637908,50.9567619]]]}},{"type":"Feature","id":"building-1390488388","properties":{"kind":"building","name":"Alpine building","height":7.2},"geometry":{"type":"Polygon","coordinates":[[[-118.1611919,50.959749],[-118.1614431,50.9596417],[-118.1613687,50.9595726],[-118.1614189,50.9595512],[-118.1612857,50.9594275],[-118.1611324,50.959493],[-118.1611801,50.9595373],[-118.1611413,50.9595538],[-118.161225,50.9596315],[-118.1611156,50.9596782],[-118.1611919,50.959749]]]}},{"type":"Feature","id":"building-172813830","properties":{"kind":"building","name":"Alpine building","height":7.2},"geometry":{"type":"Polygon","coordinates":[[[-118.1651056,50.9544264],[-118.1651654,50.954302],[-118.1652906,50.9543258],[-118.1652308,50.9544503],[-118.1651056,50.9544264]]]}},{"type":"Feature","id":"building-1390488389","properties":{"kind":"building","name":"Alpine building","height":7.2},"geometry":{"type":"Polygon","coordinates":[[[-118.1616283,50.9598846],[-118.161324,50.9599986],[-118.1612628,50.9599338],[-118.1613713,50.9598931],[-118.1613407,50.9598607],[-118.1614008,50.9598382],[-118.1613391,50.9597729],[-118.1614485,50.9597319],[-118.1615378,50.9598265],[-118.1615591,50.9598114],[-118.1616283,50.9598846]]]}},{"type":"Feature","id":"building-172813818","properties":{"kind":"building","name":"Sutton Place Hotel Building 2","height":7.2},"geometry":{"type":"Polygon","coordinates":[[[-118.1638364,50.9578024],[-118.1638337,50.9579303],[-118.1638724,50.9579306],[-118.1638701,50.9580414],[-118.1638314,50.9580411],[-118.1638299,50.9581136],[-118.1635529,50.9581112],[-118.1635548,50.9580208],[-118.1635049,50.9580204],[-118.1635078,50.9578855],[-118.1635374,50.9578858],[-118.1630994,50.9575834],[-118.1631046,50.9573392],[-118.1634015,50.9573417],[-118.1633999,50.9574143],[-118.1634272,50.9574146],[-118.1634253,50.9575066],[-118.1634078,50.9575064],[-118.1638364,50.9578024]]]}},{"type":"Feature","id":"building-172813835","properties":{"kind":"building","name":"Alpine building","height":7.2},"geometry":{"type":"Polygon","coordinates":[[[-118.1645969,50.9566331],[-118.164506,50.9564395],[-118.164602,50.9564216],[-118.1646929,50.9566152],[-118.1645969,50.9566331]]]}},{"type":"Feature","id":"building-172813840","properties":{"kind":"building","name":"Alpine building","height":7.2},"geometry":{"type":"Polygon","coordinates":[[[-118.1609926,50.9606123],[-118.1608132,50.9603943],[-118.161063,50.9603127],[-118.1612424,50.9605307],[-118.1609926,50.9606123]]]}},{"type":"Feature","id":"building-172813843","properties":{"kind":"building","name":"Alpine building","height":7.2},"geometry":{"type":"Polygon","coordinates":[[[-118.1658735,50.9553672],[-118.165566,50.9554245],[-118.1655123,50.9553101],[-118.1655616,50.9553009],[-118.1655087,50.9551884],[-118.1657152,50.9551499],[-118.165768,50.9552624],[-118.1658198,50.9552528],[-118.1658735,50.9553672]]]}},{"type":"Feature","id":"building-172813819","properties":{"kind":"building","name":"Sutton Place Hotel Building 3","height":7.2},"geometry":{"type":"Polygon","coordinates":[[[-118.1642857,50.9573078],[-118.1642836,50.9574055],[-118.1642989,50.9574056],[-118.1642965,50.9575185],[-118.1642813,50.9575184],[-118.1642802,50.9575661],[-118.1644038,50.9576514],[-118.1644638,50.9576519],[-118.1644622,50.9577294],[-118.1644276,50.9577291],[-118.1644215,50.9580156],[-118.1641219,50.9580131],[-118.1641234,50.9579431],[-118.1641079,50.957943],[-118.1641125,50.9577283],[-118.1641011,50.9577204],[-118.1640846,50.9577299],[-118.1640186,50.9576843],[-118.164035,50.9576748],[-118.1639957,50.9576476],[-118.1639385,50.9576471],[-118.1639404,50.9575568],[-118.163989,50.9575572],[-118.163991,50.9574643],[-118.1639391,50.9574638],[-118.1639403,50.9574059],[-118.1639922,50.9574063],[-118.1639943,50.9573054],[-118.1642857,50.9573078]]]}},{"type":"Feature","id":"building-1390488386","properties":{"kind":"building","name":"Alpine building","height":7.2},"geometry":{"type":"Polygon","coordinates":[[[-118.1609296,50.9609579],[-118.1609451,50.961064],[-118.1611362,50.9610529],[-118.1611283,50.9609985],[-118.1612219,50.9609931],[-118.1612134,50.9609347],[-118.1612817,50.9609308],[-118.1612717,50.9608623],[-118.1611618,50.9608686],[-118.1611518,50.9608002],[-118.1610201,50.9608078],[-118.161041,50.9609515],[-118.1609296,50.9609579]]]}},{"type":"Feature","id":"building-1390488385","properties":{"kind":"building","name":"Alpine building","height":7.2},"geometry":{"type":"Polygon","coordinates":[[[-118.16214,50.9606691],[-118.1619611,50.9604823],[-118.1617265,50.9605715],[-118.161787,50.9606346],[-118.1618927,50.9605944],[-118.1620112,50.960718],[-118.16214,50.9606691]]]}},{"type":"Feature","id":"building-1390488387","properties":{"kind":"building","name":"Alpine building","height":7.2},"geometry":{"type":"Polygon","coordinates":[[[-118.1614242,50.9614098],[-118.1613426,50.9611974],[-118.1610549,50.9612413],[-118.1611026,50.9613655],[-118.1610271,50.961377],[-118.161061,50.9614652],[-118.1614242,50.9614098]]]}},{"type":"Feature","id":"building-172813799","properties":{"kind":"building","name":"The Sutton Place Hotel Building 1","height":7.2},"geometry":{"type":"Polygon","coordinates":[[[-118.1641842,50.9588673],[-118.1643412,50.9589756],[-118.1641275,50.9590985],[-118.1638956,50.9589384],[-118.163903,50.9585915],[-118.1640967,50.9584802],[-118.1641025,50.958207],[-118.16439,50.9582094],[-118.1643884,50.9582877],[-118.1644266,50.958288],[-118.1644247,50.9583776],[-118.1643864,50.9583773],[-118.1643861,50.9583926],[-118.1644072,50.9583928],[-118.1644056,50.9584679],[-118.1643845,50.9584677],[-118.1643827,50.9585532],[-118.1643209,50.9585887],[-118.1643394,50.9586015],[-118.1642556,50.9586496],[-118.1642371,50.9586369],[-118.1641885,50.9586647],[-118.1641871,50.9587313],[-118.1642467,50.9587318],[-118.1642452,50.9588019],[-118.1641856,50.9588014],[-118.1641842,50.9588673]]]}},{"type":"Feature","id":"building-172813824","properties":{"kind":"building","name":"Alpine building","height":7.2},"geometry":{"type":"Polygon","coordinates":[[[-118.1619368,50.9610057],[-118.1618152,50.9610214],[-118.1617863,50.9609326],[-118.1619079,50.9609169],[-118.1619368,50.9610057]]]}},{"type":"Feature","id":"building-172813844","properties":{"kind":"building","name":"Alpine building","height":7.2},"geometry":{"type":"Polygon","coordinates":[[[-118.1621869,50.9607876],[-118.1622125,50.9608664],[-118.1621134,50.9608792],[-118.1621305,50.9609318],[-118.1619971,50.960949],[-118.16198,50.9608965],[-118.1619298,50.9609029],[-118.1619041,50.9608242],[-118.1621869,50.9607876]]]}},{"type":"Feature","id":"building-859172456","properties":{"kind":"building","name":"Alpine building","height":7.2},"geometry":{"type":"Polygon","coordinates":[[[-118.1622667,50.9610883],[-118.1622999,50.9612362],[-118.1621606,50.9612486],[-118.1621834,50.9613501],[-118.1619761,50.9613685],[-118.1619591,50.9612926],[-118.1620796,50.9612819],[-118.1620698,50.9612384],[-118.1620118,50.9612435],[-118.1619946,50.9611663],[-118.1620451,50.9611618],[-118.1620332,50.961109],[-118.1622667,50.9610883]]]}},{"type":"Feature","id":"building-1390488390","properties":{"kind":"building","name":"Alpine building","height":7.2},"geometry":{"type":"Polygon","coordinates":[[[-118.1654386,50.9586711],[-118.1654536,50.9581063],[-118.1649043,50.9581005],[-118.1648892,50.9586653],[-118.1654386,50.9586711]]]}},{"type":"Feature","id":"building-570748305","properties":{"kind":"building","name":"Alpine building","height":7.2},"geometry":{"type":"Polygon","coordinates":[[[-118.1673665,50.9563282],[-118.1671973,50.9563343],[-118.1671786,50.9561274],[-118.1673478,50.9561213],[-118.1673665,50.9563282]]]}},{"type":"Feature","id":"building-570748306","properties":{"kind":"building","name":"Alpine building","height":7.2},"geometry":{"type":"Polygon","coordinates":[[[-118.1679166,50.9563161],[-118.1679063,50.9561704],[-118.1675565,50.9561802],[-118.1675667,50.9563259],[-118.1679166,50.9563161]]]}},{"type":"Feature","id":"building-172813809","properties":{"kind":"building","name":"Alpine building","height":7.2},"geometry":{"type":"Polygon","coordinates":[[[-118.1613365,50.9627196],[-118.1614208,50.9628205],[-118.1614685,50.9628205],[-118.1614685,50.9629036],[-118.1614267,50.9629036],[-118.1613177,50.9630403],[-118.161185,50.9629982],[-118.1612433,50.9629251],[-118.1612639,50.9629316],[-118.1612978,50.9628891],[-118.1611763,50.9628891],[-118.1611763,50.9628334],[-118.1612989,50.9628334],[-118.1612326,50.962754],[-118.1613365,50.9627196]]]}},{"type":"Feature","id":"building-570748307","properties":{"kind":"building","name":"Alpine building","height":7.2},"geometry":{"type":"Polygon","coordinates":[[[-118.1683397,50.9562854],[-118.1682592,50.9562854],[-118.1682592,50.9561587],[-118.1683397,50.9561587],[-118.1683397,50.9562854]]]}},{"type":"Feature","id":"building-570748308","properties":{"kind":"building","name":"Alpine building","height":7.2},"geometry":{"type":"Polygon","coordinates":[[[-118.1683361,50.9571336],[-118.1681358,50.9571341],[-118.1681344,50.9569301],[-118.1681326,50.9568764],[-118.1681306,50.9568403],[-118.1681428,50.9568096],[-118.1680918,50.9567299],[-118.1682119,50.9566995],[-118.1682485,50.9567276],[-118.1683172,50.9567077],[-118.1683815,50.9567957],[-118.1683338,50.9568096],[-118.1683361,50.9571336]]]}},{"type":"Feature","id":"building-172813815","properties":{"kind":"building","name":"Alpine building","height":7.2},"geometry":{"type":"Polygon","coordinates":[[[-118.1623949,50.9639497],[-118.1622078,50.9639445],[-118.1622124,50.9638796],[-118.1621736,50.9638785],[-118.162179,50.9638019],[-118.1622179,50.9638029],[-118.1622196,50.9637786],[-118.1620448,50.9637737],[-118.1620502,50.9636979],[-118.1624358,50.9637088],[-118.1624304,50.9637858],[-118.1623735,50.9637843],[-118.1623717,50.9638092],[-118.1624756,50.9638121],[-118.1624697,50.963896],[-118.1623784,50.9638934],[-118.1623777,50.9639023],[-118.1623982,50.9639028],[-118.1623949,50.9639497]]]}},{"type":"Feature","id":"pylon-revelstoke-mountain-resort-0","properties":{"kind":"pylon","name":"Lift tower","height":13},"geometry":{"type":"Polygon","coordinates":[[[-118.12684631492348,50.972799],[-118.12685550739957,50.97281297444232],[-118.1268777,50.972818762845854],[-118.12689989260042,50.97281297444232],[-118.1269090850765,50.972799],[-118.12689989260042,50.972785025557684],[-118.1268777,50.97277923715415],[-118.12685550739957,50.972785025557684],[-118.12684631492348,50.972799]]]}},{"type":"Feature","id":"pylon-revelstoke-mountain-resort-1","properties":{"kind":"pylon","name":"Lift tower","height":13},"geometry":{"type":"Polygon","coordinates":[[[-118.12213601547052,50.9719895],[-118.12214520778637,50.97200347444232],[-118.1221674,50.97200926284585],[-118.12218959221362,50.97200347444232],[-118.12219878452947,50.9719895],[-118.12218959221362,50.97197552555768],[-118.1221674,50.97196973715415],[-118.12214520778637,50.97197552555768],[-118.12213601547052,50.9719895]]]}},{"type":"Feature","id":"pylon-revelstoke-mountain-resort-2","properties":{"kind":"pylon","name":"Lift tower","height":13},"geometry":{"type":"Polygon","coordinates":[[[-118.12348041531443,50.9722205],[-118.123489607676,50.97223447444232],[-118.1235118,50.97224026284585],[-118.123533992324,50.97223447444232],[-118.12354318468557,50.9722205],[-118.123533992324,50.97220652555768],[-118.1235118,50.97220073715415],[-118.123489607676,50.97220652555768],[-118.12348041531443,50.9722205]]]}},{"type":"Feature","id":"pylon-revelstoke-mountain-resort-3","properties":{"kind":"pylon","name":"Lift tower","height":13},"geometry":{"type":"Polygon","coordinates":[[[-118.12582631504195,50.9726237],[-118.12583550748333,50.97263767444232],[-118.1258577,50.97264346284585],[-118.12587989251666,50.97263767444232],[-118.12588908495805,50.9726237],[-118.12587989251666,50.97260972555768],[-118.1258577,50.97260393715415],[-118.12583550748333,50.97260972555768],[-118.12582631504195,50.9726237]]]}},{"type":"Feature","id":"pylon-revelstoke-mountain-resort-4","properties":{"kind":"pylon","name":"Lift tower","height":13},"geometry":{"type":"Polygon","coordinates":[[[-118.12432281521657,50.9723653],[-118.12433200760681,50.97237927444232],[-118.1243542,50.97238506284585],[-118.12437639239319,50.97237927444232],[-118.12438558478343,50.9723653],[-118.12437639239319,50.97235132555768],[-118.1243542,50.97234553715415],[-118.12433200760681,50.97235132555768],[-118.12432281521657,50.9723653]]]}},{"type":"Feature","id":"pylon-revelstoke-mountain-resort-5","properties":{"kind":"pylon","name":"Lift tower","height":13},"geometry":{"type":"Polygon","coordinates":[[[-118.12684092068851,50.9642661],[-118.12685011147606,50.96428007444232],[-118.1268723,50.964285862845855],[-118.12689448852394,50.96428007444232],[-118.1269036793115,50.9642661],[-118.12689448852394,50.964252125557685],[-118.1268723,50.96424633715415],[-118.12685011147606,50.964252125557685],[-118.12684092068851,50.9642661]]]}},{"type":"Feature","id":"pylon-revelstoke-mountain-resort-6","properties":{"kind":"pylon","name":"Lift tower","height":13},"geometry":{"type":"Polygon","coordinates":[[[-118.1264221207037,50.9642436],[-118.1264313114868,50.96425757444232],[-118.1264535,50.964263362845855],[-118.1264756885132,50.96425757444232],[-118.1264848792963,50.9642436],[-118.1264756885132,50.964229625557685],[-118.1264535,50.96422383715415],[-118.1264313114868,50.964229625557685],[-118.1264221207037,50.9642436]]]}},{"type":"Feature","id":"pylon-revelstoke-mountain-resort-7","properties":{"kind":"pylon","name":"Lift tower","height":13},"geometry":{"type":"Polygon","coordinates":[[[-118.12498722075578,50.9641665],[-118.12499641152363,50.964180474442315],[-118.1250186,50.96418626284585],[-118.12504078847638,50.964180474442315],[-118.12504997924422,50.9641665],[-118.12504078847638,50.96415252555768],[-118.1250186,50.964146737154145],[-118.12499641152363,50.96415252555768],[-118.12498722075578,50.9641665]]]}},{"type":"Feature","id":"pylon-revelstoke-mountain-resort-8","properties":{"kind":"pylon","name":"Lift tower","height":13},"geometry":{"type":"Polygon","coordinates":[[[-118.12362672080509,50.9640935],[-118.1236359115585,50.964107474442315],[-118.1236581,50.96411326284585],[-118.1236802884415,50.964107474442315],[-118.12368947919491,50.9640935],[-118.1236802884415,50.96407952555768],[-118.1236581,50.964073737154145],[-118.1236359115585,50.96407952555768],[-118.12362672080509,50.9640935]]]}},{"type":"Feature","id":"pylon-revelstoke-mountain-resort-9","properties":{"kind":"pylon","name":"Lift tower","height":13},"geometry":{"type":"Polygon","coordinates":[[[-118.12180912087102,50.9639959],[-118.12181831160511,50.96400987444232],[-118.1218405,50.96401566284585],[-118.1218626883949,50.96400987444232],[-118.12187187912899,50.9639959],[-118.1218626883949,50.96398192555768],[-118.1218405,50.96397613715415],[-118.12181831160511,50.96398192555768],[-118.12180912087102,50.9639959]]]}},{"type":"Feature","id":"pylon-revelstoke-mountain-resort-10","properties":{"kind":"pylon","name":"Lift tower","height":13},"geometry":{"type":"Polygon","coordinates":[[[-118.12018092093005,50.9639085],[-118.12019011164685,50.96392247444232],[-118.1202123,50.963928262845855],[-118.12023448835316,50.96392247444232],[-118.12024367906996,50.9639085],[-118.12023448835316,50.963894525557684],[-118.1202123,50.96388873715415],[-118.12019011164685,50.963894525557684],[-118.12018092093005,50.9639085]]]}},{"type":"Feature","id":"pylon-revelstoke-mountain-resort-11","properties":{"kind":"pylon","name":"Lift tower","height":13},"geometry":{"type":"Polygon","coordinates":[[[-118.11896602097409,50.9638433],[-118.11897521167799,50.96385727444232],[-118.1189974,50.96386306284585],[-118.119019588322,50.96385727444232],[-118.11902877902591,50.9638433],[-118.119019588322,50.96382932555768],[-118.1189974,50.96382353715415],[-118.11897521167799,50.96382932555768],[-118.11896602097409,50.9638433]]]}},{"type":"Feature","id":"pylon-revelstoke-mountain-resort-12","properties":{"kind":"pylon","name":"Lift tower","height":13},"geometry":{"type":"Polygon","coordinates":[[[-118.11817742100273,50.9638009],[-118.11818661169825,50.96381487444232],[-118.1182088,50.963820662845855],[-118.11823098830176,50.96381487444232],[-118.11824017899728,50.9638009],[-118.11823098830176,50.963786925557685],[-118.1182088,50.96378113715415],[-118.11818661169825,50.963786925557685],[-118.11817742100273,50.9638009]]]}},{"type":"Feature","id":"pylon-revelstoke-mountain-resort-13","properties":{"kind":"pylon","name":"Lift tower","height":13},"geometry":{"type":"Polygon","coordinates":[[[-118.1160291210806,50.9636856],[-118.11603831175331,50.963699574442316],[-118.1160605,50.96370536284585],[-118.11608268824669,50.963699574442316],[-118.1160918789194,50.9636856],[-118.11608268824669,50.96367162555768],[-118.1160605,50.963665837154146],[-118.11603831175331,50.96367162555768],[-118.1160291210806,50.9636856]]]}},{"type":"Feature","id":"pylon-revelstoke-mountain-resort-14","properties":{"kind":"pylon","name":"Lift tower","height":13},"geometry":{"type":"Polygon","coordinates":[[[-118.11466702113003,50.9636124],[-118.11467621178826,50.96362637444232],[-118.1146984,50.963632162845855],[-118.11472058821172,50.96362637444232],[-118.11472977886996,50.9636124],[-118.11472058821172,50.963598425557684],[-118.1146984,50.96359263715415],[-118.11467621178826,50.963598425557684],[-118.11466702113003,50.9636124]]]}},{"type":"Feature","id":"pylon-revelstoke-mountain-resort-15","properties":{"kind":"pylon","name":"Lift tower","height":13},"geometry":{"type":"Polygon","coordinates":[[[-118.11402782115321,50.9635781],[-118.11403701180465,50.96359207444232],[-118.1140592,50.96359786284585],[-118.11408138819534,50.96359207444232],[-118.11409057884678,50.9635781],[-118.11408138819534,50.96356412555768],[-118.1140592,50.96355833715415],[-118.11403701180465,50.96356412555768],[-118.11402782115321,50.9635781]]]}},{"type":"Feature","id":"pylon-revelstoke-mountain-resort-16","properties":{"kind":"pylon","name":"Lift tower","height":13},"geometry":{"type":"Polygon","coordinates":[[[-118.11240012121225,50.9634907],[-118.11240931184639,50.96350467444232],[-118.1124315,50.96351046284585],[-118.11245368815361,50.96350467444232],[-118.11246287878775,50.9634907],[-118.11245368815361,50.96347672555768],[-118.1124315,50.96347093715415],[-118.11240931184639,50.96347672555768],[-118.11240012121225,50.9634907]]]}},{"type":"Feature","id":"pylon-revelstoke-mountain-resort-17","properties":{"kind":"pylon","name":"Lift tower","height":13},"geometry":{"type":"Polygon","coordinates":[[[-118.1118927212306,50.9634635],[-118.11190191185938,50.96347747444232],[-118.1119241,50.963483262845855],[-118.11194628814062,50.96347747444232],[-118.11195547876939,50.9634635],[-118.11194628814062,50.963449525557685],[-118.1119241,50.96344373715415],[-118.11190191185938,50.963449525557685],[-118.1118927212306,50.9634635]]]}},{"type":"Feature","id":"pylon-revelstoke-mountain-resort-18","properties":{"kind":"pylon","name":"Lift tower","height":13},"geometry":{"type":"Polygon","coordinates":[[[-118.11123022125466,50.9634279],[-118.11123941187638,50.96344187444232],[-118.1112616,50.96344766284585],[-118.11128378812363,50.96344187444232],[-118.11129297874535,50.9634279],[-118.11128378812363,50.96341392555768],[-118.1112616,50.96340813715415],[-118.11123941187638,50.96341392555768],[-118.11123022125466,50.9634279]]]}},{"type":"Feature","id":"pylon-revelstoke-mountain-resort-19","properties":{"kind":"pylon","name":"Lift tower","height":13},"geometry":{"type":"Polygon","coordinates":[[[-118.10923192132712,50.9633206],[-118.10924111192763,50.96333457444232],[-118.1092633,50.963340362845855],[-118.10928548807236,50.96333457444232],[-118.10929467867287,50.9633206],[-118.10928548807236,50.963306625557685],[-118.1092633,50.96330083715415],[-118.10924111192763,50.963306625557685],[-118.10923192132712,50.9633206]]]}},{"type":"Feature","id":"pylon-revelstoke-mountain-resort-20","properties":{"kind":"pylon","name":"Lift tower","height":13},"geometry":{"type":"Polygon","coordinates":[[[-118.10827182136191,50.9632691],[-118.10828101195222,50.963283074442316],[-118.1083032,50.96328886284585],[-118.10832538804777,50.963283074442316],[-118.10833457863808,50.9632691],[-118.10832538804777,50.96325512555768],[-118.1083032,50.963249337154146],[-118.10828101195222,50.96325512555768],[-118.10827182136191,50.9632691]]]}},{"type":"Feature","id":"pylon-revelstoke-mountain-resort-21","properties":{"kind":"pylon","name":"Lift tower","height":13},"geometry":{"type":"Polygon","coordinates":[[[-118.10654152142466,50.9631762],[-118.1065507119966,50.96319017444232],[-118.1065729,50.96319596284585],[-118.1065950880034,50.96319017444232],[-118.10660427857535,50.9631762],[-118.1065950880034,50.96316222555768],[-118.1065729,50.96315643715415],[-118.1065507119966,50.96316222555768],[-118.10654152142466,50.9631762]]]}},{"type":"Feature","id":"pylon-revelstoke-mountain-resort-22","properties":{"kind":"pylon","name":"Lift tower","height":13},"geometry":{"type":"Polygon","coordinates":[[[-118.10564092145735,50.9631278],[-118.1056501120197,50.96314177444232],[-118.1056723,50.963147562845855],[-118.10569448798029,50.96314177444232],[-118.10570367854264,50.9631278],[-118.10569448798029,50.963113825557684],[-118.1056723,50.96310803715415],[-118.1056501120197,50.963113825557684],[-118.10564092145735,50.9631278]]]}},{"type":"Feature","id":"pylon-revelstoke-mountain-resort-23","properties":{"kind":"pylon","name":"Lift tower","height":13},"geometry":{"type":"Polygon","coordinates":[[[-118.1026198215669,50.9629656],[-118.10262901209717,50.962979574442315],[-118.1026512,50.96298536284585],[-118.10267338790283,50.962979574442315],[-118.10268257843309,50.9629656],[-118.10267338790283,50.96295162555768],[-118.1026512,50.962945837154145],[-118.10262901209717,50.96295162555768],[-118.1026198215669,50.9629656]]]}},{"type":"Feature","id":"pylon-revelstoke-mountain-resort-24","properties":{"kind":"pylon","name":"Lift tower","height":13},"geometry":{"type":"Polygon","coordinates":[[[-118.10269092156433,50.9629694],[-118.10270011209535,50.96298337444232],[-118.1027223,50.96298916284585],[-118.10274448790464,50.96298337444232],[-118.10275367843566,50.9629694],[-118.10274448790464,50.96295542555768],[-118.1027223,50.962949637154146],[-118.10270011209535,50.96295542555768],[-118.10269092156433,50.9629694]]]}},{"type":"Feature","id":"pylon-revelstoke-mountain-resort-25","properties":{"kind":"pylon","name":"Lift tower","height":13},"geometry":{"type":"Polygon","coordinates":[[[-118.1029232215559,50.9629819],[-118.10293241208939,50.96299587444232],[-118.1029546,50.963001662845855],[-118.10297678791062,50.96299587444232],[-118.10298597844411,50.9629819],[-118.10297678791062,50.962967925557685],[-118.1029546,50.96296213715415],[-118.10293241208939,50.962967925557685],[-118.1029232215559,50.9629819]]]}},{"type":"Feature","id":"pylon-revelstoke-mountain-resort-26","properties":{"kind":"pylon","name":"Lift tower","height":13},"geometry":{"type":"Polygon","coordinates":[[[-118.1045412214972,50.9630688],[-118.10455041204789,50.96308277444232],[-118.1045726,50.963088562845854],[-118.10459478795211,50.96308277444232],[-118.1046039785028,50.9630688],[-118.10459478795211,50.963054825557684],[-118.1045726,50.96304903715415],[-118.10455041204789,50.963054825557684],[-118.1045412214972,50.9630688]]]}},{"type":"Feature","id":"pylon-revelstoke-mountain-resort-27","properties":{"kind":"pylon","name":"Lift tower","height":13},"geometry":{"type":"Polygon","coordinates":[[[-118.10306081447524,50.9734623],[-118.10307000708261,50.97347627444232],[-118.1030922,50.973482062845854],[-118.1031143929174,50.97347627444232],[-118.10312358552477,50.9734623],[-118.1031143929174,50.97344832555768],[-118.1030922,50.97344253715415],[-118.10307000708261,50.97344832555768],[-118.10306081447524,50.9734623]]]}},{"type":"Feature","id":"pylon-revelstoke-mountain-resort-28","properties":{"kind":"pylon","name":"Lift tower","height":13},"geometry":{"type":"Polygon","coordinates":[[[-118.10488021238766,50.976551],[-118.10488940560647,50.97656497444232],[-118.1049116,50.97657076284585],[-118.10493379439352,50.97656497444232],[-118.10494298761233,50.976551],[-118.10493379439352,50.97653702555768],[-118.1049116,50.97653123715415],[-118.10488940560647,50.97653702555768],[-118.10488021238766,50.976551]]]}},{"type":"Feature","id":"pylon-revelstoke-mountain-resort-29","properties":{"kind":"pylon","name":"Lift tower","height":13},"geometry":{"type":"Polygon","coordinates":[[[-118.10579931133303,50.9781112],[-118.10580850486073,50.97812517444232],[-118.1058307,50.97813096284585],[-118.10585289513926,50.97812517444232],[-118.10586208866697,50.9781112],[-118.10585289513926,50.97809722555768],[-118.1058307,50.97809143715415],[-118.10580850486073,50.97809722555768],[-118.10579931133303,50.9781112]]]}},{"type":"Feature","id":"pylon-revelstoke-mountain-resort-30","properties":{"kind":"pylon","name":"Lift tower","height":13},"geometry":{"type":"Polygon","coordinates":[[[-118.10615221092796,50.9787104],[-118.10616140457431,50.978724374442315],[-118.1061836,50.97873016284585],[-118.10620579542568,50.978724374442315],[-118.10621498907203,50.9787104],[-118.10620579542568,50.97869642555768],[-118.1061836,50.978690637154145],[-118.10616140457431,50.97869642555768],[-118.10615221092796,50.9787104]]]}},{"type":"Feature","id":"pylon-revelstoke-mountain-resort-31","properties":{"kind":"pylon","name":"Lift tower","height":13},"geometry":{"type":"Polygon","coordinates":[[[-118.10768390917026,50.9813103],[-118.10769310333141,50.981324274442315],[-118.1077153,50.98133006284585],[-118.10773749666858,50.981324274442315],[-118.10774669082973,50.9813103],[-118.10773749666858,50.98129632555768],[-118.1077153,50.981290537154145],[-118.10769310333141,50.98129632555768],[-118.10768390917026,50.9813103]]]}},{"type":"Feature","id":"pylon-revelstoke-mountain-resort-32","properties":{"kind":"pylon","name":"Lift tower","height":13},"geometry":{"type":"Polygon","coordinates":[[[-118.1080611087374,50.9819505],[-118.10807030302534,50.98196447444232],[-118.1080925,50.981970262845856],[-118.10811469697465,50.98196447444232],[-118.1081238912626,50.9819505],[-118.10811469697465,50.981936525557686],[-118.1080925,50.98193073715415],[-118.10807030302534,50.981936525557686],[-118.1080611087374,50.9819505]]]}},{"type":"Feature","id":"pylon-revelstoke-mountain-resort-33","properties":{"kind":"pylon","name":"Lift tower","height":13},"geometry":{"type":"Polygon","coordinates":[[[-118.1086882080177,50.9830149],[-118.10869740251644,50.98302887444232],[-118.1087196,50.98303466284585],[-118.10874179748356,50.98302887444232],[-118.1087509919823,50.9830149],[-118.10874179748356,50.98300092555768],[-118.1087196,50.98299513715415],[-118.10869740251644,50.98300092555768],[-118.1086882080177,50.9830149]]]}},{"type":"Feature","id":"pylon-revelstoke-mountain-resort-34","properties":{"kind":"pylon","name":"Lift tower","height":13},"geometry":{"type":"Polygon","coordinates":[[[-118.10940470719537,50.984231],[-118.10941390193496,50.98424497444232],[-118.1094361,50.98425076284585],[-118.10945829806504,50.98424497444232],[-118.10946749280463,50.984231],[-118.10945829806504,50.98421702555768],[-118.1094361,50.98421123715415],[-118.10941390193496,50.98421702555768],[-118.10940470719537,50.984231]]]}},{"type":"Feature","id":"pylon-revelstoke-mountain-resort-35","properties":{"kind":"pylon","name":"Lift tower","height":13},"geometry":{"type":"Polygon","coordinates":[[[-118.11162770464367,50.988004],[-118.11163690013065,50.988017974442315],[-118.1116591,50.98802376284585],[-118.11168129986935,50.988017974442315],[-118.11169049535633,50.988004],[-118.11168129986935,50.98799002555768],[-118.1116591,50.987984237154144],[-118.11163690013065,50.98799002555768],[-118.11162770464367,50.988004]]]}},{"type":"Feature","id":"pylon-revelstoke-mountain-resort-36","properties":{"kind":"pylon","name":"Lift tower","height":13},"geometry":{"type":"Polygon","coordinates":[[[-118.11126350506174,50.9873859],[-118.11127270042627,50.98739987444232],[-118.1112949,50.98740566284585],[-118.11131709957374,50.98739987444232],[-118.11132629493827,50.9873859],[-118.11131709957374,50.98737192555768],[-118.1112949,50.98736613715415],[-118.11127270042627,50.98737192555768],[-118.11126350506174,50.9873859]]]}},{"type":"Feature","id":"pylon-revelstoke-mountain-resort-37","properties":{"kind":"pylon","name":"Lift tower","height":13},"geometry":{"type":"Polygon","coordinates":[[[-118.1106765057355,50.9863897],[-118.11068570090268,50.986403674442315],[-118.1107079,50.98640946284585],[-118.11073009909731,50.986403674442315],[-118.11073929426449,50.9863897],[-118.11073009909731,50.98637572555768],[-118.1107079,50.986369937154144],[-118.11068570090268,50.98637572555768],[-118.1106765057355,50.9863897]]]}},{"type":"Feature","id":"pylon-revelstoke-mountain-resort-38","properties":{"kind":"pylon","name":"Lift tower","height":13},"geometry":{"type":"Polygon","coordinates":[[[-118.11018620629831,50.9855575],[-118.11019540130064,50.98557147444232],[-118.1102176,50.98557726284585],[-118.11023979869935,50.98557147444232],[-118.11024899370169,50.9855575],[-118.11023979869935,50.98554352555768],[-118.1102176,50.98553773715415],[-118.11019540130064,50.98554352555768],[-118.11018620629831,50.9855575]]]}},{"type":"Feature","id":"pylon-revelstoke-mountain-resort-39","properties":{"kind":"pylon","name":"Lift tower","height":13},"geometry":{"type":"Polygon","coordinates":[[[-118.10972230683073,50.9847702],[-118.10973150167713,50.98478417444232],[-118.1097537,50.98478996284585],[-118.10977589832287,50.98478417444232],[-118.10978509316926,50.9847702],[-118.10977589832287,50.98475622555768],[-118.1097537,50.98475043715415],[-118.10973150167713,50.98475622555768],[-118.10972230683073,50.9847702]]]}},{"type":"Feature","id":"pylon-revelstoke-mountain-resort-40","properties":{"kind":"pylon","name":"Lift tower","height":13},"geometry":{"type":"Polygon","coordinates":[[[-118.10748970939318,50.9809806],[-118.10749890348905,50.98099457444232],[-118.1075211,50.981000362845855],[-118.10754329651095,50.98099457444232],[-118.10755249060682,50.9809806],[-118.10754329651095,50.980966625557684],[-118.1075211,50.98096083715415],[-118.10749890348905,50.980966625557684],[-118.10748970939318,50.9809806]]]}},{"type":"Feature","id":"pylon-revelstoke-mountain-resort-41","properties":{"kind":"pylon","name":"Lift tower","height":13},"geometry":{"type":"Polygon","coordinates":[[[-118.10695491000693,50.9800728],[-118.10696410392303,50.98008677444232],[-118.1069863,50.980092562845854],[-118.10700849607697,50.98008677444232],[-118.10701768999307,50.9800728],[-118.10700849607697,50.980058825557684],[-118.1069863,50.98005303715415],[-118.10696410392303,50.980058825557684],[-118.10695491000693,50.9800728]]]}},{"type":"Feature","id":"pylon-revelstoke-mountain-resort-42","properties":{"kind":"pylon","name":"Lift tower","height":13},"geometry":{"type":"Polygon","coordinates":[[[-118.10658231043453,50.9794403],[-118.10659150422539,50.97945427444232],[-118.1066137,50.97946006284585],[-118.1066358957746,50.97945427444232],[-118.10664508956546,50.9794403],[-118.1066358957746,50.97942632555768],[-118.1066137,50.97942053715415],[-118.10659150422539,50.97942632555768],[-118.10658231043453,50.9794403]]]}},{"type":"Feature","id":"pylon-revelstoke-mountain-resort-43","properties":{"kind":"pylon","name":"Lift tower","height":13},"geometry":{"type":"Polygon","coordinates":[[[-118.1053751118198,50.9773911],[-118.10538430520494,50.977405074442316],[-118.1054065,50.97741086284585],[-118.10542869479507,50.977405074442316],[-118.1054378881802,50.9773911],[-118.10542869479507,50.97737712555768],[-118.1054065,50.977371337154146],[-118.10538430520494,50.97737712555768],[-118.1053751118198,50.9773911]]]}},{"type":"Feature","id":"pylon-revelstoke-mountain-resort-44","properties":{"kind":"pylon","name":"Lift tower","height":13},"geometry":{"type":"Polygon","coordinates":[[[-118.10409911328391,50.975225],[-118.10410830624022,50.97523897444232],[-118.1041305,50.975244762845854],[-118.10415269375977,50.97523897444232],[-118.10416188671608,50.975225],[-118.10415269375977,50.975211025557684],[-118.1041305,50.97520523715415],[-118.10410830624022,50.975211025557684],[-118.10409911328391,50.975225]]]}},{"type":"Feature","id":"pylon-revelstoke-mountain-resort-45","properties":{"kind":"pylon","name":"Lift tower","height":13},"geometry":{"type":"Polygon","coordinates":[[[-118.10368561375832,50.9745231],[-118.10369480657566,50.97453707444232],[-118.103717,50.97454286284585],[-118.10373919342435,50.97453707444232],[-118.10374838624169,50.9745231],[-118.10373919342435,50.97450912555768],[-118.103717,50.97450333715415],[-118.10369480657566,50.97450912555768],[-118.10368561375832,50.9745231]]]}},{"type":"Feature","id":"pylon-revelstoke-mountain-resort-46","properties":{"kind":"pylon","name":"Lift tower","height":13},"geometry":{"type":"Polygon","coordinates":[[[-118.10312811439799,50.9735766],[-118.10313730702799,50.97359057444232],[-118.1031595,50.97359636284585],[-118.10318169297202,50.97359057444232],[-118.10319088560202,50.9735766],[-118.10318169297202,50.97356262555768],[-118.1031595,50.97355683715415],[-118.10313730702799,50.97356262555768],[-118.10312811439799,50.9735766]]]}},{"type":"Feature","id":"pylon-revelstoke-mountain-resort-47","properties":{"kind":"pylon","name":"Lift tower","height":13},"geometry":{"type":"Polygon","coordinates":[[[-118.12722691725303,50.9693515],[-118.1272361090468,50.96936547444232],[-118.1272583,50.969371262845854],[-118.12728049095318,50.96936547444232],[-118.12728968274696,50.9693515],[-118.12728049095318,50.969337525557684],[-118.1272583,50.96933173715415],[-118.1272361090468,50.969337525557684],[-118.12722691725303,50.9693515]]]}},{"type":"Feature","id":"pylon-revelstoke-mountain-resort-48","properties":{"kind":"pylon","name":"Lift tower","height":13},"geometry":{"type":"Polygon","coordinates":[[[-118.12728671727682,50.9693163],[-118.12729590906362,50.96933027444232],[-118.1273181,50.969336062845855],[-118.12734029093637,50.96933027444232],[-118.12734948272318,50.9693163],[-118.12734029093637,50.969302325557685],[-118.1273181,50.96929653715415],[-118.12729590906362,50.969302325557685],[-118.12728671727682,50.9693163]]]}},{"type":"Feature","id":"pylon-revelstoke-mountain-resort-49","properties":{"kind":"pylon","name":"Lift tower","height":13},"geometry":{"type":"Polygon","coordinates":[[[-118.12814541761782,50.9688116],[-118.12815460930476,50.96882557444232],[-118.1281768,50.968831362845854],[-118.12819899069525,50.96882557444232],[-118.1282081823822,50.9688116],[-118.12819899069525,50.968797625557684],[-118.1281768,50.96879183715415],[-118.12815460930476,50.968797625557684],[-118.12814541761782,50.9688116]]]}},{"type":"Feature","id":"pylon-revelstoke-mountain-resort-50","properties":{"kind":"pylon","name":"Lift tower","height":13},"geometry":{"type":"Polygon","coordinates":[[[-118.12827371766883,50.9687361],[-118.12828290934083,50.96875007444232],[-118.1283051,50.96875586284585],[-118.12832729065919,50.96875007444232],[-118.12833648233118,50.9687361],[-118.12832729065919,50.96872212555768],[-118.1283051,50.96871633715415],[-118.12828290934083,50.96872212555768],[-118.12827371766883,50.9687361]]]}},{"type":"Feature","id":"pylon-revelstoke-mountain-resort-51","properties":{"kind":"pylon","name":"Lift tower","height":13},"geometry":{"type":"Polygon","coordinates":[[[-118.1292273180475,50.9681756],[-118.12923650960857,50.96818957444232],[-118.1292587,50.968195362845854],[-118.12928089039141,50.96818957444232],[-118.12929008195249,50.9681756],[-118.12928089039141,50.968161625557684],[-118.1292587,50.96815583715415],[-118.12923650960857,50.968161625557684],[-118.1292273180475,50.9681756]]]}},{"type":"Feature","id":"pylon-revelstoke-mountain-resort-52","properties":{"kind":"pylon","name":"Lift tower","height":13},"geometry":{"type":"Polygon","coordinates":[[[-118.13129751886956,50.9669588],[-118.13130671018986,50.96697277444232],[-118.1313289,50.96697856284585],[-118.13135108981014,50.96697277444232],[-118.13136028113044,50.9669588],[-118.13135108981014,50.96694482555768],[-118.1313289,50.96693903715415],[-118.13130671018986,50.96694482555768],[-118.13129751886956,50.9669588]]]}},{"type":"Feature","id":"pylon-revelstoke-mountain-resort-53","properties":{"kind":"pylon","name":"Lift tower","height":13},"geometry":{"type":"Polygon","coordinates":[[[-118.13211961919605,50.9664755],[-118.13212881042072,50.96648947444232],[-118.132151,50.966495262845854],[-118.13217318957926,50.96648947444232],[-118.13218238080394,50.9664755],[-118.13217318957926,50.96646152555768],[-118.132151,50.96645573715415],[-118.13212881042072,50.96646152555768],[-118.13211961919605,50.9664755]]]}},{"type":"Feature","id":"pylon-revelstoke-mountain-resort-54","properties":{"kind":"pylon","name":"Lift tower","height":13},"geometry":{"type":"Polygon","coordinates":[[[-118.13320881962854,50.9658353],[-118.13321801072654,50.96584927444232],[-118.1332402,50.965855062845854],[-118.13326238927347,50.96584927444232],[-118.13327158037147,50.9658353],[-118.13326238927347,50.965821325557684],[-118.1332402,50.96581553715415],[-118.13321801072654,50.965821325557684],[-118.13320881962854,50.9658353]]]}},{"type":"Feature","id":"pylon-revelstoke-mountain-resort-55","properties":{"kind":"pylon","name":"Lift tower","height":13},"geometry":{"type":"Polygon","coordinates":[[[-118.13368731981855,50.965554],[-118.1336965108609,50.965567974442315],[-118.1337187,50.96557376284585],[-118.1337408891391,50.965567974442315],[-118.13375008018146,50.965554],[-118.1337408891391,50.96554002555768],[-118.1337187,50.965534237154145],[-118.1336965108609,50.96554002555768],[-118.13368731981855,50.965554]]]}},{"type":"Feature","id":"pylon-revelstoke-mountain-resort-56","properties":{"kind":"pylon","name":"Lift tower","height":13},"geometry":{"type":"Polygon","coordinates":[[[-118.13430932006551,50.9651884],[-118.13431851103553,50.96520237444232],[-118.1343407,50.965208162845855],[-118.13436288896446,50.96520237444232],[-118.13437207993448,50.9651884],[-118.13436288896446,50.965174425557684],[-118.1343407,50.96516863715415],[-118.13431851103553,50.965174425557684],[-118.13430932006551,50.9651884]]]}},{"type":"Feature","id":"pylon-revelstoke-mountain-resort-57","properties":{"kind":"pylon","name":"Lift tower","height":13},"geometry":{"type":"Polygon","coordinates":[[[-118.13569622061623,50.9643731],[-118.13570541142494,50.96438707444232],[-118.1357276,50.964392862845855],[-118.13574978857505,50.96438707444232],[-118.13575897938377,50.9643731],[-118.13574978857505,50.964359125557685],[-118.1357276,50.96435333715415],[-118.13570541142494,50.964359125557685],[-118.13569622061623,50.9643731]]]}},{"type":"Feature","id":"pylon-revelstoke-mountain-resort-58","properties":{"kind":"pylon","name":"Lift tower","height":13},"geometry":{"type":"Polygon","coordinates":[[[-118.13906652195445,50.9623918],[-118.13907571237121,50.96240577444232],[-118.1390979,50.96241156284585],[-118.13912008762878,50.96240577444232],[-118.13912927804554,50.9623918],[-118.13912008762878,50.96237782555768],[-118.1390979,50.96237203715415],[-118.13907571237121,50.96237782555768],[-118.13906652195445,50.9623918]]]}},{"type":"Feature","id":"pylon-revelstoke-mountain-resort-59","properties":{"kind":"pylon","name":"Lift tower","height":13},"geometry":{"type":"Polygon","coordinates":[[[-118.13741512129876,50.9633626],[-118.13742431190757,50.96337657444232],[-118.1374465,50.963382362845856],[-118.13746868809243,50.96337657444232],[-118.13747787870123,50.9633626],[-118.13746868809243,50.963348625557686],[-118.1374465,50.96334283715415],[-118.13742431190757,50.963348625557686],[-118.13741512129876,50.9633626]]]}},{"type":"Feature","id":"pylon-revelstoke-mountain-resort-60","properties":{"kind":"pylon","name":"Lift tower","height":13},"geometry":{"type":"Polygon","coordinates":[[[-118.13782312146073,50.9631228],[-118.1378323120221,50.96313677444232],[-118.1378545,50.96314256284585],[-118.13787668797791,50.96313677444232],[-118.13788587853928,50.9631228],[-118.13787668797791,50.96310882555768],[-118.1378545,50.96310303715415],[-118.1378323120221,50.96310882555768],[-118.13782312146073,50.9631228]]]}},{"type":"Feature","id":"pylon-revelstoke-mountain-resort-61","properties":{"kind":"pylon","name":"Lift tower","height":13},"geometry":{"type":"Polygon","coordinates":[[[-118.13987212227424,50.9619183],[-118.13988131259734,50.96193227444232],[-118.1399035,50.96193806284585],[-118.13992568740267,50.96193227444232],[-118.13993487772576,50.9619183],[-118.13992568740267,50.96190432555768],[-118.1399035,50.96189853715415],[-118.13988131259734,50.96190432555768],[-118.13987212227424,50.9619183]]]}},{"type":"Feature","id":"pylon-revelstoke-mountain-resort-62","properties":{"kind":"pylon","name":"Lift tower","height":13},"geometry":{"type":"Polygon","coordinates":[[[-118.14048922251926,50.9615555],[-118.1404984127706,50.96156947444232],[-118.1405206,50.961575262845855],[-118.1405427872294,50.96156947444232],[-118.14055197748074,50.9615555],[-118.1405427872294,50.961541525557685],[-118.1405206,50.96153573715415],[-118.1404984127706,50.961541525557685],[-118.14048922251926,50.9615555]]]}},{"type":"Feature","id":"pylon-revelstoke-mountain-resort-63","properties":{"kind":"pylon","name":"Lift tower","height":13},"geometry":{"type":"Polygon","coordinates":[[[-118.14145642290325,50.9609869],[-118.14146561304212,50.96100087444232],[-118.1414878,50.961006662845854],[-118.14150998695787,50.96100087444232],[-118.14151917709674,50.9609869],[-118.14150998695787,50.960972925557684],[-118.1414878,50.96096713715415],[-118.14146561304212,50.960972925557684],[-118.14145642290325,50.9609869]]]}},{"type":"Feature","id":"pylon-revelstoke-mountain-resort-64","properties":{"kind":"pylon","name":"Lift tower","height":13},"geometry":{"type":"Polygon","coordinates":[[[-118.14256032334153,50.9603379],[-118.14256951335203,50.96035187444232],[-118.1425917,50.96035766284585],[-118.14261388664796,50.96035187444232],[-118.14262307665847,50.9603379],[-118.14261388664796,50.96032392555768],[-118.1425917,50.96031813715415],[-118.14256951335203,50.96032392555768],[-118.14256032334153,50.9603379]]]}},{"type":"Feature","id":"pylon-revelstoke-mountain-resort-65","properties":{"kind":"pylon","name":"Lift tower","height":13},"geometry":{"type":"Polygon","coordinates":[[[-118.14361802376143,50.9597161],[-118.14362721364894,50.95973007444232],[-118.1436494,50.959735862845854],[-118.14367158635106,50.95973007444232],[-118.14368077623857,50.9597161],[-118.14367158635106,50.95970212555768],[-118.1436494,50.95969633715415],[-118.14362721364894,50.95970212555768],[-118.14361802376143,50.9597161]]]}},{"type":"Feature","id":"pylon-revelstoke-mountain-resort-66","properties":{"kind":"pylon","name":"Lift tower","height":13},"geometry":{"type":"Polygon","coordinates":[[[-118.14451672411818,50.9591878],[-118.14452591390119,50.95920177444232],[-118.1445481,50.959207562845855],[-118.1445702860988,50.95920177444232],[-118.14457947588181,50.9591878],[-118.1445702860988,50.959173825557684],[-118.1445481,50.95916803715415],[-118.14452591390119,50.959173825557684],[-118.14451672411818,50.9591878]]]}},{"type":"Feature","id":"pylon-revelstoke-mountain-resort-67","properties":{"kind":"pylon","name":"Lift tower","height":13},"geometry":{"type":"Polygon","coordinates":[[[-118.14584592464588,50.9584063],[-118.14585511427434,50.95842027444232],[-118.1458773,50.95842606284585],[-118.14589948572565,50.95842027444232],[-118.14590867535411,50.9584063],[-118.14589948572565,50.95839232555768],[-118.1458773,50.95838653715415],[-118.14585511427434,50.95839232555768],[-118.14584592464588,50.9584063]]]}},{"type":"Feature","id":"pylon-revelstoke-mountain-resort-68","properties":{"kind":"pylon","name":"Lift tower","height":13},"geometry":{"type":"Polygon","coordinates":[[[-118.14683962504036,50.9578221],[-118.14684881455328,50.95783607444232],[-118.146871,50.957841862845854],[-118.14689318544673,50.95783607444232],[-118.14690237495965,50.9578221],[-118.14689318544673,50.95780812555768],[-118.146871,50.95780233715415],[-118.14684881455328,50.95780812555768],[-118.14683962504036,50.9578221]]]}},{"type":"Feature","id":"pylon-revelstoke-mountain-resort-69","properties":{"kind":"pylon","name":"Lift tower","height":13},"geometry":{"type":"Polygon","coordinates":[[[-118.14895752588109,50.9565769],[-118.14896671514776,50.95659087444232],[-118.1489889,50.956596662845854],[-118.14901108485225,50.95659087444232],[-118.14902027411893,50.9565769],[-118.14901108485225,50.956562925557684],[-118.1489889,50.95655713715415],[-118.14896671514776,50.956562925557684],[-118.14895752588109,50.9565769]]]}},{"type":"Feature","id":"pylon-revelstoke-mountain-resort-70","properties":{"kind":"pylon","name":"Lift tower","height":13},"geometry":{"type":"Polygon","coordinates":[[[-118.14952732610726,50.9562419],[-118.14953651530769,50.95625587444232],[-118.1495587,50.956261662845854],[-118.14958088469231,50.95625587444232],[-118.14959007389274,50.9562419],[-118.14958088469231,50.956227925557684],[-118.1495587,50.95622213715415],[-118.14953651530769,50.956227925557684],[-118.14952732610726,50.9562419]]]}},{"type":"Feature","id":"pylon-revelstoke-mountain-resort-71","properties":{"kind":"pylon","name":"Lift tower","height":13},"geometry":{"type":"Polygon","coordinates":[[[-118.14959682613487,50.956201],[-118.14960601532721,50.95621497444232],[-118.1496282,50.95622076284585],[-118.14965038467278,50.95621497444232],[-118.14965957386512,50.956201],[-118.14965038467278,50.95618702555768],[-118.1496282,50.95618123715415],[-118.14960601532721,50.95618702555768],[-118.14959682613487,50.956201]]]}},{"type":"Feature","id":"pylon-revelstoke-mountain-resort-72","properties":{"kind":"pylon","name":"Lift tower","height":13},"geometry":{"type":"Polygon","coordinates":[[[-118.15080832614622,50.9561842],[-118.15081751533525,50.95619817444232],[-118.1508397,50.956203962845855],[-118.15086188466476,50.95619817444232],[-118.15087107385379,50.9561842],[-118.15086188466476,50.956170225557685],[-118.1508397,50.95616443715415],[-118.15081751533525,50.956170225557685],[-118.15080832614622,50.9561842]]]}},{"type":"Feature","id":"pylon-revelstoke-mountain-resort-73","properties":{"kind":"pylon","name":"Lift tower","height":13},"geometry":{"type":"Polygon","coordinates":[[[-118.15337852584591,50.956629],[-118.15338771512289,50.95664297444232],[-118.1534099,50.95664876284585],[-118.15343208487711,50.95664297444232],[-118.15344127415409,50.956629],[-118.15343208487711,50.95661502555768],[-118.1534099,50.95660923715415],[-118.15338771512289,50.95661502555768],[-118.15337852584591,50.956629]]]}},{"type":"Feature","id":"pylon-revelstoke-mountain-resort-74","properties":{"kind":"pylon","name":"Lift tower","height":13},"geometry":{"type":"Polygon","coordinates":[[[-118.15510842564376,50.9569284],[-118.15511761497996,50.95694237444232],[-118.1551398,50.956948162845855],[-118.15516198502004,50.95694237444232],[-118.15517117435624,50.9569284],[-118.15516198502004,50.956914425557684],[-118.1551398,50.95690863715415],[-118.15511761497996,50.956914425557684],[-118.15510842564376,50.9569284]]]}},{"type":"Feature","id":"pylon-revelstoke-mountain-resort-75","properties":{"kind":"pylon","name":"Lift tower","height":13},"geometry":{"type":"Polygon","coordinates":[[[-118.15840992525797,50.9574998],[-118.15841911470716,50.95751377444232],[-118.1584413,50.95751956284585],[-118.15846348529286,50.95751377444232],[-118.15847267474204,50.9574998],[-118.15846348529286,50.95748582555768],[-118.1584413,50.95748003715415],[-118.15841911470716,50.95748582555768],[-118.15840992525797,50.9574998]]]}},{"type":"Feature","id":"pylon-revelstoke-mountain-resort-76","properties":{"kind":"pylon","name":"Lift tower","height":13},"geometry":{"type":"Polygon","coordinates":[[[-118.16112722494047,50.95797],[-118.16113641448266,50.95798397444232],[-118.1611586,50.957989762845855],[-118.16118078551733,50.95798397444232],[-118.16118997505951,50.95797],[-118.16118078551733,50.957956025557685],[-118.1611586,50.95795023715415],[-118.16113641448266,50.957956025557685],[-118.16112722494047,50.95797]]]}},{"type":"Feature","id":"pylon-revelstoke-mountain-resort-77","properties":{"kind":"pylon","name":"Lift tower","height":13},"geometry":{"type":"Polygon","coordinates":[[[-118.16231482480165,50.9581756],[-118.1623240143845,50.958189574442315],[-118.1623462,50.95819536284585],[-118.16236838561551,50.958189574442315],[-118.16237757519835,50.9581756],[-118.16236838561551,50.95816162555768],[-118.1623462,50.958155837154145],[-118.1623240143845,50.95816162555768],[-118.16231482480165,50.9581756]]]}},{"type":"Feature","id":"pylon-revelstoke-mountain-resort-78","properties":{"kind":"pylon","name":"Lift tower","height":13},"geometry":{"type":"Polygon","coordinates":[[[-118.1630755247128,50.9583072],[-118.16308471432166,50.95832117444232],[-118.1631069,50.95832696284585],[-118.16312908567835,50.95832117444232],[-118.16313827528721,50.9583072],[-118.16312908567835,50.95829322555768],[-118.1631069,50.95828743715415],[-118.16308471432166,50.95829322555768],[-118.1630755247128,50.9583072]]]}},{"type":"Feature","id":"pylon-revelstoke-mountain-resort-79","properties":{"kind":"pylon","name":"Lift tower","height":13},"geometry":{"type":"Polygon","coordinates":[[[-118.15706672541495,50.9572673],[-118.15707591481815,50.957281274442316],[-118.1570981,50.95728706284585],[-118.15712028518185,50.957281274442316],[-118.15712947458505,50.9572673],[-118.15712028518185,50.95725332555768],[-118.1570981,50.957247537154146],[-118.15707591481815,50.95725332555768],[-118.15706672541495,50.9572673]]]}},{"type":"Feature","id":"pylon-revelstoke-mountain-resort-80","properties":{"kind":"pylon","name":"Lift tower","height":13},"geometry":{"type":"Polygon","coordinates":[[[-118.15979282509639,50.9577391],[-118.1598020145929,50.957753074442316],[-118.1598242,50.95775886284585],[-118.1598463854071,50.957753074442316],[-118.15985557490362,50.9577391],[-118.1598463854071,50.95772512555768],[-118.1598242,50.957719337154145],[-118.1598020145929,50.95772512555768],[-118.15979282509639,50.9577391]]]}},{"type":"Feature","id":"marker-revelstoke-mountain-resort-summit","properties":{"kind":"marker","markerType":"summit","name":"Upper mountain · 2225 m","height":26},"geometry":{"type":"Polygon","coordinates":[[[-118.14390017879339,50.954],[-118.14391924294746,50.95403696098425],[-118.14396915355076,50.95405980412877],[-118.14403084644925,50.95405980412877],[-118.14408075705255,50.95403696098425],[-118.14409982120662,50.954],[-118.14408075705255,50.953963039015754],[-118.14403084644925,50.95394019587123],[-118.14396915355076,50.95394019587123],[-118.14391924294746,50.953963039015754],[-118.14390017879339,50.954]]]}},{"type":"Feature","id":"marker-revelstoke-mountain-resort-base","properties":{"kind":"marker","markerType":"base","name":"Base · 512 m","height":18},"geometry":{"type":"Polygon","coordinates":[[[-118.13990018738409,50.95],[-118.13991924989747,50.95003696098425],[-118.13996915620542,50.95005980412877],[-118.14003084379458,50.95005980412877],[-118.14008075010253,50.95003696098425],[-118.14009981261592,50.95],[-118.14008075010253,50.949963039015756],[-118.14003084379458,50.949940195871235],[-118.13996915620542,50.949940195871235],[-118.13991924989747,50.949963039015756],[-118.13990018738409,50.95]]]}},{"type":"Feature","id":"marker-revelstoke-mountain-resort-peak","properties":{"kind":"marker","markerType":"peak","name":"Peak · 2456 m","height":22},"geometry":{"type":"Polygon","coordinates":[[[-118.1359001744973,50.956],[-118.13591923947185,50.95603696098425],[-118.13596915222318,50.95605980412877],[-118.13603084777681,50.95605980412877],[-118.13608076052815,50.95603696098425],[-118.1360998255027,50.956],[-118.13608076052815,50.95596303901576],[-118.13603084777681,50.955940195871236],[-118.13596915222318,50.955940195871236],[-118.13591923947185,50.95596303901576],[-118.1359001744973,50.956]]]}},{"type":"Feature","id":"marker-revelstoke-mountain-resort-featured-run","properties":{"kind":"marker","markerType":"featured-run","name":"Powder · North Bowl","height":20},"geometry":{"type":"Polygon","coordinates":[[[-118.13690019382582,50.947],[-118.13691925510895,50.94703696098425],[-118.13696915819604,50.94705980412877],[-118.13703084180396,50.94705980412877],[-118.13708074489105,50.94703696098425],[-118.13709980617418,50.947],[-118.13708074489105,50.946963039015756],[-118.13703084180396,50.946940195871235],[-118.13696915819604,50.946940195871235],[-118.13691925510895,50.946963039015756],[-118.13690019382582,50.947]]]}}]}