{"type":"FeatureCollection","features":[{"type":"Feature","id":25895874,"properties":{"kind":"run","name":"Mapped ski run","subtype":"expert","pisteType":"downhill","featured":false},"geometry":{"type":"LineString","coordinates":[[13.507459,46.3434429],[13.507957,46.3435895],[13.5082135,46.3436754],[13.5083783,46.3437634]]}},{"type":"Feature","id":32137405,"properties":{"kind":"lift","name":"101 - Telecabina Canin","subtype":"gondola","status":"active"},"geometry":{"type":"LineString","coordinates":[[13.4704435,46.3881236],[13.4702956,46.3878663],[13.4678028,46.383527],[13.4656998,46.3798661],[13.4626382,46.374536],[13.4626174,46.3744998],[13.46171,46.37292],[13.4616865,46.3728789],[13.4616652,46.3728418],[13.4615598,46.3726585],[13.461442,46.3724533]]}},{"type":"Feature","id":32137409,"properties":{"kind":"lift","name":"104 - Tappeto Campo Scuola","subtype":"magic_carpet","status":"active"},"geometry":{"type":"LineString","coordinates":[[13.4740996,46.3877224],[13.476298,46.3871218]]}},{"type":"Feature","id":32137419,"properties":{"kind":"run","name":"Mapped ski run","subtype":"easy","pisteType":"downhill","featured":false},"geometry":{"type":"LineString","coordinates":[[13.4740597,46.3874636],[13.4740296,46.3873288],[13.4739528,46.3871771],[13.4738165,46.387015]]}},{"type":"Feature","id":32137784,"properties":{"kind":"run","name":"Mapped ski run","subtype":"easy","pisteType":"downhill","featured":false},"geometry":{"type":"LineString","coordinates":[[13.461442,46.3724533],[13.4614032,46.3723738],[13.4615333,46.3723431]]}},{"type":"Feature","id":32137789,"properties":{"kind":"run","name":"Variante Turistica Alta","subtype":"advanced","pisteType":"downhill","featured":false},"geometry":{"type":"LineString","coordinates":[[13.4608985,46.3754199],[13.461113,46.3755051],[13.4613518,46.3755976],[13.4616419,46.3757144],[13.4619053,46.3758428],[13.462098,46.376016],[13.4622629,46.3761853],[13.4624686,46.3763176],[13.4628013,46.3764192],[13.4632639,46.3764876],[13.4636233,46.3765569],[13.4639876,46.3766458],[13.4641782,46.3767092],[13.4644074,46.3768003],[13.4646009,46.3769085],[13.4647151,46.3770279],[13.4647545,46.3771259],[13.4647558,46.3772281],[13.4646857,46.3774466],[13.4646898,46.3775802],[13.4647268,46.377695],[13.4648173,46.3778357]]}},{"type":"Feature","id":32137790,"properties":{"kind":"run","name":"Canin Turistica","subtype":"intermediate","pisteType":"downhill","featured":false},"geometry":{"type":"LineString","coordinates":[[13.4613429,46.3720262],[13.4612254,46.3720127],[13.4610784,46.3720047],[13.4609784,46.3720079],[13.4609052,46.3720277],[13.4607811,46.3720866],[13.4607295,46.3721342],[13.4606745,46.3722082],[13.4606611,46.3722805],[13.4606651,46.3723554],[13.4606866,46.3724396],[13.4607255,46.3725386],[13.4607845,46.3726339],[13.4608622,46.3727218],[13.4609482,46.3727934],[13.4611066,46.3729074],[13.4612842,46.3730332],[13.4613518,46.3730858],[13.4614157,46.3731705],[13.4614133,46.3732733],[13.4613726,46.3733612],[13.4612513,46.3735045],[13.4611499,46.3736605],[13.4610545,46.3738504],[13.4609894,46.3740246],[13.4608467,46.3741983],[13.4607798,46.3742724],[13.4606963,46.3743933],[13.4606156,46.3745604],[13.4605934,46.3746284],[13.4605836,46.3747189],[13.4606095,46.3748514],[13.4606963,46.3750522],[13.4608055,46.3752654],[13.4608985,46.3754199],[13.4610337,46.3758816],[13.4610527,46.3760979],[13.4611258,46.3763568],[13.4612,46.3766618],[13.4612095,46.3769404],[13.4612333,46.3771174],[13.461304,46.3773537],[13.4614043,46.3774813],[13.4615421,46.3775764],[13.4617553,46.3776284],[13.4620363,46.3776419],[13.462293,46.377621],[13.4627015,46.377619],[13.4629381,46.3776099],[13.4631347,46.3776045],[13.4633319,46.377616],[13.4634637,46.3776565],[13.4635424,46.3777041],[13.4635495,46.3777201],[13.4635307,46.3778119],[13.4634445,46.3779084],[13.463337,46.3779735],[13.4630958,46.3780779],[13.4629973,46.3781926],[13.4629718,46.3782752],[13.4629746,46.3783447],[13.4629825,46.3783872],[13.4630186,46.3784487],[13.4630757,46.3784839],[13.4632004,46.378527],[13.4635624,46.3785957],[13.4638093,46.3786338],[13.4639092,46.3786722],[13.4639562,46.3787045],[13.4640138,46.3787721],[13.4640652,46.3788745],[13.4645213,46.3796743],[13.4646329,46.3797804],[13.4648159,46.3799037],[13.465048,46.3800231],[13.4654383,46.3801529],[13.4660608,46.3803561],[13.4664768,46.3804362],[13.4671841,46.38047],[13.4674177,46.3805118],[13.467492,46.3805555],[13.4675682,46.3806108],[13.4676657,46.3807021],[13.4679943,46.380853],[13.4692921,46.3813977],[13.4697045,46.3816156],[13.4698596,46.381718],[13.4700438,46.381801],[13.4702723,46.3818775],[13.4705351,46.3819419],[13.4707326,46.3819655],[13.4709779,46.3819424],[13.4712366,46.3818937],[13.4714785,46.3818543],[13.4716677,46.3818541],[13.4718279,46.3818636],[13.4719704,46.3818949],[13.4720548,46.3819448],[13.4721106,46.3820436],[13.4720828,46.3821518],[13.4720272,46.3822154],[13.471991,46.3823102],[13.4720332,46.382389],[13.4722065,46.382454],[13.4724108,46.3825025],[13.4726213,46.3825361],[13.4727823,46.382556],[13.4729398,46.3825756],[13.4731203,46.3826049],[13.4732442,46.3826293],[13.4732884,46.3826586],[13.473322,46.3826988],[13.4733326,46.382755],[13.4733167,46.3828075],[13.4732707,46.3828942],[13.4731928,46.3829943],[13.4731008,46.38312],[13.4730088,46.3832335],[13.4729097,46.3833373],[13.4727059,46.3835876],[13.4726061,46.3837646],[13.4725754,46.3839376],[13.4725918,46.3841055],[13.4726419,46.3842337],[13.4727534,46.3843578],[13.4729252,46.3844278],[13.4732333,46.3844726],[13.4737502,46.3844859],[13.47406,46.3845283],[13.4743261,46.3845873],[13.4746532,46.3847674],[13.4747738,46.3848686],[13.4748939,46.3849962],[13.4749504,46.385072],[13.4750333,46.3852291],[13.4749967,46.3853809],[13.4748976,46.3855577],[13.4747062,46.3856951],[13.474531,46.3857846],[13.4741981,46.3859344],[13.4740106,46.3859952],[13.4736205,46.386084],[13.4735311,46.3860981],[13.4731266,46.3861419],[13.4725619,46.3862847],[13.4723874,46.3863506],[13.4722463,46.3864038],[13.4719103,46.3865061],[13.4713585,46.3866778],[13.4708754,46.3869303],[13.4705228,46.3871573],[13.4702023,46.3874111],[13.4700625,46.3875098],[13.4699357,46.3876715],[13.4698658,46.38781],[13.4699228,46.3879502],[13.4699746,46.388067],[13.4700261,46.3881551],[13.4701154,46.3882519],[13.4702993,46.3883399]]}},{"type":"Feature","id":32137792,"properties":{"kind":"run","name":"Canin Agonistica","subtype":"advanced","pisteType":"downhill","featured":false},"geometry":{"type":"LineString","coordinates":[[13.4671841,46.38047],[13.4666547,46.3807724],[13.4665549,46.3810215],[13.4663601,46.3812739],[13.4661454,46.3814029],[13.465904,46.3815754],[13.4657905,46.3817759],[13.4657329,46.3821032],[13.4657112,46.3824959],[13.4656617,46.382703],[13.4655951,46.3830111],[13.465611,46.3831872],[13.4657044,46.3833487],[13.4658501,46.3834886],[13.4661653,46.3836273],[13.4663411,46.3836994],[13.4665111,46.3837791],[13.4665787,46.383919],[13.4665597,46.3840174],[13.4664409,46.3846729],[13.466438,46.3848107],[13.4665122,46.3850105],[13.4666518,46.3851362],[13.4669636,46.3852432],[13.4672724,46.3853153],[13.4682132,46.3854858],[13.4686266,46.3855874],[13.4688376,46.3856839],[13.4690162,46.3858266],[13.4691682,46.3860525],[13.4693773,46.3864395],[13.4695294,46.386823],[13.4695674,46.3871114],[13.4696146,46.3873311],[13.4696781,46.387541],[13.4698658,46.38781]]}},{"type":"Feature","id":32137942,"properties":{"kind":"run","name":"Mapped ski run","subtype":"easy","pisteType":"downhill","featured":false},"geometry":{"type":"LineString","coordinates":[[13.4669537,46.3730431],[13.4669023,46.3730789],[13.4668317,46.3730992],[13.4666464,46.3730714],[13.4665768,46.3730835]]}},{"type":"Feature","id":32137945,"properties":{"kind":"run","name":"Rifugio CAI 1","subtype":"easy","pisteType":"downhill","featured":false},"geometry":{"type":"LineString","coordinates":[[13.4613429,46.3720262],[13.4619785,46.3716905],[13.462034,46.3716683],[13.4622418,46.3715797],[13.4625352,46.3714863],[13.4627672,46.371441],[13.4629998,46.3714438],[13.4632462,46.3714644],[13.4635466,46.3714868],[13.4637603,46.3715084],[13.4639537,46.3715314],[13.4641472,46.3715673],[13.4642924,46.3716084],[13.4643816,46.3716656],[13.4646708,46.3718793],[13.4648153,46.3719512],[13.4649038,46.3719873],[13.4649807,46.3720089],[13.4650881,46.3720273],[13.4652095,46.3720328],[13.4655365,46.3720432],[13.4657007,46.3720274],[13.4658929,46.3720165],[13.4660762,46.3720305],[13.4662082,46.3720864],[13.4663013,46.3721625],[13.4663616,46.3722418],[13.4665318,46.3724966],[13.4669537,46.3730431]]}},{"type":"Feature","id":32137946,"properties":{"kind":"run","name":"Ski touring route","subtype":"intermediate","pisteType":"skitour","featured":false},"geometry":{"type":"LineString","coordinates":[[13.4684873,46.3623855],[13.4678489,46.363385],[13.4671891,46.3645659],[13.4664541,46.3654802],[13.4656173,46.3661391],[13.4650916,46.3663575],[13.4643513,46.3665426],[13.4640643,46.3666074],[13.4638363,46.3667721],[13.4635252,46.367394],[13.4634876,46.3678271],[13.4637022,46.3682787],[13.4637317,46.3686007],[13.4636834,46.3688783],[13.4635788,46.3691781],[13.4633374,46.3694261],[13.4628922,46.3696926],[13.4623235,46.369998],[13.4618515,46.3703478],[13.4615189,46.3706809],[13.461256,46.3710659],[13.4613365,46.3711566],[13.4613875,46.3713435],[13.4618837,46.3713102],[13.4619785,46.3716905]]}},{"type":"Feature","id":37664702,"properties":{"kind":"run","name":"Mapped ski run","subtype":"expert","pisteType":"downhill","featured":false},"geometry":{"type":"LineString","coordinates":[[13.4975101,46.3407784],[13.4977019,46.3407979],[13.4978279,46.3408164],[13.4979634,46.3408719],[13.4980908,46.3409562],[13.4981753,46.3410525],[13.4982705,46.3411932],[13.4983725,46.3413821],[13.4984502,46.3415385],[13.4984998,46.3416061],[13.4985602,46.3416524],[13.4986125,46.341683],[13.498697,46.3417015],[13.4987855,46.3417246],[13.4988713,46.341757],[13.4989223,46.3418089],[13.4989987,46.3419617],[13.4990524,46.3420728],[13.4991235,46.3421811],[13.4991878,46.3422579],[13.499326,46.3424061],[13.4994426,46.342506],[13.4995982,46.3426014],[13.4998302,46.3427014],[13.5000032,46.3427847],[13.5000662,46.3428319],[13.5001507,46.3429162],[13.5003158,46.3431376],[13.5004498,46.3433772],[13.5004954,46.3434272],[13.5005397,46.3434495],[13.5005933,46.3434624],[13.5006711,46.3434578],[13.5008119,46.3434171],[13.5009581,46.3433865],[13.5012518,46.3433661],[13.5016206,46.3433458],[13.5018191,46.3433245],[13.5019505,46.3432884],[13.502094,46.3432337],[13.5022281,46.343193],[13.5023837,46.3431634],[13.5025983,46.3431384],[13.5029,46.3431171],[13.5032232,46.3431208],[13.5033667,46.3431125],[13.503533,46.3430791],[13.503757,46.3430162],[13.5040453,46.3429514],[13.5042599,46.3429217],[13.5043725,46.3429291],[13.5045362,46.3429958],[13.5046206,46.3430125],[13.5047051,46.3430004],[13.5048057,46.3429671],[13.5049224,46.3429282],[13.5050096,46.3429356],[13.5051061,46.3429643],[13.5052147,46.343019],[13.50531,46.3430486],[13.5053958,46.3430393],[13.5054736,46.3429958],[13.5055299,46.342918],[13.505601,46.3428208],[13.5056667,46.3427755],[13.5057485,46.3427505],[13.5058357,46.3427532],[13.5059255,46.3427819],[13.5059953,46.3428477],[13.5061254,46.3429828],[13.5062501,46.3431143],[13.5063225,46.3431865],[13.5064003,46.3432217],[13.5064647,46.3432356],[13.5066202,46.3432439],[13.5067973,46.3432541],[13.5069072,46.3432754],[13.5070239,46.3433161],[13.5071366,46.3433708],[13.5072479,46.3434374],[13.507327,46.3434559],[13.5073887,46.3434587],[13.507459,46.3434429]]}},{"type":"Feature","id":48660487,"properties":{"kind":"lift","name":"102 - Funifor Prevala","subtype":"cable_car","status":"active"},"geometry":{"type":"LineString","coordinates":[[13.4616775,46.3715297],[13.4617467,46.3715212],[13.481018,46.3691525],[13.4810835,46.3691445]]}},{"type":"Feature","id":48660488,"properties":{"kind":"run","name":"Prevala","subtype":"intermediate","pisteType":"downhill","featured":false},"geometry":{"type":"LineString","coordinates":[[13.481105,46.3692328],[13.4811386,46.3692667],[13.4812063,46.3692963],[13.4813258,46.3693266],[13.4813951,46.3693397],[13.4814968,46.3693797],[13.4815136,46.3694211],[13.4814928,46.3694613],[13.4814449,46.3695289],[13.481387,46.3695855],[13.4813279,46.3696129],[13.4812338,46.3696337],[13.4811276,46.369647],[13.4810209,46.3696564],[13.4809275,46.3696592],[13.4808293,46.369659],[13.4807472,46.369657],[13.4806557,46.3696463],[13.4805427,46.3696245],[13.480496,46.3695886],[13.4804811,46.3695529],[13.4804716,46.3695153],[13.4804919,46.3694489],[13.4807001,46.3691976],[13.4807567,46.3690818],[13.4807812,46.3689623],[13.4808269,46.3682905],[13.4808903,46.3678482],[13.4808903,46.3675585],[13.480796,46.3672356],[13.4806561,46.3671495],[13.4805429,46.3671113],[13.4804208,46.3671544],[13.4802571,46.3672774],[13.480101,46.3674622],[13.4799059,46.367636],[13.4795277,46.3678575],[13.4792589,46.3680246],[13.4790185,46.3681929],[13.4787137,46.3683655],[13.4785678,46.3684474],[13.478383,46.3685147],[13.4780824,46.3685592],[13.4777747,46.3685818],[13.4770478,46.3686179],[13.4765454,46.3686336],[13.4763387,46.3686633],[13.4761231,46.3686844],[13.4757587,46.3687608],[13.475321,46.3688869],[13.4750266,46.3690223],[13.4748002,46.3691258],[13.474595,46.3691873],[13.4743668,46.3692048],[13.4740774,46.369258],[13.4738093,46.3693161],[13.473567,46.3694136],[13.4733601,46.3695184],[13.4731199,46.3696762],[13.4729816,46.369799],[13.4728946,46.3699315],[13.4726982,46.3701358],[13.4725596,46.3702462],[13.472396,46.3703316],[13.472219,46.370387],[13.4720834,46.3703983],[13.4719514,46.3703924],[13.4717268,46.3703789],[13.4715251,46.3703606],[13.4712121,46.3704022],[13.4709133,46.3704609],[13.4706606,46.370519],[13.4704681,46.370599],[13.4697456,46.3708198],[13.46937,46.3709265],[13.4688742,46.3709824],[13.4683856,46.3710968],[13.4680483,46.3711709],[13.4678548,46.3712202],[13.4676932,46.3712707],[13.4675266,46.3713479],[13.4674079,46.3714215],[13.4672616,46.3715494],[13.4669792,46.3717603],[13.4667776,46.3718491],[13.4665795,46.3719526],[13.4664883,46.372012],[13.4664431,46.3720739],[13.4663616,46.3722418]]}},{"type":"Feature","id":48660490,"properties":{"kind":"run","name":"Mapped ski run","subtype":"intermediate","pisteType":"downhill","featured":false},"geometry":{"type":"LineString","coordinates":[[13.480796,46.3672356],[13.4809149,46.3672227],[13.4810002,46.3672573],[13.4810509,46.3672641],[13.481083,46.3672666],[13.4811091,46.3672346],[13.4810843,46.3671847]]}},{"type":"Feature","id":48660620,"properties":{"kind":"run","name":"Sedlo","subtype":"easy","pisteType":"downhill","featured":false},"geometry":{"type":"LineString","coordinates":[[13.4766205,46.3612238],[13.4766832,46.3611983],[13.4767265,46.361151],[13.4768396,46.3611197],[13.476979,46.3611098],[13.4768705,46.3609009],[13.47671,46.3608089],[13.4764151,46.3606655],[13.4760196,46.3605915],[13.4757077,46.3603662],[13.475639,46.3603004],[13.4755786,46.3602141],[13.4755686,46.36005],[13.4757247,46.3596202],[13.4755369,46.3594363],[13.4754292,46.3593115],[13.4753319,46.3592076],[13.4752676,46.3589543],[13.4752737,46.358828]]}},{"type":"Feature","id":48660621,"properties":{"kind":"run","name":"Mapped ski run","subtype":"intermediate","pisteType":"downhill","featured":false},"geometry":{"type":"LineString","coordinates":[[13.4807977,46.3670324],[13.4809149,46.3672227]]}},{"type":"Feature","id":79596599,"properties":{"kind":"lift","name":"Goods","subtype":"goods","status":"active"},"geometry":{"type":"LineString","coordinates":[[13.4805684,46.389315],[13.4802158,46.3879604]]}},{"type":"Feature","id":79596621,"properties":{"kind":"lift","name":"Goods","subtype":"goods","status":"active"},"geometry":{"type":"LineString","coordinates":[[13.5043895,46.4147068],[13.5000968,46.4218546]]}},{"type":"Feature","id":152357935,"properties":{"kind":"run","name":"Prevala","subtype":"intermediate","pisteType":"downhill","featured":false},"geometry":{"type":"LineString","coordinates":[[13.4766205,46.3612238],[13.4766532,46.3613533],[13.4766716,46.3613944],[13.4767527,46.361405],[13.4768857,46.3613748],[13.4769965,46.36137],[13.4770647,46.361398],[13.4771333,46.3615382],[13.4771975,46.3616482],[13.4772876,46.3617555],[13.4774545,46.3617991],[13.477608,46.3618325],[13.4778207,46.3618617],[13.478046,46.3618859],[13.4785977,46.3618573],[13.4790175,46.361827],[13.4793411,46.3619506],[13.4795207,46.3620564],[13.4795993,46.3622803],[13.4796346,46.3626073],[13.4798046,46.3629521],[13.4800751,46.3631204],[13.4803679,46.3632915],[13.480606,46.3635444],[13.4807869,46.3640438],[13.4809873,46.3646249],[13.481093,46.3649457],[13.4811287,46.3652932],[13.481125,46.3654485],[13.4812114,46.3656918],[13.4810611,46.3660916],[13.4808126,46.3666449],[13.4807977,46.3670324],[13.4806561,46.3671495]]}},{"type":"Feature","id":152357938,"properties":{"kind":"run","name":"Mapped ski run","subtype":"easy","pisteType":"downhill","featured":false},"geometry":{"type":"LineString","coordinates":[[13.476979,46.3611098],[13.4770136,46.3612635],[13.4770647,46.361398]]}},{"type":"Feature","id":152359251,"properties":{"kind":"run","name":"Skiweg Canin A. - Canin T. - Parcheggio","subtype":"easy","pisteType":"downhill","featured":false},"geometry":{"type":"LineString","coordinates":[[13.4688376,46.3856839],[13.4692086,46.3857095],[13.4695062,46.3857448],[13.4696777,46.3857713],[13.4698632,46.3858073],[13.4700949,46.3858592],[13.4703429,46.3859251],[13.4705421,46.3859798],[13.4706377,46.3860022],[13.4708145,46.3860247],[13.4710564,46.3860583],[13.4713613,46.386099],[13.4718817,46.3861663],[13.472272,46.3862616],[13.4723899,46.3862939],[13.4724,46.3863163],[13.4723874,46.3863506]]}},{"type":"Feature","id":152671134,"properties":{"kind":"run","name":"Skripi I","subtype":"intermediate","pisteType":"downhill","featured":false},"geometry":{"type":"LineString","coordinates":[[13.4859696,46.3566478],[13.4863613,46.3562102],[13.4865128,46.355877],[13.486802,46.3559856]]}},{"type":"Feature","id":152671140,"properties":{"kind":"run","name":"Skripi III","subtype":"intermediate","pisteType":"downhill","featured":false},"geometry":{"type":"LineString","coordinates":[[13.4806711,46.357369],[13.481462,46.3576276],[13.4819175,46.3577834],[13.4822188,46.3578697],[13.4825139,46.357917],[13.4828071,46.3578921],[13.4832458,46.3578147],[13.483974,46.3576918],[13.4844638,46.357582],[13.4849319,46.3574006],[13.4852551,46.3571738],[13.4855075,46.3568636]]}},{"type":"Feature","id":152671144,"properties":{"kind":"run","name":"Mapped ski run","subtype":"intermediate","pisteType":"downhill","featured":false},"geometry":{"type":"LineString","coordinates":[[13.4767168,46.3586626],[13.4765837,46.3585686]]}},{"type":"Feature","id":152671148,"properties":{"kind":"run","name":"Skripi II","subtype":"intermediate","pisteType":"downhill","featured":false},"geometry":{"type":"LineString","coordinates":[[13.4865128,46.355877],[13.4867377,46.3557796],[13.4869504,46.3555874],[13.486962,46.35536],[13.4868799,46.3551409],[13.4867292,46.3548531],[13.4864917,46.354532],[13.4862556,46.3543474],[13.4861126,46.3541434],[13.4860946,46.3538637],[13.4863564,46.3538825],[13.4866287,46.3538885],[13.4870328,46.3539546],[13.4874445,46.354053],[13.4881317,46.354074],[13.4884443,46.3540692],[13.4887168,46.3539548],[13.4888031,46.3537851],[13.488856,46.3535131],[13.4888149,46.353257],[13.4887018,46.3529095],[13.4886365,46.3527026],[13.4886502,46.3524779],[13.4887737,46.3522709],[13.4889031,46.3521045],[13.4890148,46.3519746],[13.4891488,46.3518049],[13.4891501,46.3516133],[13.4890977,46.3515746],[13.4887424,46.3514085]]}},{"type":"Feature","id":152671156,"properties":{"kind":"run","name":"Veliki Graben","subtype":"easy","pisteType":"downhill","featured":false},"geometry":{"type":"LineString","coordinates":[[13.4749598,46.3581471],[13.4748223,46.3583342],[13.4745817,46.3585394],[13.4739398,46.3588761],[13.4739023,46.3591324],[13.4733106,46.3590889],[13.4729609,46.3589979],[13.4724744,46.3590717],[13.4722581,46.3589253],[13.4722566,46.3587868],[13.4724578,46.3585436],[13.4726401,46.3583161],[13.4728319,46.3581008],[13.4730275,46.3578605],[13.4731122,46.3575847],[13.4733011,46.3572227],[13.4735275,46.3567784],[13.4737303,46.3564856],[13.4738973,46.3561702],[13.4742003,46.3558215],[13.4745878,46.3556551],[13.4747594,46.3552244],[13.4749027,46.354997],[13.4755035,46.3546845],[13.4761097,46.354325],[13.4764028,46.354094],[13.4766703,46.3539524],[13.4770199,46.3539188],[13.4772034,46.3539507],[13.4776834,46.3541052]]}},{"type":"Feature","id":152671160,"properties":{"kind":"run","name":"Skripi III","subtype":"intermediate","pisteType":"downhill","featured":false},"geometry":{"type":"LineString","coordinates":[[13.4859696,46.3566478],[13.4868708,46.3563664],[13.4874341,46.3559628],[13.487698,46.355486],[13.4878691,46.3552334],[13.4879351,46.3548269],[13.4879771,46.3543667],[13.4881317,46.354074]]}},{"type":"Feature","id":152671168,"properties":{"kind":"run","name":"Skripi I/III","subtype":"intermediate","pisteType":"downhill","featured":false},"geometry":{"type":"LineString","coordinates":[[13.4855075,46.3568636],[13.4859696,46.3566478]]}},{"type":"Feature","id":152671176,"properties":{"kind":"run","name":"Mapped ski run","subtype":"expert","pisteType":"downhill","featured":false},"geometry":{"type":"LineString","coordinates":[[13.4807977,46.3670324],[13.4815718,46.3667083],[13.4826265,46.3663374],[13.4839397,46.3660687],[13.4849868,46.3658843],[13.4867549,46.3653402],[13.4882645,46.3646427],[13.4896925,46.3639631],[13.4908233,46.3633079],[13.4925399,46.3628932],[13.4936986,46.3625971],[13.4952436,46.3625379],[13.4973035,46.3622121],[13.498591,46.3617678],[13.5010801,46.3611163],[13.50314,46.3604647],[13.5050712,46.3595466],[13.5050841,46.358447],[13.5061162,46.3580102],[13.5073983,46.3576074],[13.5076097,46.3570172],[13.5073972,46.3556651],[13.5079637,46.3546669],[13.5080914,46.3537613],[13.5080223,46.3526919]]}},{"type":"Feature","id":152671183,"properties":{"kind":"run","name":"Podi","subtype":"easy","pisteType":"downhill","featured":false},"geometry":{"type":"LineString","coordinates":[[13.4739398,46.3588761],[13.4749609,46.3588391],[13.4752737,46.358828],[13.47591,46.3586556],[13.4761282,46.3586712]]}},{"type":"Feature","id":152671186,"properties":{"kind":"run","name":"Mapped ski run","subtype":"expert","pisteType":"downhill","featured":false},"geometry":{"type":"LineString","coordinates":[[13.4909521,46.3474766],[13.490822,46.3472627],[13.4907711,46.3470572],[13.4907737,46.3468906],[13.4908381,46.3464527],[13.4908824,46.3463897],[13.4909615,46.3463685],[13.4910554,46.3463879],[13.4912203,46.3464333],[13.4914275,46.3465013],[13.4918459,46.3467286],[13.4920397,46.3468346],[13.4921866,46.3469253],[13.4923287,46.3470327],[13.4924749,46.3471632],[13.4925433,46.3472225],[13.4926245,46.347266],[13.4926862,46.3472863],[13.4927566,46.3473053],[13.4928156,46.3473035],[13.4928511,46.3472937],[13.4928759,46.3472734],[13.4928665,46.3472382],[13.4928491,46.3472169],[13.4927981,46.3471822],[13.4927693,46.3471452],[13.4927579,46.3471077],[13.4927599,46.3470466],[13.4928136,46.3468688],[13.4928317,46.3465207],[13.4928484,46.3464439],[13.4928773,46.3464092],[13.4929188,46.3463958],[13.4929685,46.3464027],[13.4930073,46.3464314],[13.4930442,46.3464703],[13.4930952,46.3465721],[13.4931689,46.3466971],[13.4932159,46.3467517],[13.4932762,46.3467883],[13.4933507,46.3468239],[13.4934593,46.3468656],[13.4936544,46.3469406],[13.4938938,46.3470563]]}},{"type":"Feature","id":152818392,"properties":{"kind":"run","name":"Mapped ski run","subtype":"easy","pisteType":"downhill","featured":false},"geometry":{"type":"LineString","coordinates":[[13.4753319,46.3592076],[13.4752366,46.3591764],[13.4750885,46.3591606],[13.475023,46.359165],[13.474786,46.3591979],[13.4739023,46.3591324]]}},{"type":"Feature","id":204363719,"properties":{"kind":"run","name":"Gilberti","subtype":"easy","pisteType":"downhill","featured":false},"geometry":{"type":"LineString","coordinates":[[13.4616044,46.3723353],[13.4616341,46.3723811],[13.4616947,46.3724442],[13.4617695,46.3725087],[13.4619173,46.3725418],[13.4621044,46.3726042],[13.462317,46.3727025],[13.4625238,46.3727933],[13.4628066,46.372872],[13.4631278,46.3729105],[13.4633269,46.3729492],[13.4635634,46.3729918],[13.4637893,46.3730645],[13.4638139,46.3730724],[13.4639593,46.3731192],[13.464062,46.3731326],[13.4641613,46.3731574],[13.464291,46.3732103],[13.4643973,46.3732929],[13.4644753,46.3733844],[13.4645193,46.3734924],[13.4645497,46.3735698],[13.4646069,46.3736375],[13.4646898,46.3736884],[13.464774,46.3737313],[13.4649654,46.3738107],[13.465304,46.3739303],[13.4654728,46.3739927],[13.465714,46.3741017],[13.4658412,46.3741608],[13.4659293,46.374178],[13.4660166,46.374182],[13.4661203,46.3741811],[13.4662262,46.3741592],[13.4663112,46.3741334],[13.4664462,46.3740502],[13.4665648,46.3739023],[13.466622,46.3738486],[13.4667048,46.3737917],[13.4667612,46.3737517],[13.4668371,46.3737105],[13.4669832,46.3735831],[13.4670707,46.3734376],[13.4671133,46.3733382],[13.4671022,46.3732717],[13.4670735,46.3731644],[13.4669537,46.3730431]]}},{"type":"Feature","id":256071722,"properties":{"kind":"run","name":"Campo Scuola 2","subtype":"novice","pisteType":"downhill","featured":false},"geometry":{"type":"LineString","coordinates":[[13.476298,46.3871218],[13.4763195,46.3871768],[13.4762905,46.3872418],[13.476253,46.3872906],[13.4761216,46.3873574],[13.4758704,46.3874604],[13.4754598,46.3875891],[13.475109,46.3877007],[13.4746736,46.3878186],[13.4743059,46.3878525],[13.4740828,46.3877965],[13.4740257,46.3877386]]}},{"type":"Feature","id":256071726,"properties":{"kind":"run","name":"Campo Scuola 1","subtype":"novice","pisteType":"downhill","featured":false},"geometry":{"type":"LineString","coordinates":[[13.476298,46.3871218],[13.4762088,46.3870555],[13.4761284,46.3870121],[13.4760018,46.3869774],[13.4757401,46.3870353],[13.4753996,46.3871436],[13.4750944,46.3872249],[13.4748389,46.3872875],[13.47472,46.3873166],[13.4740597,46.3874636],[13.4739859,46.3876414],[13.4740257,46.3877386]]}},{"type":"Feature","id":256071756,"properties":{"kind":"run","name":"Variante Turistica Bassa","subtype":"intermediate","pisteType":"downhill","featured":false},"geometry":{"type":"LineString","coordinates":[[13.4635495,46.3777201],[13.4636219,46.3777768],[13.4636994,46.3778061],[13.4637731,46.3778233],[13.4639088,46.3778372],[13.4640856,46.3778436],[13.4644101,46.3778307],[13.4648173,46.3778357],[13.4650744,46.3778539],[13.4653314,46.3778983],[13.4655714,46.3779796],[13.4657234,46.3780484],[13.4659214,46.378175],[13.4661189,46.3783307],[13.4662981,46.3785074],[13.4666239,46.3788249],[13.4668907,46.3789995],[13.4671894,46.3791527],[13.4674887,46.3793198],[13.4677833,46.3795657],[13.4678443,46.3797082],[13.4678688,46.3798542],[13.4678308,46.3799525],[13.4677073,46.3801197],[13.4676583,46.3802148],[13.4675853,46.3803352],[13.4675474,46.3804088],[13.467492,46.3805555]]}},{"type":"Feature","id":256071797,"properties":{"kind":"run","name":"Podi","subtype":"easy","pisteType":"downhill","featured":false},"geometry":{"type":"LineString","coordinates":[[13.47591,46.3586556],[13.4758725,46.358627]]}},{"type":"Feature","id":256071804,"properties":{"kind":"run","name":"Skripi I","subtype":"intermediate","pisteType":"downhill","featured":false},"geometry":{"type":"LineString","coordinates":[[13.4757247,46.3596202],[13.4759113,46.3594577],[13.4760191,46.3592486],[13.4761473,46.3589394],[13.4761282,46.3586712],[13.4764013,46.3583079],[13.4766676,46.3579398],[13.4768855,46.3576489],[13.4770931,46.3575255],[13.4773424,46.3574773],[13.4776119,46.3574922],[13.4778804,46.3575561],[13.4782279,46.3576877],[13.4784701,46.357756],[13.4787038,46.3577986],[13.4789155,46.3577887],[13.4791383,46.357743],[13.4794559,46.3576011],[13.4797713,46.3575209],[13.480318,46.3573974],[13.4806711,46.357369],[13.4812894,46.3571914],[13.4819409,46.3571031],[13.4823915,46.3570383],[13.4826719,46.3569818],[13.4827539,46.356923],[13.4827083,46.3567522],[13.4826735,46.3566305],[13.4827083,46.3565287],[13.4828129,46.3564509],[13.482992,46.3564521],[13.4831724,46.3565138],[13.4833485,46.3565936],[13.4836827,46.3567001],[13.483981,46.3568637],[13.4842372,46.3569507],[13.4844115,46.3569776],[13.4847951,46.3569803],[13.4851073,46.3569493],[13.4855075,46.3568636]]}},{"type":"Feature","id":256071904,"properties":{"kind":"run","name":"Mapped ski run","subtype":"intermediate","pisteType":"downhill","featured":false},"geometry":{"type":"LineString","coordinates":[[13.4810835,46.3691445],[13.481105,46.3692328]]}},{"type":"Feature","id":256071935,"properties":{"kind":"run","name":"Skiweg Gilberti - Canin","subtype":"intermediate","pisteType":"downhill","featured":false},"geometry":{"type":"LineString","coordinates":[[13.4637893,46.3730645],[13.4638076,46.3730952],[13.4638397,46.3731545],[13.4638579,46.3731956],[13.4638612,46.3732442],[13.463825,46.3732997],[13.4637935,46.3733418],[13.4636982,46.3734145],[13.4636392,46.3734616],[13.4635616,46.3734999],[13.4634968,46.3735345],[13.4634156,46.373605],[13.4633637,46.3736526],[13.4632858,46.3737212],[13.4631224,46.3737845],[13.4629773,46.3738263],[13.4627578,46.373882],[13.4624881,46.3739477],[13.4621924,46.3740173],[13.4618804,46.3740793],[13.4614797,46.3741454],[13.4611916,46.3741906],[13.4607798,46.3742724]]}},{"type":"Feature","id":256071939,"properties":{"kind":"run","name":"Mapped ski run","subtype":"easy","pisteType":"downhill","featured":false},"geometry":{"type":"LineString","coordinates":[[13.4756109,46.3592802],[13.4754292,46.3593115]]}},{"type":"Feature","id":256071942,"properties":{"kind":"run","name":"Mapped ski run","subtype":"easy","pisteType":"downhill","featured":false},"geometry":{"type":"LineString","coordinates":[[13.4750885,46.3591606],[13.4752059,46.3593447]]}},{"type":"Feature","id":256071945,"properties":{"kind":"run","name":"Mapped ski run","subtype":"easy","pisteType":"downhill","featured":false},"geometry":{"type":"LineString","coordinates":[[13.4615333,46.3723431],[13.4616044,46.3723353]]}},{"type":"Feature","id":256071947,"properties":{"kind":"run","name":"Mapped ski run","subtype":"easy","pisteType":"downhill","featured":false},"geometry":{"type":"LineString","coordinates":[[13.4738165,46.387015],[13.4736928,46.3868784],[13.4736457,46.3868668],[13.4735183,46.3868643],[13.4733777,46.3869314],[13.4733754,46.3868624],[13.473373,46.3867996],[13.4733403,46.38669],[13.473289,46.3865837],[13.4732096,46.3864661],[13.4731361,46.3864138],[13.4730731,46.3863811],[13.4729924,46.3863534],[13.4728056,46.3863276],[13.4723874,46.3863506]]}},{"type":"Feature","id":256071948,"properties":{"kind":"run","name":"Mapped ski run","subtype":"novice","pisteType":"downhill","featured":false},"geometry":{"type":"LineString","coordinates":[[13.4740257,46.3877386],[13.4740996,46.3877224]]}},{"type":"Feature","id":256071952,"properties":{"kind":"run","name":"Mapped ski run","subtype":"easy","pisteType":"downhill","featured":false},"geometry":{"type":"LineString","coordinates":[[13.4619093,46.3723985],[13.4616044,46.3723353]]}},{"type":"Feature","id":256071954,"properties":{"kind":"run","name":"Mapped ski run","subtype":"easy","pisteType":"downhill","featured":false},"geometry":{"type":"LineString","coordinates":[[13.4613429,46.3720262],[13.4614685,46.3718617],[13.4615273,46.3717461],[13.4615202,46.371614]]}},{"type":"Feature","id":331502265,"properties":{"kind":"run","name":"Mapped ski run","subtype":"expert","pisteType":"downhill","featured":false},"geometry":{"type":"LineString","coordinates":[[13.5083783,46.3437634],[13.5084047,46.3438052]]}},{"type":"Feature","id":331502267,"properties":{"kind":"run","name":"Mapped ski run","subtype":"easy","pisteType":"downhill","featured":false},"geometry":{"type":"LineString","coordinates":[[13.4615202,46.371614],[13.4615567,46.3715533],[13.4616775,46.3715297]]}},{"type":"Feature","id":331502288,"properties":{"kind":"run","name":"Mapped ski run","subtype":"intermediate","pisteType":"downhill","featured":false},"geometry":{"type":"LineString","coordinates":[[13.4765837,46.3585686],[13.4763976,46.3584126],[13.4764013,46.3583079]]}},{"type":"Feature","id":331502296,"properties":{"kind":"run","name":"Campo Scuola","subtype":"novice","pisteType":"downhill","featured":false},"geometry":{"type":"LineString","coordinates":[[13.4762384,46.3871355],[13.476298,46.3871218]]}},{"type":"Feature","id":331502297,"properties":{"kind":"run","name":"Skripi II","subtype":"intermediate","pisteType":"downhill","featured":false},"geometry":{"type":"LineString","coordinates":[[13.4885804,46.3515408],[13.4886044,46.3515645]]}},{"type":"Feature","id":331502298,"properties":{"kind":"run","name":"Skripi II","subtype":"intermediate","pisteType":"downhill","featured":false},"geometry":{"type":"LineString","coordinates":[[13.4887424,46.3514085],[13.4885641,46.351498],[13.4885804,46.3515408]]}},{"type":"Feature","id":428843934,"properties":{"kind":"lift","name":"Žičnica Golobar","subtype":"cable_car","status":"active"},"geometry":{"type":"LineString","coordinates":[[13.5904037,46.3337887],[13.5905068,46.3337027],[13.5905657,46.3337364],[13.5904626,46.3338224],[13.5904037,46.3337887]]}},{"type":"Feature","id":428945537,"properties":{"kind":"run","name":"Mapped ski run","subtype":"expert","pisteType":"downhill","featured":false},"geometry":{"type":"LineString","coordinates":[[13.5046394,46.3506434],[13.5046763,46.3504861],[13.5047051,46.3503588],[13.5047145,46.3502662],[13.5047132,46.3500487],[13.5047098,46.349852],[13.5047226,46.3496955],[13.504748,46.3495419],[13.5047889,46.3494086],[13.5048486,46.3493095],[13.5049338,46.3492341],[13.5050116,46.3491605],[13.5051128,46.3490244],[13.5051464,46.3489656],[13.5051779,46.3488804],[13.5051899,46.3487971],[13.505202,46.3486796],[13.5052288,46.3485722],[13.5052409,46.3484592],[13.5052342,46.3483625],[13.505208,46.348256],[13.5051464,46.3480774],[13.5051048,46.3479107],[13.5050759,46.3478293],[13.505031,46.3477742],[13.5049787,46.3477284],[13.5049499,46.347689],[13.5049392,46.3476381],[13.5049204,46.3475817],[13.5048781,46.3475085],[13.5047883,46.3474118],[13.5046756,46.3473308],[13.504518,46.3472363],[13.5044242,46.347185],[13.5043766,46.3471428],[13.5043082,46.3470753],[13.5042129,46.3469906],[13.5040929,46.3468772],[13.5039407,46.3467096],[13.5038046,46.3465531],[13.5036403,46.3464027],[13.5034257,46.3462027],[13.5032728,46.3460694],[13.5030958,46.3459644],[13.5029389,46.3458505],[13.5027833,46.3457362],[13.5026707,46.3456561],[13.5026009,46.3456223],[13.5025131,46.3455936],[13.5024071,46.3455686],[13.5022878,46.3455329],[13.5021463,46.345476],[13.5019653,46.3453922],[13.5018023,46.3453321],[13.5016025,46.3452756],[13.5014348,46.345227],[13.5012726,46.345196],[13.5009433,46.3451562],[13.5007147,46.3451154],[13.5005028,46.3450858],[13.5002379,46.3450673],[13.5000052,46.3450627],[13.4998309,46.3450668],[13.4996793,46.3450802],[13.499562,46.3450853],[13.4994406,46.3450756],[13.4993226,46.3450437],[13.4992408,46.345002],[13.4991483,46.3449405],[13.4990913,46.3448831],[13.4990289,46.3448201],[13.4989907,46.34479],[13.4989431,46.3447655],[13.4988841,46.3447558],[13.4987942,46.3447567],[13.4986024,46.344772],[13.4984549,46.3447761],[13.4983168,46.3447706],[13.4982383,46.3447539],[13.4981496,46.3447153],[13.4981069,46.3446729],[13.4980814,46.3446174],[13.4980673,46.34454],[13.4980707,46.3444382],[13.4980861,46.3443628],[13.4981143,46.3442808],[13.4981699,46.344204],[13.4982403,46.3441193],[13.49829,46.3440401],[13.4983148,46.3439776],[13.4983275,46.34386],[13.4983376,46.3437119],[13.4983617,46.3435721],[13.4984026,46.3433235],[13.4984127,46.3432161],[13.4984033,46.3431296],[13.4983664,46.3430463],[13.498321,46.3429722],[13.4982826,46.3429199],[13.498188,46.3428255],[13.4980392,46.3426903],[13.4978662,46.342563],[13.4977998,46.3425014],[13.4977421,46.3424389],[13.4976885,46.3423574],[13.4976529,46.3422556],[13.4976288,46.342101],[13.497614,46.3419769],[13.4976154,46.3418686],[13.4976523,46.3416927],[13.4976536,46.3416163],[13.4976328,46.3415464],[13.4976161,46.3414474],[13.4976107,46.3412738],[13.4975986,46.3412034],[13.4975631,46.3411427],[13.4975081,46.3411034],[13.4974337,46.3410752],[13.4973237,46.3410543],[13.4972305,46.3410354],[13.4971473,46.3410002],[13.4970662,46.3409516],[13.496967,46.3408705],[13.4968677,46.3408011],[13.496804,46.3407687],[13.4967349,46.3407548],[13.4966525,46.3407539],[13.4964153,46.3407688],[13.4962944,46.3407678],[13.4962092,46.3407594],[13.4961482,46.3407409],[13.496108,46.3407132],[13.4960973,46.3406784],[13.4961019,46.3406456],[13.4961329,46.3406151]]}},{"type":"Feature","id":474363561,"properties":{"kind":"run","name":"Mapped ski run","subtype":"expert","pisteType":"downhill","featured":false},"geometry":{"type":"LineString","coordinates":[[13.4961329,46.3406151],[13.4962025,46.3406192],[13.4963286,46.3406433],[13.4964211,46.3406618],[13.4964882,46.340659],[13.4965888,46.3406331],[13.4967175,46.3406053],[13.4968194,46.3405942],[13.4968986,46.3405997],[13.496979,46.3406321],[13.4970635,46.3406766],[13.4971936,46.3407266],[13.4973371,46.3407581],[13.4975101,46.3407784]]}},{"type":"Feature","id":474806068,"properties":{"kind":"run","name":"Mapped ski run","subtype":"easy","pisteType":"downhill","featured":false},"geometry":{"type":"LineString","coordinates":[[13.4742055,46.3588259],[13.4749223,46.3587828],[13.4757377,46.3586718],[13.4759987,46.3586405],[13.4759355,46.3587463],[13.4758792,46.3589962],[13.4758493,46.359097],[13.4756514,46.3590804],[13.4754172,46.3591577],[13.4752366,46.3591764],[13.4750885,46.3591606],[13.4749465,46.3593252],[13.4746997,46.3593086],[13.4736798,46.3591517],[13.4740178,46.3590036],[13.4742055,46.3588259]]}},{"type":"Feature","id":474806071,"properties":{"kind":"run","name":"Veliki Graben","subtype":"easy","pisteType":"downhill","featured":false},"geometry":{"type":"LineString","coordinates":[[13.4748466,46.3581188],[13.4749834,46.3581928],[13.4748948,46.3583168],[13.4747446,46.358489],[13.4745488,46.3586186],[13.474286,46.3587555],[13.4742055,46.3588259],[13.4740178,46.3590036],[13.4736798,46.3591517],[13.4732399,46.3591128],[13.4728912,46.3591017],[13.4725694,46.3590924],[13.4723897,46.3591202],[13.4721617,46.3590887],[13.4719927,46.358961],[13.471982,46.3587611],[13.4723226,46.3582668],[13.4727893,46.3578392],[13.4729851,46.3574931],[13.4732292,46.3570821],[13.4733043,46.3569359],[13.473425,46.3565749],[13.4737469,46.3561028],[13.4742216,46.3557085],[13.474412,46.3556493],[13.4745274,46.3555049],[13.4746561,46.3553309],[13.4747151,46.3551199],[13.4748412,46.3549606],[13.475273,46.3547403],[13.4758229,46.3544553],[13.4762145,46.3541887],[13.4764988,46.3539795],[13.4768663,46.3538221],[13.4770192,46.3537925],[13.4772579,46.3538388],[13.4773732,46.3539147],[13.4775341,46.3540017],[13.4776441,46.354011],[13.4775663,46.3541054],[13.4772874,46.3540739],[13.4771157,46.3539998],[13.4767483,46.354011],[13.4765417,46.3540869],[13.4762708,46.3543257],[13.4758336,46.3545904],[13.475552,46.3547274],[13.4753508,46.354844],[13.4751228,46.3549514],[13.4749217,46.3551087],[13.4748063,46.3552642],[13.4748305,46.3554549],[13.4748171,46.3556771],[13.4746722,46.3557696],[13.4744255,46.3558381],[13.4742431,46.3559362],[13.4740955,46.356201],[13.4736771,46.3566638],[13.4734438,46.3570229],[13.473256,46.3575319],[13.4730709,46.358004],[13.4727437,46.3584371],[13.4724353,46.3587537],[13.472336,46.3588833],[13.472387,46.3589629],[13.472505,46.3589851],[13.4727303,46.3589906],[13.4729771,46.3589555],[13.4732426,46.3589832],[13.4734625,46.3590239],[13.4736959,46.3589629],[13.4739346,46.3588037],[13.4742699,46.3585945],[13.4746105,46.3583501],[13.4748466,46.3581188]]}},{"type":"Feature","id":474806076,"properties":{"kind":"run","name":"Ski touring route","subtype":"easy","pisteType":"skitour","featured":false},"geometry":{"type":"LineString","coordinates":[[13.4690091,46.3608818],[13.469419,46.3605803],[13.4703604,46.3598362],[13.4715352,46.3590588],[13.4722566,46.3587868]]}},{"type":"Feature","id":474806077,"properties":{"kind":"run","name":"SV stena - Parete NE","subtype":"expert","pisteType":"skitour","featured":false},"geometry":{"type":"LineString","coordinates":[[13.4724088,46.3621293],[13.4727509,46.3621347],[13.4729199,46.3621773],[13.4731318,46.3625216],[13.4732257,46.362753],[13.473451,46.3630769],[13.4738801,46.363523],[13.4743817,46.3638728],[13.4744327,46.3638894],[13.4748028,46.3638802],[13.4752507,46.3638154],[13.4757872,46.3637765],[13.4761842,46.3637136],[13.4763129,46.3637728],[13.4763183,46.3640782],[13.4761386,46.3643577],[13.4760286,46.3645076],[13.4755129,46.3653355],[13.4750945,46.366024],[13.4747834,46.3664978],[13.4741504,46.3672974],[13.4727985,46.3689705],[13.4701207,46.3703793],[13.4697456,46.3708198]]}},{"type":"Feature","id":474806078,"properties":{"kind":"run","name":"Vzhodno pobočje - Parete E","subtype":"intermediate","pisteType":"skitour","featured":false},"geometry":{"type":"LineString","coordinates":[[13.4724034,46.3621311],[13.4727509,46.3621347],[13.4729253,46.362131],[13.473274,46.3621681],[13.4736977,46.362107],[13.4740196,46.3620422],[13.4743334,46.3619941],[13.4748122,46.3619931],[13.4753647,46.3619061],[13.4755632,46.3618673],[13.4765851,46.361771],[13.4771975,46.3616482]]}},{"type":"Feature","id":487531136,"properties":{"kind":"lift","name":"Zip Line","subtype":"zip_line","status":"active"},"geometry":{"type":"LineString","coordinates":[[13.5105575,46.3527442],[13.504973,46.348885]]}},{"type":"Feature","id":487531138,"properties":{"kind":"lift","name":"Zip Line","subtype":"zip_line","status":"active"},"geometry":{"type":"LineString","coordinates":[[13.5049084,46.3488005],[13.5110193,46.3513473]]}},{"type":"Feature","id":487531140,"properties":{"kind":"lift","name":"Zip Line","subtype":"zip_line","status":"active"},"geometry":{"type":"LineString","coordinates":[[13.5109741,46.3511482],[13.5061387,46.3486378]]}},{"type":"Feature","id":487531142,"properties":{"kind":"lift","name":"Zip Line","subtype":"zip_line","status":"active"},"geometry":{"type":"LineString","coordinates":[[13.5066092,46.3482064],[13.5119527,46.3498259]]}},{"type":"Feature","id":487531143,"properties":{"kind":"lift","name":"Zip Line","subtype":"zip_line","status":"active"},"geometry":{"type":"LineString","coordinates":[[13.5119527,46.3498259],[13.5084439,46.345839],[13.5084099,46.3458009]]}},{"type":"Feature","id":508948461,"properties":{"kind":"run","name":"Ski touring route","subtype":"intermediate","pisteType":"skitour","featured":false},"geometry":{"type":"LineString","coordinates":[[13.4634876,46.3678271],[13.4625649,46.3673866],[13.4616637,46.3669202],[13.460741,46.3665278],[13.4598184,46.3665204],[13.4591532,46.3667203],[13.4588689,46.3669535],[13.4584826,46.3671571],[13.4577262,46.3672755],[13.4571361,46.3672163],[13.4565353,46.3671016],[13.4559721,46.3668276],[13.4555429,46.3665167],[13.4550816,46.3662761],[13.4545076,46.3660762],[13.4543064,46.3660447],[13.4539953,46.3660225],[13.4537619,46.3660521],[13.4536305,46.3661132],[13.4533301,46.3661724],[13.453196,46.3661613],[13.4530565,46.3660966],[13.452909,46.3659966],[13.4528366,46.3659152],[13.4527856,46.3658559]]}},{"type":"Feature","id":508948463,"properties":{"kind":"run","name":"Ski touring route","subtype":"expert","pisteType":"skitour","featured":false},"geometry":{"type":"LineString","coordinates":[[13.4690091,46.3608818],[13.468793,46.3613711],[13.4684873,46.3623855]]}},{"type":"Feature","id":508965354,"properties":{"kind":"run","name":"Mapped ski run","subtype":"intermediate","pisteType":"downhill","featured":false},"geometry":{"type":"LineString","coordinates":[[13.4702656,46.3704588],[13.4702119,46.3704736],[13.4700322,46.3704996],[13.4699249,46.3705181],[13.4698659,46.370531],[13.4698042,46.3705403],[13.4695736,46.3705902],[13.4694609,46.3706124],[13.4694073,46.3706328],[13.4693027,46.370668],[13.4692517,46.3706902],[13.469198,46.3707105],[13.4690988,46.3707513],[13.4689996,46.3707975],[13.4689432,46.3708197],[13.4687421,46.3708956],[13.4686401,46.3709326],[13.4685892,46.3709493],[13.4684846,46.370977],[13.4684256,46.3709881],[13.4683692,46.3710011],[13.4683129,46.3710066],[13.4682566,46.3710159],[13.4681413,46.37104],[13.4680876,46.3710492],[13.4680286,46.3710622],[13.4679669,46.3710696],[13.4679133,46.3710788],[13.4678516,46.3710844],[13.4677899,46.3710936],[13.4677362,46.3711084],[13.4675807,46.3711769],[13.4675324,46.3711991],[13.4674868,46.3712232],[13.4673929,46.3712657],[13.467291,46.3713083],[13.4672427,46.3713342],[13.4671998,46.3713638],[13.4671891,46.3713786],[13.4671676,46.3714156],[13.4671488,46.3714527],[13.4671354,46.3714915],[13.4671167,46.3715267],[13.4670684,46.3715989],[13.4670147,46.3716692],[13.4669423,46.371734],[13.4669021,46.3717636],[13.4668511,46.3717821],[13.4668028,46.3718043],[13.4667599,46.371832],[13.4667063,46.3718487],[13.466658,46.3718672],[13.466607,46.371882],[13.4665534,46.3719005],[13.4664541,46.3719449],[13.4664139,46.3719727],[13.466379,46.3720042],[13.4663308,46.3720245],[13.4665427,46.3721874],[13.4665547,46.3721504],[13.4665561,46.3721328],[13.4665494,46.3720958],[13.466548,46.3720578],[13.4665614,46.3720217],[13.4665708,46.3720051],[13.4666419,46.3719773],[13.466666,46.3719699],[13.4666875,46.3719597],[13.4667532,46.3719246],[13.4668699,46.3718709],[13.4669155,46.3718469],[13.4669356,46.3718339],[13.4670456,46.3717775],[13.4670697,46.3717682],[13.4670845,46.3717534],[13.4671354,46.371721],[13.467181,46.3717006],[13.4672213,46.3716766],[13.4672642,46.3716544],[13.4673044,46.3716303],[13.4673822,46.3715785],[13.4674707,46.3715304],[13.4675485,46.3714786],[13.4675887,46.3714545],[13.4676263,46.3714268],[13.4676692,46.3714027],[13.4677175,46.371386],[13.4678113,46.3713453],[13.4679535,46.3712917],[13.4680018,46.3712768],[13.4680527,46.3712639],[13.4681037,46.3712472],[13.4681547,46.3712343],[13.4682083,46.371225],[13.468262,46.3712121],[13.4683102,46.3711991],[13.4683612,46.3711825],[13.4686187,46.3711121],[13.4686697,46.371101],[13.4687287,46.371101],[13.4687823,46.3710973],[13.4688333,46.3710918],[13.4690613,46.3710529],[13.4691122,46.3710474],[13.4693482,46.3710326],[13.4693804,46.3710196],[13.4694394,46.3710085],[13.4694877,46.3709955],[13.4695333,46.3709752],[13.4695816,46.3709622],[13.4696808,46.3709308],[13.4697291,46.3709123],[13.4698284,46.3708845],[13.4698766,46.3708678],[13.4699249,46.3708549],[13.4701154,46.3707809],[13.470169,46.3707642],[13.4703192,46.3707253],[13.4703648,46.3707216],[13.4704185,46.370705],[13.4705284,46.3706772],[13.4705687,46.3706495],[13.4706169,46.3706273],[13.4706652,46.3706087],[13.4707099,46.3705817],[13.4707618,46.3705736],[13.4708101,46.3705551],[13.4708664,46.3705366],[13.47092,46.3705218],[13.4709737,46.3705162],[13.4710246,46.3705033],[13.4711963,46.3704922],[13.4712526,46.3704922],[13.4713089,46.3704903],[13.4714189,46.3704903],[13.4714752,46.3704866],[13.4715879,46.3704736],[13.4717622,46.3704625],[13.4718776,46.3704625],[13.4720948,46.3704773],[13.4721512,46.3704885],[13.4722048,46.3704959],[13.4722611,46.370494],[13.4723175,46.3704848],[13.4723684,46.3704699],[13.4724596,46.3704237],[13.4725025,46.3703959],[13.4725401,46.3703663],[13.4725669,46.3703311],[13.4726045,46.3702997],[13.4726474,46.3702701],[13.4726876,46.3702331],[13.4727171,46.3702016],[13.4727547,46.3701683],[13.4728351,46.3701091],[13.4728807,46.3700831],[13.4728914,46.3700739],[13.4729397,46.3700517],[13.4730443,46.3700184],[13.473098,46.3700036],[13.4731489,46.3699851],[13.4731945,46.369961],[13.4732294,46.3699277],[13.4732562,46.3698944],[13.4733233,46.369787],[13.4733421,46.3697519],[13.4733903,46.3696852],[13.4734172,46.3696519],[13.4734413,46.3696168],[13.4734762,46.3695872],[13.4736183,46.3695205],[13.4736639,46.3694965],[13.4737068,46.3694706],[13.4737551,46.3694465],[13.4737873,46.3694261],[13.4738356,46.3694095],[13.4739375,46.369378],[13.4739858,46.3693595],[13.4740421,46.3693466],[13.4740984,46.3693429],[13.4741521,46.369341],[13.4743828,46.3693484],[13.4745464,46.3693651],[13.474659,46.3693688],[13.4747127,46.3693762],[13.474769,46.3693817],[13.4748253,46.3693762],[13.474879,46.3693651],[13.4749219,46.369341],[13.4749541,46.3693095],[13.4750023,46.3692855],[13.4751257,46.3692022],[13.4752035,46.3691393],[13.4752625,46.3690726],[13.4752947,46.3690393],[13.4753323,46.3690097],[13.4753779,46.3689857],[13.4754959,46.3689357],[13.4756032,46.3689061],[13.4756568,46.3688931],[13.4758419,46.3688524],[13.4759009,46.368845],[13.4759545,46.3688432],[13.4760082,46.3688376],[13.4760672,46.3688265],[13.4761503,46.3688191],[13.476263,46.3688191],[13.476322,46.3688209],[13.47644,46.3688172],[13.476609,46.3688154],[13.4766626,46.3688172],[13.476719,46.3688209],[13.4767753,46.3688265],[13.4768289,46.3688283],[13.4770006,46.3688283],[13.4770623,46.3688302],[13.4772313,46.3688283],[13.4772876,46.3688246],[13.4773976,46.3688246],[13.4774539,46.3688209],[13.4775156,46.3688191],[13.4776336,46.3688228],[13.4776926,46.3688172],[13.4777972,46.3687913],[13.4778911,46.3687747],[13.4779474,46.3687673],[13.4780064,46.3687617],[13.4781244,46.3687432],[13.4782961,46.368734],[13.4783497,46.3687266],[13.4784651,46.3687154],[13.4785214,46.3687043],[13.4785724,46.368684],[13.478626,46.3686673],[13.4786662,46.3686396],[13.4787011,46.3686081],[13.4787387,46.3685785],[13.4787843,46.3685544],[13.4788808,46.3685082],[13.4789264,46.3684841],[13.478964,46.3684526],[13.4790042,46.3684249],[13.4790981,46.3683731],[13.4791544,46.3683379],[13.479192,46.3683083],[13.4792376,46.3682861],[13.4792805,46.3682565],[13.4793261,46.3682324],[13.4793636,46.3682009],[13.4793931,46.3681676],[13.479428,46.3681343],[13.4794655,46.3681047],[13.4795111,46.3680788],[13.4796989,46.3679862],[13.4797364,46.3679585],[13.4797659,46.367927],[13.4798008,46.3678956],[13.4798813,46.3678308],[13.4799618,46.3677734],[13.48001,46.3677456],[13.4800529,46.367716],[13.4800985,46.3676901],[13.4801897,46.3676438],[13.48023,46.3676161],[13.4803078,46.3675532],[13.4803373,46.3675217],[13.4803748,46.3674884],[13.4804177,46.3674606],[13.4804499,46.3674273],[13.4805572,46.3672885],[13.4805787,46.3672533],[13.4806082,46.36722],[13.480643,46.3671867],[13.4806699,46.3672219],[13.4807128,46.36727],[13.4807289,46.3672857],[13.4807302,46.3673042],[13.481036,46.3673727],[13.4810601,46.3673625],[13.4811366,46.3673422],[13.4806923,46.3668139],[13.4806766,46.3668304],[13.4806658,46.3668461],[13.4806511,46.3668628],[13.4806417,46.3668804],[13.4806296,46.366897],[13.4806135,46.3669128],[13.4805934,46.3669257],[13.4805706,46.3669359],[13.480521,46.3669498],[13.4804955,46.3669507],[13.4804687,46.3669535],[13.4804432,46.3669581],[13.4803909,46.3669627],[13.4803373,46.3669729],[13.4803104,46.3669757],[13.4802622,46.3669905],[13.480175,46.367034],[13.4801549,46.367047],[13.4801321,46.367059],[13.480116,46.3670747],[13.4800248,46.3671525],[13.480006,46.3671654],[13.4799618,46.3671895],[13.4799403,46.3672034],[13.4799202,46.3672172],[13.4799041,46.367233],[13.479888,46.3672367],[13.4798639,46.3672478],[13.4798129,46.3672626],[13.4797874,46.3672728],[13.4797646,46.3672857],[13.4797458,46.3672996],[13.4796815,46.3673357],[13.4796372,46.3673579],[13.4795634,46.3673847],[13.4795205,46.3674097],[13.4794763,46.3674319],[13.4794562,46.367444],[13.4794173,46.3674717],[13.4794025,46.3674875],[13.4793891,46.367506],[13.479365,46.3675411],[13.4793569,46.3675587],[13.4793355,46.3675957],[13.479322,46.3676503],[13.47931,46.3676698],[13.4792805,46.3677012],[13.4792376,46.3677697],[13.479208,46.3678012],[13.4791705,46.3678271],[13.4790874,46.3678752],[13.4790498,46.367903],[13.4788889,46.3680085],[13.4787789,46.3680954],[13.4786984,46.3681436],[13.4786528,46.3681639],[13.4785992,46.3681843],[13.478449,46.3682361],[13.4784034,46.3682528],[13.4783551,46.3682731],[13.4781459,46.3683212],[13.4781003,46.3683416],[13.4780493,46.3683527],[13.4779447,46.3683786],[13.4778374,46.3683934],[13.4777838,46.368399],[13.4777275,46.368399],[13.4776765,46.3684045],[13.4776229,46.3684156],[13.4775746,46.3684286],[13.4775183,46.3684378],[13.4774619,46.3684415],[13.477411,46.3684378],[13.47736,46.3684304],[13.4773064,46.3684249],[13.47725,46.368423],[13.4771964,46.3684249],[13.4771401,46.3684323],[13.4770435,46.3684526],[13.4769845,46.3684526],[13.4769335,46.3684508],[13.4768236,46.3684397],[13.4767216,46.3684434],[13.4766707,46.3684545],[13.476617,46.3684637],[13.4765634,46.3684693],[13.4764615,46.3684897],[13.4764078,46.3684952],[13.4763542,46.3685045],[13.4763005,46.3685119],[13.4762442,46.3685119],[13.4761932,46.3685137],[13.476086,46.3685285],[13.4759814,46.3685396],[13.4759304,46.3685507],[13.4758821,46.3685692],[13.4758446,46.3685933],[13.4758016,46.3686155],[13.4757078,46.3686525],[13.4756675,46.3686766],[13.4756246,46.3686969],[13.4755307,46.3687358],[13.4752579,46.3686979],[13.4754556,46.3687617],[13.4754074,46.3687784],[13.4753537,46.3687913],[13.4753054,46.368808],[13.4752491,46.3688228],[13.474976,46.3688139],[13.4749688,46.3688473],[13.4750426,46.3688839],[13.4749997,46.3689061],[13.4749675,46.3689357],[13.4749272,46.3689635],[13.474879,46.368982],[13.4748414,46.3689894],[13.4747931,46.3690042],[13.474541,46.3690726],[13.4744954,46.3690912],[13.4743908,46.3691226],[13.4743425,46.3691411],[13.4742916,46.3691578],[13.4741923,46.3691837],[13.4741387,46.3691911],[13.474026,46.3691911],[13.4739724,46.3691892],[13.4739187,46.3691892],[13.4738114,46.3692078],[13.4737605,46.3692152],[13.4736559,46.3692355],[13.4736049,46.3692485],[13.4735566,46.369267],[13.473511,46.3692873],[13.4734681,46.3693169],[13.4734225,46.3693373],[13.4733796,46.3693651],[13.473334,46.3693854],[13.4732857,46.3694095],[13.4731999,46.3694632],[13.4730765,46.3695372],[13.4730336,46.3695612],[13.4729505,46.3696149],[13.4729129,46.3696427],[13.4728807,46.3696704],[13.4728512,46.3697],[13.4728244,46.3697334],[13.4728056,46.3697704],[13.4727734,46.3697981],[13.4727573,46.3698351],[13.4727547,46.3698722],[13.4727493,46.3699092],[13.4727332,46.3699851],[13.4725827,46.3700237],[13.4726366,46.3701257],[13.4724838,46.3702275],[13.4724382,46.3702497],[13.4723416,46.3702793],[13.472288,46.3702904],[13.4721243,46.3703052],[13.47206,46.3703145],[13.4720063,46.37032],[13.47195,46.37032],[13.4718952,46.3703148],[13.4718454,46.3703145],[13.4717944,46.3702997],[13.4717408,46.3702886],[13.4716925,46.3702849],[13.4715289,46.3702867],[13.4714752,46.370296],[13.4714086,46.3703053],[13.4713331,46.3703163],[13.4712794,46.3703219],[13.4711748,46.3703422],[13.4711239,46.3703496],[13.4710729,46.3703589],[13.4710193,46.3703737],[13.470912,46.3703996],[13.4708557,46.3704052],[13.470802,46.370407],[13.470692,46.3704144],[13.4706411,46.3704237],[13.4705284,46.3704274],[13.4703729,46.3704514],[13.4703192,46.370457],[13.4702656,46.3704588]]}},{"type":"Feature","id":708225039,"properties":{"kind":"run","name":"Mapped ski run","subtype":"expert","pisteType":"downhill","featured":false},"geometry":{"type":"LineString","coordinates":[[13.5051356,46.3518533],[13.5050572,46.3517603],[13.5049841,46.3517071],[13.5049143,46.3516737],[13.5048285,46.3516575],[13.5047514,46.3516418],[13.5047085,46.3516251],[13.5046783,46.3515941],[13.5046582,46.351552],[13.5046401,46.351478],[13.5046099,46.3513882],[13.5045489,46.3512706],[13.5044523,46.3511294],[13.5043591,46.3510327],[13.5042954,46.3509711],[13.504284,46.3509415],[13.5042954,46.3509119],[13.5043169,46.3508855],[13.5043585,46.3508763],[13.5043994,46.3508786],[13.5044416,46.3508957],[13.5044906,46.350936],[13.5046153,46.3510364],[13.5046629,46.3510808],[13.5047212,46.3511068],[13.5047588,46.3511105],[13.5047936,46.3510993],[13.5048205,46.3510804],[13.5048345,46.3510582],[13.5048305,46.3510262],[13.5048091,46.3509957],[13.5047548,46.3509415],[13.5046937,46.3508818],[13.5046354,46.3507684],[13.504632,46.3507045],[13.5046394,46.3506434]]}},{"type":"Feature","id":708225040,"properties":{"kind":"run","name":"Mapped ski run","subtype":"expert","pisteType":"downhill","featured":false},"geometry":{"type":"LineString","coordinates":[[13.5080223,46.3526919],[13.5079124,46.3526693],[13.5078473,46.3526734],[13.5077856,46.3526892],[13.5077206,46.3527174],[13.5076529,46.35276],[13.5076019,46.3527813],[13.5075422,46.3527952],[13.5074886,46.3527952],[13.5074349,46.3527808],[13.5073746,46.3527531],[13.5073122,46.3527012],[13.5072646,46.3526651],[13.5072117,46.3526424],[13.507156,46.3526387],[13.5070977,46.352648],[13.5070353,46.3526679],[13.5069615,46.3526994],[13.5068791,46.3527271],[13.5067617,46.3527345],[13.5066725,46.3527304],[13.5066197,46.3527199],[13.5065673,46.3527095],[13.5064781,46.3526809],[13.5063761,46.3526364],[13.5062172,46.3525489],[13.5061361,46.3525082],[13.506065,46.352486],[13.5059973,46.3524633],[13.5059584,46.3524342],[13.5059202,46.3523846],[13.5058887,46.3523157],[13.5058598,46.3522578],[13.505825,46.3522203],[13.5057867,46.3522023],[13.5057418,46.3521953],[13.5056761,46.3522014],[13.5056231,46.3522139],[13.5055722,46.352231],[13.5055239,46.352237],[13.505426,46.3522018],[13.5053831,46.3521565],[13.5053241,46.352094],[13.5052489,46.3520056],[13.5051356,46.3518533]]}},{"type":"Feature","id":771710610,"properties":{"kind":"run","name":"Mapped ski run","subtype":"expert","pisteType":"downhill","featured":false},"geometry":{"type":"LineString","coordinates":[[13.4927693,46.3471452],[13.4928048,46.3470845],[13.4928444,46.3470424],[13.4929544,46.3469517],[13.4930489,46.3468846],[13.4931421,46.3468336],[13.4931911,46.3468087],[13.4932762,46.3467883]]}},{"type":"Feature","id":771710613,"properties":{"kind":"run","name":"Mapped ski run","subtype":"expert","pisteType":"downhill","featured":false},"geometry":{"type":"LineString","coordinates":[[13.4949882,46.3453196],[13.4950277,46.3452233],[13.495068,46.3450835],[13.4950988,46.3449307],[13.4950934,46.34469],[13.4951055,46.3445058],[13.495139,46.3443179],[13.4951431,46.3442105],[13.4951659,46.3441494],[13.495198,46.3441207],[13.4952436,46.3441271],[13.4952785,46.3441781],[13.4953134,46.3442151],[13.4953482,46.3442669],[13.495418,46.3443447],[13.4954998,46.3444401],[13.4956554,46.3446317],[13.4957774,46.3447456],[13.4959209,46.3450298],[13.4959665,46.3451094],[13.4960188,46.3451825],[13.4960496,46.3452011],[13.4960845,46.345189],[13.4961113,46.3451464],[13.4961194,46.345102],[13.4961247,46.3450094],[13.4961583,46.3449039],[13.4961878,46.3448141],[13.4962401,46.3447409],[13.4963071,46.34469],[13.4963675,46.3446632],[13.4964533,46.344616],[13.4965526,46.3445243],[13.4967135,46.3443364],[13.4968007,46.3441688],[13.4968235,46.3440642],[13.4968235,46.3439364],[13.4967779,46.3437244],[13.4967564,46.3435263],[13.4967725,46.3433671],[13.496798,46.3433041],[13.4968489,46.343256],[13.4969133,46.3432402],[13.4969763,46.3432467],[13.4970729,46.3433041],[13.4971869,46.3433846],[13.4973036,46.3435069],[13.4973747,46.3435624],[13.4974484,46.3435855],[13.4975088,46.3435707],[13.4975517,46.3435217],[13.4975839,46.3433995],[13.4976415,46.3432985],[13.4976804,46.3432532],[13.497718,46.3432523],[13.4977998,46.3432726],[13.4980278,46.3434208],[13.4982343,46.3435476],[13.4983054,46.3435689],[13.4983617,46.3435721]]}},{"type":"Feature","id":771710614,"properties":{"kind":"run","name":"Mapped ski run","subtype":"expert","pisteType":"downhill","featured":false},"geometry":{"type":"LineString","coordinates":[[13.4938938,46.3470563],[13.4939421,46.3470244],[13.4939555,46.3469998],[13.4939548,46.3469415],[13.4939414,46.3468545],[13.4939314,46.3467971],[13.4939361,46.3467582],[13.4939542,46.3467138],[13.4939857,46.3466675],[13.4940454,46.3465943],[13.4940916,46.3465291],[13.4941446,46.3464379],[13.494215,46.3463148],[13.494276,46.3462379],[13.4943035,46.3461787],[13.4943645,46.3461014],[13.4944095,46.3460333],[13.4944457,46.3459625],[13.4944839,46.3458935],[13.4945677,46.3457741],[13.4947092,46.3456172],[13.4948011,46.3455121],[13.494899,46.3454038],[13.4949882,46.3453196]]}},{"type":"Feature","id":771710615,"properties":{"kind":"run","name":"Mapped ski run","subtype":"expert","pisteType":"downhill","featured":false},"geometry":{"type":"LineString","coordinates":[[13.4887654,46.3507124],[13.4888077,46.350687],[13.4888607,46.3506666],[13.488929,46.350655],[13.4889914,46.3506444],[13.4890652,46.3506092],[13.4891228,46.3505643],[13.4891906,46.3504958],[13.4892489,46.3504259]]}},{"type":"Feature","id":771710617,"properties":{"kind":"run","name":"Mapped ski run","subtype":"expert","pisteType":"downhill","featured":false},"geometry":{"type":"LineString","coordinates":[[13.4891828,46.3500526],[13.4891027,46.3499788],[13.4890001,46.3498941],[13.4889237,46.3498335],[13.4888385,46.3497622],[13.4887815,46.3496988],[13.4886937,46.3495951],[13.4886454,46.3495192],[13.4886052,46.3494595],[13.4885589,46.3494113],[13.4884878,46.3493614],[13.4884194,46.3493206],[13.4883416,46.3492905],[13.4882558,46.3492544],[13.4882055,46.3492165],[13.4881673,46.3491739],[13.4881425,46.349111],[13.4881512,46.3490156],[13.4881452,46.3488559],[13.4881606,46.3487652],[13.4881753,46.3486972],[13.4881821,46.3486411],[13.4881881,46.3486009],[13.4881988,46.3485759],[13.4882102,46.3485606],[13.4882337,46.3485541],[13.4882605,46.3485625],[13.4883041,46.348593],[13.4883631,46.3486203],[13.4884389,46.348649],[13.4885341,46.348681],[13.4886327,46.3487124],[13.4887071,46.3487268],[13.4888097,46.34873],[13.4889264,46.3487272],[13.4890491,46.3487166],[13.4891651,46.3487147],[13.4892449,46.3487134],[13.489318,46.3487046],[13.4893709,46.3486874],[13.4894085,46.3486629],[13.4894373,46.3486101],[13.4894548,46.3485555],[13.4894662,46.3484611],[13.4894749,46.3483713],[13.4894977,46.3482787],[13.4895225,46.3481987],[13.4895647,46.3481149],[13.489605,46.3480593],[13.4896291,46.3480075],[13.4896459,46.3479575],[13.4896532,46.3478955],[13.4896579,46.3478409],[13.4896667,46.3477932],[13.4896774,46.3477617],[13.4896982,46.3477372],[13.4897223,46.3477298],[13.4897532,46.3477367],[13.4899181,46.3478237],[13.4900656,46.347902],[13.4902259,46.3479834],[13.4903191,46.3480251],[13.4904076,46.3480487],[13.4904753,46.3480575],[13.4905377,46.3480542],[13.490594,46.3480417],[13.4906343,46.3480163],[13.4906778,46.3479714],[13.4907288,46.3478996],[13.490759,46.3478617],[13.4907724,46.3478288],[13.4907677,46.347783],[13.490767,46.3477386],[13.4907731,46.347689],[13.4907825,46.3476492],[13.4908053,46.3476122],[13.4908287,46.3475756],[13.4908696,46.3475358],[13.4909521,46.3474766]]}},{"type":"Feature","id":965741359,"properties":{"kind":"lift","name":"Zip Line","subtype":"zip_line","status":"active"},"geometry":{"type":"LineString","coordinates":[[13.4719409,46.3111271],[13.4738392,46.3095204]]}},{"type":"Feature","id":965741360,"properties":{"kind":"lift","name":"Zip Line","subtype":"zip_line","status":"active"},"geometry":{"type":"LineString","coordinates":[[13.4753373,46.3104311],[13.4783077,46.3099654]]}},{"type":"Feature","id":1309125427,"properties":{"kind":"lift","name":"Zip Line","subtype":"zip_line","status":"active"},"geometry":{"type":"LineString","coordinates":[[13.458487,46.307321],[13.4643657,46.3080428]]}},{"type":"Feature","id":1309125428,"properties":{"kind":"lift","name":"Zip Line","subtype":"zip_line","status":"active"},"geometry":{"type":"LineString","coordinates":[[13.4642623,46.308077],[13.4624178,46.3090754]]}},{"type":"Feature","id":1309125430,"properties":{"kind":"lift","name":"Zip Line","subtype":"zip_line","status":"active"},"geometry":{"type":"LineString","coordinates":[[13.4631235,46.3094446],[13.4669787,46.3106004]]}},{"type":"Feature","id":1309125432,"properties":{"kind":"lift","name":"Zip Line","subtype":"zip_line","status":"active"},"geometry":{"type":"LineString","coordinates":[[13.4675471,46.3109693],[13.4692913,46.3100357]]}},{"type":"Feature","id":1309125433,"properties":{"kind":"lift","name":"Zip Line","subtype":"zip_line","status":"active"},"geometry":{"type":"LineString","coordinates":[[13.4694265,46.3100778],[13.4710578,46.311529]]}},{"type":"Feature","id":1309125434,"properties":{"kind":"lift","name":"Zip Line","subtype":"zip_line","status":"active"},"geometry":{"type":"LineString","coordinates":[[13.4736072,46.3097635],[13.4760108,46.3105763]]}},{"type":"Feature","id":1309125435,"properties":{"kind":"lift","name":"Zip Line","subtype":"zip_line","status":"active"},"geometry":{"type":"LineString","coordinates":[[13.4775987,46.3096712],[13.4796509,46.3098718]]}},{"type":"Feature","id":1370294769,"properties":{"kind":"run","name":"Mapped ski run","subtype":"easy","pisteType":"downhill","featured":false},"geometry":{"type":"LineString","coordinates":[[13.4616044,46.3723353],[13.4614888,46.3721443],[13.4613429,46.3720262]]}},{"type":"Feature","id":1370299131,"properties":{"kind":"run","name":"Mapped ski run","subtype":"advanced","pisteType":"downhill","featured":false},"geometry":{"type":"LineString","coordinates":[[13.4664768,46.3804362],[13.4665916,46.3805584],[13.4666262,46.3806338],[13.4666405,46.3806773],[13.4666547,46.3807724]]}},{"type":"Feature","id":1370304447,"properties":{"kind":"run","name":"Variante Turistica Alta","subtype":"advanced","pisteType":"downhill","featured":false},"geometry":{"type":"LineString","coordinates":[[13.4641782,46.3767092],[13.4642123,46.3767708],[13.464219,46.3768171],[13.4641936,46.3768689],[13.4639102,46.3771416],[13.4636613,46.3773666],[13.4635882,46.3774924],[13.4635532,46.3775962],[13.4635424,46.3777041]]}},{"type":"Feature","id":1370304448,"properties":{"kind":"run","name":"Mapped ski run","subtype":"intermediate","pisteType":"downhill","featured":false},"geometry":{"type":"LineString","coordinates":[[13.4676583,46.3802148],[13.4671841,46.38047]]}},{"type":"Feature","id":1370306485,"properties":{"kind":"run","name":"Mapped ski run","subtype":"easy","pisteType":"downhill","featured":false},"geometry":{"type":"LineString","coordinates":[[13.4735311,46.3860981],[13.4733891,46.3861749],[13.473317,46.3862591],[13.4733009,46.3863572],[13.4733277,46.3864793],[13.4734645,46.386681],[13.4735584,46.3867735],[13.4736928,46.3868784]]}},{"type":"Feature","id":1371041756,"properties":{"kind":"run","name":"Rifugio CAI 2","subtype":"easy","pisteType":"downhill","featured":false},"geometry":{"type":"LineString","coordinates":[[13.462034,46.3716683],[13.4622903,46.3717042],[13.4624782,46.3717191],[13.4627309,46.3717531],[13.4628818,46.3717787],[13.4630143,46.3718105],[13.4631776,46.3718616],[13.4633686,46.3719168],[13.463535,46.3719551],[13.4637723,46.3719997],[13.4640179,46.3720646],[13.4643295,46.3721773],[13.4646157,46.3722481],[13.4648555,46.3723126],[13.4652425,46.3724014],[13.4655649,46.3724637],[13.4658671,46.3725395],[13.4660553,46.3725737],[13.4662926,46.3726694],[13.4669537,46.3730431]]}},{"type":"Feature","id":1431107235,"properties":{"kind":"lift","name":"EM34 Nuova Gilberti","subtype":"chair_lift","status":"active"},"geometry":{"type":"LineString","coordinates":[[13.4665768,46.3730835],[13.4664067,46.3730588],[13.4657067,46.3729557],[13.4651098,46.3728683],[13.4637316,46.3726661],[13.4626668,46.37251],[13.4620789,46.3724235],[13.4619093,46.3723985]]}}]}