{"type":"FeatureCollection","features":[{"type":"Feature","id":"building-422961478","properties":{"kind":"building","name":"Alpine building","height":7.2},"geometry":{"type":"Polygon","coordinates":[[[13.50907,46.3525383],[13.5089156,46.352468],[13.5088674,46.3525185],[13.5090218,46.3525888],[13.50907,46.3525383]]]}},{"type":"Feature","id":"building-428822985","properties":{"kind":"building","name":"Alpine building","height":7.2},"geometry":{"type":"Polygon","coordinates":[[[13.5085473,46.3525101],[13.508693,46.3525296],[13.5087119,46.3524624],[13.5085662,46.3524429],[13.5085473,46.3525101]]]}},{"type":"Feature","id":"building-941454070","properties":{"kind":"building","name":"Lovska koča na Planini Goričica","height":7.2},"geometry":{"type":"Polygon","coordinates":[[[13.5408342,46.353321],[13.540813,46.3532274],[13.5408889,46.3532192],[13.5408948,46.353245],[13.5409109,46.3532433],[13.5409188,46.3532781],[13.5409073,46.3532793],[13.5409148,46.3533123],[13.5408342,46.353321]]]}},{"type":"Feature","id":"building-1249340019","properties":{"kind":"building","name":"Alpine building","height":7.2},"geometry":{"type":"Polygon","coordinates":[[[13.5221598,46.3390942],[13.5222638,46.3391012],[13.5222722,46.3390419],[13.5221681,46.3390349],[13.5221598,46.3390942]]]}},{"type":"Feature","id":"building-1249339999","properties":{"kind":"building","name":"Alpine building","height":7.2},"geometry":{"type":"Polygon","coordinates":[[[13.5189947,46.339026],[13.5190483,46.3389297],[13.5189033,46.3388912],[13.5188757,46.3389381],[13.5188483,46.3389873],[13.5189947,46.339026]]]}},{"type":"Feature","id":"building-1249340004","properties":{"kind":"building","name":"Alpine building","height":7.2},"geometry":{"type":"Polygon","coordinates":[[[13.5188483,46.3389873],[13.5188757,46.3389381],[13.5188203,46.3389234],[13.5187929,46.3389726],[13.5188483,46.3389873]]]}},{"type":"Feature","id":"building-1249339942","properties":{"kind":"building","name":"Alpine building","height":7.2},"geometry":{"type":"Polygon","coordinates":[[[13.5168705,46.339082],[13.5169405,46.3390827],[13.5169425,46.3389787],[13.5168725,46.3389781],[13.5168705,46.339082]]]}},{"type":"Feature","id":"building-1249340003","properties":{"kind":"building","name":"Alpine building","height":7.2},"geometry":{"type":"Polygon","coordinates":[[[13.5241509,46.3391747],[13.5243747,46.3391806],[13.5243794,46.3390944],[13.5241556,46.3390885],[13.5241509,46.3391747]]]}},{"type":"Feature","id":"building-1278420047","properties":{"kind":"building","name":"Alpine building","height":7.2},"geometry":{"type":"Polygon","coordinates":[[[13.5245248,46.3391758],[13.5246853,46.3391798],[13.5246885,46.3391166],[13.5245281,46.3391127],[13.5245248,46.3391758]]]}},{"type":"Feature","id":"building-1249339940","properties":{"kind":"building","name":"Alpine building","height":7.2},"geometry":{"type":"Polygon","coordinates":[[[13.5188989,46.3388404],[13.5189454,46.338738],[13.5191292,46.3387778],[13.5190827,46.3388802],[13.5188989,46.3388404]]]}},{"type":"Feature","id":"building-1249339943","properties":{"kind":"building","name":"Alpine building","height":7.2},"geometry":{"type":"Polygon","coordinates":[[[13.5168433,46.3388639],[13.5168541,46.3389645],[13.5170015,46.3389569],[13.5169963,46.3389096],[13.5170649,46.3389061],[13.5170592,46.3388528],[13.5168433,46.3388639]]]}},{"type":"Feature","id":"building-1249339941","properties":{"kind":"building","name":"Alpine building","height":7.2},"geometry":{"type":"Polygon","coordinates":[[[13.5170033,46.3388513],[13.5170888,46.3388309],[13.5170437,46.3387947],[13.5169749,46.3388255],[13.5170033,46.3388513]]]}},{"type":"Feature","id":"building-776817362","properties":{"kind":"building","name":"Alpine building","height":7.2},"geometry":{"type":"Polygon","coordinates":[[[13.5174402,46.3387026],[13.5174578,46.3387656],[13.5176804,46.3387359],[13.5176629,46.338673],[13.5174402,46.3387026]]]}},{"type":"Feature","id":"building-1278420201","properties":{"kind":"building","name":"Alpine building","height":7.2},"geometry":{"type":"Polygon","coordinates":[[[13.5312093,46.3406391],[13.5313858,46.3406409],[13.5313858,46.3406352],[13.5314479,46.3406359],[13.5314486,46.3406058],[13.5313865,46.3406053],[13.5313867,46.3405933],[13.5312105,46.3405915],[13.5312093,46.3406391]]]}},{"type":"Feature","id":"building-1278420105","properties":{"kind":"building","name":"Alpine building","height":7.2},"geometry":{"type":"Polygon","coordinates":[[[13.534248,46.3418867],[13.5342527,46.3418156],[13.5341665,46.3418128],[13.5341617,46.3418839],[13.534248,46.3418867]]]}},{"type":"Feature","id":"building-1278420007","properties":{"kind":"building","name":"Alpine building","height":7.2},"geometry":{"type":"Polygon","coordinates":[[[13.5316412,46.3405198],[13.5317186,46.3405133],[13.5317053,46.3404373],[13.5316279,46.3404438],[13.5316412,46.3405198]]]}},{"type":"Feature","id":"building-1278420236","properties":{"kind":"building","name":"Alpine building","height":7.2},"geometry":{"type":"Polygon","coordinates":[[[13.5356759,46.3423255],[13.5355889,46.3423279],[13.5355949,46.3424125],[13.5356806,46.3424095],[13.5356759,46.3423255]]]}},{"type":"Feature","id":"building-1278420265","properties":{"kind":"building","name":"Alpine building","height":7.2},"geometry":{"type":"Polygon","coordinates":[[[13.5317955,46.3404298],[13.5317053,46.3404373],[13.5317186,46.3405133],[13.5318088,46.3405057],[13.5317955,46.3404298]]]}},{"type":"Feature","id":"building-1278420122","properties":{"kind":"building","name":"Alpine building","height":7.2},"geometry":{"type":"Polygon","coordinates":[[[13.5342121,46.3414867],[13.5341112,46.3415192],[13.5341454,46.3415701],[13.5342463,46.3415376],[13.5342121,46.3414867]]]}},{"type":"Feature","id":"building-1278420042","properties":{"kind":"building","name":"Alpine building","height":7.2},"geometry":{"type":"Polygon","coordinates":[[[13.5358251,46.3422843],[13.5357601,46.3422879],[13.5357686,46.3423612],[13.5358334,46.3423578],[13.5358251,46.3422843]]]}},{"type":"Feature","id":"building-1278419931","properties":{"kind":"building","name":"Alpine building","height":7.2},"geometry":{"type":"Polygon","coordinates":[[[13.5342965,46.3414328],[13.5342412,46.3414506],[13.5342882,46.3415204],[13.5343434,46.3415026],[13.5342965,46.3414328]]]}},{"type":"Feature","id":"building-1278420359","properties":{"kind":"building","name":"Alpine building","height":7.2},"geometry":{"type":"Polygon","coordinates":[[[13.5337979,46.3411485],[13.5337055,46.3411641],[13.5337266,46.3412245],[13.533819,46.3412089],[13.5337979,46.3411485]]]}},{"type":"Feature","id":"building-1278420299","properties":{"kind":"building","name":"Alpine building","height":7.2},"geometry":{"type":"Polygon","coordinates":[[[13.5356347,46.3419107],[13.5354562,46.3419207],[13.535465,46.3419959],[13.5356436,46.3419859],[13.5356347,46.3419107]]]}},{"type":"Feature","id":"building-1278420115","properties":{"kind":"building","name":"Alpine building","height":7.2},"geometry":{"type":"Polygon","coordinates":[[[13.5336111,46.340938],[13.5337368,46.3409149],[13.5336897,46.3407928],[13.5335632,46.3408124],[13.5336111,46.340938]]]}},{"type":"Feature","id":"building-1278420091","properties":{"kind":"building","name":"Alpine building","height":7.2},"geometry":{"type":"Polygon","coordinates":[[[13.5345503,46.3413151],[13.5345968,46.3413157],[13.5345976,46.3412836],[13.5345511,46.341283],[13.5345503,46.3413151]]]}},{"type":"Feature","id":"building-1278420204","properties":{"kind":"building","name":"Alpine building","height":7.2},"geometry":{"type":"Polygon","coordinates":[[[13.5347832,46.3411556],[13.5347652,46.3412454],[13.5348497,46.3412536],[13.5348678,46.3411638],[13.5347832,46.3411556]]]}},{"type":"Feature","id":"building-1278420288","properties":{"kind":"building","name":"Alpine building","height":7.2},"geometry":{"type":"Polygon","coordinates":[[[13.5386591,46.3436983],[13.5387319,46.3436993],[13.5387336,46.3436354],[13.5386608,46.3436345],[13.5386591,46.3436983]]]}},{"type":"Feature","id":"building-1278419955","properties":{"kind":"building","name":"Alpine building","height":7.2},"geometry":{"type":"Polygon","coordinates":[[[13.5338112,46.3406841],[13.5338617,46.3407252],[13.5339648,46.3406675],[13.5339166,46.3406235],[13.5338112,46.3406841]]]}},{"type":"Feature","id":"building-1278420053","properties":{"kind":"building","name":"Alpine building","height":7.2},"geometry":{"type":"Polygon","coordinates":[[[13.534925,46.34125],[13.5350758,46.3412418],[13.5350654,46.3411493],[13.5349146,46.3411575],[13.534925,46.34125]]]}},{"type":"Feature","id":"building-1278420345","properties":{"kind":"building","name":"Alpine building","height":7.2},"geometry":{"type":"Polygon","coordinates":[[[13.5310386,46.3394622],[13.53109,46.3394529],[13.5310782,46.339422],[13.5310268,46.3394313],[13.5310386,46.3394622]]]}},{"type":"Feature","id":"building-1278420240","properties":{"kind":"building","name":"Alpine building","height":7.2},"geometry":{"type":"Polygon","coordinates":[[[13.5304354,46.3392444],[13.5305584,46.3392378],[13.530552,46.3391808],[13.530429,46.3391874],[13.5304354,46.3392444]]]}},{"type":"Feature","id":"building-1278419971","properties":{"kind":"building","name":"Alpine building","height":7.2},"geometry":{"type":"Polygon","coordinates":[[[13.5350296,46.3410942],[13.5350807,46.3410949],[13.5350815,46.3410667],[13.5350303,46.3410661],[13.5350296,46.3410942]]]}},{"type":"Feature","id":"building-1278420324","properties":{"kind":"building","name":"Alpine building","height":7.2},"geometry":{"type":"Polygon","coordinates":[[[13.5350374,46.3410431],[13.5350951,46.3410439],[13.5350955,46.341027],[13.5350379,46.3410262],[13.5350374,46.3410431]]]}},{"type":"Feature","id":"building-1278419980","properties":{"kind":"building","name":"Alpine building","height":7.2},"geometry":{"type":"Polygon","coordinates":[[[13.5310584,46.3392844],[13.5310443,46.3392353],[13.5310025,46.3392411],[13.5310141,46.33929],[13.5310584,46.3392844]]]}},{"type":"Feature","id":"building-1278420070","properties":{"kind":"building","name":"Alpine building","height":7.2},"geometry":{"type":"Polygon","coordinates":[[[13.5327292,46.3399255],[13.5327868,46.3398809],[13.5326957,46.3398254],[13.5326386,46.3398703],[13.5327292,46.3399255]]]}},{"type":"Feature","id":"building-1278420174","properties":{"kind":"building","name":"Alpine building","height":7.2},"geometry":{"type":"Polygon","coordinates":[[[13.5312151,46.3392538],[13.5312142,46.339301],[13.5313453,46.3393022],[13.5313462,46.3392549],[13.5312151,46.3392538]]]}},{"type":"Feature","id":"building-1278420286","properties":{"kind":"building","name":"Alpine building","height":7.2},"geometry":{"type":"Polygon","coordinates":[[[13.531363,46.339286],[13.5314523,46.3392855],[13.5314526,46.3393157],[13.5315656,46.3393151],[13.5315653,46.3392849],[13.5315312,46.3392851],[13.5315301,46.3391915],[13.5313619,46.3391925],[13.531363,46.339286]]]}},{"type":"Feature","id":"building-1249340029","properties":{"kind":"building","name":"Alpine building","height":7.2},"geometry":{"type":"Polygon","coordinates":[[[13.5154033,46.3376852],[13.5154243,46.3376572],[13.5153591,46.3376339],[13.5153381,46.337662],[13.5154033,46.3376852]]]}},{"type":"Feature","id":"building-1278420246","properties":{"kind":"building","name":"Alpine building","height":7.2},"geometry":{"type":"Polygon","coordinates":[[[13.5356096,46.3408964],[13.5355006,46.3409108],[13.535518,46.3409734],[13.5356269,46.3409589],[13.5356096,46.3408964]]]}},{"type":"Feature","id":"building-1278420046","properties":{"kind":"building","name":"Alpine building","height":7.2},"geometry":{"type":"Polygon","coordinates":[[[13.5405009,46.3443361],[13.5404448,46.3443838],[13.5406177,46.3444813],[13.5406738,46.3444336],[13.5405009,46.3443361]]]}},{"type":"Feature","id":"building-1278420378","properties":{"kind":"building","name":"Alpine building","height":7.2},"geometry":{"type":"Polygon","coordinates":[[[13.5329793,46.339809],[13.5329621,46.3398324],[13.5329503,46.3398482],[13.5329708,46.3398562],[13.5329954,46.3398625],[13.5330427,46.3398663],[13.5331363,46.3398519],[13.5332306,46.3398367],[13.533326,46.339821],[13.5333616,46.3398033],[13.5333843,46.3397921],[13.5334076,46.3397738],[13.5334353,46.3397201],[13.5333576,46.3397036],[13.5333544,46.3397109],[13.5333169,46.339756],[13.5329793,46.339809]]]}},{"type":"Feature","id":"building-1278420353","properties":{"kind":"building","name":"Alpine building","height":7.2},"geometry":{"type":"Polygon","coordinates":[[[13.5315964,46.3391558],[13.5316385,46.3391398],[13.5316123,46.3391121],[13.5315711,46.3391296],[13.5315964,46.3391558]]]}},{"type":"Feature","id":"building-1278420184","properties":{"kind":"building","name":"Alpine building","height":7.2},"geometry":{"type":"Polygon","coordinates":[[[13.5330492,46.3397474],[13.5332221,46.3397208],[13.5331949,46.339636],[13.5330219,46.3396626],[13.5330492,46.3397474]]]}},{"type":"Feature","id":"building-1278419917","properties":{"kind":"building","name":"Alpine building","height":7.2},"geometry":{"type":"Polygon","coordinates":[[[13.5406263,46.3442221],[13.5406092,46.3442472],[13.5405437,46.3442255],[13.5405025,46.3442855],[13.5406327,46.3443284],[13.5406434,46.3443131],[13.5406773,46.3442637],[13.5406912,46.3442434],[13.5406263,46.3442221]]]}},{"type":"Feature","id":"building-1278420222","properties":{"kind":"building","name":"Alpine building","height":7.2},"geometry":{"type":"Polygon","coordinates":[[[13.5404597,46.3441508],[13.5405168,46.3441706],[13.5405293,46.3441522],[13.540474,46.344133],[13.5404597,46.3441508]]]}},{"type":"Feature","id":"building-1278420039","properties":{"kind":"building","name":"Alpine building","height":7.2},"geometry":{"type":"Polygon","coordinates":[[[13.5332859,46.339711],[13.5332587,46.3396262],[13.5331949,46.339636],[13.5332221,46.3397208],[13.5332859,46.339711]]]}},{"type":"Feature","id":"building-1249339951","properties":{"kind":"building","name":"Alpine building","height":7.2},"geometry":{"type":"Polygon","coordinates":[[[13.5211721,46.3371639],[13.5212103,46.3371662],[13.5212133,46.3371424],[13.5211751,46.3371401],[13.5211721,46.3371639]]]}},{"type":"Feature","id":"building-1278420108","properties":{"kind":"building","name":"Alpine building","height":7.2},"geometry":{"type":"Polygon","coordinates":[[[13.5407134,46.3442112],[13.5406912,46.3442434],[13.5406773,46.3442637],[13.5406434,46.3443131],[13.5407262,46.3443404],[13.5407603,46.344291],[13.5407963,46.3442387],[13.5407134,46.3442112]]]}},{"type":"Feature","id":"building-1249340021","properties":{"kind":"building","name":"Alpine building","height":7.2},"geometry":{"type":"Polygon","coordinates":[[[13.5211591,46.3371652],[13.5211702,46.3371225],[13.5211233,46.3371167],[13.5211122,46.3371594],[13.5211591,46.3371652]]]}},{"type":"Feature","id":"building-1524341692","properties":{"kind":"building","name":"Alpine building","height":7.2},"geometry":{"type":"Polygon","coordinates":[[[13.5429977,46.3632241],[13.5430333,46.3632319],[13.5430444,46.3632087],[13.5430119,46.3631996],[13.5429977,46.3632241]]]}},{"type":"Feature","id":"building-1249340024","properties":{"kind":"building","name":"Alpine building","height":7.2},"geometry":{"type":"Polygon","coordinates":[[[13.5229598,46.3372323],[13.5229841,46.3372557],[13.5230337,46.337231],[13.5230093,46.3372076],[13.5229598,46.3372323]]]}},{"type":"Feature","id":"building-1249339991","properties":{"kind":"building","name":"Alpine building","height":7.2},"geometry":{"type":"Polygon","coordinates":[[[13.5225592,46.3371196],[13.5225254,46.3372196],[13.5226837,46.3372451],[13.5227174,46.337145],[13.5225592,46.3371196]]]}},{"type":"Feature","id":"building-1249339992","properties":{"kind":"building","name":"Alpine building","height":7.2},"geometry":{"type":"Polygon","coordinates":[[[13.5221135,46.3371391],[13.5223117,46.337215],[13.5223459,46.3371686],[13.5221364,46.3370947],[13.5221135,46.3371391]]]}},{"type":"Feature","id":"building-1249339986","properties":{"kind":"building","name":"Alpine building","height":7.2},"geometry":{"type":"Polygon","coordinates":[[[13.5217854,46.3370974],[13.5218605,46.3371052],[13.5218654,46.3370826],[13.5217903,46.3370747],[13.5217854,46.3370974]]]}},{"type":"Feature","id":"building-1249340032","properties":{"kind":"building","name":"Alpine building","height":7.2},"geometry":{"type":"Polygon","coordinates":[[[13.5211913,46.3369742],[13.5211383,46.3370913],[13.5213149,46.3371294],[13.5213679,46.3370122],[13.5211913,46.3369742]]]}},{"type":"Feature","id":"building-1278420330","properties":{"kind":"building","name":"Alpine building","height":7.2},"geometry":{"type":"Polygon","coordinates":[[[13.5383492,46.3422184],[13.5383241,46.3421535],[13.5383192,46.3421546],[13.5383094,46.3421298],[13.5381845,46.3421532],[13.5381944,46.3421781],[13.5381894,46.342179],[13.5382152,46.3422435],[13.5383492,46.3422184]]]}},{"type":"Feature","id":"building-1249339952","properties":{"kind":"building","name":"Alpine building","height":7.2},"geometry":{"type":"Polygon","coordinates":[[[13.5209499,46.3370385],[13.521086,46.3370598],[13.5211028,46.3370084],[13.5209667,46.3369871],[13.5209499,46.3370385]]]}},{"type":"Feature","id":"building-1249339987","properties":{"kind":"building","name":"Alpine building","height":7.2},"geometry":{"type":"Polygon","coordinates":[[[13.5219688,46.3370517],[13.522063,46.337053],[13.5220639,46.3370181],[13.5219698,46.3370169],[13.5219688,46.3370517]]]}},{"type":"Feature","id":"building-1249339990","properties":{"kind":"building","name":"Alpine building","height":7.2},"geometry":{"type":"Polygon","coordinates":[[[13.5228141,46.3370168],[13.5227118,46.3371016],[13.5228202,46.337164],[13.5228869,46.3371087],[13.522831,46.3370765],[13.5228665,46.337047],[13.5228141,46.3370168]]]}},{"type":"Feature","id":"building-1249339993","properties":{"kind":"building","name":"Alpine building","height":7.2},"geometry":{"type":"Polygon","coordinates":[[[13.5223057,46.3369802],[13.5222551,46.3370796],[13.5224536,46.3371277],[13.5225042,46.3370284],[13.5223057,46.3369802]]]}},{"type":"Feature","id":"building-1249339989","properties":{"kind":"building","name":"Alpine building","height":7.2},"geometry":{"type":"Polygon","coordinates":[[[13.5228869,46.3371087],[13.5229011,46.3371168],[13.5229438,46.3370814],[13.5229382,46.3370782],[13.5230045,46.3370233],[13.5228875,46.336956],[13.5228141,46.3370168],[13.5228665,46.337047],[13.522831,46.3370765],[13.5228869,46.3371087]]]}},{"type":"Feature","id":"pylon-kanin-sella-nevea-0","properties":{"kind":"pylon","name":"Lift tower","height":13},"geometry":{"type":"Polygon","coordinates":[[[13.476444037118858,46.3609515],[13.476435649500939,46.36096547444232],[13.4764154,46.36097126284585],[13.476395150499062,46.36096547444232],[13.476386762881143,46.3609515],[13.476395150499062,46.36093752555768],[13.4764154,46.36093173715415],[13.476435649500939,46.36093752555768],[13.476444037118858,46.3609515]]]}},{"type":"Feature","id":"pylon-kanin-sella-nevea-1","properties":{"kind":"pylon","name":"Lift tower","height":13},"geometry":{"type":"Polygon","coordinates":[[[13.477676637980842,46.362596],[13.477668250110453,46.36260997444232],[13.477648,46.362615762845856],[13.477627749889548,46.36260997444232],[13.477619362019158,46.362596],[13.477627749889548,46.362582025557685],[13.477648,46.36257623715415],[13.477668250110453,46.362582025557685],[13.477676637980842,46.362596]]]}},{"type":"Feature","id":"pylon-kanin-sella-nevea-2","properties":{"kind":"pylon","name":"Lift tower","height":13},"geometry":{"type":"Polygon","coordinates":[[[13.475552636498193,46.3597673],[13.475544249062061,46.35978127444232],[13.475524,46.359787062845854],[13.47550375093794,46.35978127444232],[13.475495363501807,46.3597673],[13.47550375093794,46.35975332555768],[13.475524,46.35974753715415],[13.475544249062061,46.35975332555768],[13.475552636498193,46.3597673]]]}},{"type":"Feature","id":"pylon-kanin-sella-nevea-3","properties":{"kind":"pylon","name":"Lift tower","height":13},"geometry":{"type":"Polygon","coordinates":[[[13.475998836808836,46.36036],[13.475990449281719,46.36037397444232],[13.4759702,46.36037976284585],[13.475949950718283,46.36037397444232],[13.475941563191165,46.36036],[13.475949950718283,46.36034602555768],[13.4759702,46.36034023715415],[13.475990449281719,46.36034602555768],[13.475998836808836,46.36036]]]}},{"type":"Feature","id":"pylon-kanin-sella-nevea-4","properties":{"kind":"pylon","name":"Lift tower","height":13},"geometry":{"type":"Polygon","coordinates":[[[13.476607737232806,46.3611689],[13.476599349581512,46.36118287444232],[13.4765791,46.361188662845855],[13.476558850418488,46.36118287444232],[13.476550462767195,46.3611689],[13.476558850418488,46.361154925557685],[13.4765791,46.36114913715415],[13.476599349581512,46.361154925557685],[13.476607737232806,46.3611689]]]}},{"type":"Feature","id":"pylon-kanin-sella-nevea-5","properties":{"kind":"pylon","name":"Lift tower","height":13},"geometry":{"type":"Polygon","coordinates":[[[13.477126437595677,46.3618612],[13.4771180498381,46.36187517444232],[13.4770978,46.36188096284585],[13.477077550161898,46.36187517444232],[13.477069162404321,46.3618612],[13.477077550161898,46.36184722555768],[13.4770978,46.36184143715415],[13.4771180498381,46.36184722555768],[13.477126437595677,46.3618612]]]}},{"type":"Feature","id":"pylon-kanin-sella-nevea-6","properties":{"kind":"pylon","name":"Lift tower","height":13},"geometry":{"type":"Polygon","coordinates":[[[13.478926238855639,46.3642648],[13.478917850729028,46.36427877444232],[13.4788976,46.36428456284585],[13.478877349270972,46.36427877444232],[13.47886896114436,46.3642648],[13.478877349270972,46.36425082555768],[13.4788976,46.36424503715415],[13.478917850729028,46.36425082555768],[13.478926238855639,46.3642648]]]}},{"type":"Feature","id":"pylon-kanin-sella-nevea-7","properties":{"kind":"pylon","name":"Lift tower","height":13},"geometry":{"type":"Polygon","coordinates":[[[13.479458339228062,46.3649752],[13.47944995099237,46.36498917444232],[13.4794297,46.364994962845856],[13.479409449007631,46.36498917444232],[13.47940106077194,46.3649752],[13.479409449007631,46.364961225557686],[13.4794297,46.36495543715415],[13.47944995099237,46.364961225557686],[13.479458339228062,46.3649752]]]}},{"type":"Feature","id":"pylon-kanin-sella-nevea-8","properties":{"kind":"pylon","name":"Lift tower","height":13},"geometry":{"type":"Polygon","coordinates":[[[13.480007139612344,46.3657082],[13.479998751264098,46.36572217444232],[13.4799785,46.36572796284585],[13.479958248735901,46.36572217444232],[13.479949860387656,46.3657082],[13.479958248735901,46.36569422555768],[13.4799785,46.36568843715415],[13.479998751264098,46.36569422555768],[13.480007139612344,46.3657082]]]}},{"type":"Feature","id":"pylon-kanin-sella-nevea-9","properties":{"kind":"pylon","name":"Lift tower","height":13},"geometry":{"type":"Polygon","coordinates":[[[13.480309839824205,46.3661123],[13.480301451413906,46.366126274442315],[13.4802812,46.36613206284585],[13.480260948586094,46.366126274442315],[13.480252560175796,46.3661123],[13.480260948586094,46.36609832555768],[13.4802812,46.366092537154145],[13.480301451413906,46.36609832555768],[13.480309839824205,46.3661123]]]}},{"type":"Feature","id":"pylon-kanin-sella-nevea-10","properties":{"kind":"pylon","name":"Lift tower","height":13},"geometry":{"type":"Polygon","coordinates":[[[13.481003640309913,46.3670387],[13.480995251757355,46.36705267444232],[13.480975,46.367058462845854],[13.480954748242647,46.36705267444232],[13.480946359690089,46.3670387],[13.480954748242647,46.367024725557684],[13.480975,46.36701893715415],[13.480995251757355,46.367024725557684],[13.481003640309913,46.3670387]]]}},{"type":"Feature","id":"pylon-kanin-sella-nevea-11","properties":{"kind":"pylon","name":"Lift tower","height":13},"geometry":{"type":"Polygon","coordinates":[[[13.481056340346823,46.3671091],[13.481047951783454,46.36712307444232],[13.4810277,46.36712886284585],[13.481007448216547,46.36712307444232],[13.480999059653177,46.3671091],[13.481007448216547,46.36709512555768],[13.4810277,46.36708933715415],[13.481047951783454,46.36709512555768],[13.481056340346823,46.3671091]]]}},{"type":"Feature","id":"pylon-kanin-sella-nevea-12","properties":{"kind":"pylon","name":"Lift tower","height":13},"geometry":{"type":"Polygon","coordinates":[[[13.461588443256861,46.3726585],[13.461580053841162,46.37267247444232],[13.4615598,46.37267826284585],[13.461539546158837,46.37267247444232],[13.461531156743138,46.3726585],[13.461539546158837,46.37264452555768],[13.4615598,46.37263873715415],[13.461580053841162,46.37264452555768],[13.461588443256861,46.3726585]]]}},{"type":"Feature","id":"pylon-kanin-sella-nevea-13","properties":{"kind":"pylon","name":"Lift tower","height":13},"geometry":{"type":"Polygon","coordinates":[[[13.461693843352997,46.3728418],[13.46168545390914,46.37285577444232],[13.4616652,46.372861562845856],[13.46164494609086,46.37285577444232],[13.461636556647004,46.3728418],[13.46164494609086,46.372827825557685],[13.4616652,46.37282203715415],[13.46168545390914,46.372827825557685],[13.461693843352997,46.3728418]]]}},{"type":"Feature","id":"pylon-kanin-sella-nevea-14","properties":{"kind":"pylon","name":"Lift tower","height":13},"geometry":{"type":"Polygon","coordinates":[[[13.461715143372455,46.3728789],[13.461706753922899,46.37289287444232],[13.4616865,46.372898662845856],[13.461666246077103,46.37289287444232],[13.461657856627546,46.3728789],[13.461666246077103,46.372864925557685],[13.4616865,46.37285913715415],[13.461706753922899,46.372864925557685],[13.461715143372455,46.3728789]]]}},{"type":"Feature","id":"pylon-kanin-sella-nevea-15","properties":{"kind":"pylon","name":"Lift tower","height":13},"geometry":{"type":"Polygon","coordinates":[[[13.46173864339401,46.37292],[13.461730253938141,46.37293397444232],[13.46171,46.37293976284585],[13.46168974606186,46.37293397444232],[13.46168135660599,46.37292],[13.46168974606186,46.37290602555768],[13.46171,46.37290023715415],[13.461730253938141,46.37290602555768],[13.46173864339401,46.37292]]]}},{"type":"Feature","id":"pylon-kanin-sella-nevea-16","properties":{"kind":"pylon","name":"Lift tower","height":13},"geometry":{"type":"Polygon","coordinates":[[[13.462646044222605,46.3744998],[13.462637654524046,46.37451377444232],[13.4626174,46.374519562845855],[13.462597145475952,46.37451377444232],[13.462588755777393,46.3744998],[13.462597145475952,46.374485825557684],[13.4626174,46.37448003715415],[13.462637654524046,46.374485825557684],[13.462646044222605,46.3744998]]]}},{"type":"Feature","id":"pylon-kanin-sella-nevea-17","properties":{"kind":"pylon","name":"Lift tower","height":13},"geometry":{"type":"Polygon","coordinates":[[[13.462666844241594,46.374536],[13.462658454537474,46.37454997444232],[13.4626382,46.37455576284585],[13.462617945462528,46.37454997444232],[13.462609555758407,46.374536],[13.462617945462528,46.37452202555768],[13.4626382,46.37451623715415],[13.462658454537474,46.37452202555768],[13.462666844241594,46.374536]]]}},{"type":"Feature","id":"pylon-kanin-sella-nevea-18","properties":{"kind":"pylon","name":"Lift tower","height":13},"geometry":{"type":"Polygon","coordinates":[[[13.465728447037723,46.3798661],[13.465720056514636,46.37988007444232],[13.4656998,46.37988586284585],[13.465679543485363,46.37988007444232],[13.465671152962276,46.3798661],[13.465679543485363,46.37985212555768],[13.4656998,46.37984633715415],[13.465720056514636,46.37985212555768],[13.465728447037723,46.3798661]]]}},{"type":"Feature","id":"pylon-kanin-sella-nevea-19","properties":{"kind":"pylon","name":"Lift tower","height":13},"geometry":{"type":"Polygon","coordinates":[[[13.467831448958663,46.383527],[13.467823057872945,46.38354097444232],[13.4678028,46.38354676284585],[13.467782542127054,46.38354097444232],[13.467774151041336,46.383527],[13.467782542127054,46.38351302555768],[13.4678028,46.38350723715415],[13.467823057872945,46.38351302555768],[13.467831448958663,46.383527]]]}},{"type":"Feature","id":"pylon-kanin-sella-nevea-20","properties":{"kind":"pylon","name":"Lift tower","height":13},"geometry":{"type":"Polygon","coordinates":[[[13.470324251236057,46.3878663],[13.470315859483305,46.38788027444232],[13.4702956,46.38788606284585],[13.470275340516695,46.38788027444232],[13.470266948763943,46.3878663],[13.470275340516695,46.38785232555768],[13.4702956,46.38784653715415],[13.470315859483305,46.38785232555768],[13.470324251236057,46.3878663]]]}},{"type":"Feature","id":"pylon-kanin-sella-nevea-21","properties":{"kind":"pylon","name":"Lift tower","height":13},"geometry":{"type":"Polygon","coordinates":[[[13.511118127616937,46.3428141],[13.511109742782065,46.342828074442316],[13.5110895,46.34283386284585],[13.511069257217937,46.342828074442316],[13.511060872383064,46.3428141],[13.511069257217937,46.34280012555768],[13.5110895,46.342794337154146],[13.511109742782065,46.34280012555768],[13.511118127616937,46.3428141]]]}},{"type":"Feature","id":"pylon-kanin-sella-nevea-22","properties":{"kind":"pylon","name":"Lift tower","height":13},"geometry":{"type":"Polygon","coordinates":[[[13.510213627793767,46.3431518],[13.510205242907103,46.34316577444232],[13.510185,46.34317156284585],[13.510164757092896,46.34316577444232],[13.510156372206232,46.3431518],[13.510164757092896,46.34313782555768],[13.510185,46.34313203715415],[13.510205242907103,46.34313782555768],[13.510213627793767,46.3431518]]]}},{"type":"Feature","id":"pylon-kanin-sella-nevea-23","properties":{"kind":"pylon","name":"Lift tower","height":13},"geometry":{"type":"Polygon","coordinates":[[[13.508967928032813,46.3436083],[13.508959543076134,46.34362227444232],[13.5089393,46.34362806284585],[13.508919056923865,46.34362227444232],[13.508910671967186,46.3436083],[13.508919056923865,46.34359432555768],[13.5089393,46.34358853715415],[13.508959543076134,46.34359432555768],[13.508967928032813,46.3436083]]]}},{"type":"Feature","id":"pylon-kanin-sella-nevea-24","properties":{"kind":"pylon","name":"Lift tower","height":13},"geometry":{"type":"Polygon","coordinates":[[[13.507763228271603,46.3440643],[13.507754843244983,46.34407827444232],[13.5077346,46.34408406284585],[13.507714356755015,46.34407827444232],[13.507705971728395,46.3440643],[13.507714356755015,46.34405032555768],[13.5077346,46.34404453715415],[13.507754843244983,46.34405032555768],[13.507763228271603,46.3440643]]]}},{"type":"Feature","id":"pylon-kanin-sella-nevea-25","properties":{"kind":"pylon","name":"Lift tower","height":13},"geometry":{"type":"Polygon","coordinates":[[[13.506738828486467,46.3444746],[13.506730443396917,46.344488574442316],[13.5067102,46.34449436284585],[13.506689956603084,46.344488574442316],[13.506681571513534,46.3444746],[13.506689956603084,46.34446062555768],[13.5067102,46.344454837154146],[13.506730443396917,46.34446062555768],[13.506738828486467,46.3444746]]]}},{"type":"Feature","id":"pylon-kanin-sella-nevea-26","properties":{"kind":"pylon","name":"Lift tower","height":13},"geometry":{"type":"Polygon","coordinates":[[[13.505211628802146,46.3450774],[13.505203243620135,46.34509137444232],[13.505183,46.34509716284585],[13.505162756379866,46.34509137444232],[13.505154371197856,46.3450774],[13.505162756379866,46.34506342555768],[13.505183,46.34505763715415],[13.505203243620135,46.34506342555768],[13.505211628802146,46.3450774]]]}},{"type":"Feature","id":"pylon-kanin-sella-nevea-27","properties":{"kind":"pylon","name":"Lift tower","height":13},"geometry":{"type":"Polygon","coordinates":[[[13.50388022907908,46.3456062],[13.503871843815958,46.34562017444232],[13.5038516,46.34562596284585],[13.503831356184044,46.34562017444232],[13.503822970920922,46.3456062],[13.503831356184044,46.34559222555768],[13.5038516,46.34558643715415],[13.503871843815958,46.34559222555768],[13.50388022907908,46.3456062]]]}},{"type":"Feature","id":"pylon-kanin-sella-nevea-28","properties":{"kind":"pylon","name":"Lift tower","height":13},"geometry":{"type":"Polygon","coordinates":[[[13.502711629311714,46.3460504],[13.502703243980454,46.34606437444232],[13.502683,46.346070162845855],[13.502662756019545,46.34606437444232],[13.502654370688285,46.3460504],[13.502662756019545,46.346036425557685],[13.502683,46.34603063715415],[13.502703243980454,46.346036425557685],[13.502711629311714,46.3460504]]]}},{"type":"Feature","id":"pylon-kanin-sella-nevea-29","properties":{"kind":"pylon","name":"Lift tower","height":13},"geometry":{"type":"Polygon","coordinates":[[[13.501528929554881,46.3465147],[13.501520544152399,46.34652867444232],[13.5015003,46.34653446284585],[13.501480055847601,46.34652867444232],[13.501471670445119,46.3465147],[13.501480055847601,46.34650072555768],[13.5015003,46.34649493715415],[13.501520544152399,46.34650072555768],[13.501528929554881,46.3465147]]]}},{"type":"Feature","id":"pylon-kanin-sella-nevea-30","properties":{"kind":"pylon","name":"Lift tower","height":13},"geometry":{"type":"Polygon","coordinates":[[[13.500372329794022,46.3469713],[13.500363944321498,46.34698527444232],[13.5003437,46.34699106284585],[13.500323455678503,46.34698527444232],[13.500315070205978,46.3469713],[13.500323455678503,46.34695732555768],[13.5003437,46.34695153715415],[13.500363944321498,46.34695732555768],[13.500372329794022,46.3469713]]]}},{"type":"Feature","id":"pylon-kanin-sella-nevea-31","properties":{"kind":"pylon","name":"Lift tower","height":13},"geometry":{"type":"Polygon","coordinates":[[[13.49979072991658,46.3472053],[13.499782344408159,46.34721927444232],[13.4997621,46.34722506284585],[13.499741855591841,46.34721927444232],[13.49973347008342,46.3472053],[13.499741855591841,46.34719132555768],[13.4997621,46.34718553715415],[13.499782344408159,46.34719132555768],[13.49979072991658,46.3472053]]]}},{"type":"Feature","id":"pylon-kanin-sella-nevea-32","properties":{"kind":"pylon","name":"Lift tower","height":13},"geometry":{"type":"Polygon","coordinates":[[[13.497786130334127,46.3480025],[13.49777774470341,46.34801647444232],[13.4977575,46.34802226284585],[13.497737255296592,46.34801647444232],[13.497728869665874,46.3480025],[13.497737255296592,46.34798852555768],[13.4977575,46.34798273715415],[13.49777774470341,46.34798852555768],[13.497786130334127,46.3480025]]]}},{"type":"Feature","id":"pylon-kanin-sella-nevea-33","properties":{"kind":"pylon","name":"Lift tower","height":13},"geometry":{"type":"Polygon","coordinates":[[[13.495899230727543,46.3487536],[13.495890844981597,46.34876757444232],[13.4958706,46.348773362845854],[13.495850355018403,46.34876757444232],[13.495841969272456,46.3487536],[13.495850355018403,46.348739625557684],[13.4958706,46.34873383715415],[13.495890844981597,46.348739625557684],[13.495899230727543,46.3487536]]]}},{"type":"Feature","id":"pylon-kanin-sella-nevea-34","properties":{"kind":"pylon","name":"Lift tower","height":13},"geometry":{"type":"Polygon","coordinates":[[[13.48833153229435,46.3517446],[13.488323146089495,46.35175857444232],[13.4883029,46.351764362845856],[13.488282653910506,46.35175857444232],[13.488274267705652,46.3517446],[13.488282653910506,46.351730625557686],[13.4883029,46.35172483715415],[13.488323146089495,46.351730625557686],[13.48833153229435,46.3517446]]]}},{"type":"Feature","id":"pylon-kanin-sella-nevea-35","properties":{"kind":"pylon","name":"Lift tower","height":13},"geometry":{"type":"Polygon","coordinates":[[[13.487700832491646,46.3521212],[13.487692446229005,46.35213517444232],[13.4876722,46.35214096284585],[13.487651953770996,46.35213517444232],[13.487643567508355,46.3521212],[13.487651953770996,46.35210722555768],[13.4876722,46.35210143715415],[13.487692446229005,46.35210722555768],[13.487700832491646,46.3521212]]]}},{"type":"Feature","id":"pylon-kanin-sella-nevea-36","properties":{"kind":"pylon","name":"Lift tower","height":13},"geometry":{"type":"Polygon","coordinates":[[[13.486574832843864,46.3527935],[13.48656644647806,46.352807474442315],[13.4865462,46.35281326284585],[13.486525953521939,46.352807474442315],[13.486517567156135,46.3527935],[13.486525953521939,46.35277952555768],[13.4865462,46.352773737154145],[13.48656644647806,46.35277952555768],[13.486574832843864,46.3527935]]]}},{"type":"Feature","id":"pylon-kanin-sella-nevea-37","properties":{"kind":"pylon","name":"Lift tower","height":13},"geometry":{"type":"Polygon","coordinates":[[[13.483056333944662,46.3548945],[13.483047947256441,46.35490847444232],[13.4830277,46.35491426284585],[13.483007452743557,46.35490847444232],[13.482999066055337,46.3548945],[13.483007452743557,46.35488052555768],[13.4830277,46.35487473715415],[13.483047947256441,46.35488052555768],[13.483056333944662,46.3548945]]]}},{"type":"Feature","id":"pylon-kanin-sella-nevea-38","properties":{"kind":"pylon","name":"Lift tower","height":13},"geometry":{"type":"Polygon","coordinates":[[[13.478597335339778,46.3575569],[13.478588948242939,46.35757087444232],[13.4785687,46.35757666284585],[13.478548451757062,46.35757087444232],[13.478540064660223,46.3575569],[13.478548451757062,46.35754292555768],[13.4785687,46.35753713715415],[13.478588948242939,46.35754292555768],[13.478597335339778,46.3575569]]]}},{"type":"Feature","id":"pylon-kanin-sella-nevea-39","properties":{"kind":"pylon","name":"Lift tower","height":13},"geometry":{"type":"Polygon","coordinates":[[[13.475279336307892,46.3594042],[13.475270948927498,46.35941817444232],[13.4752507,46.35942396284585],[13.475230451072502,46.35941817444232],[13.475222063692108,46.3594042],[13.475230451072502,46.35939022555768],[13.4752507,46.35938443715415],[13.475270948927498,46.35939022555768],[13.475279336307892,46.3594042]]]}},{"type":"Feature","id":"pylon-kanin-sella-nevea-40","properties":{"kind":"pylon","name":"Lift tower","height":13},"geometry":{"type":"Polygon","coordinates":[[[13.475331436344211,46.3594735],[13.47532304895318,46.35948747444232],[13.4753028,46.35949326284585],[13.475282551046819,46.35948747444232],[13.475274163655788,46.3594735],[13.475282551046819,46.35945952555768],[13.4753028,46.35945373715415],[13.47532304895318,46.35945952555768],[13.475331436344211,46.3594735]]]}},{"type":"Feature","id":"pylon-kanin-sella-nevea-41","properties":{"kind":"pylon","name":"Lift tower","height":13},"geometry":{"type":"Polygon","coordinates":[[[13.461775342660406,46.3715212],[13.461766953419405,46.371535174442315],[13.4617467,46.37154096284585],[13.461726446580597,46.371535174442315],[13.461718057339596,46.3715212],[13.461726446580597,46.37150722555768],[13.4617467,46.371501437154144],[13.461766953419405,46.37150722555768],[13.461775342660406,46.3715212]]]}},{"type":"Feature","id":"pylon-kanin-sella-nevea-42","properties":{"kind":"pylon","name":"Lift tower","height":13},"geometry":{"type":"Polygon","coordinates":[[[13.481046641418258,46.3691525],[13.481038252541072,46.369166474442316],[13.481018,46.36917226284585],[13.480997747458929,46.369166474442316],[13.480989358581743,46.3691525],[13.480997747458929,46.36913852555768],[13.481018,46.369132737154146],[13.481038252541072,46.36913852555768],[13.481046641418258,46.3691525]]]}},{"type":"Feature","id":"pylon-kanin-sella-nevea-43","properties":{"kind":"pylon","name":"Lift tower","height":13},"geometry":{"type":"Polygon","coordinates":[[[13.500456929776215,46.3469373],[13.500448544308904,46.34695127444232],[13.5004283,46.34695706284585],[13.500408055691095,46.34695127444232],[13.500399670223784,46.3469373],[13.500408055691095,46.34692332555768],[13.5004283,46.34691753715415],[13.500448544308904,46.34692332555768],[13.500456929776215,46.3469373]]]}},{"type":"Feature","id":"pylon-kanin-sella-nevea-44","properties":{"kind":"pylon","name":"Lift tower","height":13},"geometry":{"type":"Polygon","coordinates":[[[13.530430423872314,46.3356615],[13.530422040134217,46.33567547444232],[13.5304018,46.33568126284585],[13.530381559865782,46.33567547444232],[13.530373176127686,46.3356615],[13.530381559865782,46.33564752555768],[13.5304018,46.33564173715415],[13.530422040134217,46.33564752555768],[13.530430423872314,46.3356615]]]}},{"type":"Feature","id":"pylon-kanin-sella-nevea-45","properties":{"kind":"pylon","name":"Lift tower","height":13},"geometry":{"type":"Polygon","coordinates":[[[13.494510431012861,46.3492983],[13.494502045183348,46.34931227444232],[13.4944818,46.34931806284585],[13.494461554816654,46.34931227444232],[13.49445316898714,46.3492983],[13.494461554816654,46.34928432555768],[13.4944818,46.34927853715415],[13.494502045183348,46.34928432555768],[13.494510431012861,46.3492983]]]}},{"type":"Feature","id":"pylon-kanin-sella-nevea-46","properties":{"kind":"pylon","name":"Lift tower","height":13},"geometry":{"type":"Polygon","coordinates":[[[13.531416323686601,46.3353067],[13.531407940002898,46.335320674442315],[13.5313877,46.33532646284585],[13.531367459997101,46.335320674442315],[13.531359076313398,46.3353067],[13.531367459997101,46.33529272555768],[13.5313877,46.335286937154144],[13.531407940002898,46.33529272555768],[13.531416323686601,46.3353067]]]}},{"type":"Feature","id":"pylon-kanin-sella-nevea-47","properties":{"kind":"pylon","name":"Lift tower","height":13},"geometry":{"type":"Polygon","coordinates":[[[13.52255892540384,46.3385872],[13.522550541217171,46.33860117444232],[13.5225303,46.33860696284585],[13.522510058782828,46.33860117444232],[13.522501674596159,46.3385872],[13.522510058782828,46.33857322555768],[13.5225303,46.33856743715415],[13.522550541217171,46.33857322555768],[13.52255892540384,46.3385872]]]}},{"type":"Feature","id":"pylon-kanin-sella-nevea-48","properties":{"kind":"pylon","name":"Lift tower","height":13},"geometry":{"type":"Polygon","coordinates":[[[13.5129084272748,46.3421607],[13.512900042540139,46.34217467444232],[13.5128798,46.34218046284585],[13.512859557459862,46.34217467444232],[13.5128511727252,46.3421607],[13.512859557459862,46.34214672555768],[13.5128798,46.34214093715415],[13.512900042540139,46.34214672555768],[13.5129084272748,46.3421607]]]}},{"type":"Feature","id":"pylon-kanin-sella-nevea-49","properties":{"kind":"pylon","name":"Lift tower","height":13},"geometry":{"type":"Polygon","coordinates":[[[13.481958634288079,46.3555499],[13.481950247499274,46.35556387444232],[13.48193,46.35556966284585],[13.481909752500727,46.35556387444232],[13.481901365711922,46.3555499],[13.481909752500727,46.35553592555768],[13.48193,46.35553013715415],[13.481950247499274,46.35553592555768],[13.481958634288079,46.3555499]]]}},{"type":"Feature","id":"pylon-kanin-sella-nevea-50","properties":{"kind":"pylon","name":"Lift tower","height":13},"geometry":{"type":"Polygon","coordinates":[[[13.53276502342196,46.3348011],[13.53275663981577,46.33481507444232],[13.5327364,46.33482086284585],[13.53271616018423,46.33481507444232],[13.532707776578038,46.3348011],[13.53271616018423,46.33478712555768],[13.5327364,46.33478133715415],[13.53275663981577,46.33478712555768],[13.53276502342196,46.3348011]]]}},{"type":"Feature","id":"pylon-kanin-sella-nevea-51","properties":{"kind":"pylon","name":"Lift tower","height":13},"geometry":{"type":"Polygon","coordinates":[[[13.524330225056076,46.3379229],[13.524321840971263,46.33793687444232],[13.5243016,46.337942662845855],[13.524281359028736,46.33793687444232],[13.524272974943923,46.3379229],[13.524281359028736,46.337908925557684],[13.5243016,46.33790313715415],[13.524321840971263,46.337908925557684],[13.524330225056076,46.3379229]]]}},{"type":"Feature","id":"pylon-kanin-sella-nevea-52","properties":{"kind":"pylon","name":"Lift tower","height":13},"geometry":{"type":"Polygon","coordinates":[[[13.515314726803611,46.3412608],[13.515306342206959,46.34127477444232],[13.5152861,46.34128056284585],[13.515265857793043,46.34127477444232],[13.51525747319639,46.3412608],[13.515265857793043,46.34124682555768],[13.5152861,46.34124103715415],[13.515306342206959,46.34124682555768],[13.515314726803611,46.3412608]]]}},{"type":"Feature","id":"pylon-kanin-sella-nevea-53","properties":{"kind":"pylon","name":"Lift tower","height":13},"geometry":{"type":"Polygon","coordinates":[[[13.534410123103106,46.3341919],[13.534401739590304,46.33420587444232],[13.5343815,46.33421166284585],[13.534361260409696,46.33420587444232],[13.534352876896895,46.3341919],[13.534361260409696,46.33417792555768],[13.5343815,46.33417213715415],[13.534401739590304,46.33417792555768],[13.534410123103106,46.3341919]]]}},{"type":"Feature","id":"pylon-kanin-sella-nevea-54","properties":{"kind":"pylon","name":"Lift tower","height":13},"geometry":{"type":"Polygon","coordinates":[[[13.525051824917456,46.3376581],[13.525043440873244,46.33767207444232],[13.5250232,46.33767786284585],[13.525002959126756,46.33767207444232],[13.524994575082543,46.3376581],[13.525002959126756,46.33764412555768],[13.5250232,46.33763833715415],[13.525043440873244,46.33764412555768],[13.525051824917456,46.3376581]]]}},{"type":"Feature","id":"pylon-kanin-sella-nevea-55","properties":{"kind":"pylon","name":"Lift tower","height":13},"geometry":{"type":"Polygon","coordinates":[[[13.536067722779183,46.333573],[13.536059339361257,46.33358697444232],[13.5360391,46.33359276284585],[13.536018860638743,46.33358697444232],[13.536010477220817,46.333573],[13.536018860638743,46.33355902555768],[13.5360391,46.33355323715415],[13.536059339361257,46.33355902555768],[13.536067722779183,46.333573]]]}},{"type":"Feature","id":"pylon-kanin-sella-nevea-56","properties":{"kind":"pylon","name":"Lift tower","height":13},"geometry":{"type":"Polygon","coordinates":[[[13.527028324531965,46.3369217],[13.527019940600661,46.336935674442316],[13.5269997,46.33694146284585],[13.526979459399337,46.336935674442316],[13.526971075468033,46.3369217],[13.526979459399337,46.33690772555768],[13.5269997,46.336901937154146],[13.527019940600661,46.33690772555768],[13.527028324531965,46.3369217]]]}},{"type":"Feature","id":"pylon-kanin-sella-nevea-57","properties":{"kind":"pylon","name":"Lift tower","height":13},"geometry":{"type":"Polygon","coordinates":[[[13.518098526260612,46.3402237],[13.518090141822999,46.34023767444232],[13.5180699,46.340243462845855],[13.518049658177002,46.34023767444232],[13.518041273739389,46.3402237],[13.518049658177002,46.340209725557685],[13.5180699,46.34020393715415],[13.518090141822999,46.340209725557685],[13.518098526260612,46.3402237]]]}},{"type":"Feature","id":"pylon-kanin-sella-nevea-58","properties":{"kind":"pylon","name":"Lift tower","height":13},"geometry":{"type":"Polygon","coordinates":[[[13.537876722428319,46.3329026],[13.537868339113158,46.332916574442315],[13.5378481,46.33292236284585],[13.537827860886841,46.332916574442315],[13.53781947757168,46.3329026],[13.537827860886841,46.33288862555768],[13.5378481,46.332882837154145],[13.537868339113158,46.33288862555768],[13.537876722428319,46.3329026]]]}},{"type":"Feature","id":"pylon-kanin-sella-nevea-59","properties":{"kind":"pylon","name":"Lift tower","height":13},"geometry":{"type":"Polygon","coordinates":[[[13.528349024279397,46.3364392],[13.528340640422067,46.33645317444232],[13.5283204,46.33645896284585],[13.528300159577933,46.33645317444232],[13.528291775720604,46.3364392],[13.528300159577933,46.33642522555768],[13.5283204,46.33641943715415],[13.528340640422067,46.33642522555768],[13.528349024279397,46.3364392]]]}},{"type":"Feature","id":"pylon-kanin-sella-nevea-60","properties":{"kind":"pylon","name":"Lift tower","height":13},"geometry":{"type":"Polygon","coordinates":[[[13.51945192600051,46.3397269],[13.51944354163908,46.33974087444232],[13.5194233,46.339746662845855],[13.51940305836092,46.33974087444232],[13.51939467399949,46.3397269],[13.51940305836092,46.339712925557684],[13.5194233,46.33970713715415],[13.51944354163908,46.339712925557684],[13.51945192600051,46.3397269]]]}},{"type":"Feature","id":"pylon-kanin-sella-nevea-61","properties":{"kind":"pylon","name":"Lift tower","height":13},"geometry":{"type":"Polygon","coordinates":[[[13.490506031830462,46.3508591],[13.490497645761478,46.35087307444232],[13.4904774,46.35087886284585],[13.490457154238522,46.35087307444232],[13.490448768169538,46.3508591],[13.490457154238522,46.35084512555768],[13.4904774,46.35083933715415],[13.490497645761478,46.35084512555768],[13.490506031830462,46.3508591]]]}},{"type":"Feature","id":"pylon-kanin-sella-nevea-62","properties":{"kind":"pylon","name":"Lift tower","height":13},"geometry":{"type":"Polygon","coordinates":[[[13.48307123509631,46.3570923],[13.48306284807078,46.357106274442316],[13.4830426,46.35711206284585],[13.483022351929218,46.357106274442316],[13.483013964903689,46.3570923],[13.483022351929218,46.35707832555768],[13.4830426,46.357072537154146],[13.48306284807078,46.35707832555768],[13.48307123509631,46.3570923]]]}},{"type":"Feature","id":"pylon-kanin-sella-nevea-63","properties":{"kind":"pylon","name":"Lift tower","height":13},"geometry":{"type":"Polygon","coordinates":[[[13.479602535631464,46.3581135],[13.479594148449193,46.35812747444232],[13.4795739,46.358133262845854],[13.479553651550807,46.35812747444232],[13.479545264368536,46.3581135],[13.479553651550807,46.358099525557684],[13.4795739,46.35809373715415],[13.479594148449193,46.358099525557684],[13.479602535631464,46.3581135]]]}},{"type":"Feature","id":"pylon-kanin-sella-nevea-64","properties":{"kind":"pylon","name":"Lift tower","height":13},"geometry":{"type":"Polygon","coordinates":[[[13.476653436086464,46.3589817],[13.476645048770925,46.35899567444232],[13.4766248,46.35900146284585],[13.476604551229075,46.35899567444232],[13.476596163913536,46.3589817],[13.476604551229075,46.35896772555768],[13.4766248,46.35896193715415],[13.476645048770925,46.35896772555768],[13.476653436086464,46.3589817]]]}},{"type":"Feature","id":"pylon-kanin-sella-nevea-65","properties":{"kind":"pylon","name":"Lift tower","height":13},"geometry":{"type":"Polygon","coordinates":[[[13.477234435996847,46.3588107],[13.477226048707555,46.35882467444232],[13.4772058,46.35883046284585],[13.477185551292445,46.35882467444232],[13.477177164003153,46.3588107],[13.477185551292445,46.35879672555768],[13.4772058,46.35879093715415],[13.477226048707555,46.35879672555768],[13.477234435996847,46.3588107]]]}},{"type":"Feature","id":"pylon-kanin-sella-nevea-66","properties":{"kind":"pylon","name":"Lift tower","height":13},"geometry":{"type":"Polygon","coordinates":[[[13.478912335737956,46.3583167],[13.478903948524493,46.35833067444232],[13.4788837,46.358336462845855],[13.478863451475508,46.35833067444232],[13.478855064262046,46.3583167],[13.478863451475508,46.358302725557685],[13.4788837,46.35829693715415],[13.478903948524493,46.358302725557685],[13.478912335737956,46.3583167]]]}},{"type":"Feature","id":"pylon-kanin-sella-nevea-67","properties":{"kind":"pylon","name":"Lift tower","height":13},"geometry":{"type":"Polygon","coordinates":[[[13.479945935578483,46.3580124],[13.479937548411728,46.35802637444232],[13.4799173,46.35803216284585],[13.479897051588273,46.35802637444232],[13.479888664421518,46.3580124],[13.479897051588273,46.35799842555768],[13.4799173,46.35799263715415],[13.479937548411728,46.35799842555768],[13.479945935578483,46.3580124]]]}},{"type":"Feature","id":"pylon-kanin-sella-nevea-68","properties":{"kind":"pylon","name":"Lift tower","height":13},"geometry":{"type":"Polygon","coordinates":[[[13.4818646352825,46.3574476],[13.481856248202437,46.35746157444232],[13.481836,46.35746736284585],[13.481815751797562,46.35746157444232],[13.481807364717499,46.3574476],[13.481815751797562,46.35743362555768],[13.481836,46.35742783715415],[13.481856248202437,46.35743362555768],[13.4818646352825,46.3574476]]]}},{"type":"Feature","id":"pylon-kanin-sella-nevea-69","properties":{"kind":"pylon","name":"Lift tower","height":13},"geometry":{"type":"Polygon","coordinates":[[[13.482868335127646,46.3571521],[13.482859948092939,46.35716607444232],[13.4828397,46.35717186284585],[13.48281945190706,46.35716607444232],[13.482811064872353,46.3571521],[13.48281945190706,46.35713812555768],[13.4828397,46.35713233715415],[13.482859948092939,46.35713812555768],[13.482868335127646,46.3571521]]]}},{"type":"Feature","id":"pylon-kanin-sella-nevea-70","properties":{"kind":"pylon","name":"Lift tower","height":13},"geometry":{"type":"Polygon","coordinates":[[[13.483268635065864,46.3570342],[13.483260248049252,46.35704817444232],[13.48324,46.35705396284585],[13.483219751950749,46.35704817444232],[13.483211364934137,46.3570342],[13.483219751950749,46.35702022555768],[13.48324,46.35701443715415],[13.483260248049252,46.35702022555768],[13.483268635065864,46.3570342]]]}},{"type":"Feature","id":"pylon-kanin-sella-nevea-71","properties":{"kind":"pylon","name":"Lift tower","height":13},"geometry":{"type":"Polygon","coordinates":[[[13.485030334794105,46.3565156],[13.48502194785709,46.35652957444232],[13.4850017,46.356535362845854],[13.48498145214291,46.35652957444232],[13.484973065205894,46.3565156],[13.48498145214291,46.356501625557684],[13.4850017,46.35649583715415],[13.48502194785709,46.356501625557684],[13.485030334794105,46.3565156]]]}},{"type":"Feature","id":"pylon-kanin-sella-nevea-72","properties":{"kind":"pylon","name":"Lift tower","height":13},"geometry":{"type":"Polygon","coordinates":[[[13.485966334649689,46.35624],[13.48595794775497,46.35625397444232],[13.4859377,46.35625976284585],[13.485917452245028,46.35625397444232],[13.48590906535031,46.35624],[13.485917452245028,46.35622602555768],[13.4859377,46.35622023715415],[13.48595794775497,46.35622602555768],[13.485966334649689,46.35624]]]}},{"type":"Feature","id":"pylon-kanin-sella-nevea-73","properties":{"kind":"pylon","name":"Lift tower","height":13},"geometry":{"type":"Polygon","coordinates":[[[13.474796935956439,46.3587336],[13.474788548678983,46.35874757444232],[13.4747683,46.35875336284585],[13.474748051321015,46.35874757444232],[13.47473966404356,46.3587336],[13.474748051321015,46.35871962555768],[13.4747683,46.35871383715415],[13.474788548678983,46.35871962555768],[13.474796935956439,46.3587336]]]}},{"type":"Feature","id":"pylon-kanin-sella-nevea-74","properties":{"kind":"pylon","name":"Lift tower","height":13},"geometry":{"type":"Polygon","coordinates":[[[13.480335034796045,46.3565193],[13.480326647858462,46.35653327444232],[13.4803064,46.356539062845854],[13.480286152141538,46.35653327444232],[13.480277765203954,46.3565193],[13.480286152141538,46.356505325557684],[13.4803064,46.35649953715415],[13.480326647858462,46.356505325557684],[13.480335034796045,46.3565193]]]}},{"type":"Feature","id":"pylon-kanin-sella-nevea-75","properties":{"kind":"pylon","name":"Lift tower","height":13},"geometry":{"type":"Polygon","coordinates":[[[13.4771787357836,46.3584038],[13.477170348556768,46.358417774442316],[13.4771501,46.35842356284585],[13.47712985144323,46.358417774442316],[13.477121464216399,46.3584038],[13.47712985144323,46.35838982555768],[13.4771501,46.358384037154146],[13.477170348556768,46.35838982555768],[13.4771787357836,46.3584038]]]}},{"type":"Feature","id":"pylon-kanin-sella-nevea-76","properties":{"kind":"pylon","name":"Lift tower","height":13},"geometry":{"type":"Polygon","coordinates":[[[13.484264733566574,46.3541729],[13.484256346989094,46.35418687444232],[13.4842361,46.354192662845854],[13.484215853010907,46.35418687444232],[13.484207466433427,46.3541729],[13.484215853010907,46.354158925557684],[13.4842361,46.35415313715415],[13.484256346989094,46.354158925557684],[13.484264733566574,46.3541729]]]}},{"type":"Feature","id":"pylon-kanin-sella-nevea-77","properties":{"kind":"pylon","name":"Lift tower","height":13},"geometry":{"type":"Polygon","coordinates":[[[13.48555853316183,46.3534004],[13.485550146702897,46.353414374442316],[13.4855299,46.35342016284585],[13.485509653297102,46.353414374442316],[13.485501266838169,46.3534004],[13.485509653297102,46.35338642555768],[13.4855299,46.353380637154146],[13.485550146702897,46.35338642555768],[13.48555853316183,46.3534004]]]}},{"type":"Feature","id":"pylon-kanin-sella-nevea-78","properties":{"kind":"pylon","name":"Lift tower","height":13},"geometry":{"type":"Polygon","coordinates":[[[13.489231232081604,46.3513385],[13.48922284593906,46.351352474442315],[13.4892026,46.35135826284585],[13.48918235406094,46.351352474442315],[13.489173967918397,46.3513385],[13.48918235406094,46.35132452555768],[13.4892026,46.351318737154145],[13.48922284593906,46.35132452555768],[13.489231232081604,46.3513385]]]}},{"type":"Feature","id":"pylon-kanin-sella-nevea-79","properties":{"kind":"pylon","name":"Lift tower","height":13},"geometry":{"type":"Polygon","coordinates":[[[13.492576231410233,46.3500569],[13.49256784546433,46.350070874442316],[13.4925476,46.35007666284585],[13.49252735453567,46.350070874442316],[13.492518968589767,46.3500569],[13.49252735453567,46.35004292555768],[13.4925476,46.350037137154146],[13.49256784546433,46.35004292555768],[13.492576231410233,46.3500569]]]}},{"type":"Feature","id":"pylon-kanin-sella-nevea-80","properties":{"kind":"pylon","name":"Lift tower","height":13},"geometry":{"type":"Polygon","coordinates":[[[13.49507603089668,46.3490765],[13.495067645101194,46.34909047444232],[13.4950474,46.349096262845855],[13.495027154898807,46.34909047444232],[13.495018769103321,46.3490765],[13.495027154898807,46.349062525557684],[13.4950474,46.34905673715415],[13.495067645101194,46.349062525557684],[13.49507603089668,46.3490765]]]}},{"type":"Feature","id":"pylon-kanin-sella-nevea-81","properties":{"kind":"pylon","name":"Lift tower","height":13},"geometry":{"type":"Polygon","coordinates":[[[13.49878193012509,46.3476034],[13.498773544555597,46.347617374442315],[13.4987533,46.34762316284585],[13.498733055444404,46.347617374442315],[13.49872466987491,46.3476034],[13.498733055444404,46.34758942555768],[13.4987533,46.347583637154145],[13.498773544555597,46.34758942555768],[13.49878193012509,46.3476034]]]}},{"type":"Feature","id":"pylon-kanin-sella-nevea-82","properties":{"kind":"pylon","name":"Lift tower","height":13},"geometry":{"type":"Polygon","coordinates":[[[13.509341827967829,46.3434842],[13.509333443030183,46.34349817444232],[13.5093132,46.34350396284585],[13.509292956969816,46.34349817444232],[13.50928457203217,46.3434842],[13.509292956969816,46.34347022555768],[13.5093132,46.34346443715415],[13.509333443030183,46.34347022555768],[13.509341827967829,46.3434842]]]}},{"type":"Feature","id":"pylon-kanin-sella-nevea-83","properties":{"kind":"pylon","name":"Lift tower","height":13},"geometry":{"type":"Polygon","coordinates":[[[13.516090426653498,46.3409741],[13.51608204210081,46.340988074442315],[13.5160618,46.34099386284585],[13.516041557899188,46.340988074442315],[13.5160331733465,46.3409741],[13.516041557899188,46.34096012555768],[13.5160618,46.340954337154145],[13.51608204210081,46.34096012555768],[13.516090426653498,46.3409741]]]}},{"type":"Feature","id":"pylon-kanin-sella-nevea-84","properties":{"kind":"pylon","name":"Lift tower","height":13},"geometry":{"type":"Polygon","coordinates":[[[13.515602726749524,46.3411575],[13.515594342168713,46.34117147444232],[13.5155741,46.341177262845854],[13.515553857831287,46.34117147444232],[13.515545473250477,46.3411575],[13.515553857831287,46.34114352555768],[13.5155741,46.34113773715415],[13.515594342168713,46.34114352555768],[13.515602726749524,46.3411575]]]}},{"type":"Feature","id":"pylon-kanin-sella-nevea-85","properties":{"kind":"pylon","name":"Lift tower","height":13},"geometry":{"type":"Polygon","coordinates":[[[13.514000327059808,46.3417501],[13.513991942388115,46.34176407444232],[13.5139717,46.34176986284585],[13.513951457611887,46.34176407444232],[13.513943072940194,46.3417501],[13.513951457611887,46.34173612555768],[13.5139717,46.34173033715415],[13.513991942388115,46.34173612555768],[13.514000327059808,46.3417501]]]}},{"type":"Feature","id":"pylon-kanin-sella-nevea-86","properties":{"kind":"pylon","name":"Lift tower","height":13},"geometry":{"type":"Polygon","coordinates":[[[13.52068382576455,46.3392762],[13.52067544147223,46.33929017444232],[13.5206552,46.33929596284585],[13.52063495852777,46.33929017444232],[13.52062657423545,46.3392762],[13.52063495852777,46.33926222555768],[13.5206552,46.33925643715415],[13.52067544147223,46.33926222555768],[13.52068382576455,46.3392762]]]}},{"type":"Feature","id":"pylon-kanin-sella-nevea-87","properties":{"kind":"pylon","name":"Lift tower","height":13},"geometry":{"type":"Polygon","coordinates":[[[13.47541973530561,46.3574917],[13.475411348218778,46.357505674442315],[13.4753911,46.35751146284585],[13.475370851781221,46.357505674442315],[13.475362464694388,46.3574917],[13.475370851781221,46.35747772555768],[13.4753911,46.357471937154145],[13.475411348218778,46.35747772555768],[13.47541973530561,46.3574917]]]}},{"type":"Feature","id":"pylon-kanin-sella-nevea-88","properties":{"kind":"pylon","name":"Lift tower","height":13},"geometry":{"type":"Polygon","coordinates":[[[13.476479534461676,46.3558812],[13.476471147622027,46.35589517444232],[13.4764509,46.35590096284585],[13.476430652377973,46.35589517444232],[13.476422265538323,46.3558812],[13.476430652377973,46.35586722555768],[13.4764509,46.35586143715415],[13.476471147622027,46.35586722555768],[13.476479534461676,46.3558812]]]}},{"type":"Feature","id":"pylon-kanin-sella-nevea-89","properties":{"kind":"pylon","name":"Lift tower","height":13},"geometry":{"type":"Polygon","coordinates":[[[13.47699573405061,46.3550967],[13.476987347331358,46.355110674442315],[13.4769671,46.35511646284585],[13.476946852668641,46.355110674442315],[13.47693846594939,46.3550967],[13.476946852668641,46.35508272555768],[13.4769671,46.355076937154145],[13.476987347331358,46.35508272555768],[13.47699573405061,46.3550967]]]}},{"type":"Feature","id":"pylon-kanin-sella-nevea-90","properties":{"kind":"pylon","name":"Lift tower","height":13},"geometry":{"type":"Polygon","coordinates":[[[13.475678535099455,46.3570983],[13.475670148073005,46.357112274442315],[13.4756499,46.35711806284585],[13.475629651926996,46.357112274442315],[13.475621264900546,46.3570983],[13.475629651926996,46.35708432555768],[13.4756499,46.357078537154145],[13.475670148073005,46.35708432555768],[13.475678535099455,46.3570983]]]}},{"type":"Feature","id":"pylon-kanin-sella-nevea-91","properties":{"kind":"pylon","name":"Lift tower","height":13},"geometry":{"type":"Polygon","coordinates":[[[13.466435343466808,46.3730588],[13.466426953989616,46.37307277444232],[13.4664067,46.373078562845855],[13.466386446010384,46.37307277444232],[13.466378056533193,46.3730588],[13.466386446010384,46.373044825557685],[13.4664067,46.37303903715415],[13.466426953989616,46.373044825557685],[13.466435343466808,46.3730588]]]}},{"type":"Feature","id":"pylon-kanin-sella-nevea-92","properties":{"kind":"pylon","name":"Lift tower","height":13},"geometry":{"type":"Polygon","coordinates":[[[13.465735343412733,46.3729557],[13.46572695395138,46.37296967444232],[13.4657067,46.37297546284585],[13.46568644604862,46.37296967444232],[13.465678056587267,46.3729557],[13.46568644604862,46.37294172555768],[13.4657067,46.372935937154146],[13.46572695395138,46.37294172555768],[13.465735343412733,46.3729557]]]}},{"type":"Feature","id":"pylon-kanin-sella-nevea-93","properties":{"kind":"pylon","name":"Lift tower","height":13},"geometry":{"type":"Polygon","coordinates":[[[13.462107543133612,46.3724235],[13.462099153754012,46.372437474442314],[13.4620789,46.37244326284585],[13.462058646245987,46.372437474442314],[13.462050256866387,46.3724235],[13.462058646245987,46.37240952555768],[13.4620789,46.372403737154144],[13.462099153754012,46.37240952555768],[13.462107543133612,46.3724235]]]}},{"type":"Feature","id":"pylon-kanin-sella-nevea-94","properties":{"kind":"pylon","name":"Lift tower","height":13},"geometry":{"type":"Polygon","coordinates":[[[13.462695443178978,46.37251],[13.46268705378609,46.372523974442316],[13.4626668,46.37252976284585],[13.462646546213909,46.372523974442316],[13.46263815682102,46.37251],[13.462646546213909,46.37249602555768],[13.4626668,46.372490237154146],[13.46268705378609,46.37249602555768],[13.462695443178978,46.37251]]]}},{"type":"Feature","id":"pylon-kanin-sella-nevea-95","properties":{"kind":"pylon","name":"Lift tower","height":13},"geometry":{"type":"Polygon","coordinates":[[[13.465138443366895,46.3728683],[13.465130053918967,46.37288227444232],[13.4651098,46.37288806284585],[13.465089546081034,46.37288227444232],[13.465081156633106,46.3728683],[13.465089546081034,46.37285432555768],[13.4651098,46.37284853715415],[13.465130053918967,46.37285432555768],[13.465138443366895,46.3728683]]]}},{"type":"Feature","id":"pylon-kanin-sella-nevea-96","properties":{"kind":"pylon","name":"Lift tower","height":13},"geometry":{"type":"Polygon","coordinates":[[[13.463760243260847,46.3726661],[13.463751853843979,46.372680074442314],[13.4637316,46.37268586284585],[13.46371134615602,46.372680074442314],[13.463702956739152,46.3726661],[13.46371134615602,46.37265212555768],[13.4637316,46.372646337154144],[13.463751853843979,46.37265212555768],[13.463760243260847,46.3726661]]]}},{"type":"Feature","id":"marker-kanin-sella-nevea-summit","properties":{"kind":"marker","markerType":"summit","name":"Upper mountain · 2292 m","height":26},"geometry":{"type":"Polygon","coordinates":[[[13.516091114851083,46.358999999999995],[13.516073713462966,46.35903696098424],[13.516028156037425,46.35905980412876],[13.515971843962575,46.35905980412876],[13.515926286537034,46.35903696098424],[13.515908885148917,46.358999999999995],[13.515926286537034,46.35896303901575],[13.515971843962575,46.35894019587123],[13.516028156037425,46.35894019587123],[13.516073713462966,46.35896303901575],[13.516091114851083,46.358999999999995]]]}},{"type":"Feature","id":"marker-kanin-sella-nevea-base","properties":{"kind":"marker","markerType":"base","name":"Base · 1140 m","height":18},"geometry":{"type":"Polygon","coordinates":[[[13.520091108181632,46.355],[13.520073708067267,46.35503696098424],[13.520028153976451,46.355059804128764],[13.519971846023548,46.355059804128764],[13.519926291932732,46.35503696098424],[13.519908891818368,46.355],[13.519926291932732,46.35496303901575],[13.519971846023548,46.35494019587123],[13.520028153976451,46.35494019587123],[13.520073708067267,46.35496303901575],[13.520091108181632,46.355]]]}},{"type":"Feature","id":"marker-kanin-sella-nevea-featured-run","properties":{"kind":"marker","markerType":"featured-run","name":"Powder · Kanin to Sella Nevea","height":20},"geometry":{"type":"Polygon","coordinates":[[[13.523091103180475,46.352],[13.523073704021247,46.35203696098424],[13.523028152431008,46.352059804128764],[13.522971847568991,46.352059804128764],[13.522926295978753,46.35203696098424],[13.522908896819525,46.352],[13.522926295978753,46.35196303901575],[13.522971847568991,46.35194019587123],[13.523028152431008,46.35194019587123],[13.523073704021247,46.35196303901575],[13.523091103180475,46.352]]]}}]}