{"type":"FeatureCollection","features":[{"type":"Feature","id":26489558,"properties":{"kind":"lift","name":"Plateau","subtype":"chair_lift","status":"active"},"geometry":{"type":"LineString","coordinates":[[-70.1291657,-32.8340634],[-70.1288685,-32.8339185],[-70.1274543,-32.8332287],[-70.1267913,-32.8329053],[-70.123856,-32.8314736],[-70.1236764,-32.831386],[-70.1229222,-32.8310182],[-70.1226956,-32.8309076],[-70.1222464,-32.8306885]]}},{"type":"Feature","id":26489560,"properties":{"kind":"lift","name":"Las Lomas","subtype":"chair_lift","status":"active"},"geometry":{"type":"LineString","coordinates":[[-70.1273837,-32.8350198],[-70.126811,-32.8350074],[-70.1252871,-32.8349743],[-70.1245208,-32.8349577],[-70.1229556,-32.8349238],[-70.1221384,-32.8349061],[-70.121055,-32.8348826]]}},{"type":"Feature","id":26597807,"properties":{"kind":"run","name":"Mapped ski run","subtype":"easy","pisteType":"downhill","featured":false},"geometry":{"type":"LineString","coordinates":[[-70.1340956,-32.8371754],[-70.1340903,-32.8378082],[-70.1351434,-32.8389374],[-70.1360375,-32.8395709],[-70.1366672,-32.8401152],[-70.1369748,-32.8405008],[-70.1378011,-32.8417869],[-70.1380752,-32.8423959],[-70.138869,-32.8434201],[-70.1391009,-32.8436056],[-70.139633,-32.843894],[-70.140148,-32.8440959],[-70.1403356,-32.8441396]]}},{"type":"Feature","id":26597825,"properties":{"kind":"run","name":"Mapped ski run","subtype":"easy","pisteType":"downhill","featured":false},"geometry":{"type":"LineString","coordinates":[[-70.1369661,-32.8343553],[-70.137155,-32.8353388],[-70.1372971,-32.8357055],[-70.1375161,-32.8363952],[-70.1380216,-32.8367406],[-70.1385353,-32.837476],[-70.1393384,-32.8388088],[-70.1396245,-32.8396032],[-70.1397712,-32.8401903],[-70.1399087,-32.8412031],[-70.1403239,-32.8427738],[-70.140354,-32.843483],[-70.1403368,-32.8441031],[-70.1403356,-32.8441396],[-70.140307,-32.8449848],[-70.1403095,-32.8460855],[-70.1402155,-32.8466726],[-70.1400789,-32.8470107],[-70.1398251,-32.8476387],[-70.1397644,-32.8479283],[-70.1397822,-32.848215],[-70.1396712,-32.8485661],[-70.1393879,-32.8487163],[-70.1387088,-32.8488384],[-70.1377069,-32.8488405],[-70.1373418,-32.8489014],[-70.1368993,-32.8491279],[-70.1362928,-32.84955]]}},{"type":"Feature","id":26597845,"properties":{"kind":"run","name":"Mapped ski run","subtype":"easy","pisteType":"downhill","featured":false},"geometry":{"type":"LineString","coordinates":[[-70.1340956,-32.8371754],[-70.1330738,-32.8368234],[-70.132583,-32.8363388],[-70.1324812,-32.8362383],[-70.1320749,-32.8359492]]}},{"type":"Feature","id":26597855,"properties":{"kind":"run","name":"Mapped ski run","subtype":"easy","pisteType":"downhill","featured":false},"geometry":{"type":"LineString","coordinates":[[-70.1369661,-32.8343553],[-70.1366103,-32.834738],[-70.1364002,-32.8350093],[-70.1359591,-32.8352096],[-70.1351192,-32.8354898],[-70.1334785,-32.8362531],[-70.1329949,-32.836364],[-70.132694,-32.8363665],[-70.132583,-32.8363388]]}},{"type":"Feature","id":26597866,"properties":{"kind":"lift","name":"Juncalillo","subtype":"chair_lift","status":"active"},"geometry":{"type":"LineString","coordinates":[[-70.1364568,-32.8493742],[-70.1363827,-32.8490417],[-70.1362208,-32.8483154],[-70.1359845,-32.8472547],[-70.1358352,-32.8465848],[-70.1356169,-32.8456055],[-70.1353166,-32.8442579],[-70.1349867,-32.8427777],[-70.1346638,-32.8413284],[-70.1345611,-32.8408679],[-70.1344078,-32.8401796],[-70.13404,-32.8385294],[-70.1339365,-32.8380648]]}},{"type":"Feature","id":26597870,"properties":{"kind":"lift","name":"Princesa","subtype":"platter","status":"active"},"geometry":{"type":"LineString","coordinates":[[-70.1319255,-32.8360787],[-70.1303307,-32.8358315]]}},{"type":"Feature","id":26597876,"properties":{"kind":"run","name":"Mapped ski run","subtype":"novice","pisteType":"downhill","featured":false},"geometry":{"type":"LineString","coordinates":[[-70.1291287,-32.8340967],[-70.1299681,-32.8345168],[-70.1301946,-32.834726],[-70.1303119,-32.8349679],[-70.1303578,-32.8355342],[-70.1304261,-32.8356927],[-70.1305665,-32.8357412],[-70.1308525,-32.8357523],[-70.1318653,-32.835911],[-70.1320749,-32.8359492]]}},{"type":"Feature","id":26598202,"properties":{"kind":"run","name":"Garganta","subtype":"advanced","pisteType":"downhill","featured":false},"geometry":{"type":"LineString","coordinates":[[-70.121764,-32.8301908],[-70.1230334,-32.8301126],[-70.1236427,-32.8300837],[-70.1239088,-32.8300765],[-70.1242223,-32.8300387],[-70.1245786,-32.8300903],[-70.1249731,-32.8301991],[-70.1252402,-32.830418],[-70.1253087,-32.8305432],[-70.1253022,-32.8315422],[-70.1251604,-32.8320612],[-70.1249202,-32.8324347],[-70.1246009,-32.8327745],[-70.12449,-32.8330654],[-70.1245085,-32.8332653],[-70.1246851,-32.8335325]]}},{"type":"Feature","id":26598283,"properties":{"kind":"run","name":"Mapped ski run","subtype":"easy","pisteType":"downhill","featured":false},"geometry":{"type":"LineString","coordinates":[[-70.1209698,-32.8323575],[-70.1210396,-32.8326884],[-70.1210867,-32.8331356],[-70.1211312,-32.833557],[-70.121083,-32.83446],[-70.1210065,-32.8348266],[-70.1209975,-32.8351643]]}},{"type":"Feature","id":26598284,"properties":{"kind":"run","name":"Mapped ski run","subtype":"unknown","pisteType":"downhill","featured":false},"geometry":{"type":"LineString","coordinates":[[-70.1210867,-32.8331356],[-70.121497,-32.8335455],[-70.1217373,-32.8337546],[-70.1220634,-32.8339287]]}},{"type":"Feature","id":26598290,"properties":{"kind":"run","name":"Mapped ski run","subtype":"easy","pisteType":"downhill","featured":false},"geometry":{"type":"LineString","coordinates":[[-70.121083,-32.83446],[-70.1212758,-32.8341173],[-70.1214255,-32.8339819],[-70.1216025,-32.8339151],[-70.121894,-32.8339205],[-70.1220634,-32.8339287],[-70.1221489,-32.8339329],[-70.1223484,-32.8339426],[-70.1231573,-32.8341769],[-70.1238944,-32.8343109],[-70.1241932,-32.8343785],[-70.1244837,-32.8344442],[-70.1247527,-32.8345362],[-70.1257474,-32.8346526],[-70.1272624,-32.8347357]]}},{"type":"Feature","id":26598316,"properties":{"kind":"run","name":"Mapped ski run","subtype":"easy","pisteType":"downhill","featured":false},"geometry":{"type":"LineString","coordinates":[[-70.1209975,-32.8351643],[-70.1243715,-32.8354079],[-70.1270331,-32.8351393],[-70.1271532,-32.835096],[-70.1272723,-32.8349945],[-70.1276253,-32.8348581]]}},{"type":"Feature","id":26598332,"properties":{"kind":"run","name":"Mapped ski run","subtype":"novice","pisteType":"downhill","featured":false},"geometry":{"type":"LineString","coordinates":[[-70.1276253,-32.8348581],[-70.1280115,-32.8347859],[-70.12854,-32.8348044],[-70.1294707,-32.8348797],[-70.1296509,-32.8348004],[-70.1298655,-32.8348076],[-70.130123,-32.8348581],[-70.1303119,-32.8349679]]}},{"type":"Feature","id":26598357,"properties":{"kind":"run","name":"Mapped ski run","subtype":"novice","pisteType":"downhill","featured":false},"geometry":{"type":"LineString","coordinates":[[-70.1287709,-32.8350706],[-70.12854,-32.8348044],[-70.1284883,-32.834719],[-70.1284407,-32.8346404]]}},{"type":"Feature","id":26598529,"properties":{"kind":"run","name":"Plateau","subtype":"intermediate","pisteType":"downhill","featured":false},"geometry":{"type":"LineString","coordinates":[[-70.121764,-32.8301908],[-70.1213511,-32.8303506],[-70.1206995,-32.8306341],[-70.1204582,-32.8308304],[-70.1204407,-32.8311805],[-70.1206587,-32.8318398],[-70.120785,-32.8321211],[-70.1209698,-32.8323575],[-70.121188,-32.8326368]]}},{"type":"Feature","id":26598560,"properties":{"kind":"run","name":"Mapped ski run","subtype":"easy","pisteType":"downhill","featured":false},"geometry":{"type":"LineString","coordinates":[[-70.1244837,-32.8344442],[-70.1244701,-32.8339901],[-70.1243963,-32.8338361],[-70.1241567,-32.833622],[-70.124228,-32.8335141],[-70.1243122,-32.8334878],[-70.124443,-32.8334546]]}},{"type":"Feature","id":26598587,"properties":{"kind":"lift","name":"El Puma","subtype":"platter","status":"active"},"geometry":{"type":"LineString","coordinates":[[-70.124489,-32.8348512],[-70.1239145,-32.8348464],[-70.1234299,-32.8348423],[-70.1223482,-32.8348332],[-70.1210937,-32.8348227]]}},{"type":"Feature","id":26598593,"properties":{"kind":"run","name":"Roca Jack","subtype":"advanced","pisteType":"downhill","featured":true},"geometry":{"type":"LineString","coordinates":[[-70.1439647,-32.8343796],[-70.1426225,-32.8345349],[-70.1399515,-32.834807],[-70.1372971,-32.8357055]]}},{"type":"Feature","id":28277528,"properties":{"kind":"run","name":"Las Lomas","subtype":"intermediate","pisteType":"downhill","featured":false},"geometry":{"type":"LineString","coordinates":[[-70.121188,-32.8326368],[-70.1220057,-32.8329513],[-70.1229819,-32.8331344],[-70.1240977,-32.8333436],[-70.124443,-32.8334546],[-70.1246851,-32.8335325],[-70.125879,-32.8338558],[-70.1269473,-32.8344217],[-70.1272624,-32.8347357],[-70.12766,-32.8346368],[-70.1284407,-32.8346404],[-70.1285715,-32.834641],[-70.1288784,-32.8344951],[-70.1290877,-32.8343046],[-70.1291287,-32.8340967]]}},{"type":"Feature","id":28277532,"properties":{"kind":"run","name":"Mapped ski run","subtype":"advanced","pisteType":"downhill","featured":false},"geometry":{"type":"LineString","coordinates":[[-70.1192547,-32.8274467],[-70.1197573,-32.827635],[-70.1203708,-32.8280348],[-70.1209201,-32.8284314],[-70.121272,-32.8289435],[-70.1214179,-32.8293113],[-70.1215295,-32.8297513],[-70.121764,-32.8301908]]}},{"type":"Feature","id":258948041,"properties":{"kind":"lift","name":"Cumbre","subtype":"platter","status":"active"},"geometry":{"type":"LineString","coordinates":[[-70.1247766,-32.8301866],[-70.1229002,-32.8304333],[-70.1225697,-32.8304767],[-70.1222392,-32.8305202]]}},{"type":"Feature","id":258949136,"properties":{"kind":"lift","name":"Los Canarios","subtype":"platter","status":"active"},"geometry":{"type":"LineString","coordinates":[[-70.1245322,-32.8366452],[-70.1235879,-32.8364065],[-70.1219805,-32.8360003],[-70.1206501,-32.835664]]}},{"type":"Feature","id":258949137,"properties":{"kind":"lift","name":"El Corralito","subtype":"magic_carpet","status":"active"},"geometry":{"type":"LineString","coordinates":[[-70.1282595,-32.8355481],[-70.1283621,-32.8348939]]}},{"type":"Feature","id":258950265,"properties":{"kind":"lift","name":"Conejo","subtype":"chair_lift","status":"active"},"geometry":{"type":"LineString","coordinates":[[-70.1319226,-32.8356016],[-70.1326151,-32.836061],[-70.1333519,-32.8365497],[-70.1338072,-32.8368518],[-70.1340886,-32.8370384]]}},{"type":"Feature","id":258950266,"properties":{"kind":"lift","name":"La Laguna","subtype":"chair_lift","status":"active"},"geometry":{"type":"LineString","coordinates":[[-70.1317669,-32.835505],[-70.1327181,-32.8352574],[-70.1335446,-32.8350423],[-70.1336,-32.8350278],[-70.1348161,-32.8347113],[-70.1355728,-32.8345143],[-70.1368291,-32.8341873]]}},{"type":"Feature","id":258950664,"properties":{"kind":"lift","name":"Condor","subtype":"rope_tow","status":"active"},"geometry":{"type":"LineString","coordinates":[[-70.1216252,-32.8301773],[-70.119153,-32.8275007]]}},{"type":"Feature","id":258950665,"properties":{"kind":"lift","name":"Las Vizcachas","subtype":"rope_tow","status":"active"},"geometry":{"type":"LineString","coordinates":[[-70.1208675,-32.8360199],[-70.1159481,-32.8349851]]}},{"type":"Feature","id":258950816,"properties":{"kind":"lift","name":"Roca Jack","subtype":"rope_tow","status":"active"},"geometry":{"type":"LineString","coordinates":[[-70.1376895,-32.8361977],[-70.1440255,-32.834486]]}},{"type":"Feature","id":258950817,"properties":{"kind":"lift","name":"Cara Cara","subtype":"rope_tow","status":"active"},"geometry":{"type":"LineString","coordinates":[[-70.1397415,-32.839113],[-70.1454707,-32.8368594]]}},{"type":"Feature","id":294766127,"properties":{"kind":"run","name":"Bajada Del Tren","subtype":"easy","pisteType":"downhill","featured":false},"geometry":{"type":"LineString","coordinates":[[-70.1204554,-32.83565],[-70.1208057,-32.8358628],[-70.1209661,-32.8360579],[-70.1208859,-32.8364516],[-70.1205905,-32.8371503],[-70.1205398,-32.8373773],[-70.1201092,-32.8379376],[-70.1200984,-32.8383828],[-70.1207909,-32.8387564],[-70.1215371,-32.838927],[-70.1223519,-32.8388843],[-70.1234932,-32.8384331],[-70.1238931,-32.8381228],[-70.1246622,-32.8371351],[-70.1256163,-32.8362275],[-70.1265887,-32.8355532],[-70.1274842,-32.8351093]]}},{"type":"Feature","id":294766128,"properties":{"kind":"run","name":"Mapped ski run","subtype":"easy","pisteType":"downhill","featured":false},"geometry":{"type":"LineString","coordinates":[[-70.1204554,-32.83565],[-70.1208891,-32.8354079],[-70.1209975,-32.8351643]]}},{"type":"Feature","id":294766129,"properties":{"kind":"run","name":"Mapped ski run","subtype":"advanced","pisteType":"downhill","featured":false},"geometry":{"type":"LineString","coordinates":[[-70.1429086,-32.8351558],[-70.1417282,-32.8361563],[-70.1403492,-32.8374906],[-70.1393384,-32.8388088]]}},{"type":"Feature","id":294766130,"properties":{"kind":"run","name":"Mapped ski run","subtype":"easy","pisteType":"downhill","featured":false},"geometry":{"type":"LineString","coordinates":[[-70.1243715,-32.8354079],[-70.1245573,-32.8357662],[-70.124629,-32.8361953],[-70.1245657,-32.8365819]]}},{"type":"Feature","id":294766131,"properties":{"kind":"run","name":"Mapped ski run","subtype":"advanced","pisteType":"downhill","featured":false},"geometry":{"type":"LineString","coordinates":[[-70.1190757,-32.8275495],[-70.1190965,-32.8279232],[-70.1195085,-32.8286029],[-70.1203521,-32.8296846],[-70.1215657,-32.8302244]]}},{"type":"Feature","id":294766132,"properties":{"kind":"run","name":"Mapped ski run","subtype":"advanced","pisteType":"downhill","featured":false},"geometry":{"type":"LineString","coordinates":[[-70.1157418,-32.8350588],[-70.1160584,-32.8353922],[-70.1171137,-32.8357221],[-70.1193045,-32.8360696],[-70.1209661,-32.8360579]]}},{"type":"Feature","id":294766133,"properties":{"kind":"run","name":"Mapped ski run","subtype":"advanced","pisteType":"downhill","featured":false},"geometry":{"type":"LineString","coordinates":[[-70.144061,-32.8345848],[-70.1429086,-32.8351558],[-70.141375,-32.8358859],[-70.1397154,-32.8363273],[-70.1375161,-32.8363952]]}},{"type":"Feature","id":294766134,"properties":{"kind":"run","name":"Mapped ski run","subtype":"novice","pisteType":"downhill","featured":false},"geometry":{"type":"LineString","coordinates":[[-70.1211606,-32.8346524],[-70.1214263,-32.8343414],[-70.121874,-32.8341508],[-70.1225963,-32.8342436],[-70.1237365,-32.8345521],[-70.1244857,-32.8347929]]}},{"type":"Feature","id":294766135,"properties":{"kind":"run","name":"Mapped ski run","subtype":"advanced","pisteType":"downhill","featured":false},"geometry":{"type":"LineString","coordinates":[[-70.1159174,-32.8348911],[-70.1162762,-32.8347705],[-70.1167448,-32.8346925],[-70.1177536,-32.8346996],[-70.1189567,-32.8349337],[-70.1198262,-32.8354231],[-70.1204554,-32.83565]]}},{"type":"Feature","id":294766136,"properties":{"kind":"run","name":"Mapped ski run","subtype":"advanced","pisteType":"downhill","featured":false},"geometry":{"type":"LineString","coordinates":[[-70.1454723,-32.8369902],[-70.1449616,-32.8372811],[-70.1435137,-32.8379088],[-70.1422093,-32.8382741],[-70.1414073,-32.8388912],[-70.1402212,-32.839675],[-70.1397712,-32.8401903]]}},{"type":"Feature","id":294766137,"properties":{"kind":"run","name":"Mapped ski run","subtype":"advanced","pisteType":"downhill","featured":false},"geometry":{"type":"LineString","coordinates":[[-70.1453415,-32.8368271],[-70.1449151,-32.8369087],[-70.1442144,-32.8372172],[-70.1438936,-32.8372669],[-70.1432055,-32.8375896],[-70.1420532,-32.8378343],[-70.1411667,-32.8381713],[-70.1403647,-32.838572],[-70.1395289,-32.8390934]]}},{"type":"Feature","id":421143761,"properties":{"kind":"lift","name":"Platter","subtype":"platter","status":"active"},"geometry":{"type":"LineString","coordinates":[[-70.128844,-32.843566],[-70.1287206,-32.8430567],[-70.1285224,-32.8422586],[-70.1284044,-32.8417988],[-70.1283451,-32.8413937]]}},{"type":"Feature","id":1495487246,"properties":{"kind":"run","name":"Super C","subtype":"expert","pisteType":"downhill","featured":false},"geometry":{"type":"LineString","coordinates":[[-70.1536205,-32.8352576],[-70.1538312,-32.835621],[-70.1536981,-32.8364037],[-70.1530105,-32.8372144],[-70.1521344,-32.8384538],[-70.1516242,-32.8393204],[-70.1509033,-32.8403081],[-70.1509033,-32.8405597],[-70.1506704,-32.8407367],[-70.1504042,-32.8408672],[-70.150005,-32.8411374],[-70.1488516,-32.841771],[-70.1466778,-32.842563],[-70.1436501,-32.8439234],[-70.1417537,-32.8454981],[-70.140689,-32.846551],[-70.1400789,-32.8470107]]}},{"type":"Feature","id":1495487247,"properties":{"kind":"run","name":"Ski touring route","subtype":"unknown","pisteType":"skitour","featured":false},"geometry":{"type":"LineString","coordinates":[[-70.1442248,-32.83444],[-70.1449221,-32.8342203],[-70.1463865,-32.8336783],[-70.1476591,-32.8336783],[-70.1489317,-32.833898],[-70.1495244,-32.8340884],[-70.1500648,-32.8345279],[-70.1504048,-32.8346894],[-70.150488,-32.8347563],[-70.150614,-32.8348574],[-70.1510585,-32.8352603],[-70.1517558,-32.8353774],[-70.1526275,-32.8353921],[-70.1530459,-32.8352749],[-70.1533074,-32.8352017],[-70.1536205,-32.8352576]]}}]}