{"type":"FeatureCollection","features":[{"type":"Feature","id":"building-272711281","properties":{"kind":"building","name":"Alpine building","height":7.2},"geometry":{"type":"Polygon","coordinates":[[[-70.1312915,-32.837089],[-70.1311392,-32.8371089],[-70.1311868,-32.8373674],[-70.1313391,-32.8373476],[-70.1312915,-32.837089]]]}},{"type":"Feature","id":"building-272711274","properties":{"kind":"building","name":"Alpine building","height":7.2},"geometry":{"type":"Polygon","coordinates":[[[-70.1311704,-32.8376444],[-70.1311565,-32.8377412],[-70.1312515,-32.8377508],[-70.1312654,-32.8376541],[-70.1311704,-32.8376444]]]}},{"type":"Feature","id":"building-272711283","properties":{"kind":"building","name":"Alpine building","height":7.2},"geometry":{"type":"Polygon","coordinates":[[[-70.1311128,-32.8374626],[-70.1311283,-32.8373845],[-70.1309854,-32.8373645],[-70.1309699,-32.8374426],[-70.1311128,-32.8374626]]]}},{"type":"Feature","id":"building-421830543","properties":{"kind":"building","name":"Alpine building","height":7.2},"geometry":{"type":"Polygon","coordinates":[[[-70.1313757,-32.835336],[-70.1313756,-32.8353736],[-70.1313167,-32.8353878],[-70.1312549,-32.8353691],[-70.131255,-32.8353202],[-70.131314,-32.835309],[-70.1313757,-32.835336]]]}},{"type":"Feature","id":"building-421830545","properties":{"kind":"building","name":"Alpine building","height":7.2},"geometry":{"type":"Polygon","coordinates":[[[-70.1311611,-32.8352999],[-70.1310966,-32.8353173],[-70.1310349,-32.8352993],[-70.1310324,-32.8352549],[-70.1310993,-32.8352429],[-70.1311638,-32.8352549],[-70.1311611,-32.8352999]]]}},{"type":"Feature","id":"building-421830552","properties":{"kind":"building","name":"Alpine building","height":7.2},"geometry":{"type":"Polygon","coordinates":[[[-70.1309224,-32.8355321],[-70.1308633,-32.8355291],[-70.1308418,-32.835572],[-70.1308044,-32.8355298],[-70.1307454,-32.8355231],[-70.130823,-32.8353984],[-70.1309224,-32.8355321]]]}},{"type":"Feature","id":"building-421832993","properties":{"kind":"building","name":"Alpine building","height":7.2},"geometry":{"type":"Polygon","coordinates":[[[-70.1307469,-32.8355939],[-70.1307426,-32.8357206],[-70.1306569,-32.8357185],[-70.1306613,-32.8355919],[-70.1307469,-32.8355939]]]}},{"type":"Feature","id":"building-421830551","properties":{"kind":"building","name":"Alpine building","height":7.2},"geometry":{"type":"Polygon","coordinates":[[[-70.1312657,-32.8351895],[-70.131196,-32.8352053],[-70.1311369,-32.8351753],[-70.1311397,-32.8351377],[-70.1311959,-32.8351302],[-70.1312631,-32.8351467],[-70.1312657,-32.8351895]]]}},{"type":"Feature","id":"building-272711279","properties":{"kind":"building","name":"Alpine building","height":7.2},"geometry":{"type":"Polygon","coordinates":[[[-70.1299595,-32.8375544],[-70.1300528,-32.8377112],[-70.1301648,-32.8376641],[-70.1300715,-32.8375073],[-70.1299595,-32.8375544]]]}},{"type":"Feature","id":"building-421830555","properties":{"kind":"building","name":"Alpine building","height":7.2},"geometry":{"type":"Polygon","coordinates":[[[-70.1310565,-32.8351196],[-70.1309841,-32.8351332],[-70.1309303,-32.8351122],[-70.1309278,-32.8350723],[-70.1309868,-32.8350656],[-70.1310539,-32.8350768],[-70.1310565,-32.8351196]]]}},{"type":"Feature","id":"building-421830546","properties":{"kind":"building","name":"Alpine building","height":7.2},"geometry":{"type":"Polygon","coordinates":[[[-70.1309171,-32.8351647],[-70.1309144,-32.8352188],[-70.1308499,-32.8352339],[-70.1307882,-32.8352069],[-70.1307883,-32.835167],[-70.1308473,-32.8351535],[-70.1309171,-32.8351647]]]}},{"type":"Feature","id":"building-421830544","properties":{"kind":"building","name":"Alpine building","height":7.2},"geometry":{"type":"Polygon","coordinates":[[[-70.1305603,-32.835336],[-70.1306515,-32.83546],[-70.1305898,-32.8354645],[-70.1305468,-32.8355066],[-70.1305119,-32.8354683],[-70.1304611,-32.8354577],[-70.1305603,-32.835336]]]}},{"type":"Feature","id":"building-325257710","properties":{"kind":"building","name":"Octogono","height":7.2},"geometry":{"type":"Polygon","coordinates":[[[-70.130169,-32.8357288],[-70.1300873,-32.8357307],[-70.1300289,-32.8357876],[-70.1300266,-32.8358465],[-70.130092,-32.8359034],[-70.130169,-32.8359053],[-70.1302297,-32.8358602],[-70.1302391,-32.8357798],[-70.130169,-32.8357288]]]}},{"type":"Feature","id":"building-272711270","properties":{"kind":"building","name":"Alpine building","height":7.2},"geometry":{"type":"Polygon","coordinates":[[[-70.1291774,-32.836954],[-70.1292274,-32.8369321],[-70.1292549,-32.8369756],[-70.1293521,-32.8369323],[-70.1293251,-32.8368895],[-70.1293798,-32.8368656],[-70.1291556,-32.8364853],[-70.1290147,-32.8365387],[-70.1290861,-32.8366718],[-70.1290206,-32.8367004],[-70.1291774,-32.836954]]]}},{"type":"Feature","id":"building-272711294","properties":{"kind":"building","name":"Alpine building","height":7.2},"geometry":{"type":"Polygon","coordinates":[[[-70.1293872,-32.835578],[-70.129385,-32.8359342],[-70.1295015,-32.8359347],[-70.1295036,-32.8355785],[-70.1293872,-32.835578]]]}},{"type":"Feature","id":"building-272711273","properties":{"kind":"building","name":"Alpine building","height":7.2},"geometry":{"type":"Polygon","coordinates":[[[-70.1289973,-32.8354035],[-70.128913,-32.8354694],[-70.1290182,-32.8355645],[-70.1291066,-32.8354954],[-70.1291809,-32.8355578],[-70.1293477,-32.8354177],[-70.1293335,-32.8354058],[-70.1294235,-32.8353314],[-70.1293806,-32.8352948],[-70.1295096,-32.8352829],[-70.1295045,-32.8353193],[-70.1297943,-32.8353477],[-70.1298076,-32.8352519],[-70.1300464,-32.8352676],[-70.1300656,-32.8350977],[-70.1294602,-32.8350493],[-70.129306,-32.8350558],[-70.1291492,-32.8351142],[-70.1291625,-32.8351592],[-70.1291007,-32.8352102],[-70.1290896,-32.8352009],[-70.1289229,-32.835341],[-70.1289973,-32.8354035]]]}},{"type":"Feature","id":"building-272711291","properties":{"kind":"building","name":"Alpine building","height":7.2},"geometry":{"type":"Polygon","coordinates":[[[-70.1288598,-32.8371624],[-70.128743,-32.8371674],[-70.128749,-32.8372658],[-70.1288658,-32.8372608],[-70.1288598,-32.8371624]]]}},{"type":"Feature","id":"building-272711288","properties":{"kind":"building","name":"Alpine building","height":7.2},"geometry":{"type":"Polygon","coordinates":[[[-70.1287407,-32.8378746],[-70.1288896,-32.8380948],[-70.1289761,-32.8380534],[-70.1288273,-32.8378333],[-70.1287407,-32.8378746]]]}},{"type":"Feature","id":"building-272711289","properties":{"kind":"building","name":"Alpine building","height":7.2},"geometry":{"type":"Polygon","coordinates":[[[-70.1286018,-32.8379446],[-70.1287884,-32.8382549],[-70.128878,-32.8382168],[-70.1286914,-32.8379066],[-70.1286018,-32.8379446]]]}},{"type":"Feature","id":"building-272711290","properties":{"kind":"building","name":"Alpine building","height":7.2},"geometry":{"type":"Polygon","coordinates":[[[-70.1285125,-32.8371041],[-70.1283918,-32.8371019],[-70.1283838,-32.8374121],[-70.1285045,-32.8374143],[-70.1285125,-32.8371041]]]}},{"type":"Feature","id":"building-272711277","properties":{"kind":"building","name":"Alpine building","height":7.2},"geometry":{"type":"Polygon","coordinates":[[[-70.1284748,-32.8380631],[-70.1286852,-32.8383666],[-70.1287602,-32.8383299],[-70.1285498,-32.8380263],[-70.1284748,-32.8380631]]]}},{"type":"Feature","id":"building-272711284","properties":{"kind":"building","name":"Alpine building","height":7.2},"geometry":{"type":"Polygon","coordinates":[[[-70.1287482,-32.8353677],[-70.128373,-32.8356896],[-70.1284944,-32.8357894],[-70.1288696,-32.8354675],[-70.1287482,-32.8353677]]]}},{"type":"Feature","id":"building-272711276","properties":{"kind":"building","name":"Alpine building","height":7.2},"geometry":{"type":"Polygon","coordinates":[[[-70.1283199,-32.837049],[-70.128217,-32.837047],[-70.128209,-32.8373389],[-70.128312,-32.8373409],[-70.1283199,-32.837049]]]}},{"type":"Feature","id":"building-272711278","properties":{"kind":"building","name":"Alpine building","height":7.2},"geometry":{"type":"Polygon","coordinates":[[[-70.1283418,-32.8381281],[-70.1285323,-32.838435],[-70.1286049,-32.8384032],[-70.1284143,-32.8380963],[-70.1283418,-32.8381281]]]}},{"type":"Feature","id":"building-272711298","properties":{"kind":"building","name":"Alpine building","height":7.2},"geometry":{"type":"Polygon","coordinates":[[[-70.128252,-32.8362149],[-70.1281388,-32.8363184],[-70.128244,-32.8363996],[-70.1283384,-32.8363133],[-70.1282726,-32.8362625],[-70.1282914,-32.8362454],[-70.128252,-32.8362149]]]}},{"type":"Feature","id":"building-272711275","properties":{"kind":"building","name":"Alpine building","height":7.2},"geometry":{"type":"Polygon","coordinates":[[[-70.1281393,-32.837014],[-70.128033,-32.8370114],[-70.1280231,-32.8372983],[-70.1281294,-32.8373009],[-70.1281393,-32.837014]]]}},{"type":"Feature","id":"building-272711293","properties":{"kind":"building","name":"Alpine building","height":7.2},"geometry":{"type":"Polygon","coordinates":[[[-70.1279448,-32.8375043],[-70.1282088,-32.8376294],[-70.1282501,-32.8375678],[-70.1279861,-32.8374427],[-70.1279448,-32.8375043]]]}},{"type":"Feature","id":"building-272711272","properties":{"kind":"building","name":"Alpine building","height":7.2},"geometry":{"type":"Polygon","coordinates":[[[-70.1286331,-32.8360648],[-70.1286616,-32.8359517],[-70.1284429,-32.8359128],[-70.1284584,-32.8358514],[-70.1280821,-32.8357844],[-70.1280666,-32.8358459],[-70.1279363,-32.8358227],[-70.1279516,-32.8357619],[-70.1277209,-32.8357208],[-70.1276991,-32.8358075],[-70.1277737,-32.8358208],[-70.1277517,-32.8359081],[-70.1286331,-32.8360648]]]}},{"type":"Feature","id":"building-272711287","properties":{"kind":"building","name":"Alpine building","height":7.2},"geometry":{"type":"Polygon","coordinates":[[[-70.128109,-32.836245],[-70.1281439,-32.8361194],[-70.127854,-32.8360627],[-70.1278192,-32.8361883],[-70.128109,-32.836245]]]}},{"type":"Feature","id":"building-272711292","properties":{"kind":"building","name":"Alpine building","height":7.2},"geometry":{"type":"Polygon","coordinates":[[[-70.1278693,-32.8374343],[-70.1279244,-32.8373639],[-70.127849,-32.8373222],[-70.1277939,-32.8373926],[-70.1278693,-32.8374343]]]}},{"type":"Feature","id":"building-421830548","properties":{"kind":"building","name":"Alpine building","height":7.2},"geometry":{"type":"Polygon","coordinates":[[[-70.1286783,-32.8344268],[-70.1286851,-32.8344776],[-70.1285431,-32.834491],[-70.1285363,-32.8344402],[-70.1286783,-32.8344268]]]}},{"type":"Feature","id":"building-421830542","properties":{"kind":"building","name":"Alpine building","height":7.2},"geometry":{"type":"Polygon","coordinates":[[[-70.1287778,-32.8341853],[-70.1286946,-32.8341857],[-70.1286937,-32.8340564],[-70.1287769,-32.834056],[-70.1287778,-32.8341853]]]}},{"type":"Feature","id":"building-421833845","properties":{"kind":"building","name":"Alpine building","height":7.2},"geometry":{"type":"Polygon","coordinates":[[[-70.1250598,-32.8357199],[-70.125044,-32.835735],[-70.1250289,-32.8357427],[-70.1250057,-32.8357476],[-70.1249908,-32.8357472],[-70.1249681,-32.8357408],[-70.1249545,-32.8357327],[-70.1249382,-32.835714],[-70.1249321,-32.8356945],[-70.1249323,-32.8356837],[-70.1249389,-32.8356644],[-70.124953,-32.8356482],[-70.1249728,-32.8356369],[-70.1249864,-32.8356332],[-70.1250103,-32.8356325],[-70.1250272,-32.8356363],[-70.1250474,-32.8356471],[-70.1250558,-32.8356548],[-70.125069,-32.8356811],[-70.1250684,-32.8357012],[-70.1250598,-32.8357199]]]}},{"type":"Feature","id":"building-421834918","properties":{"kind":"building","name":"Alpine building","height":7.2},"geometry":{"type":"Polygon","coordinates":[[[-70.1288012,-32.843871],[-70.1287515,-32.8438895],[-70.1287142,-32.8438186],[-70.1287639,-32.8438001],[-70.1288012,-32.843871]]]}},{"type":"Feature","id":"building-421834916","properties":{"kind":"building","name":"Alpine building","height":7.2},"geometry":{"type":"Polygon","coordinates":[[[-70.128626,-32.84471],[-70.1285356,-32.8448447],[-70.1284873,-32.8448218],[-70.1285777,-32.8446871],[-70.128626,-32.84471]]]}},{"type":"Feature","id":"building-272711280","properties":{"kind":"building","name":"Alpine building","height":7.2},"geometry":{"type":"Polygon","coordinates":[[[-70.1294544,-32.8455195],[-70.1295159,-32.8456396],[-70.1296517,-32.8455905],[-70.1295901,-32.8454704],[-70.1294544,-32.8455195]]]}},{"type":"Feature","id":"building-421834913","properties":{"kind":"building","name":"Alpine building","height":7.2},"geometry":{"type":"Polygon","coordinates":[[[-70.1292552,-32.8456619],[-70.1291564,-32.8456938],[-70.1289843,-32.8453178],[-70.1290788,-32.8452872],[-70.1290945,-32.8453216],[-70.1290734,-32.8453284],[-70.12914,-32.845474],[-70.1291654,-32.8454658],[-70.1292552,-32.8456619]]]}},{"type":"Feature","id":"building-272711282","properties":{"kind":"building","name":"Alpine building","height":7.2},"geometry":{"type":"Polygon","coordinates":[[[-70.1297045,-32.8460148],[-70.1296755,-32.8459602],[-70.1295286,-32.8460152],[-70.1295576,-32.8460698],[-70.1297045,-32.8460148]]]}},{"type":"Feature","id":"building-272711297","properties":{"kind":"building","name":"Alpine building","height":7.2},"geometry":{"type":"Polygon","coordinates":[[[-70.1281741,-32.8455545],[-70.1283031,-32.8458197],[-70.1284347,-32.8457745],[-70.1283056,-32.8455093],[-70.1281741,-32.8455545]]]}},{"type":"Feature","id":"building-272711299","properties":{"kind":"building","name":"Alpine building","height":7.2},"geometry":{"type":"Polygon","coordinates":[[[-70.1291572,-32.8460464],[-70.1291256,-32.8459817],[-70.1292993,-32.845922],[-70.1292498,-32.8458205],[-70.1285664,-32.8460553],[-70.1286174,-32.84616],[-70.1289848,-32.8460338],[-70.1290148,-32.8460954],[-70.1291572,-32.8460464]]]}},{"type":"Feature","id":"building-421830556","properties":{"kind":"building","name":"Alpine building","height":7.2},"geometry":{"type":"Polygon","coordinates":[[[-70.1243039,-32.8305242],[-70.1243113,-32.8307731],[-70.1242178,-32.8307751],[-70.1242137,-32.8306387],[-70.124253,-32.8306379],[-70.1242497,-32.8305253],[-70.1243039,-32.8305242]]]}},{"type":"Feature","id":"building-272711295","properties":{"kind":"building","name":"Alpine building","height":7.2},"geometry":{"type":"Polygon","coordinates":[[[-70.1268382,-32.8453444],[-70.126991,-32.8456546],[-70.1271057,-32.8456147],[-70.1269529,-32.8453045],[-70.1268382,-32.8453444]]]}},{"type":"Feature","id":"building-272711296","properties":{"kind":"building","name":"Alpine building","height":7.2},"geometry":{"type":"Polygon","coordinates":[[[-70.127384,-32.8454911],[-70.1272231,-32.8455442],[-70.1273779,-32.845876],[-70.1275389,-32.845823],[-70.127384,-32.8454911]]]}},{"type":"Feature","id":"building-272711286","properties":{"kind":"building","name":"Alpine building","height":7.2},"geometry":{"type":"Polygon","coordinates":[[[-70.1279974,-32.8457596],[-70.1282455,-32.8463133],[-70.1283497,-32.8462804],[-70.1281016,-32.8457267],[-70.1279974,-32.8457596]]]}},{"type":"Feature","id":"building-272711285","properties":{"kind":"building","name":"Alpine building","height":7.2},"geometry":{"type":"Polygon","coordinates":[[[-70.127781,-32.8457113],[-70.1276746,-32.8457503],[-70.1278255,-32.8460405],[-70.1279319,-32.8460014],[-70.127781,-32.8457113]]]}},{"type":"Feature","id":"pylon-portillo-0","properties":{"kind":"pylon","name":"Lift tower","height":13},"geometry":{"type":"Polygon","coordinates":[[[-70.13479257947421,-32.8347113],[-70.13479946847671,-32.834697325557684],[-70.1348161,-32.83469153715415],[-70.13483273152328,-32.834697325557684],[-70.13483962052578,-32.8347113],[-70.13483273152328,-32.83472527444232],[-70.1348161,-32.834731062845854],[-70.13479946847671,-32.83472527444232],[-70.13479257947421,-32.8347113]]]}},{"type":"Feature","id":"pylon-portillo-1","properties":{"kind":"pylon","name":"Lift tower","height":13},"geometry":{"type":"Polygon","coordinates":[[[-70.1355492795264,-32.8345143],[-70.13555616851363,-32.834500325557684],[-70.1355728,-32.83449453715415],[-70.13558943148638,-32.834500325557684],[-70.13559632047361,-32.8345143],[-70.13558943148638,-32.83452827444232],[-70.1355728,-32.834534062845854],[-70.13555616851363,-32.83452827444232],[-70.1355492795264,-32.8345143]]]}},{"type":"Feature","id":"pylon-portillo-2","properties":{"kind":"pylon","name":"Lift tower","height":13},"geometry":{"type":"Polygon","coordinates":[[[-70.13357647939037,-32.8350278],[-70.13358336841743,-32.83501382555768],[-70.1336,-32.83500803715415],[-70.13361663158257,-32.83501382555768],[-70.13362352060963,-32.8350278],[-70.13361663158257,-32.83504177444232],[-70.1336,-32.83504756284585],[-70.13358336841743,-32.83504177444232],[-70.13357647939037,-32.8350278]]]}},{"type":"Feature","id":"pylon-portillo-3","properties":{"kind":"pylon","name":"Lift tower","height":13},"geometry":{"type":"Polygon","coordinates":[[[-70.13352107938653,-32.8350423],[-70.13352796841471,-32.83502832555768],[-70.1335446,-32.835022537154146],[-70.13356123158528,-32.83502832555768],[-70.13356812061346,-32.8350423],[-70.13356123158528,-32.835056274442316],[-70.1335446,-32.83506206284585],[-70.13352796841471,-32.835056274442316],[-70.13352107938653,-32.8350423]]]}},{"type":"Feature","id":"pylon-portillo-4","properties":{"kind":"pylon","name":"Lift tower","height":13},"geometry":{"type":"Polygon","coordinates":[[[-70.13269457932955,-32.8352574],[-70.13270146837444,-32.835243425557685],[-70.1327181,-32.83523763715415],[-70.13273473162558,-32.835243425557685],[-70.13274162067046,-32.8352574],[-70.13273473162558,-32.83527137444232],[-70.1327181,-32.835277162845856],[-70.13270146837444,-32.83527137444232],[-70.13269457932955,-32.8352574]]]}},{"type":"Feature","id":"pylon-portillo-5","properties":{"kind":"pylon","name":"Lift tower","height":13},"geometry":{"type":"Polygon","coordinates":[[[-70.13259157911665,-32.836061],[-70.13259846822389,-32.83604702555768],[-70.1326151,-32.83604123715415],[-70.1326317317761,-32.83604702555768],[-70.13263862088334,-32.836061],[-70.1326317317761,-32.83607497444232],[-70.1326151,-32.83608076284585],[-70.13259846822389,-32.83607497444232],[-70.13259157911665,-32.836061]]]}},{"type":"Feature","id":"pylon-portillo-6","properties":{"kind":"pylon","name":"Lift tower","height":13},"geometry":{"type":"Polygon","coordinates":[[[-70.13332837898717,-32.8365497],[-70.13333526813233,-32.83653572555768],[-70.1333519,-32.83652993715415],[-70.13336853186766,-32.83653572555768],[-70.13337542101281,-32.8365497],[-70.13336853186766,-32.83656367444232],[-70.1333519,-32.83656946284585],[-70.13333526813233,-32.83656367444232],[-70.13332837898717,-32.8365497]]]}},{"type":"Feature","id":"pylon-portillo-7","properties":{"kind":"pylon","name":"Lift tower","height":13},"geometry":{"type":"Polygon","coordinates":[[[-70.13378367890715,-32.8368518],[-70.13379056807575,-32.83683782555768],[-70.1338072,-32.836832037154146],[-70.13382383192426,-32.83683782555768],[-70.13383072109286,-32.8368518],[-70.13382383192426,-32.836865774442316],[-70.1338072,-32.83687156284585],[-70.13379056807575,-32.836865774442316],[-70.13378367890715,-32.8368518]]]}},{"type":"Feature","id":"pylon-portillo-8","properties":{"kind":"pylon","name":"Lift tower","height":13},"geometry":{"type":"Polygon","coordinates":[[[-70.13401647846267,-32.8385294],[-70.13402336776146,-32.83851542555768],[-70.13404,-32.83850963715415],[-70.13405663223854,-32.83851542555768],[-70.13406352153733,-32.8385294],[-70.13405663223854,-32.83854337444232],[-70.13404,-32.83854916284585],[-70.13402336776146,-32.83854337444232],[-70.13401647846267,-32.8385294]]]}},{"type":"Feature","id":"pylon-portillo-9","properties":{"kind":"pylon","name":"Lift tower","height":13},"geometry":{"type":"Polygon","coordinates":[[[-70.13438427802542,-32.8401796],[-70.13439116745228,-32.84016562555768],[-70.1344078,-32.84015983715415],[-70.13442443254773,-32.84016562555768],[-70.13443132197459,-32.8401796],[-70.13442443254773,-32.84019357444232],[-70.1344078,-32.84019936284585],[-70.13439116745228,-32.84019357444232],[-70.13438427802542,-32.8401796]]]}},{"type":"Feature","id":"pylon-portillo-10","properties":{"kind":"pylon","name":"Lift tower","height":13},"geometry":{"type":"Polygon","coordinates":[[[-70.13453757784303,-32.8408679],[-70.1345444673233,-32.84085392555768],[-70.1345611,-32.84084813715415],[-70.1345777326767,-32.84085392555768],[-70.13458462215696,-32.8408679],[-70.1345777326767,-32.84088187444232],[-70.1345611,-32.84088766284585],[-70.1345444673233,-32.84088187444232],[-70.13453757784303,-32.8408679]]]}},{"type":"Feature","id":"pylon-portillo-11","properties":{"kind":"pylon","name":"Lift tower","height":13},"geometry":{"type":"Polygon","coordinates":[[[-70.134640277721,-32.8413284],[-70.134647167237,-32.841314425557684],[-70.1346638,-32.84130863715415],[-70.13468043276299,-32.841314425557684],[-70.13468732227899,-32.8413284],[-70.13468043276299,-32.84134237444232],[-70.1346638,-32.841348162845854],[-70.134647167237,-32.84134237444232],[-70.134640277721,-32.8413284]]]}},{"type":"Feature","id":"pylon-portillo-12","properties":{"kind":"pylon","name":"Lift tower","height":13},"geometry":{"type":"Polygon","coordinates":[[[-70.13496317733693,-32.8427777],[-70.13497006696544,-32.84276372555768],[-70.1349867,-32.84275793715415],[-70.13500333303456,-32.84276372555768],[-70.13501022266307,-32.8427777],[-70.13500333303456,-32.84279167444232],[-70.1349867,-32.84279746284585],[-70.13497006696544,-32.84279167444232],[-70.13496317733693,-32.8427777]]]}},{"type":"Feature","id":"pylon-portillo-13","properties":{"kind":"pylon","name":"Lift tower","height":13},"geometry":{"type":"Polygon","coordinates":[[[-70.13529307694463,-32.8442579],[-70.13529996668804,-32.844243925557684],[-70.1353166,-32.84423813715415],[-70.13533323331195,-32.844243925557684],[-70.13534012305536,-32.8442579],[-70.13533323331195,-32.84427187444232],[-70.1353166,-32.844277662845855],[-70.13529996668804,-32.84427187444232],[-70.13529307694463,-32.8442579]]]}},{"type":"Feature","id":"pylon-portillo-14","properties":{"kind":"pylon","name":"Lift tower","height":13},"geometry":{"type":"Polygon","coordinates":[[[-70.13559337658748,-32.8456055],[-70.13560026643549,-32.84559152555768],[-70.1356169,-32.845585737154146],[-70.13563353356452,-32.84559152555768],[-70.13564042341253,-32.8456055],[-70.13563353356452,-32.845619474442316],[-70.1356169,-32.84562526284585],[-70.13560026643549,-32.845619474442316],[-70.13559337658748,-32.8456055]]]}},{"type":"Feature","id":"pylon-portillo-15","properties":{"kind":"pylon","name":"Lift tower","height":13},"geometry":{"type":"Polygon","coordinates":[[[-70.1358116763279,-32.8465848],[-70.13581856625194,-32.846570825557684],[-70.1358352,-32.84656503715415],[-70.13585183374806,-32.846570825557684],[-70.1358587236721,-32.8465848],[-70.13585183374806,-32.84659877444232],[-70.1358352,-32.846604562845855],[-70.13581856625194,-32.84659877444232],[-70.1358116763279,-32.8465848]]]}},{"type":"Feature","id":"pylon-portillo-16","properties":{"kind":"pylon","name":"Lift tower","height":13},"geometry":{"type":"Polygon","coordinates":[[[-70.13596097615034,-32.8472547],[-70.13596786612639,-32.84724072555768],[-70.1359845,-32.84723493715415],[-70.13600113387362,-32.84724072555768],[-70.13600802384967,-32.8472547],[-70.13600113387362,-32.84726867444232],[-70.1359845,-32.84727446284585],[-70.13596786612639,-32.84726867444232],[-70.13596097615034,-32.8472547]]]}},{"type":"Feature","id":"pylon-portillo-17","properties":{"kind":"pylon","name":"Lift tower","height":13},"geometry":{"type":"Polygon","coordinates":[[[-70.13619727586916,-32.8483154],[-70.13620416592757,-32.84830142555768],[-70.1362208,-32.848295637154145],[-70.13623743407244,-32.84830142555768],[-70.13624432413084,-32.8483154],[-70.13623743407244,-32.848329374442315],[-70.1362208,-32.84833516284585],[-70.13620416592757,-32.848329374442315],[-70.13619727586916,-32.8483154]]]}},{"type":"Feature","id":"pylon-portillo-18","properties":{"kind":"pylon","name":"Lift tower","height":13},"geometry":{"type":"Polygon","coordinates":[[[-70.12884497968423,-32.8339185],[-70.12885186862522,-32.833904525557685],[-70.1288685,-32.83389873715415],[-70.12888513137477,-32.833904525557685],[-70.12889202031576,-32.8339185],[-70.12888513137477,-32.83393247444232],[-70.1288685,-32.833938262845855],[-70.12885186862522,-32.83393247444232],[-70.12884497968423,-32.8339185]]]}},{"type":"Feature","id":"pylon-portillo-19","properties":{"kind":"pylon","name":"Lift tower","height":13},"geometry":{"type":"Polygon","coordinates":[[[-70.12676777995262,-32.8329053],[-70.126774668815,-32.83289132555768],[-70.1267913,-32.83288553715415],[-70.12680793118498,-32.83289132555768],[-70.12681482004737,-32.8329053],[-70.12680793118498,-32.83291927444232],[-70.1267913,-32.83292506284585],[-70.126774668815,-32.83291927444232],[-70.12676777995262,-32.8329053]]]}},{"type":"Feature","id":"pylon-portillo-20","properties":{"kind":"pylon","name":"Lift tower","height":13},"geometry":{"type":"Polygon","coordinates":[[[-70.12365288035504,-32.831386],[-70.12365976909955,-32.831372025557684],[-70.1236764,-32.83136623715415],[-70.12369303090044,-32.831372025557684],[-70.12369991964495,-32.831386],[-70.12369303090044,-32.83139997444232],[-70.1236764,-32.831405762845854],[-70.12365976909955,-32.83139997444232],[-70.12365288035504,-32.831386]]]}},{"type":"Feature","id":"pylon-portillo-21","properties":{"kind":"pylon","name":"Lift tower","height":13},"geometry":{"type":"Polygon","coordinates":[[[-70.12383248033184,-32.8314736],[-70.12383936908316,-32.831459625557684],[-70.123856,-32.83145383715415],[-70.12387263091685,-32.831459625557684],[-70.12387951966817,-32.8314736],[-70.12387263091685,-32.83148757444232],[-70.123856,-32.831493362845855],[-70.12383936908316,-32.83148757444232],[-70.12383248033184,-32.8314736]]]}},{"type":"Feature","id":"pylon-portillo-22","properties":{"kind":"pylon","name":"Lift tower","height":13},"geometry":{"type":"Polygon","coordinates":[[[-70.12289868045247,-32.8310182],[-70.12290556916845,-32.831004225557685],[-70.1229222,-32.83099843715415],[-70.12293883083156,-32.831004225557685],[-70.12294571954754,-32.8310182],[-70.12293883083156,-32.83103217444232],[-70.1229222,-32.831037962845855],[-70.12290556916845,-32.83103217444232],[-70.12289868045247,-32.8310182]]]}},{"type":"Feature","id":"pylon-portillo-23","properties":{"kind":"pylon","name":"Lift tower","height":13},"geometry":{"type":"Polygon","coordinates":[[[-70.12267208048175,-32.8309076],[-70.12267896918915,-32.830893625557685],[-70.1226956,-32.83088783715415],[-70.12271223081085,-32.830893625557685],[-70.12271911951825,-32.8309076],[-70.12271223081085,-32.83092157444232],[-70.1226956,-32.830927362845856],[-70.12267896918915,-32.83092157444232],[-70.12267208048175,-32.8309076]]]}},{"type":"Feature","id":"pylon-portillo-24","properties":{"kind":"pylon","name":"Lift tower","height":13},"geometry":{"type":"Polygon","coordinates":[[[-70.12287668060738,-32.8304333],[-70.12288356927799,-32.830419325557685],[-70.1229002,-32.83041353715415],[-70.12291683072202,-32.830419325557685],[-70.12292371939263,-32.8304333],[-70.12291683072202,-32.83044727444232],[-70.1229002,-32.830453062845855],[-70.12288356927799,-32.83044727444232],[-70.12287668060738,-32.8304333]]]}},{"type":"Feature","id":"pylon-portillo-25","properties":{"kind":"pylon","name":"Lift tower","height":13},"geometry":{"type":"Polygon","coordinates":[[[-70.12254618059588,-32.8304767],[-70.12255306926986,-32.83046272555768],[-70.1225697,-32.830456937154146],[-70.12258633073014,-32.83046272555768],[-70.12259321940412,-32.8304767],[-70.12258633073014,-32.830490674442316],[-70.1225697,-32.83049646284585],[-70.12255306926986,-32.830490674442316],[-70.12254618059588,-32.8304767]]]}},{"type":"Feature","id":"pylon-portillo-26","properties":{"kind":"pylon","name":"Lift tower","height":13},"geometry":{"type":"Polygon","coordinates":[[[-70.12356437902513,-32.8364065],[-70.12357126815917,-32.836392525557685],[-70.1235879,-32.83638673715415],[-70.12360453184084,-32.836392525557685],[-70.12361142097488,-32.8364065],[-70.12360453184084,-32.83642047444232],[-70.1235879,-32.836426262845855],[-70.12357126815917,-32.83642047444232],[-70.12356437902513,-32.8364065]]]}},{"type":"Feature","id":"pylon-portillo-27","properties":{"kind":"pylon","name":"Lift tower","height":13},"geometry":{"type":"Polygon","coordinates":[[[-70.12195697913275,-32.8360003],[-70.12196386823527,-32.835986325557684],[-70.1219805,-32.83598053715415],[-70.12199713176474,-32.835986325557684],[-70.12200402086727,-32.8360003],[-70.12199713176474,-32.83601427444232],[-70.1219805,-32.836020062845854],[-70.12196386823527,-32.83601427444232],[-70.12195697913275,-32.8360003]]]}},{"type":"Feature","id":"pylon-portillo-28","properties":{"kind":"pylon","name":"Lift tower","height":13},"geometry":{"type":"Polygon","coordinates":[[[-70.12678747939577,-32.8350074],[-70.12679436842126,-32.834993425557684],[-70.126811,-32.83498763715415],[-70.12682763157875,-32.834993425557684],[-70.12683452060423,-32.8350074],[-70.12682763157875,-32.83502137444232],[-70.126811,-32.835027162845854],[-70.12679436842126,-32.83502137444232],[-70.12678747939577,-32.8350074]]]}},{"type":"Feature","id":"pylon-portillo-29","properties":{"kind":"pylon","name":"Lift tower","height":13},"geometry":{"type":"Polygon","coordinates":[[[-70.12526357940453,-32.8349743],[-70.12527046842744,-32.83496032555768],[-70.1252871,-32.83495453715415],[-70.12530373157254,-32.83496032555768],[-70.12531062059546,-32.8349743],[-70.12530373157254,-32.83498827444232],[-70.1252871,-32.83499406284585],[-70.12527046842744,-32.83498827444232],[-70.12526357940453,-32.8349743]]]}},{"type":"Feature","id":"pylon-portillo-30","properties":{"kind":"pylon","name":"Lift tower","height":13},"geometry":{"type":"Polygon","coordinates":[[[-70.12449727940894,-32.8349577],[-70.12450416843056,-32.83494372555768],[-70.1245208,-32.834937937154145],[-70.12453743156944,-32.83494372555768],[-70.12454432059106,-32.8349577],[-70.12453743156944,-32.834971674442315],[-70.1245208,-32.83497746284585],[-70.12450416843056,-32.834971674442315],[-70.12449727940894,-32.8349577]]]}},{"type":"Feature","id":"pylon-portillo-31","properties":{"kind":"pylon","name":"Lift tower","height":13},"geometry":{"type":"Polygon","coordinates":[[[-70.12389097943843,-32.8348464],[-70.12389786845141,-32.834832425557686],[-70.1239145,-32.83482663715415],[-70.12393113154859,-32.834832425557686],[-70.12393802056157,-32.8348464],[-70.12393113154859,-32.83486037444232],[-70.1239145,-32.834866162845856],[-70.12389786845141,-32.83486037444232],[-70.12389097943843,-32.8348464]]]}},{"type":"Feature","id":"pylon-portillo-32","properties":{"kind":"pylon","name":"Lift tower","height":13},"geometry":{"type":"Polygon","coordinates":[[[-70.12340637943952,-32.8348423],[-70.12341326845218,-32.83482832555768],[-70.1234299,-32.834822537154146],[-70.12344653154783,-32.83482832555768],[-70.1234534205605,-32.8348423],[-70.12344653154783,-32.834856274442316],[-70.1234299,-32.83486206284585],[-70.12341326845218,-32.834856274442316],[-70.12340637943952,-32.8348423]]]}},{"type":"Feature","id":"pylon-portillo-33","properties":{"kind":"pylon","name":"Lift tower","height":13},"geometry":{"type":"Polygon","coordinates":[[[-70.12293207941792,-32.8349238],[-70.12293896843691,-32.83490982555768],[-70.1229556,-32.834904037154146],[-70.12297223156308,-32.83490982555768],[-70.12297912058207,-32.8349238],[-70.12297223156308,-32.83493777444232],[-70.1229556,-32.83494356284585],[-70.12293896843691,-32.83493777444232],[-70.12293207941792,-32.8349238]]]}},{"type":"Feature","id":"pylon-portillo-34","properties":{"kind":"pylon","name":"Lift tower","height":13},"geometry":{"type":"Polygon","coordinates":[[[-70.12211487942261,-32.8349061],[-70.12212176844022,-32.83489212555768],[-70.1221384,-32.834886337154146],[-70.12215503155977,-32.83489212555768],[-70.12216192057738,-32.8349061],[-70.12215503155977,-32.834920074442316],[-70.1221384,-32.83492586284585],[-70.12212176844022,-32.834920074442316],[-70.12211487942261,-32.8349061]]]}},{"type":"Feature","id":"pylon-portillo-35","properties":{"kind":"pylon","name":"Lift tower","height":13},"geometry":{"type":"Polygon","coordinates":[[[-70.12232467944193,-32.8348332],[-70.12233156845389,-32.83481922555768],[-70.1223482,-32.834813437154146],[-70.12236483154612,-32.83481922555768],[-70.12237172055808,-32.8348332],[-70.12236483154612,-32.83484717444232],[-70.1223482,-32.83485296284585],[-70.12233156845389,-32.83484717444232],[-70.12232467944193,-32.8348332]]]}},{"type":"Feature","id":"marker-portillo-summit","properties":{"kind":"marker","markerType":"summit","name":"Upper mountain · 3310 m","height":26},"geometry":{"type":"Polygon","coordinates":[[[-70.13692516340579,-32.833000000000006],[-70.13693945592348,-32.83296303901576],[-70.1369768742206,-32.83294019587124],[-70.13702312577941,-32.83294019587124],[-70.13706054407652,-32.83296303901576],[-70.13707483659421,-32.833000000000006],[-70.13706054407652,-32.83303696098425],[-70.13702312577941,-32.83305980412877],[-70.1369768742206,-32.83305980412877],[-70.13693945592348,-32.83303696098425],[-70.13692516340579,-32.833000000000006]]]}},{"type":"Feature","id":"marker-portillo-base","properties":{"kind":"marker","markerType":"base","name":"Base · 2880 m","height":18},"geometry":{"type":"Polygon","coordinates":[[[-70.13292516003418,-32.837],[-70.13293945319579,-32.83696303901576],[-70.1329768731787,-32.836940195871236],[-70.13302312682129,-32.836940195871236],[-70.1330605468042,-32.83696303901576],[-70.13307483996581,-32.837],[-70.1330605468042,-32.83703696098425],[-70.13302312682129,-32.83705980412877],[-70.1329768731787,-32.83705980412877],[-70.13293945319579,-32.83703696098425],[-70.13292516003418,-32.837]]]}},{"type":"Feature","id":"marker-portillo-peak","properties":{"kind":"marker","markerType":"peak","name":"Peak · 3330 m","height":22},"geometry":{"type":"Polygon","coordinates":[[[-70.12892516509133,-32.831],[-70.12893945728712,-32.83096303901576],[-70.12897687474144,-32.830940195871236],[-70.12902312525854,-32.830940195871236],[-70.12906054271286,-32.83096303901576],[-70.12907483490865,-32.831],[-70.12906054271286,-32.83103696098425],[-70.12902312525854,-32.83105980412877],[-70.12897687474144,-32.83105980412877],[-70.12893945728712,-32.83103696098425],[-70.12892516509133,-32.831]]]}}]}