{"type":"FeatureCollection","features":[{"type":"Feature","id":26531292,"properties":{"kind":"lift","name":"Schaufeljochbahn","subtype":"gondola","status":"active"},"geometry":{"type":"LineString","coordinates":[[11.114539,46.9870622],[11.1144024,46.9866985],[11.1139459,46.9854834],[11.1132219,46.9835562],[11.1126666,46.982078],[11.1118996,46.980036],[11.1108104,46.9771581]]}},{"type":"Feature","id":27174762,"properties":{"kind":"lift","name":"Schlepplift Gaiskarferner","subtype":"t-bar","status":"active"},"geometry":{"type":"LineString","coordinates":[[11.1213867,46.9712575],[11.1207424,46.9714865],[11.1206749,46.9715105],[11.1194095,46.9719603],[11.1182739,46.972364],[11.1167203,46.9729163],[11.1155643,46.9733272],[11.1153056,46.9734191],[11.1142808,46.9737426],[11.1134779,46.9740688],[11.1123033,46.9744863],[11.1109999,46.9749496],[11.1096533,46.9754282],[11.1093308,46.9755429],[11.1087723,46.9757414]]}},{"type":"Feature","id":27174763,"properties":{"kind":"lift","name":"Doppelsesselbahn Pfaffengrat","subtype":"chair_lift","status":"active"},"geometry":{"type":"LineString","coordinates":[[11.1220017,46.9708651],[11.1230448,46.9716237],[11.1237439,46.9721323],[11.1245583,46.9727245]]}},{"type":"Feature","id":27174764,"properties":{"kind":"lift","name":"6er Sesselbahn Fernau","subtype":"chair_lift","status":"active"},"geometry":{"type":"LineString","coordinates":[[11.1310851,46.9898794],[11.1310248,46.9896261],[11.1307898,46.9886393],[11.1304976,46.9874121],[11.130003,46.9853346],[11.1298365,46.984635],[11.129418,46.9828773],[11.1291436,46.9817246],[11.1288044,46.9802996],[11.1282916,46.9781452],[11.1279301,46.9766266],[11.1276163,46.9753085],[11.1272297,46.9736841],[11.126892,46.9722655],[11.1267931,46.97185]]}},{"type":"Feature","id":27174766,"properties":{"kind":"lift","name":"6er Sessellift Murmelebahn","subtype":"chair_lift","status":"active"},"geometry":{"type":"LineString","coordinates":[[11.1228543,46.9974828],[11.1226799,46.9974979],[11.1221378,46.9975448],[11.1216301,46.9975888],[11.1201477,46.9977171],[11.1195559,46.9977684],[11.1181653,46.9978888],[11.1170654,46.997984],[11.1163267,46.998048]]}},{"type":"Feature","id":27174767,"properties":{"kind":"lift","name":"8er Sesselbahn Rotadl","subtype":"chair_lift","status":"active"},"geometry":{"type":"LineString","coordinates":[[11.1179534,46.9963184],[11.1177416,46.9961458],[11.1175064,46.9959542],[11.1164783,46.9951162],[11.1152392,46.9941064],[11.1141671,46.9932327],[11.112876,46.9921803],[11.1113377,46.9909266],[11.110319,46.9900963],[11.1088987,46.9889386],[11.1086303,46.9887198],[11.1083857,46.9885205],[11.1072374,46.9875845],[11.1068862,46.9872982]]}},{"type":"Feature","id":27174768,"properties":{"kind":"lift","name":"6er Sesselbahn Eisjoch","subtype":"chair_lift","status":"active"},"geometry":{"type":"LineString","coordinates":[[11.1186865,46.9960565],[11.1185674,46.9958399],[11.1180699,46.9949376],[11.1174914,46.9938885],[11.1167775,46.9925936],[11.1166138,46.9922967],[11.1159486,46.9910901],[11.1152232,46.9897744],[11.114323,46.9881414],[11.1136026,46.9868345],[11.1130364,46.9858074],[11.1122394,46.9843616],[11.1113696,46.9827837],[11.1107472,46.9816545],[11.1097474,46.9798408],[11.1088395,46.9781936],[11.1083168,46.9772452]]}},{"type":"Feature","id":28620875,"properties":{"kind":"run","name":"Zufahrt Fernau","subtype":"easy","pisteType":"downhill","featured":false},"geometry":{"type":"LineString","coordinates":[[11.1279182,46.985395],[11.1287496,46.9868515],[11.1294631,46.9880298],[11.1300341,46.9895049]]}},{"type":"Feature","id":28620915,"properties":{"kind":"lift","name":"Schlepplift Daunferner I","subtype":"t-bar","status":"active"},"geometry":{"type":"LineString","coordinates":[[11.1034486,46.9930726],[11.1034728,46.9928612],[11.1034782,46.9928136],[11.1036047,46.9917084],[11.1037783,46.9901906],[11.103935,46.9888213],[11.1040321,46.9879728],[11.1041264,46.9871487],[11.1042695,46.9858973],[11.1043503,46.9851915],[11.104479,46.9840667],[11.1045859,46.9831322],[11.1046087,46.9829326],[11.1048411,46.9809013]]}},{"type":"Feature","id":28620943,"properties":{"kind":"run","name":"Daunenhang","subtype":"easy","pisteType":"downhill","featured":false},"geometry":{"type":"LineString","coordinates":[[11.1043457,46.9805919],[11.1043847,46.9807031],[11.1043847,46.9807704],[11.1043526,46.9808153],[11.1042917,46.9808429],[11.1040088,46.980875],[11.103837,46.9808681],[11.1037315,46.9808751],[11.103627,46.9809002],[11.1035391,46.9809662],[11.1034856,46.9810355],[11.1034193,46.9811703],[11.103313,46.9813253],[11.1031755,46.9814902],[11.1030245,46.9816892],[11.1028808,46.981859],[11.1028755,46.98202],[11.1029532,46.9822898],[11.1031904,46.9825499],[11.1033578,46.9827532],[11.1035173,46.9829523],[11.1036358,46.9831339],[11.1037216,46.9832534]]}},{"type":"Feature","id":28621001,"properties":{"kind":"run","name":"Fernauferner","subtype":"easy","pisteType":"downhill","featured":false},"geometry":{"type":"LineString","coordinates":[[11.1260486,46.9721514],[11.1265669,46.9722451],[11.1269559,46.9723265],[11.1271226,46.9723345],[11.1273584,46.9723286],[11.1275609,46.9723085],[11.1277601,46.9722685],[11.128377,46.9721284],[11.128902,46.9720538],[11.1289712,46.9724179],[11.1290814,46.9728422],[11.1291522,46.9735929],[11.1292259,46.9743714],[11.1292089,46.9764592],[11.1291755,46.9767028],[11.1290302,46.9771673],[11.1288635,46.9776299],[11.1286113,46.9781156],[11.1281907,46.9786563],[11.1276726,46.9794305],[11.1271028,46.980158],[11.1267971,46.9804873],[11.126604,46.9808679],[11.1265342,46.9812192],[11.1265878,46.9815634],[11.1268453,46.9830273],[11.1279182,46.985395]]}},{"type":"Feature","id":28621729,"properties":{"kind":"run","name":"Daunferner","subtype":"easy","pisteType":"downhill","featured":false},"geometry":{"type":"LineString","coordinates":[[11.1036701,46.9844383],[11.1040664,46.9846711],[11.1045773,46.9849743],[11.1048096,46.985381],[11.1049722,46.9856642],[11.1051259,46.9859419],[11.1052453,46.9862733],[11.1053356,46.9868165],[11.1053384,46.9874499],[11.1053163,46.9877078],[11.1051924,46.9885],[11.1046585,46.9915671],[11.1042643,46.9928377],[11.1042435,46.9929193],[11.1042007,46.9930867],[11.1041366,46.993307],[11.1040822,46.9936985],[11.1040402,46.9944851],[11.1042055,46.9952204],[11.1043366,46.9955335],[11.104644,46.9957612],[11.1050795,46.9960834],[11.105744,46.996397],[11.1061614,46.9965315],[11.1067935,46.9966238],[11.1096012,46.997046],[11.1101818,46.9972388],[11.1107805,46.9973715],[11.1112457,46.9973948],[11.1117167,46.9973828],[11.1124298,46.9973466],[11.1138666,46.9971816],[11.1143594,46.9971569],[11.11516,46.9972608],[11.1158,46.9973273],[11.1161223,46.9973302],[11.1165461,46.9973196],[11.1170323,46.9971998],[11.1173991,46.9970703],[11.1178788,46.9968265],[11.1182413,46.9965395],[11.1182875,46.9963546],[11.1182206,46.996223]]}},{"type":"Feature","id":28825649,"properties":{"kind":"lift","name":"Gamsgartenbahn I","subtype":"gondola","status":"active"},"geometry":{"type":"LineString","coordinates":[[11.1549091,47.0107579],[11.1546376,47.0105026],[11.1537845,47.0097002],[11.1519311,47.0079571],[11.1500856,47.0062213],[11.1484236,47.0046581],[11.1457868,47.0021778],[11.1432569,46.9997981],[11.1426443,46.9992218],[11.1426039,46.9991838],[11.142565,46.9991473],[11.1410484,46.9977206],[11.1404676,46.9971742]]}},{"type":"Feature","id":28825688,"properties":{"kind":"lift","name":"Doppelsesselbahn Wildspitz","subtype":"chair_lift","status":"active"},"geometry":{"type":"LineString","coordinates":[[11.1026573,46.9776093],[11.1027558,46.9777833],[11.1031536,46.978486],[11.1037977,46.9796239],[11.1039058,46.9798148],[11.1043023,46.9805153],[11.1043457,46.9805919]]}},{"type":"Feature","id":28871848,"properties":{"kind":"run","name":"Falwesuna","subtype":"easy","pisteType":"downhill","featured":false},"geometry":{"type":"LineString","coordinates":[[11.1300341,46.9895049],[11.1304221,46.9895572],[11.1307787,46.9895249],[11.1312073,46.989455],[11.131444,46.9894276],[11.1317384,46.9894576],[11.1322277,46.9895986],[11.1323343,46.9896554],[11.1329465,46.9898185],[11.1332194,46.9898721],[11.1336653,46.9899026],[11.1340156,46.9899231],[11.1341952,46.9899782],[11.1343446,46.9900803],[11.1345062,46.9903093],[11.1346526,46.9912575],[11.1347468,46.9918255],[11.1350204,46.9923847],[11.1359377,46.9934129],[11.1366034,46.9940131],[11.1369751,46.9946585],[11.1372178,46.9951786],[11.1375252,46.9957085],[11.1376359,46.9958253],[11.1377613,46.9959482],[11.1382161,46.9962881],[11.1384565,46.996397],[11.1397758,46.9969803],[11.1401366,46.9969435],[11.1404178,46.9969769],[11.1406624,46.997049]]}},{"type":"Feature","id":28872248,"properties":{"kind":"run","name":"Silberschneid","subtype":"intermediate","pisteType":"downhill","featured":false},"geometry":{"type":"LineString","coordinates":[[11.1161,46.9854267],[11.1173302,46.9857575],[11.1180369,46.9859432],[11.1189954,46.9863642],[11.1206781,46.987882],[11.1209256,46.9881648],[11.121098,46.9886085],[11.121701,46.9892018],[11.1220349,46.989483],[11.1223605,46.9897064],[11.122739,46.9898914],[11.1232387,46.9899613],[11.1241575,46.9899125],[11.1251574,46.9899078]]}},{"type":"Feature","id":28872250,"properties":{"kind":"run","name":"Windachferner","subtype":"easy","pisteType":"downhill","featured":false},"geometry":{"type":"LineString","coordinates":[[11.1091586,46.9753496],[11.1090481,46.9752627],[11.1089686,46.9752407],[11.1088292,46.9752194],[11.1086945,46.9752257]]}},{"type":"Feature","id":28872252,"properties":{"kind":"run","name":"Schaufelschuss","subtype":"easy","pisteType":"downhill","featured":false},"geometry":{"type":"LineString","coordinates":[[11.1084486,46.9784374],[11.1097823,46.9787961],[11.1102701,46.979535],[11.112027,46.982132],[11.1130013,46.9838643],[11.1138895,46.9858028],[11.1142275,46.9864358]]}},{"type":"Feature","id":28872253,"properties":{"kind":"run","name":"Gamsgartenschuss","subtype":"expert","pisteType":"downhill","featured":false},"geometry":{"type":"LineString","coordinates":[[11.1102701,46.979535],[11.1105574,46.9797294],[11.1118419,46.9805983],[11.1129462,46.9812106],[11.1137105,46.9819735],[11.1149793,46.9835138],[11.1156653,46.9840356],[11.1163358,46.9843504],[11.1169323,46.9844181],[11.1178536,46.9842962],[11.1187192,46.9843717],[11.1192652,46.9846219],[11.1199031,46.9848016]]}},{"type":"Feature","id":28872254,"properties":{"kind":"run","name":"Daunfernerschuss","subtype":"intermediate","pisteType":"downhill","featured":false},"geometry":{"type":"LineString","coordinates":[[11.1040402,46.9944851],[11.1048124,46.994753],[11.1060748,46.99526],[11.1075735,46.9956276],[11.1079233,46.9956746],[11.1082342,46.995662],[11.108596,46.9955909],[11.1088118,46.9955043],[11.1089734,46.9954322],[11.1091661,46.9953253],[11.1093601,46.995197],[11.1095995,46.9950214],[11.1097526,46.9949269],[11.1099533,46.994887],[11.110173,46.9948838],[11.1105413,46.9949315],[11.1110711,46.9950125],[11.1115268,46.9950998],[11.1119055,46.9951653],[11.1121613,46.9952112],[11.1124946,46.9953103],[11.1128886,46.9956664],[11.1133712,46.9958718],[11.1135728,46.995904],[11.1138896,46.9959258],[11.1142254,46.9958826],[11.1144543,46.9958162],[11.1146764,46.9956722],[11.1150414,46.9954452],[11.1166186,46.9954717],[11.1173905,46.9954188]]}},{"type":"Feature","id":29184414,"properties":{"kind":"run","name":"Gamsgarten","subtype":"easy","pisteType":"downhill","featured":false},"geometry":{"type":"LineString","coordinates":[[11.1229146,46.997309],[11.1231478,46.9973584],[11.1234177,46.9974782],[11.1235453,46.9975663],[11.1235975,46.9976502],[11.1236081,46.9977792],[11.1236108,46.9979031],[11.123525,46.998064],[11.1235304,46.9981866],[11.1235902,46.998281],[11.1237047,46.9983348],[11.1238978,46.998322],[11.124296,46.9982471],[11.1247522,46.9981664],[11.1252053,46.9980861],[11.1258769,46.9980899],[11.1267717,46.9981044],[11.1272384,46.9981757],[11.1278392,46.9982453],[11.1282638,46.9983486],[11.1291347,46.9984227],[11.1305733,46.9985169],[11.1310498,46.9984812],[11.1315551,46.9983447],[11.131893,46.9981837],[11.1321585,46.9981288],[11.1324267,46.9981127],[11.1326105,46.9980987],[11.1328822,46.9980335],[11.13299,46.998041],[11.1332073,46.9980868],[11.1340219,46.9981428],[11.1347093,46.9981398],[11.135345,46.9981233],[11.1356696,46.9981453],[11.136088,46.9982185],[11.1366753,46.9982718],[11.1371656,46.9982656],[11.1374431,46.9981812],[11.1378511,46.997932],[11.1381769,46.9977503],[11.1384199,46.9976456],[11.1386872,46.9975487],[11.1390267,46.9973961],[11.139295,46.997276],[11.1397758,46.9969803]]}},{"type":"Feature","id":29184445,"properties":{"kind":"run","name":"Grubenschuss","subtype":"easy","pisteType":"downhill","featured":false},"geometry":{"type":"LineString","coordinates":[[11.1162835,46.99795],[11.1165461,46.9973196],[11.1174269,46.9972614],[11.1180931,46.9972103],[11.1192526,46.9970235],[11.11972,46.9969582],[11.119881,46.9969357],[11.1206036,46.9969089],[11.1213104,46.9969378],[11.1225588,46.9971891]]}},{"type":"Feature","id":29184483,"properties":{"kind":"run","name":"Wilde Grub'n","subtype":"intermediate","pisteType":"downhill","featured":true},"geometry":{"type":"LineString","coordinates":[[11.1165461,46.9973196],[11.1170526,46.9977514],[11.1174479,46.9978857],[11.117861,46.9980137],[11.1181114,46.998085],[11.1182117,46.9981085],[11.1184701,46.998187],[11.1186981,46.9982373],[11.1189323,46.9983211],[11.1191444,46.9984012],[11.1199684,46.998969],[11.1195736,46.9993026],[11.1193419,46.9995836],[11.1192916,46.9998796],[11.1198311,46.9998178],[11.1200651,46.9998311],[11.1206551,46.9998646],[11.1214619,46.9999934],[11.1220627,47.0001397],[11.1222789,47.0002011],[11.1225357,47.0002669],[11.1227779,47.0002991],[11.1229357,47.0003016],[11.1231313,47.0002775],[11.1235733,47.0000226],[11.1237793,47.0001222],[11.1241055,47.0002568],[11.1245346,47.0004031],[11.124653,47.0004569],[11.1251526,47.0006841],[11.1254615,47.0009068],[11.1255817,47.0009417],[11.1260796,47.0011524],[11.1263572,47.0013645],[11.126955,47.0020421],[11.127779,47.0029201],[11.1280185,47.0031738],[11.1281472,47.0033485],[11.1281966,47.0034192],[11.1281915,47.0034576],[11.1281622,47.0034806],[11.1281031,47.0034908],[11.1276671,47.0034802],[11.1273281,47.0034746],[11.1272167,47.0034959],[11.1270475,47.0036009],[11.1268064,47.003767],[11.126675,47.0039633],[11.126655,47.004069],[11.1266819,47.0041333],[11.1268226,47.00423],[11.126841,47.0043454],[11.1268349,47.0044537],[11.126657,47.0051985],[11.12644,47.0055423],[11.1260796,47.0067715],[11.1259766,47.006988],[11.1261225,47.0072631],[11.1263049,47.0073743],[11.1264401,47.0075624],[11.1267233,47.0077664],[11.1273241,47.0081469],[11.1275494,47.0083034],[11.1278541,47.0085017],[11.1280858,47.0086561],[11.1282468,47.0087658],[11.1284388,47.0089085],[11.1288004,47.0090248],[11.1292044,47.0091546],[11.1295638,47.0093127],[11.1297807,47.009399],[11.1300731,47.00941],[11.1303416,47.0093935],[11.1312294,47.0091711],[11.1317012,47.0091246],[11.1318836,47.0091045],[11.132144,47.0091276],[11.1325246,47.0091027],[11.1327714,47.0091009],[11.1331579,47.0091419],[11.1344765,47.0093869],[11.1354523,47.0096159],[11.1358076,47.0097812],[11.136185,47.0099788],[11.1362337,47.0100041],[11.1365184,47.0101525],[11.1370817,47.0103829],[11.1378212,47.0105933],[11.1382327,47.0108109],[11.1384791,47.010981],[11.1386025,47.0110944],[11.1387058,47.0111591],[11.1388412,47.0112169],[11.1394106,47.0113934],[11.1407137,47.0118164],[11.141572,47.0121442],[11.1421326,47.0123892],[11.1423147,47.0124569],[11.1424732,47.012507],[11.1427545,47.01253],[11.1433895,47.0125464],[11.1448335,47.0126006],[11.1457777,47.0125245],[11.1465244,47.0123899],[11.1472905,47.0122056],[11.1484814,47.0119803],[11.1497431,47.0117579],[11.1506186,47.0114536],[11.1510754,47.0112888],[11.1514227,47.0111354],[11.1515411,47.011104],[11.1518492,47.0110646],[11.1522158,47.0111087],[11.1525237,47.0111595],[11.1526387,47.011144],[11.1527027,47.0110971],[11.1527154,47.0110229],[11.1526202,47.0108669],[11.1525927,47.0108332],[11.1522722,47.0104285],[11.1521577,47.0102565],[11.1519918,47.0098266],[11.1519747,47.0095223],[11.1519941,47.0094437],[11.1521304,47.0093578],[11.152171,47.009345],[11.1522844,47.0093092],[11.1525583,47.0093584],[11.1528502,47.0095457],[11.1528985,47.0095796],[11.1530325,47.0097284],[11.1530826,47.0097985],[11.1531622,47.0097931],[11.1532417,47.0097638],[11.1534847,47.0098178],[11.153848,47.0099587],[11.154166,47.010222],[11.154309,47.0102748],[11.1545119,47.010257],[11.1547347,47.0102374],[11.154866,47.0102659],[11.1550914,47.0104491],[11.1553061,47.010649]]}},{"type":"Feature","id":29188443,"properties":{"kind":"run","name":"Eisjochzunge","subtype":"intermediate","pisteType":"downhill","featured":false},"geometry":{"type":"LineString","coordinates":[[11.1142275,46.9864358],[11.113027,46.9861409],[11.1125459,46.9861002],[11.1121204,46.9860862]]}},{"type":"Feature","id":29208380,"properties":{"kind":"lift","name":"Schlepplift Daunscharte","subtype":"t-bar","status":"active"},"geometry":{"type":"LineString","coordinates":[[11.1012925,46.9922104],[11.1010526,46.9921621],[11.1010114,46.9921538],[11.1004519,46.9920412],[11.0994472,46.9918389],[11.0984294,46.991634],[11.0974608,46.991439],[11.0960595,46.9911569],[11.0944923,46.9908414],[11.0932683,46.990595],[11.092032,46.9903461],[11.0919864,46.9903369],[11.09109,46.9901564]]}},{"type":"Feature","id":29208557,"properties":{"kind":"run","name":"Mapped ski run","subtype":"expert","pisteType":"downhill","featured":false},"geometry":{"type":"LineString","coordinates":[[11.1300435,46.991842],[11.1304636,46.992138],[11.1310215,46.9926941],[11.1316223,46.9932796],[11.1321802,46.9939528],[11.132712,46.9941816],[11.1332236,46.9941028]]}},{"type":"Feature","id":29208625,"properties":{"kind":"run","name":"14 Wilde Grub'n","subtype":"intermediate","pisteType":"downhill","featured":true},"geometry":{"type":"LineString","coordinates":[[11.1235733,47.0000226],[11.123703,46.9999701],[11.1239595,46.9999061],[11.1244574,46.99983],[11.1248178,46.9998066],[11.125077,46.9997858],[11.1251893,46.9998152],[11.1252169,46.9998769],[11.1252041,46.9999354],[11.1249466,47.0001403],[11.124732,47.0002983],[11.124653,47.0004569],[11.1245946,47.0006767],[11.1246581,47.0009776],[11.1247162,47.0010756],[11.1247725,47.0011218],[11.1248276,47.0011407],[11.1249037,47.0011529],[11.1249725,47.0011418],[11.1250375,47.0010944],[11.1251163,47.0010185],[11.1252494,47.0009492],[11.1254615,47.0009068]]}},{"type":"Feature","id":29208711,"properties":{"kind":"run","name":"14 Wilde Grub'n","subtype":"intermediate","pisteType":"downhill","featured":true},"geometry":{"type":"LineString","coordinates":[[11.1263049,47.0073743],[11.1265345,47.00741],[11.1270797,47.0073871],[11.1276331,47.0074685],[11.1285944,47.0075739],[11.1296415,47.0077026],[11.1305685,47.0078372],[11.1310835,47.0078372],[11.1314096,47.007808],[11.1316671,47.0077026],[11.1320276,47.007527],[11.1321564,47.0075739],[11.1320963,47.007808],[11.1319847,47.0080421],[11.1320276,47.0081591],[11.1323538,47.0081884],[11.1327314,47.0080714],[11.1331005,47.0080538],[11.1340704,47.0084635],[11.134903,47.0088322],[11.1356153,47.0092009],[11.1360788,47.0096925],[11.1362041,47.0097779],[11.1363192,47.0098564],[11.1366284,47.010008],[11.1368671,47.0100629],[11.1370549,47.0101306],[11.1372131,47.0102129],[11.1373714,47.0103006],[11.1376905,47.0104579],[11.1378212,47.0105933]]}},{"type":"Feature","id":29208953,"properties":{"kind":"run","name":"Silberschneid","subtype":"intermediate","pisteType":"downhill","featured":false},"geometry":{"type":"LineString","coordinates":[[11.1300341,46.9895049],[11.1299323,46.9897062],[11.1298656,46.989882],[11.1297959,46.9901923],[11.1298549,46.9904126],[11.130078,46.9906283],[11.1302027,46.9907489],[11.1303619,46.9909029],[11.1310761,46.9912655],[11.1313741,46.9915462],[11.1315189,46.9918674]]}},{"type":"Feature","id":29235960,"properties":{"kind":"run","name":"Pfaffenschneid","subtype":"intermediate","pisteType":"downhill","featured":false},"geometry":{"type":"LineString","coordinates":[[11.128902,46.9720538],[11.129115,46.9720909],[11.129204,46.9721157],[11.1293528,46.9721855],[11.1294131,46.9722671],[11.1308093,46.9742962],[11.1319651,46.9766164],[11.1334797,46.9802177],[11.1343381,46.9827702],[11.1348019,46.9843823],[11.1347011,46.9851663],[11.1343727,46.9856144],[11.1340927,46.985888],[11.1336087,46.9860824],[11.1327772,46.9863261],[11.1322797,46.9864701],[11.1320682,46.9865911],[11.1318581,46.9867806],[11.1313899,46.9873317],[11.13127,46.9875997],[11.1311553,46.9878113],[11.1308121,46.9881565],[11.1303956,46.9885222],[11.1302838,46.9888259],[11.1300341,46.9895049]]}},{"type":"Feature","id":29236025,"properties":{"kind":"run","name":"Mapped ski run","subtype":"easy","pisteType":"downhill","featured":false},"geometry":{"type":"LineString","coordinates":[[11.1065472,46.986937],[11.1063091,46.9869216],[11.1061822,46.9869312],[11.1060574,46.9869579],[11.105918,46.9870319],[11.1053384,46.9874499],[11.1042793,46.9881032],[11.103067,46.9887501]]}},{"type":"Feature","id":29236047,"properties":{"kind":"run","name":"Schartenschuss","subtype":"intermediate","pisteType":"downhill","featured":false},"geometry":{"type":"LineString","coordinates":[[11.0919864,46.9903369],[11.0921167,46.9902637],[11.0922345,46.990229],[11.0923407,46.9902112],[11.092417,46.9902257],[11.092488,46.990274],[11.0925285,46.9903507],[11.0925844,46.9905263],[11.0926793,46.9908441],[11.0927316,46.9909295],[11.0928389,46.9910196],[11.0929924,46.9910809],[11.0991228,46.9921477],[11.1003128,46.9924242],[11.1010907,46.9927718],[11.1025291,46.9936718]]}},{"type":"Feature","id":29380332,"properties":{"kind":"run","name":"Wilde Grub'n","subtype":"intermediate","pisteType":"downhill","featured":true},"geometry":{"type":"LineString","coordinates":[[11.1043366,46.9955335],[11.1044153,46.9958678],[11.1045486,46.9961273],[11.1062913,46.9975537],[11.1066562,46.9977916],[11.1070359,46.9980392],[11.1078074,46.9984671],[11.108853,46.9989204],[11.1099946,46.9991736],[11.1110719,46.9993214],[11.112742,46.9994359],[11.1142093,46.9994121]]}},{"type":"Feature","id":29380425,"properties":{"kind":"run","name":"Fernau-Mauer","subtype":"intermediate","pisteType":"downhill","featured":false},"geometry":{"type":"LineString","coordinates":[[11.1294131,46.9722671],[11.1304212,46.9727219],[11.1315048,46.9735236],[11.1323717,46.9747128],[11.1335156,46.9765541],[11.1343917,46.9779074],[11.1351596,46.9796832],[11.1358272,46.9818371],[11.1364711,46.9836792],[11.1368994,46.9850688],[11.1372578,46.9858597],[11.1375019,46.986701],[11.1374867,46.9871712],[11.1372943,46.9879816],[11.1372246,46.9885445],[11.1369322,46.9890955],[11.1368904,46.9897985],[11.1362637,46.9903115],[11.1357484,46.9905585],[11.1350799,46.990682],[11.1347874,46.990872],[11.1346526,46.9912575]]}},{"type":"Feature","id":29380522,"properties":{"kind":"run","name":"Gaches Eck","subtype":"intermediate","pisteType":"downhill","featured":false},"geometry":{"type":"LineString","coordinates":[[11.1046585,46.9915671],[11.1050644,46.9917503],[11.1057408,46.9919797],[11.1059796,46.9920085],[11.1062802,46.9920143],[11.1066034,46.9920856],[11.1072525,46.992195],[11.1077496,46.9923645],[11.1080277,46.9924126],[11.1085405,46.9924529],[11.109313,46.9924821],[11.1096292,46.99259],[11.1099138,46.9926871],[11.1106005,46.9931261],[11.111845,46.9937116],[11.1129228,46.9937041],[11.1141722,46.9936509],[11.1146477,46.9937182],[11.1148853,46.9940126],[11.1154657,46.9946915],[11.1159745,46.994794],[11.1162326,46.9950879],[11.1166186,46.9954717]]}},{"type":"Feature","id":29380690,"properties":{"kind":"run","name":"Skiweg Eisnase","subtype":"easy","pisteType":"downhill","featured":false},"geometry":{"type":"LineString","coordinates":[[11.1065472,46.986937],[11.1067725,46.9866108],[11.1068391,46.9864348],[11.1068896,46.986252],[11.1069766,46.9861034],[11.1071388,46.9859769],[11.1073165,46.9858723],[11.1074661,46.9857758],[11.1076154,46.9856429],[11.1077265,46.9854909],[11.1077999,46.9853424],[11.107841,46.9851807],[11.1077939,46.9849851],[11.1077245,46.9847566],[11.107719,46.98455],[11.1077506,46.9842736],[11.1078447,46.9839908],[11.1079756,46.9838724],[11.108201,46.98378],[11.1086767,46.9836975],[11.1091045,46.9836574],[11.1108676,46.9836694]]}},{"type":"Feature","id":29380801,"properties":{"kind":"lift","name":"Kitzlift","subtype":"platter","status":"active"},"geometry":{"type":"LineString","coordinates":[[11.1241559,46.9971986],[11.1240531,46.9971052],[11.124023,46.9970778],[11.1237656,46.9968436],[11.122854,46.9960143],[11.1225105,46.9957018],[11.1223461,46.9955523],[11.1218285,46.9950814]]}},{"type":"Feature","id":29380929,"properties":{"kind":"run","name":"Mapped ski run","subtype":"novice","pisteType":"downhill","featured":false},"geometry":{"type":"LineString","coordinates":[[11.1223046,46.9956307],[11.12218,46.9957408],[11.1219845,46.9958302],[11.1212463,46.9960878],[11.1213565,46.9961839],[11.1215321,46.9963165],[11.1219092,46.9965681],[11.122551,46.996802],[11.1234093,46.9969659],[11.1239417,46.9970549],[11.1234779,46.9966849],[11.1227312,46.9960586],[11.1223046,46.9956307]]}},{"type":"Feature","id":29422684,"properties":{"kind":"run","name":"Eisnase","subtype":"intermediate","pisteType":"downhill","featured":false},"geometry":{"type":"LineString","coordinates":[[11.1069766,46.9861034],[11.1077705,46.9862843],[11.1080305,46.9863033],[11.1083799,46.9863089],[11.1093667,46.986391],[11.1101861,46.9865769],[11.1105257,46.9866653],[11.1107232,46.9867052],[11.1112286,46.9870791]]}},{"type":"Feature","id":29422773,"properties":{"kind":"lift","name":"Schlepplift Fernau","subtype":"t-bar","status":"active"},"geometry":{"type":"LineString","coordinates":[[11.1378861,46.9967747],[11.1378013,46.9966969],[11.1373774,46.9963079],[11.1373558,46.9962883],[11.1368163,46.9957993],[11.1361424,46.9951884],[11.1351252,46.9942663],[11.1338001,46.9930651],[11.1330038,46.9923432],[11.1324945,46.9918815],[11.1316443,46.9911107],[11.1309643,46.9904943],[11.1306066,46.99017],[11.1305274,46.9900982],[11.1300885,46.9897003]]}},{"type":"Feature","id":29422802,"properties":{"kind":"run","name":"Kanonenrohr","subtype":"intermediate","pisteType":"downhill","featured":false},"geometry":{"type":"LineString","coordinates":[[11.1323343,46.9896554],[11.1324587,46.9898734],[11.1328535,46.9903418],[11.133626,46.9920396],[11.1344226,46.993276],[11.1353331,46.9941439],[11.1362127,46.9946814],[11.1372178,46.9951786]]}},{"type":"Feature","id":29428066,"properties":{"kind":"run","name":"Ski touring route","subtype":"unknown","pisteType":"skitour","featured":false},"geometry":{"type":"LineString","coordinates":[[11.0749578,47.0424949],[11.0750219,47.0425451],[11.0751253,47.0426278],[11.0751448,47.0426744],[11.0751515,47.0427163],[11.0751271,47.0428741],[11.0751044,47.0430209],[11.0751285,47.0431278],[11.0751768,47.0432155],[11.0751848,47.0433087],[11.0751522,47.0434357],[11.0750194,47.0436276],[11.0749315,47.0437253],[11.0748772,47.0437738],[11.0748524,47.0438376],[11.0748229,47.0439226],[11.0746972,47.044052],[11.074485,47.0443063],[11.0744247,47.0443775],[11.0743,47.0444214],[11.0741955,47.0444351],[11.0740426,47.0444598],[11.0737676,47.0445687],[11.0736847,47.0446269],[11.0736432,47.0447036],[11.0736434,47.0448116],[11.0736499,47.0449311],[11.0736002,47.0450983],[11.0735645,47.0454755],[11.0735965,47.0455888],[11.0736575,47.045697],[11.0737205,47.0457647],[11.0738067,47.0457999]]}},{"type":"Feature","id":29978146,"properties":{"kind":"run","name":"Grubenschuss","subtype":"easy","pisteType":"downhill","featured":false},"geometry":{"type":"LineString","coordinates":[[11.1163267,46.998048],[11.1162794,46.9979877],[11.1162835,46.99795],[11.1163948,46.9978823],[11.1164665,46.9978568],[11.1170526,46.9977514],[11.1177639,46.9976822],[11.1192818,46.9975465],[11.1212902,46.9973299],[11.1219028,46.9972366],[11.1223155,46.9971873],[11.1225588,46.9971891],[11.122719,46.9972194],[11.1229146,46.997309],[11.1229601,46.9973623],[11.122993,46.9974237],[11.1229862,46.9974526],[11.1229662,46.9974657],[11.1228543,46.9974828]]}},{"type":"Feature","id":33263761,"properties":{"kind":"lift","name":"Schlepplift Daunferner II","subtype":"t-bar","status":"active"},"geometry":{"type":"LineString","coordinates":[[11.103185,46.9937742],[11.103201,46.993635],[11.1032128,46.9935317],[11.1032537,46.9931758],[11.1033103,46.9926821],[11.1034426,46.991529],[11.1035843,46.9902942],[11.1037605,46.9887582],[11.1038782,46.9877324],[11.1039782,46.9868601],[11.1040876,46.9859065],[11.1041508,46.9853558],[11.1042868,46.9841701],[11.104418,46.9830264],[11.1044298,46.9829241],[11.1046662,46.9808628]]}},{"type":"Feature","id":41756859,"properties":{"kind":"run","name":"Steile Zunge","subtype":"intermediate","pisteType":"downhill","featured":false},"geometry":{"type":"LineString","coordinates":[[11.1042643,46.9928377],[11.1045435,46.9931008],[11.1052408,46.9933581],[11.1060562,46.9936801],[11.1067858,46.9937679],[11.1073008,46.993885],[11.1076441,46.9939143],[11.1085453,46.9940313],[11.1093049,46.994227],[11.1100679,46.9944274],[11.1108539,46.9946355],[11.1116162,46.9947234],[11.1120857,46.9948436],[11.1123213,46.9950297],[11.1124946,46.9953103]]}},{"type":"Feature","id":42734204,"properties":{"kind":"run","name":"Schaufelschuss","subtype":"easy","pisteType":"downhill","featured":false},"geometry":{"type":"LineString","coordinates":[[11.1081757,46.9775816],[11.1083483,46.9776407],[11.1085408,46.9777185],[11.1087658,46.9778625],[11.1089662,46.9779707],[11.1091464,46.9780548],[11.1093365,46.978181],[11.1095361,46.978382],[11.1095514,46.9783974],[11.1097823,46.9787961]]}},{"type":"Feature","id":53151987,"properties":{"kind":"run","name":"Ski touring route","subtype":"unknown","pisteType":"skitour","featured":false},"geometry":{"type":"LineString","coordinates":[[11.0755589,47.0371842],[11.0760645,47.0363617],[11.0758848,47.0353734],[11.0760246,47.034763],[11.0764882,47.0344409],[11.0771129,47.0334467],[11.0776378,47.0320536],[11.0777094,47.0313282],[11.0779287,47.0299958],[11.0786168,47.0286782],[11.0790901,47.0278323],[11.0799333,47.0267079],[11.0808351,47.026216],[11.0814558,47.0258881],[11.0811982,47.0257241],[11.0822054,47.0250566],[11.0823928,47.0246818],[11.0828164,47.0241034],[11.0829069,47.023858],[11.0831237,47.0233089],[11.0831328,47.0230867],[11.0831537,47.0225743],[11.0829588,47.02148],[11.0822152,47.0202811],[11.0817467,47.0196721],[11.0815001,47.019341],[11.0810909,47.0187914],[11.0810041,47.0184904],[11.0808098,47.017817],[11.0804621,47.016708],[11.0801144,47.0159394],[11.0800185,47.0157532],[11.0800365,47.0154954],[11.0801684,47.0152915],[11.0802763,47.0151236]]}},{"type":"Feature","id":53152498,"properties":{"kind":"run","name":"Ski touring route","subtype":"unknown","pisteType":"skitour","featured":false},"geometry":{"type":"LineString","coordinates":[[11.0802763,47.0151236],[11.0802463,47.0150516],[11.0799645,47.0147338],[11.0802403,47.0143081],[11.0800121,47.0139547],[11.0795788,47.013533],[11.0793094,47.0130763],[11.0792508,47.0127718],[11.0790986,47.0125141],[11.0786887,47.0124673],[11.0783139,47.0121511],[11.0782905,47.0116474],[11.0782436,47.0112258],[11.0781899,47.0111414],[11.0777255,47.0111376],[11.0778253,47.0108574],[11.0773456,47.0108651],[11.0774569,47.0104698],[11.0770463,47.0106118],[11.0771115,47.0102165],[11.0766433,47.0103048],[11.0764771,47.0097768],[11.0763619,47.0097193],[11.0757633,47.0098229],[11.0754985,47.0098114],[11.0753066,47.0096579],[11.0749015,47.0092113],[11.0747843,47.0087574],[11.0747836,47.0084938],[11.0747537,47.008128],[11.0744538,47.0079061],[11.0741353,47.0075594],[11.0740978,47.0069879],[11.0740241,47.0068012],[11.0742402,47.0064697],[11.0738522,47.0062511],[11.0737948,47.0060999],[11.0739975,47.0059434],[11.0740312,47.0058175],[11.073847,47.0057192],[11.0737874,47.0055246],[11.0737181,47.0052986],[11.0735887,47.0050655]]}},{"type":"Feature","id":53152499,"properties":{"kind":"run","name":"Ski touring route","subtype":"unknown","pisteType":"skitour","featured":false},"geometry":{"type":"LineString","coordinates":[[11.0802763,47.0151236],[11.0804369,47.0146817],[11.080696,47.0142932],[11.0807871,47.0140485],[11.080672,47.0138902],[11.0803986,47.0137223],[11.080648,47.013612],[11.0808687,47.0130555],[11.0812189,47.012547],[11.0820872,47.0120673],[11.0828643,47.0118418],[11.0834639,47.0119186],[11.0839101,47.0122928],[11.0843898,47.0127389],[11.0848791,47.013161],[11.0861695,47.0132762],[11.0883091,47.013161],[11.0901895,47.0131092],[11.0917261,47.0129311],[11.0925674,47.0130379],[11.0925038,47.0133434],[11.0928598,47.0133434],[11.0939279,47.0130248],[11.0959393,47.0126643],[11.0968568,47.0124784],[11.0967368,47.0120527],[11.0963111,47.0117528],[11.0961131,47.0110048],[11.0955275,47.0102911],[11.0948871,47.009797],[11.0944845,47.0094676],[11.094027,47.0093395],[11.0945394,47.0089552],[11.0951067,47.0085893],[11.0953851,47.00836],[11.0955242,47.0081633],[11.0954858,47.007981],[11.0952651,47.0077219],[11.0947406,47.0074152],[11.0945298,47.0071693],[11.0945532,47.0068765],[11.0946352,47.0064783],[11.0946469,47.0062089],[11.0944244,47.0058693],[11.0949631,47.0057053],[11.0949982,47.0055413],[11.0943658,47.0052017],[11.0946937,47.0050963],[11.0940379,47.0048269],[11.0946117,47.0046044],[11.0949514,47.0045341],[11.0953847,47.0045693],[11.0955873,47.004581],[11.0957685,47.0045441],[11.0958759,47.0043906],[11.0959404,47.004234],[11.0959742,47.004145],[11.0960522,47.0041542],[11.096183,47.0041696],[11.096361,47.0042033],[11.0964562,47.0043323]]}},{"type":"Feature","id":88019164,"properties":{"kind":"lift","name":"Materialseilbahn Hildesheimer Hütte","subtype":"goods","status":"active"},"geometry":{"type":"LineString","coordinates":[[11.1189824,46.9657942],[11.0988195,46.955784]]}},{"type":"Feature","id":109447469,"properties":{"kind":"lift","name":"Materialseilbahn","subtype":"goods","status":"active"},"geometry":{"type":"LineString","coordinates":[[11.1356855,46.9424602],[11.1476278,46.9409738]]}},{"type":"Feature","id":150276157,"properties":{"kind":"run","name":"Daunenhang","subtype":"easy","pisteType":"downhill","featured":false},"geometry":{"type":"LineString","coordinates":[[11.1036701,46.9844383],[11.103067,46.9887501],[11.1026718,46.9920897],[11.1025963,46.992728],[11.1025848,46.9928252],[11.1025374,46.9934277],[11.1025291,46.9936718],[11.1025747,46.9937973],[11.1027115,46.9939371],[11.1029125,46.9940954],[11.1040402,46.9944851]]}},{"type":"Feature","id":150276158,"properties":{"kind":"run","name":"Kogelferner","subtype":"intermediate","pisteType":"downhill","featured":false},"geometry":{"type":"LineString","coordinates":[[11.0919864,46.9903369],[11.0920431,46.9902002],[11.0921327,46.9901359],[11.0922299,46.9901093],[11.0924075,46.9900809],[11.1004518,46.9915996],[11.1009333,46.9916897],[11.1011668,46.9917386]]}},{"type":"Feature","id":174685184,"properties":{"kind":"lift","name":"Materialseilbahn Sulzenauhütte","subtype":"goods","status":"active"},"geometry":{"type":"LineString","coordinates":[[11.1863438,47.0141805],[11.1850369,47.0069482],[11.184884,47.0063199],[11.1817621,46.9959569]]}},{"type":"Feature","id":200813088,"properties":{"kind":"run","name":"Daunhill","subtype":"advanced","pisteType":"downhill","featured":false},"geometry":{"type":"LineString","coordinates":[[11.1009402,47.0017932],[11.1007954,47.0018102],[11.1005711,47.0017968],[11.1005012,47.0017468],[11.1004778,47.0016874],[11.1005303,47.0016228],[11.1007757,47.001509],[11.1010758,47.0014664],[11.1012171,47.0014731],[11.1015746,47.0015682],[11.1019811,47.0016572],[11.1021483,47.0016556],[11.1024377,47.0016312],[11.102669,47.0015791],[11.102919,47.0015432],[11.1032444,47.0015224],[11.1040317,47.0014904],[11.1044426,47.0014681],[11.1051389,47.0014588],[11.1060047,47.0014588],[11.1063428,47.0014455],[11.1067068,47.0014101],[11.1069045,47.0014065],[11.1071843,47.0014171],[11.1073003,47.0014037],[11.1074114,47.0013591],[11.1074507,47.001313],[11.1074361,47.0012702],[11.1072834,47.0011515],[11.1071434,47.0010651],[11.1069857,47.0009239],[11.1068985,47.0007317],[11.106902,47.0006609],[11.1069622,47.0006009],[11.1070692,47.0005572],[11.1073402,47.0005258],[11.1081046,47.0005569],[11.1087756,47.0006072],[11.1096517,47.0005584],[11.1100496,47.0005164],[11.1121811,47.0002912],[11.1148396,47.0000936],[11.1149352,47.0000824],[11.1150043,47.0000419],[11.1150517,46.9999739],[11.1151189,46.9996047],[11.1151058,46.9994784],[11.1151582,46.9994015],[11.1152901,46.9993158],[11.1155056,46.9992566],[11.1157427,46.999228],[11.1158597,46.9992198],[11.1159486,46.9992484],[11.1159683,46.9992978],[11.1159811,46.999339],[11.1159641,46.9993696],[11.1157745,46.9994075]]}},{"type":"Feature","id":200813089,"properties":{"kind":"run","name":"Gaißkarferner Süd","subtype":"intermediate","pisteType":"downhill","featured":false},"geometry":{"type":"LineString","coordinates":[[11.1212192,46.9715174],[11.121152,46.9714849],[11.1211055,46.9714657],[11.1210437,46.9714564],[11.1209556,46.971452],[11.1206749,46.9715105]]}},{"type":"Feature","id":200813091,"properties":{"kind":"run","name":"Wilde Grub'n","subtype":"intermediate","pisteType":"downhill","featured":true},"geometry":{"type":"LineString","coordinates":[[11.1142093,46.9994121],[11.1151058,46.9994784],[11.1160112,46.9998914],[11.1169623,47.0000924],[11.1178763,47.0001414],[11.11852,47.000026],[11.1189075,46.9999042],[11.1192916,46.9998796]]}},{"type":"Feature","id":200813092,"properties":{"kind":"lift","name":"4er Sesselbahn Daunjoch","subtype":"chair_lift","status":"active"},"geometry":{"type":"LineString","coordinates":[[11.1157745,46.9994075],[11.1155108,46.9994499],[11.1146413,46.9995898],[11.1125489,46.9999263],[11.1106758,47.0002275],[11.1088292,47.0005245],[11.1066728,47.0008713],[11.106168,47.0009525],[11.1044869,47.0012228],[11.1034082,47.0013963],[11.1013758,47.0017231],[11.1009402,47.0017932]]}},{"type":"Feature","id":219502811,"properties":{"kind":"run","name":"Ski touring route","subtype":"unknown","pisteType":"skitour","featured":false},"geometry":{"type":"LineString","coordinates":[[11.1332291,47.0555456],[11.1312955,47.0530371],[11.1288775,47.0512426],[11.1279548,47.0509209],[11.1262811,47.0506943],[11.1252404,47.050687],[11.1242426,47.0503873],[11.1233414,47.0495539],[11.1229444,47.048567],[11.1226377,47.047169],[11.1223494,47.0455469],[11.1223329,47.0437785],[11.1225796,47.04285],[11.1231804,47.0420238],[11.1243606,47.0410587],[11.1257875,47.0402604],[11.1290813,47.0390334],[11.1300684,47.0386751],[11.1311406,47.0385006],[11.1319566,47.0386971],[11.1332763,47.0389237],[11.1342195,47.0387953],[11.1351929,47.0383825],[11.1365271,47.037571],[11.1374197,47.0368152],[11.1379897,47.0360849],[11.1381182,47.0357052]]}},{"type":"Feature","id":226766893,"properties":{"kind":"lift","name":"Materialseilbahn Sulzenaualm","subtype":"goods","status":"active"},"geometry":{"type":"LineString","coordinates":[[11.1863694,47.0142029],[11.1900684,47.0093246],[11.1901549,47.0092099]]}},{"type":"Feature","id":237438618,"properties":{"kind":"run","name":"Skiroute Fernau","subtype":"advanced","pisteType":"downhill","featured":false},"geometry":{"type":"LineString","coordinates":[[11.1397758,46.9969803],[11.1397736,46.9971001],[11.1398061,46.9972194],[11.1398667,46.9973052],[11.1398871,46.99738],[11.1398369,46.9974733],[11.13982,46.9975436],[11.1398434,46.9976084],[11.1400391,46.9976328],[11.1402402,46.9976474],[11.1404333,46.9976456],[11.1407552,46.9976383],[11.1409524,46.9976355],[11.1410503,46.9976401],[11.1411938,46.9976986],[11.1412229,46.9977154],[11.1413379,46.997782],[11.1413708,46.9978011],[11.1415223,46.9979145],[11.1415773,46.9979913],[11.141643,46.9981002],[11.1417222,46.9982621],[11.1417838,46.9983353],[11.1418445,46.9983704],[11.1419649,46.9984048],[11.142209,46.9984359],[11.1423793,46.9984487],[11.1426046,46.9984624],[11.1427602,46.9984615],[11.142956,46.9984496],[11.1431263,46.9984468],[11.1432926,46.9984706],[11.143479,46.99852]]}},{"type":"Feature","id":324354145,"properties":{"kind":"run","name":"Höhenloipe Stubaier Gletscher","subtype":"easy","pisteType":"nordic","featured":false},"geometry":{"type":"LineString","coordinates":[[11.1199247,46.9946115],[11.1201554,46.9945786],[11.1207294,46.9945566],[11.1217379,46.9945566],[11.1222363,46.9945525],[11.1225295,46.9945725],[11.1228422,46.9946591],[11.123194,46.9946791],[11.1233944,46.9947258],[11.1235996,46.9947958],[11.123971,46.9949191],[11.1243522,46.9949424],[11.124748,46.9949858],[11.1250803,46.9950324],[11.1253437,46.9950413],[11.1255851,46.9950273],[11.1263298,46.9948786],[11.1267268,46.9948201],[11.1270111,46.9947835],[11.1272739,46.9948237],[11.127451,46.9950103],[11.1274349,46.9951091],[11.1272847,46.9951896],[11.1268394,46.9952518],[11.1260723,46.9952811],[11.1253052,46.9953104],[11.1247419,46.9953213],[11.12464,46.995336],[11.124581,46.9953799],[11.1245542,46.9954348],[11.1245864,46.9954896],[11.1248224,46.9955189],[11.1264371,46.9955665],[11.1266356,46.9956031],[11.1267429,46.9956689],[11.1267643,46.9957714],[11.1266946,46.9958555],[11.126539,46.9958848],[11.1259114,46.9958885],[11.1242001,46.9957787],[11.1232869,46.9956357],[11.1232038,46.995589],[11.1228862,46.995409],[11.1227249,46.9952357],[11.1225908,46.9951933],[11.1221348,46.9949994],[11.1217164,46.9948896],[11.121019,46.9948018],[11.1203217,46.9947542],[11.1199032,46.9949006],[11.1196136,46.9949884],[11.1193131,46.9950067],[11.1190538,46.9949435],[11.1199247,46.9946115]]}},{"type":"Feature","id":332934548,"properties":{"kind":"run","name":"Ski touring route","subtype":"unknown","pisteType":"skitour","featured":false},"geometry":{"type":"LineString","coordinates":[[11.1337012,46.9654039],[11.1332777,46.9656309],[11.1329522,46.9662368],[11.1319312,46.9656511],[11.1303776,46.966671],[11.1285724,46.9677009],[11.1265897,46.9687813],[11.1215963,46.9704699],[11.1214617,46.970567],[11.1214233,46.970689],[11.1214683,46.9708215],[11.1212707,46.9713498],[11.1212192,46.9715174]]}},{"type":"Feature","id":332934549,"properties":{"kind":"run","name":"Ski touring route","subtype":"unknown","pisteType":"skitour","featured":false},"geometry":{"type":"LineString","coordinates":[[11.1212192,46.9715174],[11.1214983,46.9714664],[11.1218577,46.9712587],[11.1222319,46.9710839],[11.1223468,46.9708326],[11.1246883,46.969154],[11.1242962,46.9679625],[11.1242848,46.9667248],[11.1256554,46.9657252],[11.1280514,46.9639687],[11.1294324,46.9631262],[11.1302276,46.9632404],[11.13096,46.9636117],[11.1315145,46.9633689],[11.1317238,46.9640401],[11.1322678,46.9648327],[11.1337012,46.9654039],[11.1351137,46.9666106],[11.1387129,46.9679957],[11.1431114,46.9696344],[11.1460158,46.9695165],[11.1478259,46.9692095],[11.1487859,46.9687982]]}},{"type":"Feature","id":358678081,"properties":{"kind":"lift","name":"Goods","subtype":"goods","status":"active"},"geometry":{"type":"LineString","coordinates":[[11.1800111,46.9964747],[11.185305,47.0022328]]}},{"type":"Feature","id":407240426,"properties":{"kind":"run","name":"Windachferner","subtype":"intermediate","pisteType":"downhill","featured":false},"geometry":{"type":"LineString","coordinates":[[11.1086945,46.9752257],[11.1083499,46.9751429],[11.1041183,46.9772281]]}},{"type":"Feature","id":407248382,"properties":{"kind":"run","name":"Windachferner","subtype":"intermediate","pisteType":"downhill","featured":false},"geometry":{"type":"LineString","coordinates":[[11.1082777,46.9768165],[11.1079244,46.9767949],[11.1076542,46.9768003],[11.1072179,46.9768553],[11.1066431,46.9769167],[11.1055798,46.977046],[11.1046668,46.9771847],[11.1041183,46.9772281],[11.1037169,46.9773692],[11.1032384,46.9774875],[11.1030231,46.9774971],[11.1028699,46.9775146],[11.102755,46.9775294],[11.1026666,46.9775479],[11.1026418,46.9775657],[11.102636,46.9775869],[11.1026573,46.9776093]]}},{"type":"Feature","id":407273251,"properties":{"kind":"run","name":"Sonnenhang","subtype":"intermediate","pisteType":"downhill","featured":false},"geometry":{"type":"LineString","coordinates":[[11.1245583,46.9727245],[11.1239107,46.973024],[11.1234769,46.9731661],[11.1228772,46.9732578],[11.121784,46.9735491],[11.1208161,46.9739274],[11.1202902,46.9740458],[11.1196712,46.974107],[11.1192932,46.9740571],[11.1189278,46.9739274],[11.1186275,46.9737789],[11.1184129,46.973576],[11.1181647,46.973291],[11.1181605,46.973116],[11.1182946,46.972911],[11.1185147,46.9727344]]}},{"type":"Feature","id":407273253,"properties":{"kind":"lift","name":"Eisgratbahn 1","subtype":"gondola","status":"active"},"geometry":{"type":"LineString","coordinates":[[11.1621766,47.0132693],[11.1584319,47.0103925],[11.1560994,47.0086006],[11.1475972,47.0020682],[11.1435995,46.9989963],[11.1409708,46.9969764]]}},{"type":"Feature","id":407273256,"properties":{"kind":"run","name":"Mapped ski run","subtype":"easy","pisteType":"downhill","featured":false},"geometry":{"type":"LineString","coordinates":[[11.1052453,46.9862733],[11.105712,46.9864954],[11.1060206,46.9866385],[11.1062518,46.9867467],[11.1065472,46.986937]]}},{"type":"Feature","id":407293015,"properties":{"kind":"lift","name":"Übungslift Gamsgarten","subtype":"platter","status":"active"},"geometry":{"type":"LineString","coordinates":[[11.1188289,46.9949582],[11.1187443,46.9947229],[11.1183403,46.9935986]]}},{"type":"Feature","id":407293018,"properties":{"kind":"run","name":"Grubenschuss","subtype":"easy","pisteType":"downhill","featured":false},"geometry":{"type":"LineString","coordinates":[[11.1173905,46.9954188],[11.1181816,46.9955432],[11.1183612,46.9955714],[11.118653,46.9956173],[11.1188552,46.9956854],[11.1189711,46.9957244],[11.1191491,46.9958252],[11.1202744,46.9960575],[11.1206521,46.9961355],[11.1207419,46.9961844],[11.1214133,46.99655],[11.1225588,46.9971891]]}},{"type":"Feature","id":408695289,"properties":{"kind":"run","name":"Skiroute Wilde Grub'n","subtype":"intermediate","pisteType":"downhill","featured":true},"geometry":{"type":"LineString","coordinates":[[11.1554425,47.0107886],[11.1552294,47.0108619],[11.1550522,47.0108365],[11.1549091,47.0107579]]}},{"type":"Feature","id":408695290,"properties":{"kind":"run","name":"Skiweg Mutterberg","subtype":"easy","pisteType":"downhill","featured":false},"geometry":{"type":"LineString","coordinates":[[11.1555778,47.0109171],[11.1556529,47.0109646],[11.1558111,47.0110103],[11.1561371,47.011177],[11.1561439,47.0111805],[11.1562081,47.0112133],[11.1564522,47.0113231],[11.1566426,47.0114511],[11.1570396,47.0115883],[11.1573759,47.011724],[11.1574893,47.0117523],[11.1575979,47.0117793],[11.1578402,47.0118043]]}},{"type":"Feature","id":408700703,"properties":{"kind":"run","name":"14 Wilde Grub'n","subtype":"intermediate","pisteType":"downhill","featured":true},"geometry":{"type":"LineString","coordinates":[[11.1268226,47.00423],[11.1274713,47.0043893],[11.1277232,47.004532],[11.1279112,47.0049526],[11.1280062,47.005183],[11.128147,47.0053678],[11.1281672,47.0054356],[11.1281451,47.0055299],[11.1279427,47.0058129],[11.1276188,47.0060491],[11.1273279,47.0061631],[11.1267093,47.0065019],[11.1263877,47.0069408],[11.1263049,47.0073743]]}},{"type":"Feature","id":411503401,"properties":{"kind":"run","name":"Ötztal","subtype":"expert","pisteType":"downhill","featured":false},"geometry":{"type":"LineString","coordinates":[[11.1212192,46.9715174],[11.1211607,46.9713088],[11.121107,46.9711239],[11.1210904,46.9709285],[11.121191,46.9706073],[11.1214766,46.9702403],[11.1218414,46.9699768],[11.1227641,46.9694789],[11.1233542,46.9691129],[11.1236224,46.9687688],[11.1238477,46.9682929],[11.1239013,46.9677145],[11.1238799,46.9671873],[11.1236975,46.9664405],[11.1235151,46.9658475],[11.123161,46.9653569],[11.1224422,46.9648371],[11.1217234,46.9644051],[11.1206076,46.9637461],[11.1195347,46.9628821],[11.118494,46.9619375],[11.1179361,46.9610881],[11.1176464,46.9605902],[11.1168418,46.9598653],[11.1166594,46.9593527],[11.1164019,46.9581591],[11.1161015,46.9575806],[11.1154577,46.9570826],[11.1147174,46.9565334],[11.1137089,46.9560867],[11.1127004,46.9555448],[11.1113164,46.9549736],[11.1105654,46.9546734],[11.1095032,46.9545562],[11.1086342,46.9544683],[11.1079797,46.9544683],[11.1072824,46.9544976],[11.1067781,46.9544317],[11.1059949,46.9543877],[11.1052332,46.9543072],[11.1039242,46.9544903],[11.10353,46.9544663],[11.1032805,46.9543877],[11.1031625,46.9541388],[11.1029479,46.9540435],[11.102626,46.9540582],[11.1023578,46.9542559],[11.101993,46.9545049],[11.1016175,46.9546441],[11.1012957,46.9548418],[11.1009631,46.9550615],[11.100373,46.9551933],[11.0999117,46.9552812],[11.0994825,46.9552006],[11.0984525,46.9559036],[11.097444,46.9565554],[11.0968539,46.956863],[11.0958454,46.9576099],[11.0948798,46.9584008],[11.0942039,46.9586863],[11.0934744,46.9589719],[11.0916075,46.959133],[11.090084,46.9591623],[11.0871336,46.9597115],[11.086168,46.9596822],[11.0838077,46.9594625],[11.0816297,46.9594259],[11.0808143,46.9591916],[11.0799667,46.95895],[11.0787651,46.958906],[11.0777459,46.9591477],[11.0767374,46.9592209],[11.0755894,46.9591623],[11.0746452,46.9591404],[11.0725746,46.959177],[11.072006,46.9593381],[11.0717055,46.9596017],[11.0711798,46.9595651],[11.0695169,46.9594406],[11.0685942,46.9595651],[11.0670814,46.9596749],[11.0661265,46.959587],[11.0650429,46.9595431],[11.064013,46.9593454],[11.0629615,46.9591257],[11.0618779,46.9590671],[11.0602793,46.9593454],[11.0586164,46.9595944],[11.0556981,46.960312],[11.0544965,46.9603046],[11.0530696,46.9604584],[11.0497007,46.9609051],[11.0477159,46.9612346],[11.0458169,46.9614176],[11.0444972,46.9615128],[11.0437033,46.9612712],[11.0418686,46.9608831],[11.0408709,46.9604731],[11.039798,46.9601875],[11.0378453,46.9602827],[11.0356245,46.9601435],[11.0288653,46.9599385],[11.0275671,46.9597628],[11.0254964,46.9606415],[11.0240373,46.9606561],[11.0224228,46.9610234],[11.0201857,46.9611833],[11.0187802,46.9614762],[11.0167739,46.9617545],[11.0151109,46.961857],[11.0140917,46.9619448],[11.0135767,46.9618277],[11.0130939,46.9617032],[11.0127828,46.9612346],[11.0126835,46.9605609],[11.0120908,46.9604584],[11.0114258,46.9603745],[11.0111654,46.9602171],[11.0106477,46.9599312]]}},{"type":"Feature","id":431834923,"properties":{"kind":"run","name":"Skiweg Murmele","subtype":"easy","pisteType":"downhill","featured":false},"geometry":{"type":"LineString","coordinates":[[11.1159486,46.9992484],[11.1162438,46.9992689],[11.1164109,46.9992874],[11.1166548,46.9993182],[11.1170252,46.9994137],[11.117242,46.9994907],[11.1173188,46.9994507],[11.117513,46.9992843],[11.117766,46.9991149],[11.1181228,46.9990934],[11.118518,46.9991759],[11.1187642,46.9991457],[11.1190623,46.9990964],[11.1194055,46.9990256],[11.119934,46.9989054],[11.1200921,46.9989024],[11.1203179,46.9988562],[11.1205618,46.9987637],[11.1207696,46.998659],[11.1209683,46.9985142],[11.12114,46.9984033],[11.1214426,46.9982801],[11.1216549,46.998163],[11.1218762,46.9979967],[11.122093,46.9979197],[11.1224634,46.997892],[11.1226864,46.9978735],[11.1228472,46.9978318],[11.1229811,46.9977446],[11.1230514,46.997618],[11.123057,46.9974776],[11.1230178,46.9973884],[11.1229146,46.997309]]}},{"type":"Feature","id":431836697,"properties":{"kind":"run","name":"Skiweg Daunferner","subtype":"intermediate","pisteType":"downhill","featured":false},"geometry":{"type":"LineString","coordinates":[[11.1069622,47.0006009],[11.1069873,47.000421],[11.1068489,46.9999856],[11.1066796,46.9995502],[11.1066643,46.9991043],[11.1066161,46.9984826],[11.1065918,46.9981692],[11.1066562,46.9977916],[11.1067935,46.9966238]]}},{"type":"Feature","id":431891342,"properties":{"kind":"lift","name":"ZOO-Shuttle","subtype":"rope_tow","status":"active"},"geometry":{"type":"LineString","coordinates":[[11.113495,46.9736025],[11.1093331,46.973976]]}},{"type":"Feature","id":446323854,"properties":{"kind":"lift","name":"Gamsgarten 2","subtype":"gondola","status":"active"},"geometry":{"type":"LineString","coordinates":[[11.1404676,46.9971742],[11.1380007,46.9971109],[11.1341988,46.9970133],[11.1338444,46.9970042],[11.1309065,46.9969287],[11.1302199,46.9969111],[11.1298183,46.9969008],[11.1265461,46.9968168],[11.1263322,46.9968113],[11.1251165,46.9967801],[11.1226921,46.9967178],[11.1205951,46.996664],[11.1200542,46.9966501]]}},{"type":"Feature","id":447819757,"properties":{"kind":"lift","name":"Eisgratbahn 2","subtype":"gondola","status":"active"},"geometry":{"type":"LineString","coordinates":[[11.1409708,46.9969764],[11.1353655,46.9948597],[11.1287003,46.9923427],[11.1176622,46.9881741],[11.1149725,46.9871583]]}},{"type":"Feature","id":448339717,"properties":{"kind":"run","name":"Skiroute Fernau","subtype":"advanced","pisteType":"downhill","featured":false},"geometry":{"type":"LineString","coordinates":[[11.1457839,47.0010172],[11.1458972,47.0011296]]}},{"type":"Feature","id":448339720,"properties":{"kind":"run","name":"Skiroute Fernau","subtype":"advanced","pisteType":"downhill","featured":false},"geometry":{"type":"LineString","coordinates":[[11.1443952,46.9988912],[11.1446841,46.9989703],[11.144776,46.9989898],[11.1449205,46.9990023],[11.1451107,46.9990816],[11.1452379,46.999123],[11.1453059,46.9991631],[11.145317,46.9991996],[11.1452736,46.9992426],[11.1452087,46.9992512],[11.145026,46.9992273],[11.14497,46.99923],[11.144897,46.9992537],[11.1446945,46.9994009],[11.1444381,46.9995837],[11.1443737,46.9996391],[11.1443854,46.9996971],[11.1444252,46.9997257],[11.1444859,46.9997293],[11.1445845,46.9997136],[11.1447669,46.9996595],[11.1449783,46.9996054],[11.1451358,46.9995875],[11.1451935,46.999595],[11.1452178,46.9996197],[11.1451961,46.999673],[11.1450773,46.999731],[11.1450032,46.9997969],[11.1449085,46.999897],[11.1447906,47.0000265],[11.1445663,47.0001879],[11.144383,47.0004318],[11.1441314,47.0005296],[11.1440347,47.0005939],[11.1439618,47.0008697],[11.1439242,47.0010563],[11.1439336,47.0011221],[11.1439873,47.0011478],[11.1440463,47.0011441],[11.1441495,47.0010709],[11.1442796,47.0009676],[11.1443722,47.0009182],[11.1445076,47.0008633],[11.1446927,47.0008222],[11.1449059,47.0007947],[11.145091,47.0008029],[11.1452895,47.0008121],[11.1454746,47.0008395],[11.1456541,47.0009055],[11.1457225,47.0009549],[11.1457839,47.0010172]]}},{"type":"Feature","id":448339722,"properties":{"kind":"run","name":"Skiroute Fernau","subtype":"advanced","pisteType":"downhill","featured":false},"geometry":{"type":"LineString","coordinates":[[11.1458972,47.0011296],[11.1459664,47.0012074],[11.1460441,47.001295],[11.1461205,47.0013685],[11.1462189,47.0014606],[11.1463473,47.0015749],[11.1464643,47.0017249],[11.1465186,47.0018155],[11.1465394,47.0019068],[11.1465117,47.0020634],[11.1464858,47.0021566],[11.1464589,47.0022654],[11.1464656,47.0023587],[11.1465005,47.0024319],[11.1465877,47.0024931],[11.1467204,47.0025261],[11.1468894,47.0025206],[11.1470276,47.0024785],[11.1471469,47.0024282],[11.1472153,47.002387],[11.147269,47.0023779],[11.1473293,47.0023907],[11.1473588,47.0024218],[11.1473655,47.002463],[11.1473628,47.0025242],[11.1472918,47.0026331],[11.1471912,47.0027492],[11.1470906,47.0028709],[11.1469712,47.0029358],[11.1469069,47.0029852],[11.1468774,47.0030254],[11.146876,47.0030547],[11.1469136,47.0030904],[11.1469672,47.0030931],[11.1472287,47.0030254],[11.1475291,47.0029358],[11.1478148,47.0028763],[11.148079,47.0028096],[11.1483566,47.0027309],[11.1486972,47.0026568],[11.1489239,47.0026084],[11.1491452,47.0025672],[11.1494214,47.0025754],[11.149699,47.0026001],[11.149982,47.0026632],[11.150218,47.00273],[11.1503535,47.0028105],[11.1504822,47.0029852],[11.1506177,47.0031507],[11.1507173,47.0032884],[11.1507234,47.0033634],[11.150682,47.0033816],[11.1505586,47.0033487],[11.1504165,47.0032938],[11.1501966,47.0032317],[11.1499766,47.0032335],[11.1496977,47.0032975],[11.1494884,47.0033688],[11.1493195,47.0034457],[11.1491156,47.0035646],[11.1490137,47.0036268],[11.1489788,47.0036999],[11.1490012,47.0037399],[11.1490754,47.0037658],[11.1492497,47.0037969],[11.1494697,47.0038719],[11.1496078,47.0039624],[11.1497567,47.0041151],[11.150045,47.0044252],[11.150222,47.0046355],[11.1505171,47.0049812],[11.1507155,47.0052208],[11.1508899,47.0054458],[11.1509891,47.0055519],[11.1511581,47.0056818],[11.1512898,47.0057726],[11.1514102,47.0058555],[11.1514907,47.0059415],[11.1516141,47.0061134],[11.1518421,47.0063146],[11.1521264,47.0065432],[11.1523463,47.0067408],[11.1525153,47.006867],[11.1526387,47.0069383],[11.1528211,47.0070554],[11.1530893,47.0072511],[11.1532663,47.0073736],[11.1533012,47.0074468],[11.1532529,47.007509],[11.1530678,47.0075547],[11.1526199,47.0076388],[11.1524617,47.0076809],[11.152408,47.0077486],[11.152408,47.0078382],[11.1524804,47.0079333],[11.1525636,47.0080064],[11.1526682,47.0081089],[11.1527513,47.0082314],[11.1528586,47.0083393],[11.1530437,47.008482],[11.1532475,47.0086356],[11.1533387,47.0087472],[11.1533548,47.0088734],[11.1532529,47.0089758],[11.1530866,47.0090252],[11.1528962,47.0090581],[11.152813,47.0090819],[11.1527458,47.0091492],[11.1527352,47.0092538],[11.152805,47.0094221],[11.1528985,47.0095796]]}},{"type":"Feature","id":462751119,"properties":{"kind":"run","name":"Skiweg Mutterberg","subtype":"easy","pisteType":"downhill","featured":false},"geometry":{"type":"LineString","coordinates":[[11.1578402,47.0118043],[11.1582382,47.0118784]]}},{"type":"Feature","id":462751120,"properties":{"kind":"run","name":"Skiweg Mutterberg","subtype":"easy","pisteType":"downhill","featured":false},"geometry":{"type":"LineString","coordinates":[[11.1582382,47.0118784],[11.1590273,47.0120942],[11.1598556,47.0123067],[11.1607297,47.0125338],[11.1607906,47.012538],[11.1610064,47.0125527],[11.1613581,47.0125028],[11.161595,47.0125056],[11.1619074,47.0125362],[11.1621161,47.0124988],[11.1622771,47.0125155],[11.162297,47.0125697],[11.1623993,47.0125892],[11.1626065,47.0126182],[11.1627552,47.0126561],[11.162915,47.0127076],[11.1642445,47.0133394]]}},{"type":"Feature","id":466354531,"properties":{"kind":"run","name":"Skiroute Fernau","subtype":"advanced","pisteType":"downhill","featured":false},"geometry":{"type":"LineString","coordinates":[[11.143479,46.99852],[11.1439762,46.9987174],[11.1443952,46.9988912]]}},{"type":"Feature","id":476063670,"properties":{"kind":"run","name":"Mapped ski run","subtype":"easy","pisteType":"downhill","featured":false},"geometry":{"type":"LineString","coordinates":[[11.1404676,46.9971742],[11.1406624,46.997049],[11.1409708,46.9969764]]}},{"type":"Feature","id":476063673,"properties":{"kind":"run","name":"Zufahrt Fernau","subtype":"easy","pisteType":"downhill","featured":false},"geometry":{"type":"LineString","coordinates":[[11.1253569,46.9845746],[11.1255178,46.9847428],[11.1258464,46.9853297],[11.1259498,46.9860918],[11.1257781,46.9873791],[11.1259976,46.9879266],[11.1269312,46.9888178],[11.1278185,46.989418],[11.1281526,46.9895164],[11.1300341,46.9895049]]}},{"type":"Feature","id":476063675,"properties":{"kind":"run","name":"Sonnenhang","subtype":"intermediate","pisteType":"downhill","featured":false},"geometry":{"type":"LineString","coordinates":[[11.1245583,46.9727245],[11.1247847,46.9725689],[11.1248818,46.9725151],[11.1250279,46.9724531],[11.1253755,46.9723514],[11.1257264,46.9722443],[11.1260486,46.9721514]]}},{"type":"Feature","id":476063679,"properties":{"kind":"run","name":"Sonnenhang","subtype":"easy","pisteType":"downhill","featured":false},"geometry":{"type":"LineString","coordinates":[[11.1267931,46.97185],[11.1267359,46.971881],[11.1266098,46.9719012],[11.1263449,46.9719852],[11.12622,46.972045],[11.1260486,46.9721514]]}},{"type":"Feature","id":476063680,"properties":{"kind":"run","name":"Zufahrt Fernau","subtype":"easy","pisteType":"downhill","featured":false},"geometry":{"type":"LineString","coordinates":[[11.1142275,46.9864358],[11.1151779,46.9859732],[11.1156184,46.9857557],[11.1161,46.9854267],[11.1180109,46.9849747],[11.1187804,46.9848352],[11.1199031,46.9848016],[11.1209441,46.9849127],[11.1218158,46.9851742],[11.1223629,46.9853352],[11.1229397,46.9853919],[11.1233607,46.9853242],[11.1236718,46.9852035],[11.1245078,46.9848375],[11.1249218,46.9846252],[11.1253569,46.9845746],[11.1262897,46.9844532],[11.1266259,46.9844679],[11.1267894,46.9845508],[11.1271491,46.9848215],[11.1279182,46.985395]]}},{"type":"Feature","id":476080411,"properties":{"kind":"run","name":"Kogelferner","subtype":"intermediate","pisteType":"downhill","featured":false},"geometry":{"type":"LineString","coordinates":[[11.1011668,46.9917386],[11.101241,46.9918501],[11.101278,46.9919115],[11.1012842,46.9919777],[11.101259,46.9920418],[11.1012049,46.992097],[11.1011277,46.9921374],[11.1010526,46.9921621]]}},{"type":"Feature","id":476080415,"properties":{"kind":"run","name":"Daunferner","subtype":"easy","pisteType":"downhill","featured":false},"geometry":{"type":"LineString","coordinates":[[11.1041366,46.993307],[11.103881,46.9935753],[11.1037632,46.9936816],[11.1036198,46.9937232],[11.1034797,46.99375],[11.1033178,46.9937392],[11.1032128,46.9935317]]}},{"type":"Feature","id":476080416,"properties":{"kind":"run","name":"Eisjochzunge","subtype":"intermediate","pisteType":"downhill","featured":false},"geometry":{"type":"LineString","coordinates":[[11.1115141,46.984957],[11.1161,46.9854267]]}},{"type":"Feature","id":476080423,"properties":{"kind":"run","name":"Eisjochferner","subtype":"easy","pisteType":"downhill","featured":false},"geometry":{"type":"LineString","coordinates":[[11.1080703,46.9756111],[11.1080929,46.9759711],[11.1082373,46.9765168],[11.1082777,46.9768165],[11.1082457,46.9769414],[11.1081593,46.9770654],[11.1081044,46.9771159],[11.1080948,46.977296],[11.1081757,46.9775816],[11.1082057,46.9776874],[11.1082756,46.9779561],[11.1082914,46.9780169],[11.1084486,46.9784374],[11.1084963,46.9785649],[11.1091436,46.9799955],[11.1099796,46.981882],[11.110698,46.983318],[11.1108676,46.9836694],[11.1110804,46.9841101],[11.1112543,46.9844902],[11.1115141,46.984957],[11.1118966,46.9856444],[11.1121204,46.9860862]]}},{"type":"Feature","id":476080425,"properties":{"kind":"run","name":"Silberschneid","subtype":"intermediate","pisteType":"downhill","featured":false},"geometry":{"type":"LineString","coordinates":[[11.1315189,46.9918674],[11.1317938,46.9923399],[11.1319671,46.9926286],[11.1321951,46.992967],[11.1327213,46.993603],[11.1332236,46.9941028],[11.1336488,46.9943686],[11.1363976,46.9959799],[11.1368066,46.9962794],[11.1371636,46.9963946],[11.1374115,46.9964412],[11.1376685,46.9964364],[11.1382161,46.9962881]]}},{"type":"Feature","id":476080429,"properties":{"kind":"run","name":"Eisjochferner","subtype":"easy","pisteType":"downhill","featured":false},"geometry":{"type":"LineString","coordinates":[[11.1083168,46.9772452],[11.1082461,46.9771693],[11.1081901,46.9771468],[11.1081044,46.9771159]]}},{"type":"Feature","id":566773864,"properties":{"kind":"run","name":"Silberschneid","subtype":"intermediate","pisteType":"downhill","featured":false},"geometry":{"type":"LineString","coordinates":[[11.1251574,46.9899078],[11.1261767,46.9897917],[11.1281526,46.9895164]]}},{"type":"Feature","id":572154993,"properties":{"kind":"run","name":"Gaiskarferner","subtype":"intermediate","pisteType":"downhill","featured":false},"geometry":{"type":"LineString","coordinates":[[11.1093308,46.9755429],[11.1096498,46.9757607],[11.1099548,46.9758849],[11.1102932,46.976005],[11.1105647,46.9760027],[11.1108087,46.975903],[11.1110748,46.9755966],[11.1111938,46.9752722],[11.1114429,46.9750011],[11.1117391,46.9748128],[11.1121264,46.9746645],[11.1132564,46.9744065],[11.1136816,46.9742841],[11.1139361,46.9742108],[11.1147455,46.9739164],[11.1149652,46.9737725],[11.1153056,46.9734191]]}},{"type":"Feature","id":759976749,"properties":{"kind":"run","name":"Kitz","subtype":"novice","pisteType":"downhill","featured":false},"geometry":{"type":"LineString","coordinates":[[11.1223461,46.9955523],[11.1223046,46.9956307],[11.1223115,46.9957251],[11.1223151,46.9957745],[11.1223213,46.9958585],[11.1223715,46.9960937],[11.1225434,46.9962958],[11.122812,46.9965509],[11.123203,46.9967967],[11.1236994,46.9969869],[11.1239417,46.9970549],[11.124023,46.9970778]]}},{"type":"Feature","id":759976750,"properties":{"kind":"lift","name":"Magic Carpet","subtype":"magic_carpet","status":"active"},"geometry":{"type":"LineString","coordinates":[[11.1213153,46.995991],[11.1221169,46.9957283]]}},{"type":"Feature","id":759976751,"properties":{"kind":"lift","name":"Magic Carpet","subtype":"magic_carpet","status":"active"},"geometry":{"type":"LineString","coordinates":[[11.1212982,46.9956505],[11.1218804,46.9953782]]}},{"type":"Feature","id":759976752,"properties":{"kind":"lift","name":"Magic Carpet","subtype":"magic_carpet","status":"active"},"geometry":{"type":"LineString","coordinates":[[11.1210529,46.9956108],[11.1213606,46.9953229]]}},{"type":"Feature","id":759976753,"properties":{"kind":"lift","name":"Magic Carpet","subtype":"magic_carpet","status":"active"},"geometry":{"type":"LineString","coordinates":[[11.1207785,46.9952194],[11.1210903,46.99514]]}},{"type":"Feature","id":759976754,"properties":{"kind":"run","name":"Big Family Slopestyle","subtype":"novice","pisteType":"downhill","featured":false},"geometry":{"type":"LineString","coordinates":[[11.1183403,46.9935986],[11.1182578,46.9936994],[11.1182196,46.9938013],[11.1182292,46.9939119],[11.1183308,46.9942197],[11.1184482,46.9945222],[11.1185949,46.9947689],[11.1186913,46.9948732],[11.1188289,46.9949582]]}},{"type":"Feature","id":764103575,"properties":{"kind":"run","name":"Ski touring route","subtype":"unknown","pisteType":"skitour","featured":false},"geometry":{"type":"LineString","coordinates":[[11.0394743,47.0207586],[11.0407957,47.0209645],[11.0412566,47.0211216],[11.0421785,47.0215864],[11.0425242,47.0218024],[11.0431099,47.0221428],[11.0435882,47.0223867],[11.0437191,47.0224582],[11.0439369,47.0226866],[11.0441675,47.0229352],[11.0443145,47.0231201],[11.0444411,47.0232753],[11.0444339,47.023568],[11.0445763,47.0236436],[11.0445401,47.0237497],[11.0448384,47.0238552]]}},{"type":"Feature","id":771082304,"properties":{"kind":"run","name":"Bildstöckljoch","subtype":"intermediate","pisteType":"downhill","featured":false},"geometry":{"type":"LineString","coordinates":[[11.1043457,46.9805919],[11.1043971,46.9805755],[11.1044242,46.9805221],[11.1045893,46.9804074],[11.1048644,46.9803221],[11.1051044,46.980073],[11.1051645,46.9798683],[11.1051295,46.9796772],[11.1049944,46.9795338],[11.1047943,46.9793803],[11.1046943,46.9792199],[11.1046843,46.9790254],[11.1046993,46.9788377],[11.1048043,46.978691],[11.1049544,46.9785476],[11.1052895,46.9784282],[11.1056156,46.9783437],[11.1057924,46.9783373],[11.105903,46.9783643],[11.1061579,46.978534],[11.1062679,46.9785871],[11.1063284,46.9785913],[11.1063775,46.9785753],[11.1066086,46.9784171],[11.1068458,46.9783075],[11.1070819,46.9782618],[11.1075608,46.9782346],[11.1076437,46.9782156],[11.1077595,46.9781074],[11.1078675,46.9780482],[11.1082756,46.9779561]]}},{"type":"Feature","id":792183363,"properties":{"kind":"run","name":"14 Wilde Grub'n","subtype":"intermediate","pisteType":"downhill","featured":true},"geometry":{"type":"LineString","coordinates":[[11.1162794,46.9979877],[11.1160853,46.9980126],[11.1158171,46.9979504],[11.115329,46.9978937],[11.1150017,46.9979632],[11.1149202,46.9980527],[11.1149121,46.9981349],[11.1150319,46.9982676],[11.1152072,46.9983644],[11.1156589,46.9986584],[11.1162168,46.9991194],[11.1162303,46.9991941],[11.1162438,46.9992689]]}},{"type":"Feature","id":792183364,"properties":{"kind":"run","name":"14 Wilde Grub'n","subtype":"intermediate","pisteType":"downhill","featured":true},"geometry":{"type":"LineString","coordinates":[[11.1514227,47.0111354],[11.1514319,47.0110666],[11.1515003,47.0108734],[11.1514563,47.0107668],[11.1513586,47.0107035],[11.1513391,47.0106402],[11.1514087,47.0105983],[11.1515252,47.010656],[11.151769,47.0107701],[11.1521793,47.0109533],[11.1524382,47.0110865],[11.1525237,47.0111595],[11.1525945,47.0112165],[11.1527411,47.0112464],[11.1528192,47.0111398],[11.1527557,47.0110133],[11.1526202,47.0108669]]}},{"type":"Feature","id":851944043,"properties":{"kind":"run","name":"Mapped ski run","subtype":"intermediate","pisteType":"downhill","featured":false},"geometry":{"type":"LineString","coordinates":[[11.1305274,46.9900982],[11.1303854,46.9901262],[11.130273,46.9902526],[11.1302304,46.9904702],[11.1302027,46.9907489]]}},{"type":"Feature","id":851944044,"properties":{"kind":"run","name":"Zufahrt Fernau","subtype":"easy","pisteType":"downhill","featured":false},"geometry":{"type":"LineString","coordinates":[[11.1300341,46.9895049],[11.1304003,46.9896863],[11.130698,46.9898622],[11.1308263,46.989912],[11.1309304,46.9899524],[11.1310318,46.9899665],[11.1310706,46.9899537],[11.131093,46.9899145],[11.1310851,46.9898794]]}},{"type":"Feature","id":851944045,"properties":{"kind":"run","name":"Mapped ski run","subtype":"easy","pisteType":"downhill","featured":false},"geometry":{"type":"LineString","coordinates":[[11.1305274,46.9900982],[11.1305314,46.9900431],[11.1305555,46.9899874],[11.1306171,46.9899491],[11.1307107,46.9899245],[11.1308263,46.989912]]}},{"type":"Feature","id":851944046,"properties":{"kind":"run","name":"Mapped ski run","subtype":"easy","pisteType":"downhill","featured":false},"geometry":{"type":"LineString","coordinates":[[11.1377613,46.9959482],[11.137782,46.9960597],[11.1377105,46.996197],[11.1375384,46.9963216],[11.1373774,46.9963079]]}},{"type":"Feature","id":851944047,"properties":{"kind":"run","name":"Mapped ski run","subtype":"intermediate","pisteType":"downhill","featured":false},"geometry":{"type":"LineString","coordinates":[[11.1374115,46.9964412],[11.1374936,46.996373],[11.1373774,46.9963079]]}},{"type":"Feature","id":861301329,"properties":{"kind":"run","name":"Fernaufernerschuss","subtype":"easy","pisteType":"downhill","featured":false},"geometry":{"type":"LineString","coordinates":[[11.1289712,46.9724179],[11.1287499,46.9726504],[11.1285351,46.9729954],[11.1283585,46.9732283],[11.1282347,46.9734512],[11.1279795,46.9737454],[11.1277248,46.9740395],[11.127235,46.9744753],[11.126959,46.9755223],[11.1273647,46.9770806],[11.1273739,46.9777885],[11.1270107,46.9793476],[11.1267971,46.9804873]]}},{"type":"Feature","id":862760017,"properties":{"kind":"run","name":"Mapped ski run","subtype":"easy","pisteType":"downhill","featured":false},"geometry":{"type":"LineString","coordinates":[[11.1142275,46.9864358],[11.1147814,46.9870801],[11.1149725,46.9871583]]}},{"type":"Feature","id":862760018,"properties":{"kind":"run","name":"Mapped ski run","subtype":"easy","pisteType":"downhill","featured":false},"geometry":{"type":"LineString","coordinates":[[11.114539,46.9870622],[11.1147814,46.9870801]]}},{"type":"Feature","id":862760019,"properties":{"kind":"run","name":"Eisjochferner","subtype":"easy","pisteType":"downhill","featured":false},"geometry":{"type":"LineString","coordinates":[[11.113412,46.9903603],[11.1134724,46.9904869],[11.1137286,46.9910242],[11.1140355,46.9916697],[11.1150655,46.9928406],[11.1156139,46.993425],[11.1164388,46.9943042],[11.1173271,46.9953445],[11.1173905,46.9954188],[11.1175477,46.9955913],[11.1182206,46.996223]]}},{"type":"Feature","id":904819831,"properties":{"kind":"run","name":"14 Wilde Grub'n","subtype":"intermediate","pisteType":"downhill","featured":true},"geometry":{"type":"LineString","coordinates":[[11.1362337,47.0100041],[11.136446,47.0100044],[11.1366284,47.010008]]}},{"type":"Feature","id":904819833,"properties":{"kind":"run","name":"Skiroute Wilde Grub'n","subtype":"intermediate","pisteType":"downhill","featured":true},"geometry":{"type":"LineString","coordinates":[[11.1553061,47.010649],[11.1554425,47.0107886]]}},{"type":"Feature","id":904819834,"properties":{"kind":"run","name":"Skiweg Mutterberg","subtype":"easy","pisteType":"downhill","featured":false},"geometry":{"type":"LineString","coordinates":[[11.1554425,47.0107886],[11.1555778,47.0109171]]}},{"type":"Feature","id":1021523789,"properties":{"kind":"run","name":"Mapped ski run","subtype":"easy","pisteType":"downhill","featured":false},"geometry":{"type":"LineString","coordinates":[[11.1561371,47.011177],[11.1559993,47.0111877],[11.1557659,47.0111694],[11.1556104,47.0111529]]}},{"type":"Feature","id":1021523791,"properties":{"kind":"run","name":"Mapped ski run","subtype":"easy","pisteType":"downhill","featured":false},"geometry":{"type":"LineString","coordinates":[[11.1574893,47.0117523],[11.1573951,47.0117694],[11.1570169,47.0117383]]}},{"type":"Feature","id":1027469247,"properties":{"kind":"run","name":"Ski touring route","subtype":"unknown","pisteType":"skitour","featured":false},"geometry":{"type":"LineString","coordinates":[[11.146877,47.0125457],[11.1479834,47.0137987],[11.1470984,47.0141642],[11.1477444,47.0148028],[11.1467528,47.015393],[11.1472308,47.0158114],[11.1486002,47.0159963],[11.1504509,47.0160294],[11.1503249,47.0161857],[11.1514489,47.0163465],[11.1522983,47.0165579],[11.1503249,47.0173263],[11.1489305,47.0181944],[11.1479977,47.02081],[11.1480769,47.0245652],[11.1479449,47.0295917],[11.1433516,47.0320867],[11.1431756,47.03394],[11.1447243,47.0350195],[11.1446627,47.0357872],[11.1445391,47.0361624],[11.1448749,47.0363992],[11.1450585,47.0364658],[11.1450389,47.0370886],[11.1441017,47.0374266],[11.1435588,47.0386881],[11.1427973,47.0390315],[11.1429262,47.0393721],[11.1430784,47.0397862]]}},{"type":"Feature","id":1027469248,"properties":{"kind":"run","name":"Ski touring route","subtype":"unknown","pisteType":"skitour","featured":false},"geometry":{"type":"LineString","coordinates":[[11.1487859,46.9687982],[11.1485616,46.9678188],[11.1464401,46.9684348],[11.1455546,46.9677482],[11.1452373,46.967393]]}},{"type":"Feature","id":1027469249,"properties":{"kind":"run","name":"Ski touring route","subtype":"unknown","pisteType":"skitour","featured":false},"geometry":{"type":"LineString","coordinates":[[11.1567087,46.9656396],[11.1601016,46.9670503],[11.1617161,46.9671029],[11.1615915,46.9668923],[11.1628202,46.9668032],[11.1629864,46.9663414],[11.1632,46.9661227],[11.1639301,46.9657475],[11.1640795,46.9658548],[11.1642893,46.9657531]]}},{"type":"Feature","id":1037396959,"properties":{"kind":"run","name":"Mapped ski run","subtype":"easy","pisteType":"downhill","featured":false},"geometry":{"type":"LineString","coordinates":[[11.1068862,46.9872982],[11.1065472,46.986937]]}},{"type":"Feature","id":1037396960,"properties":{"kind":"run","name":"Kogelferner","subtype":"intermediate","pisteType":"downhill","featured":false},"geometry":{"type":"LineString","coordinates":[[11.1011668,46.9917386],[11.1016636,46.9918627],[11.1026718,46.9920897],[11.1042643,46.9928377]]}},{"type":"Feature","id":1037396961,"properties":{"kind":"run","name":"Mapped ski run","subtype":"easy","pisteType":"downhill","featured":false},"geometry":{"type":"LineString","coordinates":[[11.1179534,46.9963184],[11.1182206,46.996223],[11.1186865,46.9960565],[11.1187956,46.9961327],[11.1194314,46.9965766]]}},{"type":"Feature","id":1041796047,"properties":{"kind":"run","name":"Skiroute Fernau","subtype":"advanced","pisteType":"downhill","featured":false},"geometry":{"type":"LineString","coordinates":[[11.1406624,46.997049],[11.1410786,46.997307],[11.141174,46.997525],[11.1412019,46.9975887],[11.1412229,46.9977154]]}},{"type":"Feature","id":1131113855,"properties":{"kind":"run","name":"Jakobsleiter","subtype":"unknown","pisteType":"skitour","featured":false},"geometry":{"type":"LineString","coordinates":[[11.1038732,46.9811747],[11.1021352,46.9824629],[11.1016202,46.9842195],[11.1008692,46.9850393],[11.0995388,46.9855077],[11.0986805,46.9856687],[11.0970926,46.9856394],[11.0961056,46.9846001],[11.0951614,46.982741],[11.0954618,46.9812918],[11.0963201,46.9806037],[11.0990023,46.9800767],[11.1024248,46.9788616]]}},{"type":"Feature","id":1173386654,"properties":{"kind":"run","name":"Windachferner","subtype":"easy","pisteType":"downhill","featured":false},"geometry":{"type":"LineString","coordinates":[[11.1086945,46.9752257],[11.1084997,46.9752807],[11.1082589,46.9754043],[11.1081723,46.9754957],[11.1081127,46.9755715],[11.1080703,46.9756111]]}},{"type":"Feature","id":1173386655,"properties":{"kind":"run","name":"Gaiskarferner","subtype":"intermediate","pisteType":"downhill","featured":false},"geometry":{"type":"LineString","coordinates":[[11.1109801,46.9770474],[11.1111275,46.9773102],[11.111297,46.9773708],[11.1114302,46.9773911],[11.1114956,46.9773963],[11.1115788,46.9773943],[11.1117188,46.9773737],[11.1118695,46.9773229],[11.1120663,46.9772038],[11.1123427,46.9770058],[11.1128019,46.9767475],[11.1128935,46.9766432],[11.1129172,46.9765491],[11.1128992,46.9764285],[11.112744,46.9763119],[11.1125175,46.9762495],[11.1118457,46.9761367],[11.1114257,46.9760353],[11.1111849,46.9759168],[11.111066,46.9757444],[11.1110748,46.9755966]]}},{"type":"Feature","id":1206007031,"properties":{"kind":"run","name":"Eisjochzunge","subtype":"intermediate","pisteType":"downhill","featured":false},"geometry":{"type":"LineString","coordinates":[[11.11249,46.9876545],[11.1125339,46.9880174],[11.1125306,46.9882283],[11.1125058,46.9885422],[11.1133199,46.9901756],[11.113412,46.9903603]]}},{"type":"Feature","id":1206008452,"properties":{"kind":"run","name":"Mapped ski run","subtype":"easy","pisteType":"downhill","featured":false},"geometry":{"type":"LineString","coordinates":[[11.1021025,46.99094],[11.1021978,46.9901719],[11.1023865,46.9886792],[11.1024551,46.9881973],[11.1025306,46.9875898],[11.1026073,46.9871188],[11.1028206,46.9856824],[11.1031544,46.9834403],[11.1032667,46.9828923],[11.103061,46.982595],[11.1029192,46.9824237],[11.1028155,46.98225],[11.102755,46.9820806],[11.1029183,46.9817049],[11.1031602,46.9813888],[11.1033568,46.9811333],[11.1034533,46.9809744],[11.1036342,46.9808428],[11.1038011,46.9808385],[11.103787,46.9809152],[11.1036466,46.9809473],[11.1035582,46.9810452],[11.1034446,46.9812636],[11.1032754,46.9814721],[11.1030106,46.9819152],[11.1031049,46.9821857],[11.1033362,46.982486],[11.1037094,46.9829839],[11.104207,46.9832002],[11.1041472,46.9838436],[11.1040729,46.9845404],[11.1040365,46.9848816],[11.103989,46.9853265],[11.1037848,46.9874094],[11.1037261,46.9880581],[11.1035989,46.9891117],[11.1033924,46.9908592],[11.1030885,46.9938584],[11.1034602,46.9938984],[11.105136,46.9940787],[11.104974,46.9954213],[11.1060653,46.9958783],[11.1070917,46.9962576],[11.1079275,46.9965173],[11.1085972,46.9966759],[11.1091262,46.996888],[11.109717,46.9970178],[11.1103403,46.9971489],[11.1109755,46.9972495],[11.1115677,46.9972613],[11.1122343,46.997237],[11.1128498,46.9971853],[11.1135259,46.9971049],[11.1141185,46.9970723],[11.1148501,46.9971327],[11.1156143,46.9972262],[11.1163934,46.9972543],[11.1163641,46.9974856],[11.1140814,46.9973347],[11.111382,46.9975733],[11.1106296,46.9974681],[11.1095535,46.9971687],[11.1059154,46.9966195],[11.1039133,46.9960526],[11.1029197,46.9948093],[11.1023589,46.9939942],[11.1019176,46.993464],[11.1018708,46.9928081],[11.101907,46.9925217],[11.1019356,46.9922958],[11.10202,46.9916213],[11.102058,46.991308],[11.1021025,46.99094]]}},{"type":"Feature","id":1206008453,"properties":{"kind":"run","name":"Mapped ski run","subtype":"intermediate","pisteType":"downhill","featured":false},"geometry":{"type":"LineString","coordinates":[[11.0933955,46.9898316],[11.0948618,46.9901059],[11.096134,46.990317],[11.0976487,46.9905947],[11.0987608,46.9907877],[11.0998258,46.9909706],[11.1004054,46.991075],[11.1013579,46.9912119],[11.102058,46.991308],[11.101907,46.9925217],[11.1014222,46.9920836],[11.1009667,46.9919799],[11.1005601,46.9919056],[11.0990439,46.9916128],[11.0964168,46.9910783],[11.0954224,46.9908618],[11.0946567,46.9907153],[11.0927109,46.9903089],[11.0919312,46.9901469],[11.092397,46.9896305],[11.0933955,46.9898316]]}},{"type":"Feature","id":1206008454,"properties":{"kind":"run","name":"Mapped ski run","subtype":"easy","pisteType":"downhill","featured":false},"geometry":{"type":"LineString","coordinates":[[11.1061628,46.9867752],[11.1062515,46.9870201],[11.10589,46.9872555],[11.1058098,46.9877626],[11.1057803,46.9880459],[11.1056522,46.9889349],[11.1053069,46.9899535],[11.1050156,46.9907247],[11.104937,46.9914719],[11.1048872,46.9918794],[11.1048555,46.992543],[11.105136,46.9940787],[11.1034602,46.9938984],[11.1036082,46.992738],[11.1036786,46.9924139],[11.1037151,46.9921279],[11.1038738,46.9910585],[11.104188,46.9892008],[11.1043274,46.9884952],[11.1044056,46.9879553],[11.1045233,46.9865585],[11.1045097,46.9850642],[11.1040365,46.9848816],[11.1040729,46.9845404],[11.1045694,46.9847617],[11.1049453,46.9850128],[11.1055528,46.9855756],[11.1058303,46.9862509],[11.1061628,46.9867752]]}},{"type":"Feature","id":1263481072,"properties":{"kind":"run","name":"Loipe Stubaier Gletscher","subtype":"nordic","pisteType":"nordic","featured":false},"geometry":{"type":"LineString","coordinates":[[11.1399109,46.9966653],[11.1399498,46.9964553],[11.139787,46.996366],[11.1395676,46.9962525],[11.1395499,46.9961149],[11.1396844,46.9959508],[11.1398755,46.9958084],[11.1400241,46.9957359],[11.1402223,46.9957287],[11.140371,46.9957625],[11.1405515,46.9958156],[11.1407532,46.9958446],[11.1408735,46.9958759],[11.1410222,46.995929],[11.1411425,46.9960256],[11.1412098,46.9960811],[11.1412699,46.9961632],[11.1412912,46.996238],[11.1412381,46.9962935],[11.1411637,46.9962935],[11.1410859,46.9962718],[11.1410257,46.9962284],[11.1409726,46.9961922],[11.1408594,46.9961415],[11.140785,46.9961415],[11.1407284,46.9961487],[11.140693,46.9961898],[11.1407143,46.9962356],[11.1407603,46.9962742],[11.1408204,46.996337],[11.1408134,46.996378],[11.1407603,46.9963829],[11.1406612,46.9963998],[11.1405833,46.9963998],[11.1404665,46.9964094],[11.1403073,46.9964142],[11.1402259,46.9964142],[11.1399498,46.9964553]]}},{"type":"Feature","id":1285776188,"properties":{"kind":"run","name":"Eisjochzunge","subtype":"easy","pisteType":"downhill","featured":false},"geometry":{"type":"LineString","coordinates":[[11.1122284,46.9865808],[11.1112286,46.9870791],[11.1109994,46.9872149],[11.1111641,46.9880935]]}},{"type":"Feature","id":1285776189,"properties":{"kind":"run","name":"Eisjochferner","subtype":"easy","pisteType":"downhill","featured":false},"geometry":{"type":"LineString","coordinates":[[11.11249,46.9876545],[11.1115629,46.9878456],[11.1111641,46.9880935],[11.1120509,46.9896603],[11.113412,46.9903603]]}},{"type":"Feature","id":1285776190,"properties":{"kind":"run","name":"Eisjochzunge","subtype":"intermediate","pisteType":"downhill","featured":false},"geometry":{"type":"LineString","coordinates":[[11.1121204,46.9860862],[11.1122284,46.9865808],[11.1122446,46.9866551],[11.1123079,46.9868697],[11.1124473,46.9874072]]}},{"type":"Feature","id":1285776191,"properties":{"kind":"run","name":"Eisjochferner","subtype":"easy","pisteType":"downhill","featured":false},"geometry":{"type":"LineString","coordinates":[[11.1124473,46.9874072],[11.11249,46.9876545]]}},{"type":"Feature","id":1285776195,"properties":{"kind":"run","name":"Gaiskarferner Süd","subtype":"easy","pisteType":"downhill","featured":false},"geometry":{"type":"LineString","coordinates":[[11.1093308,46.9755429],[11.1092307,46.9754253],[11.1091586,46.9753496]]}},{"type":"Feature","id":1316998105,"properties":{"kind":"run","name":"Daunferner","subtype":"easy","pisteType":"downhill","featured":false},"geometry":{"type":"LineString","coordinates":[[11.1042435,46.9929193],[11.1038974,46.9928939],[11.1034728,46.9928612]]}},{"type":"Feature","id":1335037975,"properties":{"kind":"run","name":"Gaiskarferner","subtype":"intermediate","pisteType":"downhill","featured":false},"geometry":{"type":"LineString","coordinates":[[11.1147455,46.9739164],[11.1154267,46.9736982],[11.1161776,46.9735034],[11.1168861,46.9734199],[11.1172547,46.9733072],[11.1185147,46.9727344],[11.1189601,46.9724625],[11.1198379,46.9720313],[11.120757,46.9717142],[11.1212192,46.9715174],[11.1213803,46.971363],[11.121509,46.9711827],[11.1218037,46.970884],[11.1218803,46.9708538],[11.1219467,46.9708481],[11.1220017,46.9708651]]}},{"type":"Feature","id":1363955136,"properties":{"kind":"run","name":"Skiroute 26 Fernau","subtype":"advanced","pisteType":"downhill","featured":false},"geometry":{"type":"LineString","coordinates":[[11.1397758,46.9969803],[11.1400699,46.9967273],[11.1405074,46.9966636],[11.1409395,46.9967236],[11.1413316,46.9969601],[11.1414676,46.9971493],[11.1413983,46.9972658],[11.1413558,46.9975335],[11.1413379,46.997782]]}},{"type":"Feature","id":1424999644,"properties":{"kind":"run","name":"Mapped ski run","subtype":"easy","pisteType":"downhill","featured":false},"geometry":{"type":"LineString","coordinates":[[11.1607906,47.012538],[11.1608582,47.0127062]]}},{"type":"Feature","id":1424999645,"properties":{"kind":"run","name":"Mapped ski run","subtype":"easy","pisteType":"downhill","featured":false},"geometry":{"type":"LineString","coordinates":[[11.1194314,46.9965766],[11.1197259,46.9966113],[11.1200542,46.9966501]]}},{"type":"Feature","id":1424999646,"properties":{"kind":"run","name":"Mapped ski run","subtype":"easy","pisteType":"downhill","featured":false},"geometry":{"type":"LineString","coordinates":[[11.1197259,46.9966113],[11.11972,46.9969582]]}},{"type":"Feature","id":1424999647,"properties":{"kind":"run","name":"Mapped ski run","subtype":"easy","pisteType":"downhill","featured":false},"geometry":{"type":"LineString","coordinates":[[11.1187956,46.9961327],[11.1189471,46.9959611],[11.1188552,46.9956854],[11.1188289,46.9949582]]}},{"type":"Feature","id":1425000300,"properties":{"kind":"run","name":"Mapped ski run","subtype":"intermediate","pisteType":"downhill","featured":false},"geometry":{"type":"LineString","coordinates":[[11.1136816,46.9742841],[11.1136435,46.9737453],[11.113495,46.9736025]]}},{"type":"Feature","id":1425000301,"properties":{"kind":"run","name":"Mapped ski run","subtype":"intermediate","pisteType":"downhill","featured":false},"geometry":{"type":"LineString","coordinates":[[11.1093331,46.973976],[11.1091385,46.9741618],[11.1094769,46.9746879],[11.1092939,46.9749302],[11.1092883,46.9751573],[11.1091586,46.9753496]]}},{"type":"Feature","id":1425000302,"properties":{"kind":"run","name":"Mapped ski run","subtype":"intermediate","pisteType":"downhill","featured":false},"geometry":{"type":"LineString","coordinates":[[11.1093331,46.973976],[11.1096546,46.9740703],[11.1106483,46.9739475],[11.1121662,46.9738674],[11.1133594,46.9737019],[11.113495,46.9736025]]}},{"type":"Feature","id":1425000303,"properties":{"kind":"run","name":"Mapped ski run","subtype":"novice","pisteType":"downhill","featured":false},"geometry":{"type":"LineString","coordinates":[[11.1207419,46.9961844],[11.1212747,46.9960283],[11.1213153,46.995991]]}},{"type":"Feature","id":1425000304,"properties":{"kind":"run","name":"Mapped ski run","subtype":"novice","pisteType":"downhill","featured":false},"geometry":{"type":"LineString","coordinates":[[11.1221169,46.9957283],[11.1223151,46.9957745]]}},{"type":"Feature","id":1425000585,"properties":{"kind":"run","name":"Mapped ski run","subtype":"novice","pisteType":"downhill","featured":false},"geometry":{"type":"LineString","coordinates":[[11.1223115,46.9957251],[11.1221169,46.9957283],[11.1217468,46.995949],[11.1213153,46.995991],[11.1207426,46.9960205],[11.1202744,46.9960575]]}},{"type":"Feature","id":1425000586,"properties":{"kind":"run","name":"Mapped ski run","subtype":"novice","pisteType":"downhill","featured":false},"geometry":{"type":"LineString","coordinates":[[11.1221169,46.9957283],[11.1215675,46.9956762],[11.1212982,46.9956505],[11.1210529,46.9956108]]}},{"type":"Feature","id":1425000587,"properties":{"kind":"run","name":"Mapped ski run","subtype":"novice","pisteType":"downhill","featured":false},"geometry":{"type":"LineString","coordinates":[[11.1218804,46.9953782],[11.1215675,46.9956762],[11.1213153,46.995991]]}},{"type":"Feature","id":1425000588,"properties":{"kind":"run","name":"Mapped ski run","subtype":"novice","pisteType":"downhill","featured":false},"geometry":{"type":"LineString","coordinates":[[11.1213606,46.9953229],[11.1212982,46.9956505]]}},{"type":"Feature","id":1425000589,"properties":{"kind":"run","name":"Mapped ski run","subtype":"novice","pisteType":"downhill","featured":false},"geometry":{"type":"LineString","coordinates":[[11.1218804,46.9953782],[11.1213606,46.9953229],[11.1210755,46.9952722],[11.1207785,46.9952194]]}},{"type":"Feature","id":1425000590,"properties":{"kind":"run","name":"Mapped ski run","subtype":"novice","pisteType":"downhill","featured":false},"geometry":{"type":"LineString","coordinates":[[11.1210903,46.99514],[11.1210755,46.9952722],[11.1210529,46.9956108]]}},{"type":"Feature","id":1457439126,"properties":{"kind":"lift","name":"Windachferner","subtype":"t-bar","status":"active"},"geometry":{"type":"LineString","coordinates":[[11.103618,46.977189],[11.1036867,46.9771592],[11.1041249,46.9769694],[11.1056779,46.9761916],[11.1071665,46.9754312],[11.1080061,46.9750195],[11.1082249,46.9748961],[11.1084687,46.9747587]]}},{"type":"Feature","id":1467547550,"properties":{"kind":"run","name":"Ski touring route","subtype":"unknown","pisteType":"skitour","featured":false},"geometry":{"type":"LineString","coordinates":[[11.1487859,46.9687982],[11.1536745,46.9667034],[11.1567087,46.9656396]]}},{"type":"Feature","id":1467547551,"properties":{"kind":"run","name":"Ski touring route","subtype":"unknown","pisteType":"skitour","featured":false},"geometry":{"type":"LineString","coordinates":[[11.1567087,46.9656396],[11.1568552,46.9652397],[11.156489,46.9649898],[11.1554978,46.9648329],[11.1549947,46.9648607],[11.1547185,46.9647312]]}},{"type":"Feature","id":1490170364,"properties":{"kind":"run","name":"Silberschneid","subtype":"intermediate","pisteType":"downhill","featured":false},"geometry":{"type":"LineString","coordinates":[[11.1251574,46.9899078],[11.1256651,46.9900816],[11.1262302,46.990192],[11.1268144,46.9903343],[11.1276299,46.9907043],[11.1280912,46.9909616],[11.1283658,46.991214],[11.128912,46.9915142],[11.1297115,46.9917799],[11.1300435,46.991842]]}},{"type":"Feature","id":1490170365,"properties":{"kind":"run","name":"Silberschneid","subtype":"intermediate","pisteType":"downhill","featured":false},"geometry":{"type":"LineString","coordinates":[[11.1300435,46.991842],[11.1306987,46.9918195],[11.1315189,46.9918674]]}},{"type":"Feature","id":1490177482,"properties":{"kind":"run","name":"Daunenhang","subtype":"easy","pisteType":"downhill","featured":false},"geometry":{"type":"LineString","coordinates":[[11.1037216,46.9832534],[11.103709,46.9837212],[11.1037025,46.9842017],[11.1036701,46.9844383]]}},{"type":"Feature","id":1490177483,"properties":{"kind":"run","name":"Daunenhang","subtype":"easy","pisteType":"downhill","featured":false},"geometry":{"type":"LineString","coordinates":[[11.1046087,46.9829326],[11.1044298,46.9829241],[11.1042089,46.9829136],[11.1040473,46.9829181],[11.1038879,46.9829612],[11.103794,46.9830383],[11.1037216,46.9832534]]}}]}