{"type":"FeatureCollection","features":[{"type":"Feature","id":"building-851946427","properties":{"kind":"building","name":"Eisgrat","height":7.2},"geometry":{"type":"Polygon","coordinates":[[[11.1158211,46.986943],[11.1155574,46.9872436],[11.1155403,46.9872721],[11.115672,46.9873198],[11.1155859,46.9874257],[11.1153204,46.9873285],[11.1152903,46.9873672],[11.1151601,46.9873166],[11.1152375,46.9875056],[11.1149949,46.9875475],[11.1148981,46.9873155],[11.1146174,46.9872117],[11.1144467,46.9872374],[11.114362,46.9870052],[11.1146304,46.9869589],[11.1147524,46.9869361],[11.1148002,46.9869507],[11.1148686,46.9869784],[11.1150382,46.9870426],[11.1150617,46.9870141],[11.1150851,46.9869856],[11.1151242,46.986938],[11.1151908,46.9868871],[11.1152679,46.9868526],[11.1153276,46.9868402],[11.1153784,46.9868296],[11.1154838,46.9868285],[11.1155762,46.9868464],[11.1156703,46.9868764],[11.1158211,46.986943]]]}},{"type":"Feature","id":"building-759976756","properties":{"kind":"building","name":"Alpine building","height":7.2},"geometry":{"type":"Polygon","coordinates":[[[11.1187385,46.9951158],[11.1187778,46.9951481],[11.1187327,46.9951736],[11.1186934,46.9951414],[11.1187385,46.9951158]]]}},{"type":"Feature","id":"building-448339695","properties":{"kind":"building","name":"Alpine building","height":7.2},"geometry":{"type":"Polygon","coordinates":[[[11.1208021,46.9957461],[11.120843,46.9956857],[11.1207471,46.9956555],[11.1207063,46.9957159],[11.1208021,46.9957461]]]}},{"type":"Feature","id":"building-759976757","properties":{"kind":"building","name":"Alpine building","height":7.2},"geometry":{"type":"Polygon","coordinates":[[[11.1221158,46.9955542],[11.1221496,46.9955796],[11.1222067,46.9955442],[11.122173,46.9955188],[11.1221158,46.9955542]]]}},{"type":"Feature","id":"building-754506977","properties":{"kind":"building","name":"Alpin Schischule Neustift Büro","height":3},"geometry":{"type":"Polygon","coordinates":[[[11.1192511,46.9957507],[11.1192739,46.9957203],[11.1193447,46.995745],[11.1193218,46.9957754],[11.1192511,46.9957507]]]}},{"type":"Feature","id":"building-407293014","properties":{"kind":"building","name":"Alpine building","height":7.2},"geometry":{"type":"Polygon","coordinates":[[[11.1282318,46.9917137],[11.1284609,46.9919308],[11.1285763,46.9918741],[11.1283473,46.991657],[11.1282318,46.9917137]]]}},{"type":"Feature","id":"building-84541414","properties":{"kind":"building","name":"Alpine building","height":7.2},"geometry":{"type":"Polygon","coordinates":[[[11.1186082,46.9960379],[11.1184485,46.9960765],[11.1185243,46.9962222],[11.1186858,46.9961864],[11.1186487,46.9961158],[11.1186082,46.9960379]]]}},{"type":"Feature","id":"building-572154998","properties":{"kind":"building","name":"Eissee Schirmbar","height":7.2},"geometry":{"type":"Polygon","coordinates":[[[11.1192235,46.9961973],[11.11921,46.9962194],[11.1192072,46.9962433],[11.1192155,46.9962666],[11.119234,46.996287],[11.1192637,46.9963036],[11.1193,46.9963123],[11.1193384,46.9963121],[11.1193744,46.996303],[11.1194038,46.9962861],[11.119423,46.9962634],[11.1194298,46.9962376],[11.1194233,46.9962118],[11.1194043,46.996189],[11.119378,46.9961731],[11.1193457,46.9961636],[11.1193107,46.9961614],[11.1192765,46.9961668],[11.1192464,46.9961792],[11.1192235,46.9961973]]]}},{"type":"Feature","id":"building-84541264","properties":{"kind":"building","name":"Gamsgarten","height":7.2},"geometry":{"type":"Polygon","coordinates":[[[11.1204528,46.9964768],[11.1204565,46.9962243],[11.1197996,46.9962268],[11.1197088,46.9961847],[11.119629,46.9961897],[11.1195564,46.9962293],[11.1195419,46.9962936],[11.1194439,46.9964298],[11.1197316,46.9965322],[11.1197303,46.9965776],[11.1198265,46.9965785],[11.1202683,46.9965917],[11.1203892,46.9965933],[11.1205511,46.9965946],[11.1205581,46.9964768],[11.1204528,46.9964768]]]}},{"type":"Feature","id":"building-332934545","properties":{"kind":"building","name":"Alpine building","height":7.2},"geometry":{"type":"Polygon","coordinates":[[[11.1177373,46.9962049],[11.1179555,46.9963815],[11.1180472,46.9963288],[11.1178289,46.9961522],[11.1177373,46.9962049]]]}},{"type":"Feature","id":"building-332934546","properties":{"kind":"building","name":"Alpine building","height":7.2},"geometry":{"type":"Polygon","coordinates":[[[11.1173549,46.9961982],[11.1178949,46.996622],[11.1180482,46.9965312],[11.1175081,46.9961073],[11.1173549,46.9961982]]]}},{"type":"Feature","id":"building-84541428","properties":{"kind":"building","name":"Bergstation Gamsgarten 2","height":7.2},"geometry":{"type":"Polygon","coordinates":[[[11.1198144,46.9967679],[11.1198265,46.9965785],[11.1202683,46.9965917],[11.1202562,46.996781],[11.1198144,46.9967679]]]}},{"type":"Feature","id":"building-705114107","properties":{"kind":"building","name":"Alpine building","height":7.2},"geometry":{"type":"Polygon","coordinates":[[[11.1307761,46.9901861],[11.1307493,46.9901178],[11.1308128,46.9901075],[11.1308412,46.990177],[11.1307761,46.9901861]]]}},{"type":"Feature","id":"building-84541385","properties":{"kind":"building","name":"Alpine building","height":7.2},"geometry":{"type":"Polygon","coordinates":[[[11.1310404,46.9899156],[11.1310556,46.9899256],[11.1310759,46.9899277],[11.1311204,46.9899215],[11.131138,46.9898751],[11.131106,46.9897432],[11.1310014,46.9897543],[11.1310404,46.9899156]]]}},{"type":"Feature","id":"building-572154995","properties":{"kind":"building","name":"Alpine building","height":7.2},"geometry":{"type":"Polygon","coordinates":[[[11.1241477,46.997099],[11.1240915,46.9970532],[11.1241325,46.9970298],[11.1241887,46.9970756],[11.1241477,46.997099]]]}},{"type":"Feature","id":"building-84541335","properties":{"kind":"building","name":"Bödelehütte","height":7.2},"geometry":{"type":"Polygon","coordinates":[[[11.1315189,46.9897806],[11.1311653,46.9898172],[11.1311491,46.9898346],[11.131156,46.9898741],[11.131138,46.9898751],[11.1311204,46.9899215],[11.131181,46.989915],[11.1311839,46.9899346],[11.131293,46.9899224],[11.1313618,46.9902044],[11.1316103,46.9901843],[11.1315189,46.9897806]]]}},{"type":"Feature","id":"building-572154996","properties":{"kind":"building","name":"Alpine building","height":7.2},"geometry":{"type":"Polygon","coordinates":[[[11.1227486,46.9974137],[11.1228736,46.997403],[11.1228792,46.9974333],[11.1229271,46.9974292],[11.1229363,46.9974794],[11.1228369,46.9974879],[11.1228532,46.9975768],[11.1227797,46.9975831],[11.1227659,46.9975078],[11.1227486,46.9974137]]]}},{"type":"Feature","id":"building-84541266","properties":{"kind":"building","name":"Alpine building","height":7.2},"geometry":{"type":"Polygon","coordinates":[[[11.1069272,46.9874029],[11.1068818,46.9873682],[11.1068209,46.9874054],[11.1067633,46.9873615],[11.106839,46.9873153],[11.1067922,46.9872794],[11.1068808,46.9872255],[11.1069751,46.9872974],[11.1070679,46.9873683],[11.1070382,46.9873864],[11.1069896,46.9874161],[11.1069644,46.9874314],[11.1069272,46.9874029]]]}},{"type":"Feature","id":"building-520848618","properties":{"kind":"building","name":"Alpine building","height":7.2},"geometry":{"type":"Polygon","coordinates":[[[11.1154727,46.9993077],[11.1158702,46.9992487],[11.1159335,46.9994471],[11.1155721,46.9995008],[11.1155347,46.9993834],[11.1154986,46.9993888],[11.1154727,46.9993077]]]}},{"type":"Feature","id":"building-907796138","properties":{"kind":"building","name":"Alpine building","height":7.2},"geometry":{"type":"Polygon","coordinates":[[[11.1043232,46.982989],[11.1043259,46.9830173],[11.1042843,46.9830192],[11.1042816,46.9829908],[11.1043232,46.982989]]]}},{"type":"Feature","id":"building-705114106","properties":{"kind":"building","name":"Alpine building","height":7.2},"geometry":{"type":"Polygon","coordinates":[[[11.1373171,46.9963257],[11.1373406,46.9963485],[11.1373839,46.9963274],[11.1373604,46.9963046],[11.1373171,46.9963257]]]}},{"type":"Feature","id":"building-503239187","properties":{"kind":"building","name":"Bergkapelle","height":7.2},"geometry":{"type":"Polygon","coordinates":[[[11.1120815,46.9775769],[11.1120517,46.9776062],[11.1121047,46.9776277],[11.1121383,46.9775908],[11.1120815,46.9775769]]]}},{"type":"Feature","id":"building-210746800","properties":{"kind":"building","name":"Bergstation Wildspitz","height":7.2},"geometry":{"type":"Polygon","coordinates":[[[11.1042489,46.9806315],[11.1043142,46.9806155],[11.1042797,46.98055],[11.1042144,46.980566],[11.1042489,46.9806315]]]}},{"type":"Feature","id":"building-84541261","properties":{"kind":"building","name":"Schaufelspitze","height":7.2},"geometry":{"type":"Polygon","coordinates":[[[11.1108136,46.977354],[11.1107077,46.9770641],[11.1107714,46.9770533],[11.1109379,46.977025],[11.1109493,46.9770561],[11.1110439,46.9773148],[11.1108136,46.977354]]]}},{"type":"Feature","id":"building-476080432","properties":{"kind":"building","name":"Alpine building","height":7.2},"geometry":{"type":"Polygon","coordinates":[[[11.1083624,46.9772036],[11.1083939,46.9772532],[11.1084751,46.9772291],[11.1084436,46.9771796],[11.1083624,46.9772036]]]}},{"type":"Feature","id":"building-618781088","properties":{"kind":"building","name":"Zollhütte","height":4.1},"geometry":{"type":"Polygon","coordinates":[[[11.1382802,46.9982808],[11.138398,46.9983038],[11.1383511,46.9984155],[11.1382972,46.998405],[11.1383078,46.9983798],[11.1382439,46.9983673],[11.1382802,46.9982808]]]}},{"type":"Feature","id":"building-84541259","properties":{"kind":"building","name":"Bergstation Eisjochbahn","height":7.2},"geometry":{"type":"Polygon","coordinates":[[[11.108238,46.9772294],[11.1083222,46.9773676],[11.1083489,46.9773737],[11.1084147,46.9773585],[11.1084268,46.9773393],[11.1083491,46.9771995],[11.1083346,46.9771902],[11.1083164,46.9771845],[11.1082966,46.9771831],[11.1082771,46.977186],[11.1082599,46.9771929],[11.1082469,46.9772032],[11.1082393,46.9772159],[11.108238,46.9772294]]]}},{"type":"Feature","id":"building-1271452972","properties":{"kind":"building","name":"Alpine building","height":7.2},"geometry":{"type":"Polygon","coordinates":[[[11.1394009,46.9976122],[11.1394835,46.9975689],[11.1394377,46.9975283],[11.1393551,46.9975716],[11.1394009,46.9976122]]]}},{"type":"Feature","id":"building-103209599","properties":{"kind":"building","name":"Fernaustadl","height":4.1},"geometry":{"type":"Polygon","coordinates":[[[11.1390396,46.9980198],[11.1391549,46.9980884],[11.1390542,46.9982184],[11.1389095,46.9981471],[11.1390396,46.9980198]]]}},{"type":"Feature","id":"building-1271452971","properties":{"kind":"building","name":"Alpine building","height":7.2},"geometry":{"type":"Polygon","coordinates":[[[11.1396154,46.9976311],[11.1396204,46.9977008],[11.1398027,46.9976947],[11.1397977,46.997625],[11.1396154,46.9976311]]]}},{"type":"Feature","id":"building-103209591","properties":{"kind":"building","name":"Dresdner Hütte","height":10.3},"geometry":{"type":"Polygon","coordinates":[[[11.139662,46.9982464],[11.1398331,46.9980972],[11.1394317,46.9978832],[11.1392596,46.9980332],[11.139301,46.9980553],[11.1392519,46.9980982],[11.1393443,46.9981475],[11.1393609,46.9981331],[11.1394529,46.9981821],[11.1394841,46.9981988],[11.1395177,46.9981694],[11.139662,46.9982464]]]}},{"type":"Feature","id":"building-618781087","properties":{"kind":"building","name":"Herz-Jesu-Kapelle Dresdner Hütte","height":7.2},"geometry":{"type":"Polygon","coordinates":[[[11.1392639,46.9985782],[11.1393247,46.9985349],[11.1393769,46.9985704],[11.1393156,46.9986133],[11.1393057,46.9986062],[11.1392955,46.9986063],[11.1392856,46.9986032],[11.1392789,46.9985955],[11.1392768,46.9985861],[11.1392639,46.9985782]]]}},{"type":"Feature","id":"building-852329781","properties":{"kind":"building","name":"Mittelstation Fernau","height":7.2},"geometry":{"type":"Polygon","coordinates":[[[11.140964,46.9973302],[11.1411007,46.9972425],[11.1411594,46.9972208],[11.1412881,46.9973115],[11.1414233,46.9972362],[11.1412678,46.9971164],[11.1413252,46.9970822],[11.1410611,46.996869],[11.1407287,46.9967524],[11.140685,46.9968063],[11.1404713,46.9967215],[11.1403889,46.9968201],[11.1406052,46.996906],[11.1405823,46.996933],[11.1404821,46.9968969],[11.1404178,46.9969769],[11.1403606,46.9970477],[11.1403425,46.9970692],[11.1403151,46.9971018],[11.1402281,46.9970876],[11.1402175,46.9970993],[11.1401571,46.9970854],[11.1401517,46.9970976],[11.1400873,46.997096],[11.1400767,46.997245],[11.140105,46.9972474],[11.1401424,46.9972819],[11.1401386,46.9973121],[11.1404969,46.9973198],[11.140758,46.9975747],[11.1410682,46.9974332],[11.140964,46.9973302]]]}},{"type":"Feature","id":"building-572154992","properties":{"kind":"building","name":"Alpine building","height":7.2},"geometry":{"type":"Polygon","coordinates":[[[11.1087086,46.9757433],[11.1087753,46.975718],[11.1088079,46.9757582],[11.1087235,46.9757901],[11.1087021,46.9757638],[11.1087199,46.9757571],[11.1087086,46.9757433]]]}},{"type":"Feature","id":"building-122430544","properties":{"kind":"building","name":"Jochdohle","height":7.2},"geometry":{"type":"Polygon","coordinates":[[[11.1087246,46.9753928],[11.1087431,46.9753576],[11.1087915,46.9753219],[11.1088415,46.9753066],[11.1088689,46.9753036],[11.1089446,46.9753127],[11.1089899,46.9753337],[11.1090132,46.9753533],[11.109034,46.9753878],[11.1090349,46.975431],[11.1090155,46.975466],[11.1089885,46.975489],[11.1088884,46.9754092],[11.1087246,46.9753928]]]}},{"type":"Feature","id":"building-210746799","properties":{"kind":"building","name":"Talstation Wildspitz","height":7.2},"geometry":{"type":"Polygon","coordinates":[[[11.1026116,46.9777188],[11.1026518,46.9777081],[11.1026244,46.9776603],[11.1025841,46.977671],[11.1026116,46.9777188]]]}},{"type":"Feature","id":"building-519100646","properties":{"kind":"building","name":"Alpine building","height":7.2},"geometry":{"type":"Polygon","coordinates":[[[11.1008094,47.0018767],[11.1011401,47.0018236],[11.1010953,47.0016938],[11.1007646,47.0017469],[11.1008094,47.0018767]]]}},{"type":"Feature","id":"building-332934547","properties":{"kind":"building","name":"Alpine building","height":7.2},"geometry":{"type":"Polygon","coordinates":[[[11.1245255,46.9726512],[11.1245985,46.9726758],[11.1246302,46.9726321],[11.1245571,46.9726074],[11.1245255,46.9726512]]]}},{"type":"Feature","id":"pylon-stubai-glacier-0","properties":{"kind":"pylon","name":"Lift tower","height":13},"geometry":{"type":"Polygon","coordinates":[[[11.104870067496458,46.9809013],[11.104861583113179,46.98091527444232],[11.1048411,46.98092106284585],[11.10482061688682,46.98091527444232],[11.104812132503541,46.9809013],[11.10482061688682,46.98088732555768],[11.1048411,46.98088153715415],[11.104861583113179,46.98088732555768],[11.104870067496458,46.9809013]]]}},{"type":"Feature","id":"pylon-stubai-glacier-1","properties":{"kind":"pylon","name":"Lift tower","height":13},"geometry":{"type":"Polygon","coordinates":[[[11.108638665583205,46.9773697],[11.108630181760306,46.977383674442315],[11.1086097,46.97738946284585],[11.108589218239695,46.977383674442315],[11.108580734416796,46.9773697],[11.108589218239695,46.97735572555768],[11.1086097,46.977349937154145],[11.108630181760306,46.97735572555768],[11.108638665583205,46.9773697]]]}},{"type":"Feature","id":"pylon-stubai-glacier-2","properties":{"kind":"pylon","name":"Lift tower","height":13},"geometry":{"type":"Polygon","coordinates":[[[11.114834471354568,46.9880208],[11.114825985841275,46.98803477444232],[11.1148055,46.98804056284585],[11.114785014158723,46.98803477444232],[11.11477652864543,46.9880208],[11.114785014158723,46.98800682555768],[11.1148055,46.98800103715415],[11.114825985841275,46.98800682555768],[11.114834471354568,46.9880208]]]}},{"type":"Feature","id":"pylon-stubai-glacier-3","properties":{"kind":"pylon","name":"Lift tower","height":13},"geometry":{"type":"Polygon","coordinates":[[[11.101321473625633,46.9922104],[11.10131298744716,46.992224374442316],[11.1012925,46.99223016284585],[11.101272012552839,46.992224374442316],[11.101263526374366,46.9922104],[11.101272012552839,46.99219642555768],[11.1012925,46.992190637154145],[11.10131298744716,46.99219642555768],[11.101321473625633,46.9922104]]]}},{"type":"Feature","id":"pylon-stubai-glacier-4","properties":{"kind":"pylon","name":"Lift tower","height":13},"geometry":{"type":"Polygon","coordinates":[[[11.091118972512154,46.9901564],[11.091110486659812,46.990170374442314],[11.09109,46.99017616284585],[11.091069513340187,46.990170374442314],[11.091061027487845,46.9901564],[11.091069513340187,46.99014242555768],[11.09109,46.990136637154144],[11.091110486659812,46.99014242555768],[11.091118972512154,46.9901564]]]}},{"type":"Feature","id":"pylon-stubai-glacier-5","properties":{"kind":"pylon","name":"Lift tower","height":13},"geometry":{"type":"Polygon","coordinates":[[[11.124184876330265,46.9971986],[11.124176389359624,46.997212574442315],[11.1241559,46.99721836284585],[11.124135410640376,46.997212574442315],[11.124126923669735,46.9971986],[11.124135410640376,46.99718462555768],[11.1241559,46.997178837154145],[11.124176389359624,46.99718462555768],[11.124184876330265,46.9971986]]]}},{"type":"Feature","id":"pylon-stubai-glacier-6","properties":{"kind":"pylon","name":"Lift tower","height":13},"geometry":{"type":"Polygon","coordinates":[[[11.12185747518222,46.9950814],[11.121848988547832,46.995095374442315],[11.1218285,46.99510116284585],[11.121808011452167,46.995095374442315],[11.12179952481778,46.9950814],[11.121808011452167,46.99506742555768],[11.1218285,46.995061637154144],[11.121848988547832,46.99506742555768],[11.12185747518222,46.9950814]]]}},{"type":"Feature","id":"pylon-stubai-glacier-7","properties":{"kind":"pylon","name":"Lift tower","height":13},"geometry":{"type":"Polygon","coordinates":[[[11.1046951674756,46.9808628],[11.10468668309843,46.980876774442315],[11.1046662,46.98088256284585],[11.10464571690157,46.980876774442315],[11.104637232524402,46.9808628],[11.10464571690157,46.98084882555768],[11.1046662,46.980843037154145],[11.10468668309843,46.98084882555768],[11.1046951674756,46.9808628]]]}},{"type":"Feature","id":"pylon-stubai-glacier-8","properties":{"kind":"pylon","name":"Lift tower","height":13},"geometry":{"type":"Polygon","coordinates":[[[11.12307376247107,46.9716237],[11.123065279559693,46.97163767444232],[11.1230448,46.971643462845854],[11.123024320440308,46.97163767444232],[11.123015837528932,46.9716237],[11.123024320440308,46.971609725557684],[11.1230448,46.97160393715415],[11.123065279559693,46.971609725557684],[11.12307376247107,46.9716237]]]}},{"type":"Feature","id":"pylon-stubai-glacier-9","properties":{"kind":"pylon","name":"Lift tower","height":13},"geometry":{"type":"Polygon","coordinates":[[[11.123772862746495,46.9721323],[11.123764379754448,46.972146274442316],[11.1237439,46.97215206284585],[11.12372342024555,46.972146274442316],[11.123714937253503,46.9721323],[11.12372342024555,46.97211832555768],[11.1237439,46.972112537154146],[11.123764379754448,46.97211832555768],[11.123772862746495,46.9721323]]]}},{"type":"Feature","id":"pylon-stubai-glacier-10","properties":{"kind":"pylon","name":"Lift tower","height":13},"geometry":{"type":"Polygon","coordinates":[[[11.12692096281863,46.9722655],[11.126912479805457,46.97227947444232],[11.126892,46.97228526284585],[11.126871520194543,46.97227947444232],[11.12686303718137,46.9722655],[11.126871520194543,46.97225152555768],[11.126892,46.97224573715415],[11.126912479805457,46.97225152555768],[11.12692096281863,46.9722655]]]}},{"type":"Feature","id":"pylon-stubai-glacier-11","properties":{"kind":"pylon","name":"Lift tower","height":13},"geometry":{"type":"Polygon","coordinates":[[[11.127258663586906,46.9736841],[11.127250180348708,46.97369807444232],[11.1272297,46.97370386284585],[11.12720921965129,46.97369807444232],[11.127200736413092,46.9736841],[11.12720921965129,46.97367012555768],[11.1272297,46.97366433715415],[11.127250180348708,46.97367012555768],[11.127258663586906,46.9736841]]]}},{"type":"Feature","id":"pylon-stubai-glacier-12","properties":{"kind":"pylon","name":"Lift tower","height":13},"geometry":{"type":"Polygon","coordinates":[[[11.127645264466711,46.9753085],[11.127636780970825,46.975322474442315],[11.1276163,46.97532826284585],[11.127595819029175,46.975322474442315],[11.127587335533288,46.9753085],[11.127595819029175,46.97529452555768],[11.1276163,46.975288737154145],[11.127636780970825,46.97529452555768],[11.127645264466711,46.9753085]]]}},{"type":"Feature","id":"pylon-stubai-glacier-13","properties":{"kind":"pylon","name":"Lift tower","height":13},"geometry":{"type":"Polygon","coordinates":[[[11.127959065180674,46.9766266],[11.127950581475673,46.97664057444232],[11.1279301,46.976646362845855],[11.127909618524328,46.97664057444232],[11.127901134819327,46.9766266],[11.127909618524328,46.976612625557685],[11.1279301,46.97660683715415],[11.127950581475673,46.976612625557685],[11.127959065180674,46.9766266]]]}},{"type":"Feature","id":"pylon-stubai-glacier-14","properties":{"kind":"pylon","name":"Lift tower","height":13},"geometry":{"type":"Polygon","coordinates":[[[11.128320566003303,46.9781452],[11.12831208205736,46.97815917444232],[11.1282916,46.97816496284585],[11.128271117942642,46.97815917444232],[11.128262633996698,46.9781452],[11.128271117942642,46.97813122555768],[11.1282916,46.97812543715415],[11.12831208205736,46.97813122555768],[11.128320566003303,46.9781452]]]}},{"type":"Feature","id":"pylon-stubai-glacier-15","properties":{"kind":"pylon","name":"Lift tower","height":13},"geometry":{"type":"Polygon","coordinates":[[[11.108868466029522,46.9781936],[11.108859982075899,46.978207574442315],[11.1088395,46.97821336284585],[11.108819017924102,46.978207574442315],[11.108810533970479,46.9781936],[11.108819017924102,46.97817962555768],[11.1088395,46.978173837154145],[11.108859982075899,46.97817962555768],[11.108868466029522,46.9781936]]]}},{"type":"Feature","id":"pylon-stubai-glacier-16","properties":{"kind":"pylon","name":"Lift tower","height":13},"geometry":{"type":"Polygon","coordinates":[[[11.10977636692189,46.9798408],[11.1097678827069,46.979854774442316],[11.1097474,46.97986056284585],[11.1097269172931,46.979854774442316],[11.10971843307811,46.9798408],[11.1097269172931,46.97982682555768],[11.1097474,46.979821037154146],[11.1097678827069,46.97982682555768],[11.10977636692189,46.9798408]]]}},{"type":"Feature","id":"pylon-stubai-glacier-17","properties":{"kind":"pylon","name":"Lift tower","height":13},"geometry":{"type":"Polygon","coordinates":[[[11.111928567027645,46.980036],[11.111920082781678,46.980049974442316],[11.1118996,46.98005576284585],[11.11187911721832,46.980049974442316],[11.111870632972353,46.980036],[11.11187911721832,46.98002202555768],[11.1118996,46.980016237154146],[11.111920082781678,46.98002202555768],[11.111928567027645,46.980036]]]}},{"type":"Feature","id":"pylon-stubai-glacier-18","properties":{"kind":"pylon","name":"Lift tower","height":13},"geometry":{"type":"Polygon","coordinates":[[[11.12883336717046,46.9802996],[11.128824882882665,46.98031357444232],[11.1288044,46.980319362845854],[11.128783917117335,46.98031357444232],[11.12877543282954,46.9802996],[11.128783917117335,46.980285625557684],[11.1288044,46.98027983715415],[11.128824882882665,46.980285625557684],[11.12883336717046,46.9802996]]]}},{"type":"Feature","id":"pylon-stubai-glacier-19","properties":{"kind":"pylon","name":"Lift tower","height":13},"geometry":{"type":"Polygon","coordinates":[[[11.110776167904554,46.9816545],[11.110767683401747,46.981668474442316],[11.1107472,46.98167426284585],[11.110726716598254,46.981668474442316],[11.110718232095447,46.9816545],[11.110726716598254,46.98164052555768],[11.1107472,46.981634737154145],[11.110767683401747,46.98164052555768],[11.110776167904554,46.9816545]]]}},{"type":"Feature","id":"pylon-stubai-glacier-20","properties":{"kind":"pylon","name":"Lift tower","height":13},"geometry":{"type":"Polygon","coordinates":[[[11.129172567942536,46.9817246],[11.129164083428604,46.98173857444232],[11.1291436,46.98174436284585],[11.129123116571398,46.98173857444232],[11.129114632057465,46.9817246],[11.129123116571398,46.98171062555768],[11.1291436,46.98170483715415],[11.129164083428604,46.98171062555768],[11.129172567942536,46.9817246]]]}},{"type":"Feature","id":"pylon-stubai-glacier-21","properties":{"kind":"pylon","name":"Lift tower","height":13},"geometry":{"type":"Polygon","coordinates":[[[11.11269556813402,46.982078],[11.112687083564003,46.98209197444232],[11.1126666,46.982097762845854],[11.112646116435998,46.98209197444232],[11.112637631865981,46.982078],[11.112646116435998,46.98206402555768],[11.1126666,46.98205823715415],[11.112687083564003,46.98206402555768],[11.11269556813402,46.982078]]]}},{"type":"Feature","id":"pylon-stubai-glacier-22","properties":{"kind":"pylon","name":"Lift tower","height":13},"geometry":{"type":"Polygon","coordinates":[[[11.111398568516401,46.9827837],[11.111390083834388,46.98279767444232],[11.1113696,46.98280346284585],[11.111349116165611,46.98279767444232],[11.111340631483598,46.9827837],[11.111349116165611,46.98276972555768],[11.1113696,46.98276393715415],[11.111390083834388,46.98276972555768],[11.111398568516401,46.9827837]]]}},{"type":"Feature","id":"pylon-stubai-glacier-23","properties":{"kind":"pylon","name":"Lift tower","height":13},"geometry":{"type":"Polygon","coordinates":[[[11.12944696856712,46.9828773],[11.129438483870251,46.982891274442316],[11.129418,46.98289706284585],[11.129397516129748,46.982891274442316],[11.12938903143288,46.9828773],[11.129397516129748,46.98286332555768],[11.129418,46.982857537154146],[11.129438483870251,46.98286332555768],[11.12944696856712,46.9828773]]]}},{"type":"Feature","id":"pylon-stubai-glacier-24","properties":{"kind":"pylon","name":"Lift tower","height":13},"geometry":{"type":"Polygon","coordinates":[[[11.113250868934996,46.9835562],[11.113242384130379,46.98357017444232],[11.1132219,46.983575962845855],[11.11320141586962,46.98357017444232],[11.113192931065003,46.9835562],[11.11320141586962,46.983542225557684],[11.1132219,46.98353643715415],[11.113242384130379,46.983542225557684],[11.113250868934996,46.9835562]]]}},{"type":"Feature","id":"pylon-stubai-glacier-25","properties":{"kind":"pylon","name":"Lift tower","height":13},"geometry":{"type":"Polygon","coordinates":[[[11.112268369371437,46.9843616],[11.11225988443899,46.98437557444232],[11.1122394,46.98438136284585],[11.11221891556101,46.98437557444232],[11.112210430628563,46.9843616],[11.11221891556101,46.98434762555768],[11.1122394,46.98434183715415],[11.11225988443899,46.98434762555768],[11.112268369371437,46.9843616]]]}},{"type":"Feature","id":"pylon-stubai-glacier-26","properties":{"kind":"pylon","name":"Lift tower","height":13},"geometry":{"type":"Polygon","coordinates":[[[11.129865469519594,46.984635],[11.129856984543753,46.984648974442315],[11.1298365,46.98465476284585],[11.129816015456246,46.984648974442315],[11.129807530480406,46.984635],[11.129816015456246,46.98462102555768],[11.1298365,46.984615237154145],[11.129856984543753,46.98462102555768],[11.129865469519594,46.984635]]]}},{"type":"Feature","id":"pylon-stubai-glacier-27","properties":{"kind":"pylon","name":"Lift tower","height":13},"geometry":{"type":"Polygon","coordinates":[[[11.130031969898724,46.9853346],[11.130023484811838,46.98534857444232],[11.130003,46.985354362845854],[11.129982515188162,46.98534857444232],[11.129974030101277,46.9853346],[11.129982515188162,46.985320625557684],[11.130003,46.98531483715415],[11.130023484811838,46.985320625557684],[11.130031969898724,46.9853346]]]}},{"type":"Feature","id":"pylon-stubai-glacier-28","properties":{"kind":"pylon","name":"Lift tower","height":13},"geometry":{"type":"Polygon","coordinates":[[[11.113974869979362,46.9854834],[11.113966384868858,46.98549737444232],[11.1139459,46.98550316284585],[11.11392541513114,46.98549737444232],[11.113916930020636,46.9854834],[11.11392541513114,46.98546942555768],[11.1139459,46.98546363715415],[11.113966384868858,46.98546942555768],[11.113974869979362,46.9854834]]]}},{"type":"Feature","id":"pylon-stubai-glacier-29","properties":{"kind":"pylon","name":"Lift tower","height":13},"geometry":{"type":"Polygon","coordinates":[[[11.113065370154953,46.9858074],[11.11305688499302,46.98582137444232],[11.1130364,46.98582716284585],[11.113015915006981,46.98582137444232],[11.113007429845048,46.9858074],[11.113015915006981,46.98579342555768],[11.1130364,46.98578763715415],[11.11305688499302,46.98579342555768],[11.113065370154953,46.9858074]]]}},{"type":"Feature","id":"pylon-stubai-glacier-30","properties":{"kind":"pylon","name":"Lift tower","height":13},"geometry":{"type":"Polygon","coordinates":[[[11.113631570711602,46.9868345],[11.11362308538663,46.98684847444232],[11.1136026,46.98685426284585],[11.11358211461337,46.98684847444232],[11.113573629288398,46.9868345],[11.11358211461337,46.98682052555768],[11.1136026,46.98681473715415],[11.11362308538663,46.98682052555768],[11.113631570711602,46.9868345]]]}},{"type":"Feature","id":"pylon-stubai-glacier-31","properties":{"kind":"pylon","name":"Lift tower","height":13},"geometry":{"type":"Polygon","coordinates":[[[11.130526571024653,46.9874121],[11.13051808560799,46.98742607444232],[11.1304976,46.98743186284585],[11.13047711439201,46.98742607444232],[11.130468628975347,46.9874121],[11.13047711439201,46.98739812555768],[11.1304976,46.98739233715415],[11.13051808560799,46.98739812555768],[11.130526571024653,46.9874121]]]}},{"type":"Feature","id":"pylon-stubai-glacier-32","properties":{"kind":"pylon","name":"Lift tower","height":13},"geometry":{"type":"Polygon","coordinates":[[[11.114351971419936,46.9881414],[11.114343485887497,46.98815537444232],[11.114323,46.988161162845856],[11.114302514112504,46.98815537444232],[11.114294028580066,46.9881414],[11.114302514112504,46.988127425557686],[11.114323,46.98812163715415],[11.114343485887497,46.988127425557686],[11.114351971419936,46.9881414]]]}},{"type":"Feature","id":"pylon-stubai-glacier-33","properties":{"kind":"pylon","name":"Lift tower","height":13},"geometry":{"type":"Polygon","coordinates":[[[11.115252172305086,46.9897744],[11.115243686513393,46.98978837444232],[11.1152232,46.989794162845854],[11.115202713486608,46.98978837444232],[11.115194227694916,46.9897744],[11.115202713486608,46.989760425557684],[11.1152232,46.98975463715415],[11.115243686513393,46.989760425557684],[11.115252172305086,46.9897744]]]}},{"type":"Feature","id":"pylon-stubai-glacier-34","properties":{"kind":"pylon","name":"Lift tower","height":13},"geometry":{"type":"Polygon","coordinates":[[[11.1159775730183,46.9910901],[11.115969087017712,46.99110407444232],[11.1159486,46.99110986284585],[11.115928112982287,46.99110407444232],[11.115919626981698,46.9910901],[11.115928112982287,46.99107612555768],[11.1159486,46.99107033715415],[11.115969087017712,46.99107612555768],[11.1159775730183,46.9910901]]]}},{"type":"Feature","id":"pylon-stubai-glacier-35","properties":{"kind":"pylon","name":"Lift tower","height":13},"geometry":{"type":"Polygon","coordinates":[[[11.116642773672421,46.9922967],[11.116634287480244,46.992310674442315],[11.1166138,46.99231646284585],[11.116593312519756,46.992310674442315],[11.116584826327578,46.9922967],[11.116593312519756,46.99228272555768],[11.1166138,46.992276937154145],[11.116634287480244,46.99228272555768],[11.116642773672421,46.9922967]]]}},{"type":"Feature","id":"pylon-stubai-glacier-36","properties":{"kind":"pylon","name":"Lift tower","height":13},"geometry":{"type":"Polygon","coordinates":[[[11.116806473833382,46.9925936],[11.116797987594062,46.99260757444232],[11.1167775,46.99261336284585],[11.116757012405937,46.99260757444232],[11.116748526166617,46.9925936],[11.116757012405937,46.99257962555768],[11.1167775,46.99257383715415],[11.116797987594062,46.99257962555768],[11.116806473833382,46.9925936]]]}},{"type":"Feature","id":"pylon-stubai-glacier-37","properties":{"kind":"pylon","name":"Lift tower","height":13},"geometry":{"type":"Polygon","coordinates":[[[11.11752037453543,46.9938885],[11.117511888090485,46.993902474442315],[11.1174914,46.99390826284585],[11.117470911909516,46.993902474442315],[11.117462425464572,46.9938885],[11.117470911909516,46.99387452555768],[11.1174914,46.993868737154145],[11.117511888090485,46.99387452555768],[11.11752037453543,46.9938885]]]}},{"type":"Feature","id":"pylon-stubai-glacier-38","properties":{"kind":"pylon","name":"Lift tower","height":13},"geometry":{"type":"Polygon","coordinates":[[[11.118098875104248,46.9949376],[11.1180903884927,46.99495157444232],[11.1180699,46.99495736284585],[11.1180494115073,46.99495157444232],[11.118040924895752,46.9949376],[11.1180494115073,46.99492362555768],[11.1180699,46.99491783715415],[11.1180903884927,46.99492362555768],[11.118098875104248,46.9949376]]]}},{"type":"Feature","id":"pylon-stubai-glacier-39","properties":{"kind":"pylon","name":"Lift tower","height":13},"geometry":{"type":"Polygon","coordinates":[[[11.121659076541865,46.9975888],[11.12165058950925,46.99760277444232],[11.1216301,46.997608562845855],[11.121609610490752,46.99760277444232],[11.121601123458136,46.9975888],[11.121609610490752,46.997574825557685],[11.1216301,46.99756903715415],[11.12165058950925,46.997574825557685],[11.121659076541865,46.9975888]]]}},{"type":"Feature","id":"pylon-stubai-glacier-40","properties":{"kind":"pylon","name":"Lift tower","height":13},"geometry":{"type":"Polygon","coordinates":[[[11.120176676611441,46.9977171],[11.120168189558447,46.99773107444232],[11.1201477,46.997736862845855],[11.120127210441554,46.99773107444232],[11.12011872338856,46.9977171],[11.120127210441554,46.997703125557685],[11.1201477,46.99769733715415],[11.120168189558447,46.997703125557685],[11.120176676611441,46.9977171]]]}},{"type":"Feature","id":"pylon-stubai-glacier-41","properties":{"kind":"pylon","name":"Lift tower","height":13},"geometry":{"type":"Polygon","coordinates":[[[11.11958487663926,46.9977684],[11.119576389578118,46.997782374442316],[11.1195559,46.99778816284585],[11.119535410421882,46.997782374442316],[11.11952692336074,46.9977684],[11.119535410421882,46.99775442555768],[11.1195559,46.997748637154146],[11.119576389578118,46.99775442555768],[11.11958487663926,46.9977684]]]}},{"type":"Feature","id":"pylon-stubai-glacier-42","properties":{"kind":"pylon","name":"Lift tower","height":13},"geometry":{"type":"Polygon","coordinates":[[[11.118194276704552,46.9978888],[11.118185789624285,46.997902774442316],[11.1181653,46.99790856284585],[11.118144810375714,46.997902774442316],[11.118136323295447,46.9978888],[11.118144810375714,46.99787482555768],[11.1181653,46.997869037154146],[11.118185789624285,46.99787482555768],[11.118194276704552,46.9978888]]]}},{"type":"Feature","id":"pylon-stubai-glacier-43","properties":{"kind":"pylon","name":"Lift tower","height":13},"geometry":{"type":"Polygon","coordinates":[[[11.11709437675618,46.997984],[11.11708588966079,46.99799797444232],[11.1170654,46.998003762845855],[11.117044910339208,46.99799797444232],[11.11703642324382,46.997984],[11.117044910339208,46.997970025557684],[11.1170654,46.99796423715415],[11.11708588966079,46.997970025557684],[11.11709437675618,46.997984]]]}},{"type":"Feature","id":"pylon-stubai-glacier-44","properties":{"kind":"pylon","name":"Lift tower","height":13},"geometry":{"type":"Polygon","coordinates":[[[11.130818771689809,46.9886393],[11.130810286078326,46.98865327444232],[11.1307898,46.988659062845855],[11.130769313921675,46.98865327444232],[11.130760828310192,46.9886393],[11.130769313921675,46.988625325557685],[11.1307898,46.98861953715415],[11.130810286078326,46.988625325557685],[11.130818771689809,46.9886393]]]}},{"type":"Feature","id":"pylon-stubai-glacier-45","properties":{"kind":"pylon","name":"Lift tower","height":13},"geometry":{"type":"Polygon","coordinates":[[[11.143628477305167,46.9989963],[11.143619990048984,46.99901027444232],[11.1435995,46.999016062845854],[11.143579009951017,46.99901027444232],[11.143570522694834,46.9989963],[11.143579009951017,46.998982325557684],[11.1435995,46.99897653715415],[11.143619990048984,46.998982325557684],[11.143628477305167,46.9989963]]]}},{"type":"Feature","id":"pylon-stubai-glacier-46","properties":{"kind":"pylon","name":"Lift tower","height":13},"geometry":{"type":"Polygon","coordinates":[[[11.156128382515218,47.0086006],[11.156119893733047,47.00861457444232],[11.1560994,47.00862036284585],[11.156078906266954,47.00861457444232],[11.156070417484782,47.0086006],[11.156078906266954,47.00858662555768],[11.1560994,47.00858083715415],[11.156119893733047,47.00858662555768],[11.156128382515218,47.0086006]]]}},{"type":"Feature","id":"pylon-stubai-glacier-47","properties":{"kind":"pylon","name":"Lift tower","height":13},"geometry":{"type":"Polygon","coordinates":[[[11.092060972614986,46.9903461],[11.092052486732525,46.990360074442314],[11.092032,46.99036586284585],[11.092011513267474,46.990360074442314],[11.092003027385013,46.9903461],[11.092011513267474,46.99033212555768],[11.092032,46.990326337154144],[11.092052486732525,46.99033212555768],[11.092060972614986,46.9903461]]]}},{"type":"Feature","id":"pylon-stubai-glacier-48","properties":{"kind":"pylon","name":"Lift tower","height":13},"geometry":{"type":"Polygon","coordinates":[[[11.093297272749911,46.990595],[11.093288786827932,46.99060897444232],[11.0932683,46.99061476284585],[11.093247813172068,46.99060897444232],[11.093239327250089,46.990595],[11.093247813172068,46.99058102555768],[11.0932683,46.99057523715415],[11.093288786827932,46.99058102555768],[11.093297272749911,46.990595]]]}},{"type":"Feature","id":"pylon-stubai-glacier-49","properties":{"kind":"pylon","name":"Lift tower","height":13},"geometry":{"type":"Polygon","coordinates":[[[11.094521272883481,46.9908414],[11.094512786922381,46.99085537444232],[11.0944923,46.99086116284585],[11.09447181307762,46.99085537444232],[11.09446332711652,46.9908414],[11.09447181307762,46.99082742555768],[11.0944923,46.99082163715415],[11.094512786922381,46.99082742555768],[11.094521272883481,46.9908414]]]}},{"type":"Feature","id":"pylon-stubai-glacier-50","properties":{"kind":"pylon","name":"Lift tower","height":13},"geometry":{"type":"Polygon","coordinates":[[[11.096088473054515,46.9911569],[11.09607998704332,46.99117087444232],[11.0960595,46.99117666284585],[11.096039012956682,46.99117087444232],[11.096030526945487,46.9911569],[11.096039012956682,46.99114292555768],[11.0960595,46.99113713715415],[11.09607998704332,46.99114292555768],[11.096088473054515,46.9911569]]]}},{"type":"Feature","id":"pylon-stubai-glacier-51","properties":{"kind":"pylon","name":"Lift tower","height":13},"geometry":{"type":"Polygon","coordinates":[[[11.097489773207442,46.991439],[11.097481287151455,46.99145297444232],[11.0974608,46.99145876284585],[11.097440312848546,46.99145297444232],[11.097431826792558,46.991439],[11.097440312848546,46.99142502555768],[11.0974608,46.99141923715415],[11.097481287151455,46.99142502555768],[11.097489773207442,46.991439]]]}},{"type":"Feature","id":"pylon-stubai-glacier-52","properties":{"kind":"pylon","name":"Lift tower","height":13},"geometry":{"type":"Polygon","coordinates":[[[11.098458373313154,46.991634],[11.098449887226206,46.991647974442316],[11.0984294,46.99165376284585],[11.098408912773795,46.991647974442316],[11.098400426686847,46.991634],[11.098408912773795,46.99162002555768],[11.0984294,46.991614237154145],[11.098449887226206,46.99162002555768],[11.098458373313154,46.991634]]]}},{"type":"Feature","id":"pylon-stubai-glacier-53","properties":{"kind":"pylon","name":"Lift tower","height":13},"geometry":{"type":"Polygon","coordinates":[[[11.099476173424234,46.9918389],[11.09946768730475,46.991852874442316],[11.0994472,46.99185866284585],[11.09942671269525,46.991852874442316],[11.099418226575766,46.9918389],[11.09942671269525,46.99182492555768],[11.0994472,46.991819137154145],[11.09946768730475,46.99182492555768],[11.099476173424234,46.9918389]]]}},{"type":"Feature","id":"pylon-stubai-glacier-54","properties":{"kind":"pylon","name":"Lift tower","height":13},"geometry":{"type":"Polygon","coordinates":[[[11.100480873533906,46.9920412],[11.1004723873823,46.99205517444232],[11.1004519,46.992060962845855],[11.100431412617699,46.99205517444232],[11.100422926466093,46.9920412],[11.100431412617699,46.992027225557685],[11.1004519,46.99202143715415],[11.1004723873823,46.992027225557685],[11.100480873533906,46.9920412]]]}},{"type":"Feature","id":"pylon-stubai-glacier-55","properties":{"kind":"pylon","name":"Lift tower","height":13},"geometry":{"type":"Polygon","coordinates":[[[11.101040373594952,46.9921538],[11.101031887425465,46.992167774442315],[11.1010114,46.99217356284585],[11.100990912574536,46.992167774442315],[11.10098242640505,46.9921538],[11.100990912574536,46.99213982555768],[11.1010114,46.992134037154145],[11.101031887425465,46.99213982555768],[11.101040373594952,46.9921538]]]}},{"type":"Feature","id":"pylon-stubai-glacier-56","properties":{"kind":"pylon","name":"Lift tower","height":13},"geometry":{"type":"Polygon","coordinates":[[[11.103213974473459,46.9937742],[11.103205488046664,46.993788174442315],[11.103185,46.99379396284585],[11.103164511953336,46.993788174442315],[11.103156025526541,46.9937742],[11.103164511953336,46.99376022555768],[11.103185,46.993754437154145],[11.103205488046664,46.99376022555768],[11.103213974473459,46.9937742]]]}},{"type":"Feature","id":"pylon-stubai-glacier-57","properties":{"kind":"pylon","name":"Lift tower","height":13},"geometry":{"type":"Polygon","coordinates":[[[11.11553977755117,46.9994499],[11.115531290222934,46.99946387444232],[11.1155108,46.999469662845854],[11.115490309777064,46.99946387444232],[11.115481822448828,46.9994499],[11.115490309777064,46.999435925557684],[11.1155108,46.99943013715415],[11.115531290222934,46.999435925557684],[11.11553977755117,46.9994499]]]}},{"type":"Feature","id":"pylon-stubai-glacier-58","properties":{"kind":"pylon","name":"Lift tower","height":13},"geometry":{"type":"Polygon","coordinates":[[[11.114670277627045,46.9995898],[11.114661790276587,46.99960377444232],[11.1146413,46.999609562845855],[11.114620809723414,46.99960377444232],[11.114612322372956,46.9995898],[11.114620809723414,46.999575825557685],[11.1146413,46.99957003715415],[11.114661790276587,46.999575825557685],[11.114670277627045,46.9995898]]]}},{"type":"Feature","id":"pylon-stubai-glacier-59","properties":{"kind":"pylon","name":"Lift tower","height":13},"geometry":{"type":"Polygon","coordinates":[[[11.112577877809548,46.9999263],[11.112569390405634,46.99994027444232],[11.1125489,46.99994606284585],[11.112528409594367,46.99994027444232],[11.112519922190453,46.9999263],[11.112528409594367,46.99991232555768],[11.1125489,46.999906537154146],[11.112569390405634,46.99991232555768],[11.112577877809548,46.9999263]]]}},{"type":"Feature","id":"pylon-stubai-glacier-60","properties":{"kind":"pylon","name":"Lift tower","height":13},"geometry":{"type":"Polygon","coordinates":[[[11.110704777972906,47.0002275],[11.110696290521146,47.00024147444232],[11.1106758,47.00024726284585],[11.110655309478853,47.00024147444232],[11.110646822027093,47.0002275],[11.110655309478853,47.00021352555768],[11.1106758,47.00020773715415],[11.110696290521146,47.00021352555768],[11.110704777972906,47.0002275]]]}},{"type":"Feature","id":"pylon-stubai-glacier-61","properties":{"kind":"pylon","name":"Lift tower","height":13},"geometry":{"type":"Polygon","coordinates":[[[11.10885817813399,47.0005245],[11.10884969063505,47.000538474442315],[11.1088292,47.00054426284585],[11.10880870936495,47.000538474442315],[11.10880022186601,47.0005245],[11.10880870936495,47.00051052555768],[11.1088292,47.000504737154145],[11.10884969063505,47.00051052555768],[11.10885817813399,47.0005245]]]}},{"type":"Feature","id":"pylon-stubai-glacier-62","properties":{"kind":"pylon","name":"Lift tower","height":13},"geometry":{"type":"Polygon","coordinates":[[[11.106701778322089,47.0008713],[11.106693290768057,47.00088527444232],[11.1066728,47.00089106284585],[11.106652309231944,47.00088527444232],[11.106643821677912,47.0008713],[11.106652309231944,47.00085732555768],[11.1066728,47.00085153715415],[11.106693290768057,47.00085732555768],[11.106701778322089,47.0008713]]]}},{"type":"Feature","id":"pylon-stubai-glacier-63","properties":{"kind":"pylon","name":"Lift tower","height":13},"geometry":{"type":"Polygon","coordinates":[[[11.10619697836613,47.0009525],[11.106188490799198,47.000966474442315],[11.106168,47.00097226284585],[11.106147509200802,47.000966474442315],[11.10613902163387,47.0009525],[11.106147509200802,47.00093852555768],[11.106168,47.000932737154145],[11.106188490799198,47.00093852555768],[11.10619697836613,47.0009525]]]}},{"type":"Feature","id":"pylon-stubai-glacier-64","properties":{"kind":"pylon","name":"Lift tower","height":13},"geometry":{"type":"Polygon","coordinates":[[[11.101404778784103,47.0017231],[11.10139629109475,47.00173707444232],[11.1013758,47.00174286284585],[11.10135530890525,47.00173707444232],[11.101346821215897,47.0017231],[11.10135530890525,47.00170912555768],[11.1013758,47.00170333715415],[11.10139629109475,47.00170912555768],[11.101404778784103,47.0017231]]]}},{"type":"Feature","id":"pylon-stubai-glacier-65","properties":{"kind":"pylon","name":"Lift tower","height":13},"geometry":{"type":"Polygon","coordinates":[[[11.104515878512737,47.0012228],[11.104507390902866,47.00123677444232],[11.1044869,47.00124256284585],[11.104466409097133,47.00123677444232],[11.104457921487262,47.0012228],[11.104466409097133,47.00120882555768],[11.1044869,47.00120303715415],[11.104507390902866,47.00120882555768],[11.104515878512737,47.0012228]]]}},{"type":"Feature","id":"pylon-stubai-glacier-66","properties":{"kind":"pylon","name":"Lift tower","height":13},"geometry":{"type":"Polygon","coordinates":[[[11.103437178606844,47.0013963],[11.103428690969409,47.00141027444232],[11.1034082,47.001416062845855],[11.103387709030592,47.00141027444232],[11.103379221393157,47.0013963],[11.103387709030592,47.001382325557685],[11.1034082,47.00137653715415],[11.103428690969409,47.001382325557685],[11.103437178606844,47.0013963]]]}},{"type":"Feature","id":"pylon-stubai-glacier-67","properties":{"kind":"pylon","name":"Lift tower","height":13},"geometry":{"type":"Polygon","coordinates":[[[11.114431370637893,46.9866985],[11.114422885334509,46.98671247444232],[11.1144024,46.986718262845855],[11.11438191466549,46.98671247444232],[11.114373429362105,46.9866985],[11.11438191466549,46.986684525557685],[11.1144024,46.98667873715415],[11.114422885334509,46.986684525557685],[11.114431370637893,46.9866985]]]}},{"type":"Feature","id":"pylon-stubai-glacier-68","properties":{"kind":"pylon","name":"Lift tower","height":13},"geometry":{"type":"Polygon","coordinates":[[[11.12077136239677,46.9714865],[11.120762879507154,46.971500474442315],[11.1207424,46.97150626284585],[11.120721920492844,46.971500474442315],[11.120713437603229,46.9714865],[11.120721920492844,46.97147252555768],[11.1207424,46.971466737154145],[11.120762879507154,46.97147252555768],[11.12077136239677,46.9714865]]]}},{"type":"Feature","id":"pylon-stubai-glacier-69","properties":{"kind":"pylon","name":"Lift tower","height":13},"geometry":{"type":"Polygon","coordinates":[[[11.121415662272762,46.9712575],[11.121407179419467,46.97127147444232],[11.1213867,46.97127726284585],[11.121366220580533,46.97127147444232],[11.121357737727239,46.9712575],[11.121366220580533,46.97124352555768],[11.1213867,46.97123773715415],[11.121407179419467,46.97124352555768],[11.121415662272762,46.9712575]]]}},{"type":"Feature","id":"pylon-stubai-glacier-70","properties":{"kind":"pylon","name":"Lift tower","height":13},"geometry":{"type":"Polygon","coordinates":[[[11.119438462653351,46.9719603],[11.119429979688585,46.97197427444232],[11.1194095,46.97198006284585],[11.119389020311415,46.97197427444232],[11.119380537346649,46.9719603],[11.119389020311415,46.97194632555768],[11.1194095,46.97194053715415],[11.119429979688585,46.97194632555768],[11.119438462653351,46.9719603]]]}},{"type":"Feature","id":"pylon-stubai-glacier-71","properties":{"kind":"pylon","name":"Lift tower","height":13},"geometry":{"type":"Polygon","coordinates":[[[11.118302862871975,46.972364],[11.118294379843176,46.97237797444232],[11.1182739,46.97238376284585],[11.118253420156824,46.97237797444232],[11.118244937128026,46.972364],[11.118253420156824,46.97235002555768],[11.1182739,46.97234423715415],[11.118294379843176,46.97235002555768],[11.118302862871975,46.972364]]]}},{"type":"Feature","id":"pylon-stubai-glacier-72","properties":{"kind":"pylon","name":"Lift tower","height":13},"geometry":{"type":"Polygon","coordinates":[[[11.11674926317108,46.9729163],[11.116740780054677,46.97293027444232],[11.1167203,46.972936062845854],[11.116699819945325,46.97293027444232],[11.116691336828922,46.9729163],[11.116699819945325,46.97290232555768],[11.1167203,46.97289653715415],[11.116740780054677,46.97290232555768],[11.11674926317108,46.9729163]]]}},{"type":"Feature","id":"pylon-stubai-glacier-73","properties":{"kind":"pylon","name":"Lift tower","height":13},"geometry":{"type":"Polygon","coordinates":[[[11.115593263393615,46.9733272],[11.115584780212032,46.97334117444232],[11.1155643,46.97334696284585],[11.11554381978797,46.97334117444232],[11.115535336606387,46.9733272],[11.11554381978797,46.97331322555768],[11.1155643,46.97330743715415],[11.115584780212032,46.97331322555768],[11.115593263393615,46.9733272]]]}},{"type":"Feature","id":"pylon-stubai-glacier-74","properties":{"kind":"pylon","name":"Lift tower","height":13},"geometry":{"type":"Polygon","coordinates":[[[11.114309763618591,46.9737426],[11.114301280371112,46.97375657444232],[11.1142808,46.973762362845854],[11.114260319628887,46.97375657444232],[11.114251836381408,46.9737426],[11.114260319628887,46.97372862555768],[11.1142808,46.97372283715415],[11.114301280371112,46.97372862555768],[11.114309763618591,46.9737426]]]}},{"type":"Feature","id":"pylon-stubai-glacier-75","properties":{"kind":"pylon","name":"Lift tower","height":13},"geometry":{"type":"Polygon","coordinates":[[[11.112332264021385,46.9744863],[11.112323780655931,46.97450027444232],[11.1123033,46.974506062845855],[11.11228281934407,46.97450027444232],[11.112274335978617,46.9744863],[11.11228281934407,46.974472325557684],[11.1123033,46.97446653715415],[11.112323780655931,46.974472325557684],[11.112332264021385,46.9744863]]]}},{"type":"Feature","id":"pylon-stubai-glacier-76","properties":{"kind":"pylon","name":"Lift tower","height":13},"geometry":{"type":"Polygon","coordinates":[[[11.111028864272317,46.9749496],[11.111020380833368,46.97496357444232],[11.1109999,46.974969362845854],[11.11097941916663,46.97496357444232],[11.110970935727682,46.9749496],[11.11097941916663,46.974935625557684],[11.1109999,46.97492983715415],[11.111020380833368,46.974935625557684],[11.111028864272317,46.9749496]]]}},{"type":"Feature","id":"pylon-stubai-glacier-77","properties":{"kind":"pylon","name":"Lift tower","height":13},"geometry":{"type":"Polygon","coordinates":[[[11.109682264531546,46.9754282],[11.109673781016669,46.97544217444232],[11.1096533,46.975447962845855],[11.10963281898333,46.97544217444232],[11.109624335468453,46.9754282],[11.10963281898333,46.975414225557685],[11.1096533,46.97540843715415],[11.109673781016669,46.975414225557685],[11.109682264531546,46.9754282]]]}},{"type":"Feature","id":"pylon-stubai-glacier-78","properties":{"kind":"pylon","name":"Lift tower","height":13},"geometry":{"type":"Polygon","coordinates":[[[11.10880126470119,46.9757414],[11.108792781136627,46.975755374442315],[11.1087723,46.97576116284585],[11.108751818863373,46.975755374442315],[11.10874333529881,46.9757414],[11.108751818863373,46.97572742555768],[11.1087723,46.975721637154145],[11.108792781136627,46.97572742555768],[11.10880126470119,46.9757414]]]}},{"type":"Feature","id":"pylon-stubai-glacier-79","properties":{"kind":"pylon","name":"Lift tower","height":13},"geometry":{"type":"Polygon","coordinates":[[[11.122539475518616,46.9957018],[11.122530988785702,46.99571577444232],[11.1225105,46.99572156284585],[11.1224900112143,46.99571577444232],[11.122481524481385,46.9957018],[11.1224900112143,46.99568782555768],[11.1225105,46.99568203715415],[11.122530988785702,46.99568782555768],[11.122539475518616,46.9957018]]]}},{"type":"Feature","id":"pylon-stubai-glacier-80","properties":{"kind":"pylon","name":"Lift tower","height":13},"geometry":{"type":"Polygon","coordinates":[[[11.122882975688066,46.9960143],[11.122874488905522,46.99602827444232],[11.122854,46.99603406284585],[11.122833511094479,46.99602827444232],[11.122825024311934,46.9960143],[11.122833511094479,46.99600032555768],[11.122854,46.99599453715415],[11.122874488905522,46.99600032555768],[11.122882975688066,46.9960143]]]}},{"type":"Feature","id":"pylon-stubai-glacier-81","properties":{"kind":"pylon","name":"Lift tower","height":13},"geometry":{"type":"Polygon","coordinates":[[[11.12379457613776,46.9968436],[11.123786089223502,46.996857574442316],[11.1237656,46.99686336284585],[11.123745110776499,46.996857574442316],[11.123736623862241,46.9968436],[11.123745110776499,46.99682962555768],[11.1237656,46.996823837154146],[11.123786089223502,46.99682962555768],[11.12379457613776,46.9968436]]]}},{"type":"Feature","id":"pylon-stubai-glacier-82","properties":{"kind":"pylon","name":"Lift tower","height":13},"geometry":{"type":"Polygon","coordinates":[[[11.124082076279617,46.9971052],[11.12407358932381,46.99711917444232],[11.1240531,46.99712496284585],[11.124032610676188,46.99711917444232],[11.124024123720382,46.9971052],[11.124032610676188,46.99709122555768],[11.1240531,46.99708543715415],[11.12407358932381,46.99709122555768],[11.124082076279617,46.9971052]]]}},{"type":"Feature","id":"pylon-stubai-glacier-83","properties":{"kind":"pylon","name":"Lift tower","height":13},"geometry":{"type":"Polygon","coordinates":[[[11.12270887649257,46.9974979],[11.12270038947439,46.99751187444232],[11.1226799,46.99751766284585],[11.122659410525609,46.99751187444232],[11.122650923507429,46.9974979],[11.122659410525609,46.99748392555768],[11.1226799,46.99747813715415],[11.12270038947439,46.99748392555768],[11.12270887649257,46.9974979]]]}},{"type":"Feature","id":"pylon-stubai-glacier-84","properties":{"kind":"pylon","name":"Lift tower","height":13},"geometry":{"type":"Polygon","coordinates":[[[11.122166776518005,46.9975448],[11.122158289492377,46.99755877444232],[11.1221378,46.99756456284585],[11.122117310507624,46.99755877444232],[11.122108823481996,46.9975448],[11.122117310507624,46.99753082555768],[11.1221378,46.99752503715415],[11.122158289492377,46.99753082555768],[11.122166776518005,46.9975448]]]}},{"type":"Feature","id":"pylon-stubai-glacier-85","properties":{"kind":"pylon","name":"Lift tower","height":13},"geometry":{"type":"Polygon","coordinates":[[[11.118596375593498,46.9958399],[11.118587888838652,46.99585387444232],[11.1185674,46.99585966284585],[11.118546911161348,46.99585387444232],[11.118538424406502,46.9958399],[11.118546911161348,46.99582592555768],[11.1185674,46.99582013715415],[11.118587888838652,46.99582592555768],[11.118596375593498,46.9958399]]]}},{"type":"Feature","id":"pylon-stubai-glacier-86","properties":{"kind":"pylon","name":"Lift tower","height":13},"geometry":{"type":"Polygon","coordinates":[[[11.107266371118094,46.9875845],[11.107257885674063,46.987598474442315],[11.1072374,46.98760426284585],[11.107216914325939,46.987598474442315],[11.107208428881908,46.9875845],[11.107216914325939,46.98757052555768],[11.1072374,46.987564737154145],[11.107257885674063,46.98757052555768],[11.107266371118094,46.9875845]]]}},{"type":"Feature","id":"pylon-stubai-glacier-87","properties":{"kind":"pylon","name":"Lift tower","height":13},"geometry":{"type":"Polygon","coordinates":[[[11.108414671625415,46.9885205],[11.108406186032793,46.98853447444232],[11.1083857,46.98854026284585],[11.108365213967206,46.98853447444232],[11.108356728374584,46.9885205],[11.108365213967206,46.98850652555768],[11.1083857,46.98850073715415],[11.108406186032793,46.98850652555768],[11.108414671625415,46.9885205]]]}},{"type":"Feature","id":"pylon-stubai-glacier-88","properties":{"kind":"pylon","name":"Lift tower","height":13},"geometry":{"type":"Polygon","coordinates":[[[11.108659271733442,46.9887198],[11.108650786109179,46.988733774442316],[11.1086303,46.98873956284585],[11.108609813890821,46.988733774442316],[11.108601328266557,46.9887198],[11.108609813890821,46.98870582555768],[11.1086303,46.988700037154146],[11.108650786109179,46.98870582555768],[11.108659271733442,46.9887198]]]}},{"type":"Feature","id":"pylon-stubai-glacier-89","properties":{"kind":"pylon","name":"Lift tower","height":13},"geometry":{"type":"Polygon","coordinates":[[[11.108927671852038,46.9889386],[11.10891918619304,46.988952574442315],[11.1088987,46.98895836284585],[11.108878213806959,46.988952574442315],[11.10886972814796,46.9889386],[11.108878213806959,46.98892462555768],[11.1088987,46.988918837154145],[11.10891918619304,46.98892462555768],[11.108927671852038,46.9889386]]]}},{"type":"Feature","id":"pylon-stubai-glacier-90","properties":{"kind":"pylon","name":"Lift tower","height":13},"geometry":{"type":"Polygon","coordinates":[[[11.110347972479577,46.9900963],[11.110339486636777,46.990110274442316],[11.110319,46.99011606284585],[11.110298513363224,46.990110274442316],[11.110290027520424,46.9900963],[11.110298513363224,46.99008232555768],[11.110319,46.990076537154145],[11.110339486636777,46.99008232555768],[11.110347972479577,46.9900963]]]}},{"type":"Feature","id":"pylon-stubai-glacier-91","properties":{"kind":"pylon","name":"Lift tower","height":13},"geometry":{"type":"Polygon","coordinates":[[[11.111366672929668,46.9909266],[11.111358186955039,46.99094057444232],[11.1113377,46.990946362845854],[11.111317213044961,46.99094057444232],[11.111308727070332,46.9909266],[11.111317213044961,46.990912625557684],[11.1113377,46.99090683715415],[11.111358186955039,46.990912625557684],[11.111366672929668,46.9909266]]]}},{"type":"Feature","id":"pylon-stubai-glacier-92","properties":{"kind":"pylon","name":"Lift tower","height":13},"geometry":{"type":"Polygon","coordinates":[[[11.112904973609316,46.9921803],[11.112896487435624,46.99219427444232],[11.112876,46.99220006284585],[11.112855512564376,46.99219427444232],[11.112847026390684,46.9921803],[11.112855512564376,46.99216632555768],[11.112876,46.99216053715415],[11.112896487435624,46.99216632555768],[11.112904973609316,46.9921803]]]}},{"type":"Feature","id":"pylon-stubai-glacier-93","properties":{"kind":"pylon","name":"Lift tower","height":13},"geometry":{"type":"Polygon","coordinates":[[[11.114196074179873,46.9932327],[11.114187587839067,46.99324667444232],[11.1141671,46.99325246284585],[11.114146612160932,46.99324667444232],[11.114138125820126,46.9932327],[11.114146612160932,46.99321872555768],[11.1141671,46.99321293715415],[11.114187587839067,46.99321872555768],[11.114196074179873,46.9932327]]]}},{"type":"Feature","id":"pylon-stubai-glacier-94","properties":{"kind":"pylon","name":"Lift tower","height":13},"geometry":{"type":"Polygon","coordinates":[[[11.11526817465357,46.9941064],[11.115259688174023,46.99412037444232],[11.1152392,46.99412616284585],[11.115218711825976,46.99412037444232],[11.115210225346429,46.9941064],[11.115218711825976,46.99409242555768],[11.1152392,46.99408663715415],[11.115259688174023,46.99409242555768],[11.11526817465357,46.9941064]]]}},{"type":"Feature","id":"pylon-stubai-glacier-95","properties":{"kind":"pylon","name":"Lift tower","height":13},"geometry":{"type":"Polygon","coordinates":[[[11.116507275201089,46.9951162],[11.116498788561177,46.995130174442316],[11.1164783,46.99513596284585],[11.116457811438824,46.995130174442316],[11.116449324798912,46.9951162],[11.116457811438824,46.99510222555768],[11.1164783,46.995096437154146],[11.116498788561177,46.99510222555768],[11.116507275201089,46.9951162]]]}},{"type":"Feature","id":"pylon-stubai-glacier-96","properties":{"kind":"pylon","name":"Lift tower","height":13},"geometry":{"type":"Polygon","coordinates":[[[11.117770575759371,46.9961458],[11.117762088955942,46.99615977444232],[11.1177416,46.99616556284585],[11.117721111044059,46.99615977444232],[11.11771262424063,46.9961458],[11.117721111044059,46.99613182555768],[11.1177416,46.99612603715415],[11.117762088955942,46.99613182555768],[11.117770575759371,46.9961458]]]}},{"type":"Feature","id":"pylon-stubai-glacier-97","properties":{"kind":"pylon","name":"Lift tower","height":13},"geometry":{"type":"Polygon","coordinates":[[[11.117535375655477,46.9959542],[11.117526888882477,46.99596817444232],[11.1175064,46.99597396284585],[11.117485911117523,46.99596817444232],[11.117477424344523,46.9959542],[11.117485911117523,46.99594022555768],[11.1175064,46.99593443715415],[11.117526888882477,46.99594022555768],[11.117535375655477,46.9959542]]]}},{"type":"Feature","id":"pylon-stubai-glacier-98","properties":{"kind":"pylon","name":"Lift tower","height":13},"geometry":{"type":"Polygon","coordinates":[[[11.15846088348757,47.0103925],[11.158452394420602,47.01040647444232],[11.1584319,47.010412262845854],[11.158411405579399,47.01040647444232],[11.158402916512431,47.0103925],[11.158411405579399,47.010378525557684],[11.1584319,47.01037273715415],[11.158452394420602,47.010378525557684],[11.15846088348757,47.0103925]]]}},{"type":"Feature","id":"pylon-stubai-glacier-99","properties":{"kind":"pylon","name":"Lift tower","height":13},"geometry":{"type":"Polygon","coordinates":[[[11.14762617897129,47.0020682],[11.147617691227111,47.002082174442315],[11.1475972,47.00208796284585],[11.147576708772888,47.002082174442315],[11.14756822102871,47.0020682],[11.147576708772888,47.00205422555768],[11.1475972,47.002048437154144],[11.147617691227111,47.00205422555768],[11.14762617897129,47.0020682]]]}},{"type":"Feature","id":"pylon-stubai-glacier-100","properties":{"kind":"pylon","name":"Lift tower","height":13},"geometry":{"type":"Polygon","coordinates":[[[11.154666583547314,47.0105026],[11.15465809446285,47.01051657444232],[11.1546376,47.010522362845855],[11.154617105537149,47.01051657444232],[11.154608616452684,47.0105026],[11.154617105537149,47.010488625557684],[11.1546376,47.01048283715415],[11.15465809446285,47.010488625557684],[11.154666583547314,47.0105026]]]}},{"type":"Feature","id":"pylon-stubai-glacier-101","properties":{"kind":"pylon","name":"Lift tower","height":13},"geometry":{"type":"Polygon","coordinates":[[[11.151960082166054,47.0079571],[11.151951593486151,47.00797107444232],[11.1519311,47.00797686284585],[11.15191060651385,47.00797107444232],[11.151902117833947,47.0079571],[11.15191060651385,47.00794312555768],[11.1519311,47.00793733715415],[11.151951593486151,47.00794312555768],[11.151960082166054,47.0079571]]]}},{"type":"Feature","id":"pylon-stubai-glacier-102","properties":{"kind":"pylon","name":"Lift tower","height":13},"geometry":{"type":"Polygon","coordinates":[[[11.15381348311189,47.0097002],[11.153804994154958,47.009714174442315],[11.1537845,47.00971996284585],[11.153764005845042,47.009714174442315],[11.153755516888111,47.0097002],[11.153764005845042,47.00968622555768],[11.1537845,47.009680437154145],[11.153804994154958,47.00968622555768],[11.15381348311189,47.0097002]]]}},{"type":"Feature","id":"pylon-stubai-glacier-103","properties":{"kind":"pylon","name":"Lift tower","height":13},"geometry":{"type":"Polygon","coordinates":[[[11.150114581224267,47.0062213],[11.150106092820206,47.00623527444232],[11.1500856,47.00624106284585],[11.150065107179795,47.00623527444232],[11.150056618775734,47.0062213],[11.150065107179795,47.00620732555768],[11.1500856,47.00620153715415],[11.150106092820206,47.00620732555768],[11.150114581224267,47.0062213]]]}},{"type":"Feature","id":"pylon-stubai-glacier-104","properties":{"kind":"pylon","name":"Lift tower","height":13},"geometry":{"type":"Polygon","coordinates":[[[11.148452580376201,47.0046581],[11.148444092220533,47.00467207444232],[11.1484236,47.00467786284585],[11.148403107779465,47.00467207444232],[11.148394619623797,47.0046581],[11.148403107779465,47.00464412555768],[11.1484236,47.00463833715415],[11.148444092220533,47.00464412555768],[11.148452580376201,47.0046581]]]}},{"type":"Feature","id":"pylon-stubai-glacier-105","properties":{"kind":"pylon","name":"Lift tower","height":13},"geometry":{"type":"Polygon","coordinates":[[[11.14581577903074,47.0021778],[11.145807291269147,47.002191774442316],[11.1457868,47.00219756284585],[11.145766308730853,47.002191774442316],[11.14575782096926,47.0021778],[11.145766308730853,47.00216382555768],[11.1457868,47.002158037154146],[11.145807291269147,47.00216382555768],[11.14581577903074,47.0021778]]]}},{"type":"Feature","id":"pylon-stubai-glacier-106","properties":{"kind":"pylon","name":"Lift tower","height":13},"geometry":{"type":"Polygon","coordinates":[[[11.143285877740018,46.9997981],[11.14327739035647,46.99981207444232],[11.1432569,46.99981786284585],[11.143236409643531,46.99981207444232],[11.143227922259983,46.9997981],[11.143236409643531,46.99978412555768],[11.1432569,46.99977833715415],[11.14327739035647,46.99978412555768],[11.143285877740018,46.9997981]]]}},{"type":"Feature","id":"pylon-stubai-glacier-107","properties":{"kind":"pylon","name":"Lift tower","height":13},"geometry":{"type":"Polygon","coordinates":[[[11.142673277427463,46.9992218],[11.142664790135461,46.99923577444232],[11.1426443,46.99924156284585],[11.14262380986454,46.99923577444232],[11.142615322572539,46.9992218],[11.14262380986454,46.99920782555768],[11.1426443,46.99920203715415],[11.142664790135461,46.99920782555768],[11.142673277427463,46.9992218]]]}},{"type":"Feature","id":"pylon-stubai-glacier-108","properties":{"kind":"pylon","name":"Lift tower","height":13},"geometry":{"type":"Polygon","coordinates":[[[11.142632877406854,46.9991838],[11.142624390120886,46.999197774442315],[11.1426039,46.99920356284585],[11.142583409879112,46.999197774442315],[11.142574922593145,46.9991838],[11.142583409879112,46.99916982555768],[11.1426039,46.999164037154145],[11.142624390120886,46.99916982555768],[11.142632877406854,46.9991838]]]}},{"type":"Feature","id":"pylon-stubai-glacier-109","properties":{"kind":"pylon","name":"Lift tower","height":13},"geometry":{"type":"Polygon","coordinates":[[[11.142593977387058,46.9991473],[11.14258549010689,46.999161274442315],[11.142565,46.99916706284585],[11.142544509893108,46.999161274442315],[11.14253602261294,46.9991473],[11.142544509893108,46.99913332555768],[11.142565,46.999127537154145],[11.14258549010689,46.99913332555768],[11.142593977387058,46.9991473]]]}},{"type":"Feature","id":"pylon-stubai-glacier-110","properties":{"kind":"pylon","name":"Lift tower","height":13},"geometry":{"type":"Polygon","coordinates":[[[11.141077376613339,46.9977206],[11.141068889559788,46.99773457444232],[11.1410484,46.99774036284585],[11.141027910440213,46.99773457444232],[11.141019423386663,46.9977206],[11.141027910440213,46.99770662555768],[11.1410484,46.99770083715415],[11.141068889559788,46.99770662555768],[11.141077376613339,46.9977206]]]}},{"type":"Feature","id":"pylon-stubai-glacier-111","properties":{"kind":"pylon","name":"Lift tower","height":13},"geometry":{"type":"Polygon","coordinates":[[[11.131053772224698,46.9896261],[11.13104528645655,46.98964007444232],[11.1310248,46.989645862845855],[11.131004313543452,46.98964007444232],[11.130995827775303,46.9896261],[11.131004313543452,46.989612125557684],[11.1310248,46.98960633715415],[11.13104528645655,46.989612125557684],[11.131053772224698,46.9896261]]]}},{"type":"Feature","id":"pylon-stubai-glacier-112","properties":{"kind":"pylon","name":"Lift tower","height":13},"geometry":{"type":"Polygon","coordinates":[[[11.130635572519527,46.99017],[11.130627086665026,46.99018397444232],[11.1306066,46.99018976284585],[11.130586113334974,46.99018397444232],[11.130577627480474,46.99017],[11.130586113334974,46.99015602555768],[11.1306066,46.99015023715415],[11.130627086665026,46.99015602555768],[11.130635572519527,46.99017]]]}},{"type":"Feature","id":"pylon-stubai-glacier-113","properties":{"kind":"pylon","name":"Lift tower","height":13},"geometry":{"type":"Polygon","coordinates":[[[11.130993272695322,46.9904943],[11.130984786789332,46.99050827444232],[11.1309643,46.990514062845854],[11.130943813210669,46.99050827444232],[11.130935327304678,46.9904943],[11.130943813210669,46.990480325557684],[11.1309643,46.99047453715415],[11.130984786789332,46.990480325557684],[11.130993272695322,46.9904943]]]}},{"type":"Feature","id":"pylon-stubai-glacier-114","properties":{"kind":"pylon","name":"Lift tower","height":13},"geometry":{"type":"Polygon","coordinates":[[[11.131673273029469,46.9911107],[11.131664787025608,46.99112467444232],[11.1316443,46.99113046284585],[11.131623812974391,46.99112467444232],[11.13161532697053,46.9911107],[11.131623812974391,46.99109672555768],[11.1316443,46.99109093715415],[11.131664787025608,46.99109672555768],[11.131673273029469,46.9911107]]]}},{"type":"Feature","id":"pylon-stubai-glacier-115","properties":{"kind":"pylon","name":"Lift tower","height":13},"geometry":{"type":"Polygon","coordinates":[[[11.132523473447328,46.9918815],[11.13251498732108,46.991895474442316],[11.1324945,46.99190126284585],[11.13247401267892,46.991895474442316],[11.132465526552672,46.9918815],[11.13247401267892,46.99186752555768],[11.1324945,46.991861737154146],[11.13251498732108,46.99186752555768],[11.132523473447328,46.9918815]]]}},{"type":"Feature","id":"pylon-stubai-glacier-116","properties":{"kind":"pylon","name":"Lift tower","height":13},"geometry":{"type":"Polygon","coordinates":[[[11.133032773697629,46.9923432],[11.133024287498069,46.99235717444232],[11.1330038,46.99236296284585],[11.13298331250193,46.99235717444232],[11.13297482630237,46.9923432],[11.13298331250193,46.99232922555768],[11.1330038,46.99232343715415],[11.133024287498069,46.99232922555768],[11.133032773697629,46.9923432]]]}},{"type":"Feature","id":"pylon-stubai-glacier-117","properties":{"kind":"pylon","name":"Lift tower","height":13},"geometry":{"type":"Polygon","coordinates":[[[11.133829074089007,46.9930651],[11.133820587774816,46.99307907444232],[11.1338001,46.993084862845855],[11.133779612225185,46.99307907444232],[11.133771125910993,46.9930651],[11.133779612225185,46.993051125557685],[11.1338001,46.99304533715415],[11.133820587774816,46.993051125557685],[11.133829074089007,46.9930651]]]}},{"type":"Feature","id":"pylon-stubai-glacier-118","properties":{"kind":"pylon","name":"Lift tower","height":13},"geometry":{"type":"Polygon","coordinates":[[[11.135154174740267,46.9942663],[11.135145688235326,46.99428027444232],[11.1351252,46.99428606284585],[11.135104711764672,46.99428027444232],[11.135096225259732,46.9942663],[11.135104711764672,46.99425232555768],[11.1351252,46.99424653715415],[11.135145688235326,46.99425232555768],[11.135154174740267,46.9942663]]]}},{"type":"Feature","id":"pylon-stubai-glacier-119","properties":{"kind":"pylon","name":"Lift tower","height":13},"geometry":{"type":"Polygon","coordinates":[[[11.13539447506201,46.9948597],[11.135385988462833,46.99487367444232],[11.1353655,46.99487946284585],[11.135345011537169,46.99487367444232],[11.13533652493799,46.9948597],[11.135345011537169,46.99484572555768],[11.1353655,46.99483993715415],[11.135385988462833,46.99484572555768],[11.13539447506201,46.9948597]]]}},{"type":"Feature","id":"pylon-stubai-glacier-120","properties":{"kind":"pylon","name":"Lift tower","height":13},"geometry":{"type":"Polygon","coordinates":[[[11.136171375240236,46.9951884],[11.136162888588858,46.99520237444232],[11.1361424,46.995208162845856],[11.136121911411143,46.99520237444232],[11.136113424759765,46.9951884],[11.136121911411143,46.995174425557686],[11.1361424,46.99516863715415],[11.136162888588858,46.995174425557686],[11.136171375240236,46.9951884]]]}},{"type":"Feature","id":"pylon-stubai-glacier-121","properties":{"kind":"pylon","name":"Lift tower","height":13},"geometry":{"type":"Polygon","coordinates":[[[11.136845275571483,46.9957993],[11.136836788823084,46.99581327444232],[11.1368163,46.995819062845854],[11.136795811176915,46.99581327444232],[11.136787324428516,46.9957993],[11.136795811176915,46.995785325557684],[11.1368163,46.99577953715415],[11.136836788823084,46.995785325557684],[11.136845275571483,46.9957993]]]}},{"type":"Feature","id":"pylon-stubai-glacier-122","properties":{"kind":"pylon","name":"Lift tower","height":13},"geometry":{"type":"Polygon","coordinates":[[[11.137384775836642,46.9962883],[11.13737628901058,46.99630227444232],[11.1373558,46.996308062845856],[11.13733531098942,46.99630227444232],[11.137326824163358,46.9962883],[11.13733531098942,46.996274325557685],[11.1373558,46.99626853715415],[11.13737628901058,46.996274325557685],[11.137384775836642,46.9962883]]]}},{"type":"Feature","id":"pylon-stubai-glacier-123","properties":{"kind":"pylon","name":"Lift tower","height":13},"geometry":{"type":"Polygon","coordinates":[[[11.137830276058208,46.9966969],[11.137821789167251,46.99671087444232],[11.1378013,46.996716662845856],[11.137780810832748,46.99671087444232],[11.13777232394179,46.9966969],[11.137780810832748,46.996682925557685],[11.1378013,46.99667713715415],[11.137821789167251,46.996682925557685],[11.137830276058208,46.9966969]]]}},{"type":"Feature","id":"pylon-stubai-glacier-124","properties":{"kind":"pylon","name":"Lift tower","height":13},"geometry":{"type":"Polygon","coordinates":[[[11.10347157325623,46.991529],[11.103463087185954,46.99154297444232],[11.1034426,46.99154876284585],[11.103422112814044,46.99154297444232],[11.103413626743768,46.991529],[11.103422112814044,46.99151502555768],[11.1034426,46.99150923715415],[11.103463087185954,46.99151502555768],[11.10347157325623,46.991529]]]}},{"type":"Feature","id":"pylon-stubai-glacier-125","properties":{"kind":"pylon","name":"Lift tower","height":13},"geometry":{"type":"Polygon","coordinates":[[[11.103633673353487,46.9917084],[11.103625187254725,46.99172237444232],[11.1036047,46.99172816284585],[11.103584212745275,46.99172237444232],[11.103575726646513,46.9917084],[11.103584212745275,46.99169442555768],[11.1036047,46.99168863715415],[11.103625187254725,46.99169442555768],[11.103633673353487,46.9917084]]]}},{"type":"Feature","id":"pylon-stubai-glacier-126","properties":{"kind":"pylon","name":"Lift tower","height":13},"geometry":{"type":"Polygon","coordinates":[[[11.103339273881362,46.9926821],[11.10333078762799,46.99269607444232],[11.1033103,46.992701862845855],[11.103289812372012,46.99269607444232],[11.103281326118639,46.9926821],[11.103289812372012,46.992668125557685],[11.1033103,46.99266233715415],[11.10333078762799,46.992668125557685],[11.103339273881362,46.9926821]]]}},{"type":"Feature","id":"pylon-stubai-glacier-127","properties":{"kind":"pylon","name":"Lift tower","height":13},"geometry":{"type":"Polygon","coordinates":[[[11.103507173952654,46.9928136],[11.1034986876784,46.992827574442316],[11.1034782,46.99283336284585],[11.1034577123216,46.992827574442316],[11.103449226047346,46.9928136],[11.1034577123216,46.99279962555768],[11.1034782,46.992793837154146],[11.1034986876784,46.99279962555768],[11.103507173952654,46.9928136]]]}},{"type":"Feature","id":"pylon-stubai-glacier-128","properties":{"kind":"pylon","name":"Lift tower","height":13},"geometry":{"type":"Polygon","coordinates":[[[11.103282674149023,46.9931758],[11.103274187817254,46.99318977444232],[11.1032537,46.993195562845855],[11.103233212182746,46.99318977444232],[11.103224725850977,46.9931758],[11.103233212182746,46.993161825557685],[11.1032537,46.99315603715415],[11.103274187817254,46.993161825557685],[11.103282674149023,46.9931758]]]}},{"type":"Feature","id":"pylon-stubai-glacier-129","properties":{"kind":"pylon","name":"Lift tower","height":13},"geometry":{"type":"Polygon","coordinates":[[[11.103807272530693,46.9901906],[11.103798786672922,46.990204574442316],[11.1037783,46.99021036284585],[11.103757813327078,46.990204574442316],[11.103749327469307,46.9901906],[11.103757813327078,46.99017662555768],[11.1037783,46.990170837154146],[11.103798786672922,46.99017662555768],[11.103807272530693,46.9901906]]]}},{"type":"Feature","id":"pylon-stubai-glacier-130","properties":{"kind":"pylon","name":"Lift tower","height":13},"geometry":{"type":"Polygon","coordinates":[[[11.103613272586852,46.9902942],[11.103604786712632,46.99030817444232],[11.1035843,46.99031396284585],[11.103563813287368,46.99030817444232],[11.103555327413147,46.9902942],[11.103563813287368,46.99028022555768],[11.1035843,46.99027443715415],[11.103604786712632,46.99028022555768],[11.103613272586852,46.9902942]]]}},{"type":"Feature","id":"pylon-stubai-glacier-131","properties":{"kind":"pylon","name":"Lift tower","height":13},"geometry":{"type":"Polygon","coordinates":[[[11.103963971788458,46.9888213],[11.103955486148083,46.988835274442316],[11.103935,46.98884106284585],[11.103914513851917,46.988835274442316],[11.103906028211542,46.9888213],[11.103914513851917,46.98880732555768],[11.103935,46.988801537154146],[11.103955486148083,46.98880732555768],[11.103963971788458,46.9888213]]]}},{"type":"Feature","id":"pylon-stubai-glacier-132","properties":{"kind":"pylon","name":"Lift tower","height":13},"geometry":{"type":"Polygon","coordinates":[[[11.103789471754256,46.9887582],[11.103780986123898,46.98877217444232],[11.1037605,46.98877796284585],[11.103740013876102,46.98877217444232],[11.103731528245744,46.9887582],[11.103740013876102,46.98874422555768],[11.1037605,46.98873843715415],[11.103780986123898,46.98874422555768],[11.103789471754256,46.9887582]]]}},{"type":"Feature","id":"pylon-stubai-glacier-133","properties":{"kind":"pylon","name":"Lift tower","height":13},"geometry":{"type":"Polygon","coordinates":[[[11.104061071328552,46.9879728],[11.10405258582288,46.98798677444232],[11.1040321,46.987992562845854],[11.10401161417712,46.98798677444232],[11.104003128671447,46.9879728],[11.10401161417712,46.98795882555768],[11.1040321,46.98795303715415],[11.10405258582288,46.98795882555768],[11.104061071328552,46.9879728]]]}},{"type":"Feature","id":"pylon-stubai-glacier-134","properties":{"kind":"pylon","name":"Lift tower","height":13},"geometry":{"type":"Polygon","coordinates":[[[11.103907171198255,46.9877324],[11.103898685730746,46.98774637444232],[11.1038782,46.98775216284585],[11.103857714269255,46.98774637444232],[11.103849228801746,46.9877324],[11.103857714269255,46.98771842555768],[11.1038782,46.98771263715415],[11.103898685730746,46.98771842555768],[11.103907171198255,46.9877324]]]}},{"type":"Feature","id":"pylon-stubai-glacier-135","properties":{"kind":"pylon","name":"Lift tower","height":13},"geometry":{"type":"Polygon","coordinates":[[[11.104155370881893,46.9871487],[11.104146885507044,46.98716267444232],[11.1041264,46.98716846284585],[11.104105914492957,46.98716267444232],[11.104097429118108,46.9871487],[11.104105914492957,46.98713472555768],[11.1041264,46.98712893715415],[11.104146885507044,46.98713472555768],[11.104155370881893,46.9871487]]]}},{"type":"Feature","id":"pylon-stubai-glacier-136","properties":{"kind":"pylon","name":"Lift tower","height":13},"geometry":{"type":"Polygon","coordinates":[[[11.104007170725476,46.9868601],[11.10399868539644,46.98687407444232],[11.1039782,46.98687986284585],[11.10395771460356,46.98687407444232],[11.103949229274525,46.9868601],[11.10395771460356,46.98684612555768],[11.1039782,46.98684033715415],[11.10399868539644,46.98684612555768],[11.104007170725476,46.9868601]]]}},{"type":"Feature","id":"pylon-stubai-glacier-137","properties":{"kind":"pylon","name":"Lift tower","height":13},"geometry":{"type":"Polygon","coordinates":[[[11.10411657020866,46.9859065],[11.104108085030996,46.98592047444232],[11.1040876,46.98592626284585],[11.104067114969004,46.98592047444232],[11.10405862979134,46.9859065],[11.104067114969004,46.98589252555768],[11.1040876,46.985886737154146],[11.104108085030996,46.98589252555768],[11.10411657020866,46.9859065]]]}},{"type":"Feature","id":"pylon-stubai-glacier-138","properties":{"kind":"pylon","name":"Lift tower","height":13},"geometry":{"type":"Polygon","coordinates":[[[11.104298470203673,46.9858973],[11.104289985027469,46.985911274442316],[11.1042695,46.98591706284585],[11.10424901497253,46.985911274442316],[11.104240529796325,46.9858973],[11.10424901497253,46.98588332555768],[11.1042695,46.985877537154146],[11.104289985027469,46.98588332555768],[11.104298470203673,46.9858973]]]}},{"type":"Feature","id":"pylon-stubai-glacier-139","properties":{"kind":"pylon","name":"Lift tower","height":13},"geometry":{"type":"Polygon","coordinates":[[[11.104179769910212,46.9853558],[11.10417128481996,46.98536977444232],[11.1041508,46.98537556284585],[11.104130315180038,46.98536977444232],[11.104121830089786,46.9853558],[11.104130315180038,46.98534182555768],[11.1041508,46.98533603715415],[11.10417128481996,46.98534182555768],[11.104179769910212,46.9853558]]]}},{"type":"Feature","id":"pylon-stubai-glacier-140","properties":{"kind":"pylon","name":"Lift tower","height":13},"geometry":{"type":"Polygon","coordinates":[[[11.104379269821173,46.9851915],[11.104370784757002,46.98520547444232],[11.1043503,46.98521126284585],[11.104329815242998,46.98520547444232],[11.104321330178827,46.9851915],[11.104329815242998,46.98517752555768],[11.1043503,46.98517173715415],[11.104370784757002,46.98517752555768],[11.104379269821173,46.9851915]]]}},{"type":"Feature","id":"pylon-stubai-glacier-141","properties":{"kind":"pylon","name":"Lift tower","height":13},"geometry":{"type":"Polygon","coordinates":[[[11.104315769267663,46.9841701],[11.10430728436561,46.98418407444232],[11.1042868,46.98418986284585],[11.10426631563439,46.98418407444232],[11.104257830732339,46.9841701],[11.10426631563439,46.98415612555768],[11.1042868,46.98415033715415],[11.10430728436561,46.98415612555768],[11.104315769267663,46.9841701]]]}},{"type":"Feature","id":"pylon-stubai-glacier-142","properties":{"kind":"pylon","name":"Lift tower","height":13},"geometry":{"type":"Polygon","coordinates":[[[11.10450796921163,46.9840667],[11.10449948432599,46.98408067444232],[11.104479,46.98408646284585],[11.10445851567401,46.98408067444232],[11.10445003078837,46.9840667],[11.10445851567401,46.98405272555768],[11.104479,46.98404693715415],[11.10449948432599,46.98405272555768],[11.10450796921163,46.9840667]]]}},{"type":"Feature","id":"pylon-stubai-glacier-143","properties":{"kind":"pylon","name":"Lift tower","height":13},"geometry":{"type":"Polygon","coordinates":[[[11.10461486870524,46.9831322],[11.104606383967917,46.98314617444232],[11.1045859,46.98315196284585],[11.104565416032083,46.98314617444232],[11.10455693129476,46.9831322],[11.104565416032083,46.98311822555768],[11.1045859,46.98311243715415],[11.104606383967917,46.98311822555768],[11.10461486870524,46.9831322]]]}},{"type":"Feature","id":"pylon-stubai-glacier-144","properties":{"kind":"pylon","name":"Lift tower","height":13},"geometry":{"type":"Polygon","coordinates":[[[11.104446968647911,46.9830264],[11.10443848392738,46.98304037444232],[11.104418,46.98304616284585],[11.104397516072622,46.98304037444232],[11.10438903135209,46.9830264],[11.104397516072622,46.98301242555768],[11.104418,46.98300663715415],[11.10443848392738,46.98301242555768],[11.104446968647911,46.9830264]]]}},{"type":"Feature","id":"pylon-stubai-glacier-145","properties":{"kind":"pylon","name":"Lift tower","height":13},"geometry":{"type":"Polygon","coordinates":[[[11.10382666680438,46.9796239],[11.103818182623806,46.97963787444232],[11.1037977,46.97964366284585],[11.103777217376193,46.97963787444232],[11.103768733195619,46.9796239],[11.103777217376193,46.97960992555768],[11.1037977,46.97960413715415],[11.103818182623806,46.97960992555768],[11.10382666680438,46.9796239]]]}},{"type":"Feature","id":"pylon-stubai-glacier-146","properties":{"kind":"pylon","name":"Lift tower","height":13},"geometry":{"type":"Polygon","coordinates":[[[11.104331267287325,46.9805153],[11.1043227829653,46.98052927444232],[11.1043023,46.98053506284585],[11.104281817034702,46.98052927444232],[11.104273332712676,46.9805153],[11.104281817034702,46.98050132555768],[11.1043023,46.98049553715415],[11.1043227829653,46.98050132555768],[11.104331267287325,46.9805153]]]}},{"type":"Feature","id":"pylon-stubai-glacier-147","properties":{"kind":"pylon","name":"Lift tower","height":13},"geometry":{"type":"Polygon","coordinates":[[[11.103934766907805,46.9798148],[11.10392628269694,46.97982877444232],[11.1039058,46.97983456284585],[11.10388531730306,46.97982877444232],[11.103876833092194,46.9798148],[11.10388531730306,46.97980082555768],[11.1039058,46.97979503715415],[11.10392628269694,46.97980082555768],[11.103934766907805,46.9798148]]]}},{"type":"Feature","id":"pylon-stubai-glacier-148","properties":{"kind":"pylon","name":"Lift tower","height":13},"geometry":{"type":"Polygon","coordinates":[[[11.103182566187924,46.978486],[11.103174082187907,46.978499974442315],[11.1031536,46.97850576284585],[11.103133117812094,46.978499974442315],[11.103124633812078,46.978486],[11.103133117812094,46.97847202555768],[11.1031536,46.978466237154144],[11.103174082187907,46.97847202555768],[11.103182566187924,46.978486]]]}},{"type":"Feature","id":"pylon-stubai-glacier-149","properties":{"kind":"pylon","name":"Lift tower","height":13},"geometry":{"type":"Polygon","coordinates":[[[11.102784765807256,46.9777833],[11.102776281918732,46.97779727444232],[11.1027558,46.97780306284585],[11.102735318081269,46.97779727444232],[11.102726834192746,46.9777833],[11.102735318081269,46.97776932555768],[11.1027558,46.977763537154146],[11.102776281918732,46.97776932555768],[11.102784765807256,46.9777833]]]}},{"type":"Feature","id":"pylon-stubai-glacier-150","properties":{"kind":"pylon","name":"Lift tower","height":13},"geometry":{"type":"Polygon","coordinates":[[[11.138029676282708,46.9971109],[11.138021189325995,46.99712487444232],[11.1380007,46.997130662845855],[11.137980210674003,46.99712487444232],[11.13797172371729,46.9971109],[11.137980210674003,46.997096925557685],[11.1380007,46.99709113715415],[11.138021189325995,46.997096925557685],[11.138029676282708,46.9971109]]]}},{"type":"Feature","id":"pylon-stubai-glacier-151","properties":{"kind":"pylon","name":"Lift tower","height":13},"geometry":{"type":"Polygon","coordinates":[[[11.134227776229782,46.9970133],[11.134219289288572,46.99702727444232],[11.1341988,46.99703306284585],[11.134178310711428,46.99702727444232],[11.134169823770218,46.9970133],[11.134178310711428,46.99699932555768],[11.1341988,46.99699353715415],[11.134219289288572,46.99699932555768],[11.134227776229782,46.9970133]]]}},{"type":"Feature","id":"pylon-stubai-glacier-152","properties":{"kind":"pylon","name":"Lift tower","height":13},"geometry":{"type":"Polygon","coordinates":[[[11.133873376224846,46.9970042],[11.133864889285082,46.99701817444232],[11.1338444,46.99702396284585],[11.133823910714916,46.99701817444232],[11.133815423775152,46.9970042],[11.133823910714916,46.99699022555768],[11.1338444,46.99698443715415],[11.133864889285082,46.99699022555768],[11.133873376224846,46.9970042]]]}},{"type":"Feature","id":"pylon-stubai-glacier-153","properties":{"kind":"pylon","name":"Lift tower","height":13},"geometry":{"type":"Polygon","coordinates":[[[11.130935476183906,46.9969287],[11.130926989256132,46.996942674442316],[11.1309065,46.99694846284585],[11.130886010743868,46.996942674442316],[11.130877523816094,46.9969287],[11.130886010743868,46.99691472555768],[11.1309065,46.996908937154146],[11.130926989256132,46.99691472555768],[11.130935476183906,46.9969287]]]}},{"type":"Feature","id":"pylon-stubai-glacier-154","properties":{"kind":"pylon","name":"Lift tower","height":13},"geometry":{"type":"Polygon","coordinates":[[[11.130248876174361,46.9969111],[11.130240389249384,46.996925074442316],[11.1302199,46.99693086284585],[11.130199410750617,46.996925074442316],[11.130190923825639,46.9969111],[11.130199410750617,46.99689712555768],[11.1302199,46.996891337154146],[11.130240389249384,46.99689712555768],[11.130248876174361,46.9969111]]]}},{"type":"Feature","id":"pylon-stubai-glacier-155","properties":{"kind":"pylon","name":"Lift tower","height":13},"geometry":{"type":"Polygon","coordinates":[[[11.129847276168777,46.9969008],[11.129838789245435,46.99691477444232],[11.1298183,46.99692056284585],[11.129797810754566,46.99691477444232],[11.129789323831224,46.9969008],[11.129797810754566,46.99688682555768],[11.1298183,46.99688103715415],[11.129838789245435,46.99688682555768],[11.129847276168777,46.9969008]]]}},{"type":"Feature","id":"pylon-stubai-glacier-156","properties":{"kind":"pylon","name":"Lift tower","height":13},"geometry":{"type":"Polygon","coordinates":[[[11.126575076123226,46.9968168],[11.126566589213226,46.996830774442316],[11.1265461,46.99683656284585],[11.126525610786775,46.996830774442316],[11.126517123876775,46.9968168],[11.126525610786775,46.99680282555768],[11.1265461,46.996797037154145],[11.126566589213226,46.99680282555768],[11.126575076123226,46.9968168]]]}},{"type":"Feature","id":"pylon-stubai-glacier-157","properties":{"kind":"pylon","name":"Lift tower","height":13},"geometry":{"type":"Polygon","coordinates":[[[11.126361176120243,46.9968113],[11.126352689211117,46.996825274442315],[11.1263322,46.99683106284585],[11.126311710788883,46.996825274442315],[11.126303223879757,46.9968113],[11.126311710788883,46.99679732555768],[11.1263322,46.996791537154145],[11.126352689211117,46.99679732555768],[11.126361176120243,46.9968113]]]}},{"type":"Feature","id":"pylon-stubai-glacier-158","properties":{"kind":"pylon","name":"Lift tower","height":13},"geometry":{"type":"Polygon","coordinates":[[[11.125145476103325,46.9967801],[11.125136989199154,46.99679407444232],[11.1251165,46.996799862845855],[11.125096010800847,46.99679407444232],[11.125087523896676,46.9967801],[11.125096010800847,46.996766125557684],[11.1251165,46.99676033715415],[11.125136989199154,46.996766125557684],[11.125145476103325,46.9967801]]]}},{"type":"Feature","id":"pylon-stubai-glacier-159","properties":{"kind":"pylon","name":"Lift tower","height":13},"geometry":{"type":"Polygon","coordinates":[[[11.122721076069542,46.9967178],[11.122712589175265,46.99673177444232],[11.1226921,46.99673756284585],[11.122671610824735,46.99673177444232],[11.122663123930458,46.9967178],[11.122671610824735,46.99670382555768],[11.1226921,46.99669803715415],[11.122712589175265,46.99670382555768],[11.122721076069542,46.9967178]]]}},{"type":"Feature","id":"pylon-stubai-glacier-160","properties":{"kind":"pylon","name":"Lift tower","height":13},"geometry":{"type":"Polygon","coordinates":[[[11.120624076040366,46.996664],[11.120615589154635,46.99667797444232],[11.1205951,46.996683762845855],[11.120574610845363,46.99667797444232],[11.120566123959632,46.996664],[11.120574610845363,46.996650025557685],[11.1205951,46.99664423715415],[11.120615589154635,46.996650025557685],[11.120624076040366,46.996664]]]}},{"type":"Feature","id":"pylon-stubai-glacier-161","properties":{"kind":"pylon","name":"Lift tower","height":13},"geometry":{"type":"Polygon","coordinates":[[[11.12872927369736,46.9923427],[11.12872078749788,46.99235667444232],[11.1287003,46.992362462845854],[11.12867981250212,46.99235667444232],[11.12867132630264,46.9923427],[11.12867981250212,46.992328725557684],[11.1287003,46.99232293715415],[11.12872078749788,46.992328725557684],[11.12872927369736,46.9923427]]]}},{"type":"Feature","id":"pylon-stubai-glacier-162","properties":{"kind":"pylon","name":"Lift tower","height":13},"geometry":{"type":"Polygon","coordinates":[[[11.11769117143766,46.9881741],[11.11768268590003,46.98818807444232],[11.1176622,46.988193862845854],[11.11764171409997,46.98818807444232],[11.11763322856234,46.9881741],[11.11764171409997,46.988160125557684],[11.1176622,46.98815433715415],[11.11768268590003,46.988160125557684],[11.11769117143766,46.9881741]]]}},{"type":"Feature","id":"pylon-stubai-glacier-163","properties":{"kind":"pylon","name":"Lift tower","height":13},"geometry":{"type":"Polygon","coordinates":[[[11.190097382908075,47.0093246],[11.190088894010838,47.00933857444232],[11.1900684,47.00934436284585],[11.19004790598916,47.00933857444232],[11.190039417091924,47.0093246],[11.19004790598916,47.00931062555768],[11.1900684,47.00930483715415],[11.190088894010838,47.00931062555768],[11.190097382908075,47.0093246]]]}},{"type":"Feature","id":"pylon-stubai-glacier-164","properties":{"kind":"pylon","name":"Lift tower","height":13},"geometry":{"type":"Polygon","coordinates":[[[11.184912981277762,47.0063199],[11.184904492858033,47.00633387444232],[11.184884,47.00633966284585],[11.184863507141968,47.00633387444232],[11.184855018722239,47.0063199],[11.184863507141968,47.00630592555768],[11.184884,47.00630013715415],[11.184904492858033,47.00630592555768],[11.184912981277762,47.0063199]]]}},{"type":"Feature","id":"pylon-stubai-glacier-165","properties":{"kind":"pylon","name":"Lift tower","height":13},"geometry":{"type":"Polygon","coordinates":[[[11.185065881618648,47.0069482],[11.185057393099076,47.006962174442315],[11.1850369,47.00696796284585],[11.185016406900925,47.006962174442315],[11.185007918381352,47.0069482],[11.185016406900925,47.00693422555768],[11.1850369,47.006928437154144],[11.185057393099076,47.00693422555768],[11.185065881618648,47.0069482]]]}},{"type":"Feature","id":"pylon-stubai-glacier-166","properties":{"kind":"pylon","name":"Lift tower","height":13},"geometry":{"type":"Polygon","coordinates":[[[11.103477574093073,46.9930726],[11.103469087777691,46.993086574442316],[11.1034486,46.99309236284585],[11.103428112222309,46.993086574442316],[11.103419625906927,46.9930726],[11.103428112222309,46.99305862555768],[11.1034486,46.993052837154146],[11.103469087777691,46.99305862555768],[11.103477574093073,46.9930726]]]}},{"type":"Feature","id":"pylon-stubai-glacier-167","properties":{"kind":"pylon","name":"Lift tower","height":13},"geometry":{"type":"Polygon","coordinates":[[[11.103229974397987,46.993635],[11.103221487993299,46.993648974442316],[11.103201,46.99365476284585],[11.103180512006702,46.993648974442316],[11.103172025602014,46.993635],[11.103180512006702,46.99362102555768],[11.103201,46.993615237154145],[11.103221487993299,46.99362102555768],[11.103229974397987,46.993635]]]}},{"type":"Feature","id":"marker-stubai-glacier-summit","properties":{"kind":"marker","markerType":"summit","name":"Upper mountain · 3210 m","height":26},"geometry":{"type":"Polygon","coordinates":[[[11.11609219189599,46.994],[11.1160745848106,46.994036960984246],[11.116028488862604,46.99405980412877],[11.115971511137396,46.99405980412877],[11.1159254151894,46.994036960984246],[11.115907808104009,46.994],[11.1159254151894,46.99396303901575],[11.115971511137396,46.99394019587123],[11.116028488862604,46.99394019587123],[11.1160745848106,46.99396303901575],[11.11609219189599,46.994]]]}},{"type":"Feature","id":"marker-stubai-glacier-base","properties":{"kind":"marker","markerType":"base","name":"Base · 1750 m","height":18},"geometry":{"type":"Polygon","coordinates":[[[11.120092184996192,46.99],[11.120074579228545,46.99003696098425],[11.12002848673045,46.99005980412877],[11.11997151326955,46.99005980412877],[11.119925420771454,46.99003696098425],[11.119907815003806,46.99],[11.119925420771454,46.989963039015755],[11.11997151326955,46.989940195871235],[11.12002848673045,46.989940195871235],[11.120074579228545,46.989963039015755],[11.120092184996192,46.99]]]}}]}