{"type":"FeatureCollection","features":[{"type":"Feature","id":25452139,"properties":{"kind":"lift","name":"Ruined Castle","subtype":"chair_lift","status":"active"},"geometry":{"type":"LineString","coordinates":[[147.269164,-36.8787421],[147.2688526,-36.8785309],[147.2682613,-36.8781299],[147.2676184,-36.8776939],[147.2667437,-36.8771007],[147.2659078,-36.8765338],[147.2652146,-36.8760636],[147.2646333,-36.8756694],[147.264202,-36.8753769],[147.2637987,-36.8751034]]}},{"type":"Feature","id":25452142,"properties":{"kind":"lift","name":"Scott","subtype":"chair_lift","status":"active"},"geometry":{"type":"LineString","coordinates":[[147.270506,-36.8779241],[147.270673,-36.8775814],[147.2709085,-36.877098],[147.2711565,-36.8765892],[147.2714341,-36.8760195],[147.271705,-36.8754635],[147.271955,-36.8749504],[147.2722826,-36.874278],[147.2726097,-36.8736067],[147.2728664,-36.8730799],[147.2731899,-36.8724159],[147.2733744,-36.8720373],[147.2735709,-36.871634]]}},{"type":"Feature","id":25452143,"properties":{"kind":"lift","name":"Towers","subtype":"chair_lift","status":"active"},"geometry":{"type":"LineString","coordinates":[[147.2792001,-36.8779235],[147.2792541,-36.8775739],[147.2793461,-36.8769783],[147.2794473,-36.8763232],[147.2795549,-36.8756265],[147.279666,-36.8749072],[147.2797815,-36.8741593],[147.2798895,-36.8734602],[147.2799809,-36.8728688],[147.2800479,-36.8724349]]}},{"type":"Feature","id":25452146,"properties":{"kind":"lift","name":"Halley's Comet","subtype":"chair_lift","status":"active"},"geometry":{"type":"LineString","coordinates":[[147.2820325,-36.8639667],[147.2818609,-36.8643759],[147.2816146,-36.864963],[147.2811856,-36.8659856],[147.2808916,-36.8666864],[147.2803413,-36.8679983],[147.2799004,-36.8690491],[147.2797093,-36.8695047],[147.2794546,-36.8701118],[147.2792454,-36.8706106],[147.2789965,-36.8712038],[147.2787943,-36.8716858]]}},{"type":"Feature","id":25452150,"properties":{"kind":"lift","name":"Eagle Express","subtype":"chair_lift","status":"active"},"geometry":{"type":"LineString","coordinates":[[147.2731298,-36.8655395],[147.2732757,-36.8665045],[147.2733737,-36.8671525],[147.2735205,-36.8681233],[147.273643,-36.8689331],[147.2737264,-36.869485],[147.2738238,-36.8701288],[147.2739277,-36.8708162],[147.2740137,-36.8713845],[147.2740398,-36.8715574]]}},{"type":"Feature","id":25452159,"properties":{"kind":"lift","name":"Gully","subtype":"chair_lift","status":"active"},"geometry":{"type":"LineString","coordinates":[[147.2768248,-36.8622892],[147.2765879,-36.8624727],[147.2756903,-36.8631679],[147.2749202,-36.8637644],[147.2739324,-36.8645295],[147.2736343,-36.8647604]]}},{"type":"Feature","id":25463532,"properties":{"kind":"run","name":"Ory's","subtype":"easy","status":"active"},"geometry":{"type":"LineString","coordinates":[[147.2749368,-36.8671873],[147.2748782,-36.8671078],[147.2751074,-36.8669728],[147.2753498,-36.8668233],[147.2754786,-36.8665542],[147.2757082,-36.8663376],[147.2758981,-36.8662603],[147.2762243,-36.8663496],[147.2765676,-36.866329],[147.2768251,-36.8662122],[147.2770139,-36.8659513],[147.2771684,-36.865711],[147.2773401,-36.8654363],[147.2775289,-36.8651822],[147.2777632,-36.8649762],[147.277855,-36.8649141]]}},{"type":"Feature","id":25466130,"properties":{"kind":"run","name":"Day's End","subtype":"easy","status":"active"},"geometry":{"type":"LineString","coordinates":[[147.2737846,-36.8715672],[147.2735891,-36.8711298],[147.2733917,-36.8707659],[147.2731771,-36.8703333],[147.2731342,-36.86999],[147.2731599,-36.8695505],[147.2734174,-36.8692347],[147.2738809,-36.8690973],[147.2744474,-36.8690012],[147.2749967,-36.8690287],[147.2754516,-36.8690699],[147.2759924,-36.8690493],[147.2765245,-36.86896],[147.2770223,-36.8687746],[147.2774861,-36.8685909],[147.2777261,-36.8685343],[147.2781553,-36.8684656],[147.2782217,-36.8684671],[147.2785158,-36.868548],[147.2786751,-36.8686648],[147.2788248,-36.8687746],[147.2790233,-36.8689206],[147.2791186,-36.8689485],[147.2794682,-36.8690304],[147.2799536,-36.8691645],[147.2800268,-36.8691982],[147.2802846,-36.8692572],[147.2803683,-36.8692764],[147.2807421,-36.8692653],[147.2812003,-36.8693091]]}},{"type":"Feature","id":25466267,"properties":{"kind":"lift","name":"Drover's Dream","subtype":"chair_lift","status":"active"},"geometry":{"type":"LineString","coordinates":[[147.2836674,-36.8779218],[147.2833801,-36.8774289],[147.2829697,-36.8767246],[147.2826331,-36.876147],[147.2823725,-36.8756997],[147.2819146,-36.874914],[147.281388,-36.8740103],[147.2810489,-36.8734283],[147.2808121,-36.8730221],[147.2805369,-36.8725498],[147.2803096,-36.8721597]]}},{"type":"Feature","id":25479357,"properties":{"kind":"lift","name":"Mouse Trap","subtype":"magic_carpet","status":"active"},"geometry":{"type":"LineString","coordinates":[[147.2782315,-36.8732366],[147.2790201,-36.8723847]]}},{"type":"Feature","id":25479438,"properties":{"kind":"run","name":"Wombat's Ramble","subtype":"easy","status":"active"},"geometry":{"type":"LineString","coordinates":[[147.2825127,-36.8734317],[147.2827836,-36.8734283],[147.2829867,-36.8733349],[147.2831583,-36.8729092],[147.2832613,-36.872408],[147.283227,-36.8719479],[147.2830296,-36.8713986],[147.2828322,-36.870918],[147.282712,-36.8704648],[147.2825575,-36.8700048],[147.2824188,-36.8697828],[147.2823429,-36.8696614],[147.2823002,-36.8696104],[147.2820978,-36.8693576],[147.2822571,-36.8692701],[147.2824717,-36.8688855],[147.2827721,-36.8683774],[147.2831583,-36.8679791],[147.2836304,-36.8677731],[147.2841196,-36.8677731],[147.2847462,-36.8677388],[147.2852011,-36.8676701],[147.2854355,-36.8674298],[147.2854328,-36.8671002],[147.2852869,-36.8667775],[147.2851153,-36.8664341],[147.2848749,-36.8662281],[147.2846346,-36.8660565],[147.2844887,-36.8657681],[147.2845144,-36.8654728],[147.2847719,-36.8652462],[147.2851496,-36.8648548],[147.2853024,-36.8646219],[147.285215,-36.8643704],[147.2849608,-36.8642367],[147.2846003,-36.8641681],[147.2841883,-36.86412],[147.283742,-36.8641681],[147.2834158,-36.8642711],[147.2830725,-36.8643947],[147.2828894,-36.8645622],[147.2827721,-36.8646694],[147.2824717,-36.8647655],[147.2820425,-36.8646968],[147.2818999,-36.8645998],[147.2817634,-36.8645069],[147.2816992,-36.8644633],[147.2815447,-36.8643054],[147.2815275,-36.8641749]]}},{"type":"Feature","id":25479459,"properties":{"kind":"run","name":"Broadway","subtype":"easy","status":"active"},"geometry":{"type":"LineString","coordinates":[[147.2800268,-36.8691982],[147.2796768,-36.8686994],[147.2794837,-36.8684717],[147.2793529,-36.8683731],[147.2792024,-36.8682596],[147.2788848,-36.8678339],[147.2784128,-36.8674493],[147.2782739,-36.8674063],[147.2778806,-36.8672845],[147.277194,-36.8672845],[147.276782,-36.8672296],[147.2760954,-36.8670923],[147.2758207,-36.867106],[147.2753658,-36.8671953],[147.2749368,-36.8671873],[147.2747493,-36.8671632],[147.2745395,-36.8671362],[147.2744646,-36.8671266],[147.2740182,-36.8671472],[147.2736234,-36.8672296],[147.2731599,-36.8673326],[147.2725334,-36.8673532],[147.2723634,-36.8673532],[147.2720785,-36.8673532],[147.2717352,-36.8672433],[147.2714176,-36.8670373],[147.271377,-36.8668752],[147.2713585,-36.8668012],[147.2713317,-36.866694],[147.2713747,-36.8663713],[147.271718,-36.866076],[147.2722158,-36.8658013],[147.272705,-36.8656846],[147.2729883,-36.8656365],[147.2730054,-36.8657876],[147.2732937,-36.8658009]]}},{"type":"Feature","id":25479502,"properties":{"kind":"run","name":"Rudi's","subtype":"easy","status":"active"},"geometry":{"type":"LineString","coordinates":[[147.2784207,-36.8718772],[147.2784891,-36.8717214],[147.278575,-36.871378],[147.2786263,-36.8712644],[147.2787209,-36.8710553],[147.2786951,-36.870815],[147.2784891,-36.8705266],[147.2783175,-36.8702657],[147.2782979,-36.8702],[147.2782316,-36.8699773],[147.2780791,-36.8695987],[147.2779882,-36.8693245],[147.2779952,-36.8691846],[147.2777574,-36.8690168],[147.2775266,-36.8688825],[147.2774861,-36.8685909]]}},{"type":"Feature","id":25486554,"properties":{"kind":"lift","name":"Summit","subtype":"chair_lift","status":"active"},"geometry":{"type":"LineString","coordinates":[[147.2723209,-36.8655805],[147.271907,-36.8655938],[147.271173,-36.8656173],[147.2703041,-36.8656451],[147.2696718,-36.8656654],[147.2689326,-36.8656891],[147.2684147,-36.8657057],[147.267679,-36.8657293],[147.2669395,-36.8657529],[147.2664373,-36.865769],[147.2661016,-36.8657798]]}},{"type":"Feature","id":25500166,"properties":{"kind":"lift","name":"International","subtype":"platter","status":"active"},"geometry":{"type":"LineString","coordinates":[[147.2766585,-36.8618576],[147.2763951,-36.8618655],[147.2754444,-36.8618942],[147.2749012,-36.8619106],[147.2736846,-36.8619472],[147.2716773,-36.8620078],[147.2709946,-36.8620283],[147.2697072,-36.8620629],[147.2686635,-36.8628592],[147.2678566,-36.8634749],[147.2670206,-36.8641126],[147.2660843,-36.864827],[147.2655672,-36.8652215],[147.265241,-36.8654704]]}},{"type":"Feature","id":25500180,"properties":{"kind":"lift","name":"Monkey Bar","subtype":"platter","status":"active"},"geometry":{"type":"LineString","coordinates":[[147.2747516,-36.8735324],[147.2749764,-36.8731334],[147.2753052,-36.8725498],[147.2756276,-36.8719775],[147.2759299,-36.8714409],[147.276023,-36.8712757]]}},{"type":"Feature","id":25500185,"properties":{"kind":"lift","name":"Boardwalk","subtype":"magic_carpet","status":"active"},"geometry":{"type":"LineString","coordinates":[[147.2779311,-36.8727967],[147.2782288,-36.8720758]]}},{"type":"Feature","id":25500196,"properties":{"kind":"lift","name":"Lakeside","subtype":"platter","status":"active"},"geometry":{"type":"LineString","coordinates":[[147.2761024,-36.8780183],[147.2761773,-36.8751924],[147.2777051,-36.8714572]]}},{"type":"Feature","id":61770994,"properties":{"kind":"run","name":"Drovers Dream","subtype":"easy","status":"active"},"geometry":{"type":"LineString","coordinates":[[147.2801826,-36.8719907],[147.2804905,-36.8718644],[147.2807081,-36.8720147],[147.2810178,-36.8722856],[147.2815785,-36.8727624],[147.2821056,-36.8731636],[147.2824569,-36.8733831],[147.2825127,-36.8734317],[147.2827164,-36.873755],[147.28322,-36.8744098],[147.2838208,-36.8752337],[147.2839729,-36.8761361],[147.283871,-36.8767356],[147.2836585,-36.877744]]}},{"type":"Feature","id":61770995,"properties":{"kind":"run","name":"Main Street","subtype":"intermediate","status":"active"},"geometry":{"type":"LineString","coordinates":[[147.2801859,-36.8723349],[147.2801904,-36.8724021],[147.2802159,-36.8736545],[147.2802159,-36.8739806],[147.2800014,-36.8745814],[147.2798297,-36.8752337],[147.2798082,-36.8756971],[147.2798297,-36.8763151],[147.2797009,-36.8771905],[147.2794005,-36.8777054],[147.2793576,-36.8780315]]}},{"type":"Feature","id":227817362,"properties":{"kind":"lift","name":"Bogong Rover Chalet Rope Tow","subtype":"rope_tow","status":"active"},"geometry":{"type":"LineString","coordinates":[[147.3030604,-36.9051425],[147.3023929,-36.9044186],[147.3013171,-36.903156]]}},{"type":"Feature","id":233370663,"properties":{"kind":"run","name":"Fast Hoot","subtype":"intermediate","status":"active"},"geometry":{"type":"LineString","coordinates":[[147.2831209,-36.867282],[147.2833979,-36.8670151],[147.283571,-36.8666867],[147.2834227,-36.8663029],[147.283374,-36.8661225],[147.2832622,-36.8659112],[147.2829627,-36.8656857],[147.2828392,-36.8656445],[147.2824781,-36.8655274],[147.282033,-36.865381],[147.2819489,-36.865294],[147.281944,-36.8648271],[147.2818999,-36.8645998]]}},{"type":"Feature","id":233370664,"properties":{"kind":"run","name":"Highway 83","subtype":"intermediate","status":"active"},"geometry":{"type":"LineString","coordinates":[[147.2821056,-36.8731636],[147.281938,-36.8743705],[147.2816302,-36.8752097],[147.2811547,-36.8760042],[147.2809622,-36.876296],[147.2806231,-36.8768098],[147.279644,-36.8777161],[147.2794877,-36.8778882],[147.2793576,-36.8780315]]}},{"type":"Feature","id":233370665,"properties":{"kind":"run","name":"Last Hoot","subtype":"intermediate","status":"active"},"geometry":{"type":"LineString","coordinates":[[147.2786263,-36.8712644],[147.2792225,-36.8712151],[147.2794463,-36.8711307],[147.2808707,-36.8699082],[147.2810678,-36.8696283],[147.2812003,-36.8693091],[147.2815076,-36.8687611],[147.2820456,-36.8683689],[147.2826471,-36.8679521],[147.2829076,-36.8675604],[147.2831209,-36.867282],[147.2834584,-36.8671897],[147.2837836,-36.8670456],[147.284128,-36.8664134],[147.28417,-36.8662147],[147.2840599,-36.8660315],[147.2840476,-36.8659797],[147.2840826,-36.8656356],[147.2840703,-36.865437],[147.2838168,-36.8650677],[147.2836857,-36.8647236],[147.2833797,-36.8645403],[147.2830562,-36.8645193],[147.2828894,-36.8645622]]}},{"type":"Feature","id":233370666,"properties":{"kind":"run","name":"Playground","subtype":"easy","status":"active"},"geometry":{"type":"LineString","coordinates":[[147.2759337,-36.8712238],[147.2753352,-36.8718209],[147.2747269,-36.8725964],[147.2744648,-36.8731027],[147.2745439,-36.8733599],[147.2746033,-36.8734746],[147.2746775,-36.8735063]]}},{"type":"Feature","id":233373761,"properties":{"kind":"run","name":"Village","subtype":"intermediate","status":"active"},"geometry":{"type":"LineString","coordinates":[[147.2782316,-36.8699773],[147.278266,-36.8696614],[147.2784634,-36.8694761],[147.2787466,-36.8692357],[147.2790642,-36.8689611],[147.2793529,-36.8683731]]}},{"type":"Feature","id":258833914,"properties":{"kind":"lift","name":"The Tube","subtype":"magic_carpet","status":"active"},"geometry":{"type":"LineString","coordinates":[[147.272737,-36.8658143],[147.2728164,-36.8666942]]}},{"type":"Feature","id":860253977,"properties":{"kind":"run","name":"Unnamed","subtype":"unknown","status":"active"},"geometry":{"type":"LineString","coordinates":[[147.2839729,-36.8761361],[147.2827521,-36.8773547],[147.2814056,-36.8777666],[147.2794877,-36.8778882]]}},{"type":"Feature","id":969751152,"properties":{"kind":"run","name":"Final Muster","subtype":"intermediate","status":"active"},"geometry":{"type":"LineString","coordinates":[[147.273577,-36.8648023],[147.2734937,-36.8646899],[147.273551,-36.8644734],[147.2738319,-36.8642486],[147.2741962,-36.8641695],[147.2747321,-36.8641196],[147.274852,-36.8640703],[147.2751068,-36.8639655],[147.2752115,-36.8638332],[147.2754033,-36.8635909],[147.2756502,-36.8633957],[147.2759147,-36.8631866],[147.2762775,-36.8628998],[147.2768863,-36.8624751],[147.2770736,-36.8623419]]}},{"type":"Feature","id":969751153,"properties":{"kind":"run","name":"Shortcut","subtype":"intermediate","status":"active"},"geometry":{"type":"LineString","coordinates":[[147.2777408,-36.8685272],[147.2775939,-36.8683739],[147.2772193,-36.868249],[147.2769227,-36.8680367],[147.2767198,-36.8677828],[147.2762775,-36.8675621],[147.2759029,-36.867483],[147.2754866,-36.8674372],[147.2747493,-36.8671632]]}},{"type":"Feature","id":969751154,"properties":{"kind":"run","name":"Unnamed","subtype":"easy","status":"active"},"geometry":{"type":"LineString","coordinates":[[147.276023,-36.8712757],[147.2763868,-36.8710046],[147.2769487,-36.8709214],[147.2778541,-36.8706633],[147.2782979,-36.8702]]}},{"type":"Feature","id":969751155,"properties":{"kind":"run","name":"The Knolls","subtype":"advanced","status":"active"},"geometry":{"type":"LineString","coordinates":[[147.2661016,-36.8657798],[147.266305,-36.8659739],[147.2666483,-36.865961],[147.2672699,-36.8661137],[147.2681111,-36.8661257],[147.2688868,-36.8659705],[147.2698719,-36.8658402],[147.2705312,-36.8657347],[147.2711517,-36.8655423],[147.2715087,-36.8655237],[147.2718653,-36.8655051],[147.2723074,-36.8654741]]}},{"type":"Feature","id":969751156,"properties":{"kind":"run","name":"Oest Wand","subtype":"advanced","status":"active"},"geometry":{"type":"LineString","coordinates":[[147.2661016,-36.8657798],[147.2661875,-36.8660388],[147.2665055,-36.8663118],[147.267444,-36.86656],[147.2684524,-36.8666345],[147.2689643,-36.8664794],[147.2698176,-36.866287],[147.2708026,-36.866076],[147.271153,-36.8659855],[147.2715473,-36.8658836],[147.2722553,-36.8657091]]}},{"type":"Feature","id":969751157,"properties":{"kind":"run","name":"South Gully","subtype":"advanced","status":"active"},"geometry":{"type":"LineString","coordinates":[[147.2661875,-36.8660388],[147.2662961,-36.8663553],[147.266521,-36.8668269],[147.2668778,-36.8672116],[147.2676845,-36.867404],[147.2683981,-36.8673606],[147.2689255,-36.8672923],[147.269453,-36.8670627],[147.2698176,-36.8667772],[147.2702674,-36.866467],[147.271153,-36.8659855]]}},{"type":"Feature","id":969751158,"properties":{"kind":"run","name":"The Y's","subtype":"advanced","status":"active"},"geometry":{"type":"LineString","coordinates":[[147.2696702,-36.8701157],[147.2695073,-36.8693773],[147.2694375,-36.8689926],[147.2693289,-36.8684093],[147.2693599,-36.868279],[147.2699261,-36.8679004],[147.2703683,-36.8676274],[147.2706205,-36.8674314],[147.2709035,-36.8672116],[147.271377,-36.8668752]]}},{"type":"Feature","id":969751159,"properties":{"kind":"run","name":"The Y's","subtype":"advanced","status":"active"},"geometry":{"type":"LineString","coordinates":[[147.2696702,-36.8701157],[147.2697788,-36.869458],[147.2697633,-36.8691477],[147.2699261,-36.8686637],[147.2702752,-36.8683038],[147.2704846,-36.8679625],[147.2706205,-36.8674314]]}},{"type":"Feature","id":969751160,"properties":{"kind":"run","name":"Expressway","subtype":"advanced","status":"active"},"geometry":{"type":"LineString","coordinates":[[147.270283,-36.8700413],[147.2702364,-36.8693153],[147.2703346,-36.8688193],[147.2704458,-36.8685024],[147.2707639,-36.8679625],[147.270919,-36.8675715],[147.2714176,-36.8670373]]}},{"type":"Feature","id":969751161,"properties":{"kind":"run","name":"Exhibition","subtype":"advanced","status":"active"},"geometry":{"type":"LineString","coordinates":[[147.2661016,-36.8657798],[147.2662034,-36.865577],[147.2666456,-36.8653272],[147.2670255,-36.8651649],[147.267218,-36.865169],[147.2675042,-36.8653022],[147.267884,-36.8654771],[147.2683055,-36.8655728],[147.2686541,-36.8655812],[147.2690444,-36.8653647],[147.2694814,-36.8652648],[147.2699806,-36.8653815],[147.270467,-36.8654646],[147.2711278,-36.8654812],[147.2715087,-36.8655237]]}},{"type":"Feature","id":969751162,"properties":{"kind":"run","name":"The Slot","subtype":"advanced","status":"active"},"geometry":{"type":"LineString","coordinates":[[147.2661899,-36.8654937],[147.2665229,-36.8652481],[147.2670432,-36.8649734],[147.2676676,-36.8646903],[147.2684845,-36.8645571],[147.2690188,-36.864607],[147.2699294,-36.8646029],[147.2702312,-36.864632],[147.2705018,-36.8647611],[147.2710533,-36.8650858],[147.2719899,-36.8654563]]}},{"type":"Feature","id":969751163,"properties":{"kind":"run","name":"Cabbage Patch","subtype":"advanced","status":"active"},"geometry":{"type":"LineString","coordinates":[[147.2676676,-36.8646903],[147.2680094,-36.8645071],[147.2685505,-36.8643739],[147.2692374,-36.864249],[147.2698826,-36.8642782],[147.2704913,-36.8643406],[147.271506,-36.8646362],[147.271865,-36.8650317],[147.2719899,-36.8654563]]}},{"type":"Feature","id":969751164,"properties":{"kind":"run","name":"Rapunzel's","subtype":"intermediate","status":"active"},"geometry":{"type":"LineString","coordinates":[[147.2800479,-36.8724349],[147.2796994,-36.8726232],[147.2794956,-36.8729422],[147.279407,-36.87397],[147.2792475,-36.8748135],[147.2788577,-36.8754089],[147.2786539,-36.8763445],[147.2786804,-36.876882],[147.2788665,-36.877208],[147.2792001,-36.8779235]]}},{"type":"Feature","id":969751165,"properties":{"kind":"run","name":"Nastar Race Course","subtype":"intermediate","status":"active"},"geometry":{"type":"LineString","coordinates":[[147.2807716,-36.8731678],[147.2809842,-36.8734017],[147.2810462,-36.8736498],[147.280807,-36.8740822],[147.2808425,-36.874309],[147.281064,-36.8745358],[147.2810551,-36.8749469],[147.2808868,-36.8752446],[147.2806298,-36.8754431],[147.2806121,-36.8756557],[147.2808247,-36.8759747],[147.2809622,-36.876296]]}},{"type":"Feature","id":969751166,"properties":{"kind":"run","name":"Quartz Ridge","subtype":"intermediate","status":"active"},"geometry":{"type":"LineString","coordinates":[[147.2777944,-36.8729906],[147.277356,-36.8733525],[147.2772533,-36.8739241],[147.2770058,-36.87455],[147.276906,-36.8750546],[147.2767842,-36.875514],[147.2765627,-36.8758542],[147.2762969,-36.8763291],[147.2762792,-36.8769103],[147.2761024,-36.8780183]]}},{"type":"Feature","id":969751167,"properties":{"kind":"run","name":"Powderkeg","subtype":"intermediate","status":"active"},"geometry":{"type":"LineString","coordinates":[[147.2775374,-36.8714879],[147.2771564,-36.8718706],[147.2768994,-36.8721754],[147.2766248,-36.873019],[147.2761994,-36.8741602],[147.2758184,-36.8750958],[147.2756501,-36.8754006],[147.2754906,-36.8757479],[147.2754729,-36.8762157],[147.2756412,-36.8766693],[147.2758539,-36.8772647],[147.2761024,-36.8780183]]}},{"type":"Feature","id":969751168,"properties":{"kind":"run","name":"Hi Five","subtype":"easy","status":"active"},"geometry":{"type":"LineString","coordinates":[[147.2748438,-36.873586],[147.2751716,-36.8736569],[147.2760222,-36.8735293],[147.2763146,-36.8733237],[147.2768463,-36.8729977],[147.2774488,-36.8724802],[147.2780779,-36.8722605]]}},{"type":"Feature","id":969751169,"properties":{"kind":"run","name":"Shadow Ridge","subtype":"intermediate","status":"active"},"geometry":{"type":"LineString","coordinates":[[147.2762969,-36.8718636],[147.2758893,-36.8722959],[147.2750709,-36.8736112],[147.2749058,-36.8738766],[147.2743653,-36.8744153],[147.274064,-36.8750249],[147.2738248,-36.875592],[147.2732222,-36.8763433],[147.2730716,-36.8766037],[147.2725488,-36.8768234],[147.2719552,-36.8770573],[147.2711223,-36.8774543],[147.2707255,-36.8777252],[147.270506,-36.8779241]]}},{"type":"Feature","id":969751170,"properties":{"kind":"run","name":"Dark Side","subtype":"intermediate","status":"active"},"geometry":{"type":"LineString","coordinates":[[147.2750709,-36.8736112],[147.2751007,-36.8739669],[147.2749855,-36.8748317],[147.2747729,-36.8752924],[147.2745957,-36.8757531],[147.2746276,-36.8758892],[147.2747267,-36.8763121]]}},{"type":"Feature","id":969751171,"properties":{"kind":"run","name":"Lower Denis","subtype":"intermediate","status":"active"},"geometry":{"type":"LineString","coordinates":[[147.2747267,-36.8763121],[147.2742767,-36.8766179],[147.2733552,-36.8771707],[147.2725311,-36.8777023],[147.2716982,-36.8778157],[147.2705764,-36.8780661]]}},{"type":"Feature","id":969751172,"properties":{"kind":"run","name":"Scotty's","subtype":"intermediate","status":"active"},"geometry":{"type":"LineString","coordinates":[[147.2738425,-36.8718121],[147.2739665,-36.8722303],[147.273683,-36.8728541],[147.2733906,-36.8735771],[147.2728501,-36.8743072],[147.2724159,-36.8749947],[147.2718311,-36.8759325],[147.271459,-36.8767051],[147.2707255,-36.8777252]]}},{"type":"Feature","id":969751173,"properties":{"kind":"run","name":"Race Course","subtype":"intermediate","status":"active"},"geometry":{"type":"LineString","coordinates":[[147.2738425,-36.8718121],[147.2737893,-36.8721545],[147.2732577,-36.8728633],[147.2726906,-36.8739053],[147.272159,-36.8741675],[147.2717248,-36.8747629],[147.2712286,-36.8759183],[147.2709628,-36.8766129],[147.270564,-36.8773113],[147.270549,-36.877472],[147.270506,-36.8779241]]}},{"type":"Feature","id":969751174,"properties":{"kind":"run","name":"Sundown","subtype":"intermediate","status":"active"},"geometry":{"type":"LineString","coordinates":[[147.2734172,-36.8715203],[147.2730389,-36.8716226],[147.2727881,-36.8716904],[147.2720438,-36.8724347],[147.2714412,-36.8737673],[147.2710514,-36.8748832],[147.2708033,-36.8758684],[147.2706172,-36.8765914],[147.270549,-36.877472]]}},{"type":"Feature","id":969751175,"properties":{"kind":"run","name":"Father Fosters","subtype":"intermediate","status":"active"},"geometry":{"type":"LineString","coordinates":[[147.2637987,-36.8751034],[147.2640971,-36.8748923],[147.2648765,-36.8749328],[147.2660406,-36.8754267],[147.2666985,-36.876285],[147.267903,-36.8774833],[147.2687533,-36.8781634],[147.2689691,-36.8784208],[147.2691571,-36.8786695]]}},{"type":"Feature","id":969751176,"properties":{"kind":"run","name":"Ruined Castle","subtype":"intermediate","status":"active"},"geometry":{"type":"LineString","coordinates":[[147.2640971,-36.8748923],[147.2645526,-36.8747061],[147.2652915,-36.8745846],[147.2657268,-36.8748032],[147.2663516,-36.8751019],[147.2670245,-36.8755375],[147.2675791,-36.8759935],[147.2686115,-36.8769084],[147.269148,-36.8776048],[147.26918,-36.8780613],[147.2689691,-36.8784208]]}},{"type":"Feature","id":969751177,"properties":{"kind":"run","name":"To Ruined Castle","subtype":"intermediate","status":"active"},"geometry":{"type":"LineString","coordinates":[[147.2730389,-36.8716226],[147.2717696,-36.8715481],[147.2705752,-36.8718072],[147.2692391,-36.8724307],[147.2682876,-36.8732081],[147.2669414,-36.8747061],[147.2670245,-36.8755375]]}},{"type":"Feature","id":969751178,"properties":{"kind":"run","name":"St Elmos Slide","subtype":"advanced","status":"active"},"geometry":{"type":"LineString","coordinates":[[147.2637987,-36.8751034],[147.2638441,-36.8753133],[147.2640364,-36.8757425],[147.2652207,-36.876706],[147.266577,-36.8775319],[147.2676297,-36.8783497],[147.2682876,-36.8786249],[147.269164,-36.8787421]]}},{"type":"Feature","id":969751179,"properties":{"kind":"run","name":"Big Dipper","subtype":"intermediate","status":"active"},"geometry":{"type":"LineString","coordinates":[[147.2637987,-36.8751034],[147.2634088,-36.8754105],[147.263257,-36.8762283],[147.2636012,-36.8769894],[147.2645526,-36.8776776],[147.2655446,-36.8784225],[147.2667289,-36.8787545],[147.2681257,-36.8788193],[147.2686293,-36.8787818],[147.269164,-36.8787421]]}},{"type":"Feature","id":969751180,"properties":{"kind":"run","name":"South Face","subtype":"intermediate","status":"active"},"geometry":{"type":"LineString","coordinates":[[147.2634088,-36.8754105],[147.2628623,-36.8757101],[147.2621942,-36.8759125],[147.2617286,-36.876455],[147.262012,-36.8773457],[147.2626801,-36.8783173],[147.2634898,-36.8789002],[147.2646943,-36.8794589],[147.2665365,-36.8795803],[147.2676904,-36.8793779],[147.2686293,-36.8787818]]}},{"type":"Feature","id":969751181,"properties":{"kind":"run","name":"Unnamed","subtype":"novice","status":"active"},"geometry":{"type":"LineString","coordinates":[[147.2785963,-36.8722434],[147.2780588,-36.8730476]]}},{"type":"Feature","id":969751182,"properties":{"kind":"run","name":"Milky Way","subtype":"intermediate","status":"active"},"geometry":{"type":"LineString","coordinates":[[147.2803683,-36.8692764],[147.2803838,-36.868958],[147.2805264,-36.8685831],[147.2806826,-36.8681703],[147.2806283,-36.8677575],[147.2807844,-36.8672631],[147.2809814,-36.8667742],[147.2811715,-36.8662853],[147.281382,-36.8657693],[147.2814159,-36.865389],[147.2817203,-36.8649267],[147.2817962,-36.8648049],[147.2817634,-36.8645069]]}},{"type":"Feature","id":969751183,"properties":{"kind":"run","name":"Skyline","subtype":"intermediate","status":"active"},"geometry":{"type":"LineString","coordinates":[[147.2660772,-36.8652395],[147.2668377,-36.8645659],[147.2679784,-36.8636586],[147.2685639,-36.863186],[147.2691954,-36.8628397],[147.2698404,-36.8625776],[147.2702085,-36.8625323],[147.2702818,-36.8625232],[147.2703705,-36.8625377],[147.2707163,-36.8625939],[147.2713013,-36.8628015],[147.2716805,-36.8629361]]}},{"type":"Feature","id":969751184,"properties":{"kind":"run","name":"Village Run","subtype":"intermediate","status":"active"},"geometry":{"type":"LineString","coordinates":[[147.2716805,-36.8629361],[147.2718027,-36.8631317],[147.271762,-36.8633979],[147.2717724,-36.8637505],[147.2717756,-36.8638596],[147.2721015,-36.8644355],[147.2726108,-36.8646528],[147.2733712,-36.864756]]}},{"type":"Feature","id":969751185,"properties":{"kind":"run","name":"Short & Curly","subtype":"intermediate","status":"active"},"geometry":{"type":"LineString","coordinates":[[147.2716805,-36.8629361],[147.2719589,-36.8630502],[147.2722916,-36.8633327],[147.2727398,-36.8636369],[147.2729163,-36.8639411],[147.2729367,-36.8641693],[147.2732015,-36.864517],[147.2733712,-36.864756]]}},{"type":"Feature","id":969751186,"properties":{"kind":"run","name":"Apres Vous","subtype":"advanced","status":"active"},"geometry":{"type":"LineString","coordinates":[[147.2703705,-36.8625377],[147.2707231,-36.8628927],[147.2711034,-36.8632186],[147.2713003,-36.8634902],[147.2717724,-36.8637505]]}},{"type":"Feature","id":969751187,"properties":{"kind":"run","name":"Widow Maker","subtype":"advanced","status":"active"},"geometry":{"type":"LineString","coordinates":[[147.2702085,-36.8625323],[147.270793,-36.8623737],[147.2711632,-36.8622733],[147.2718829,-36.862219],[147.2729163,-36.8621973],[147.2735373,-36.8621766],[147.274383,-36.8621484],[147.2758971,-36.8620995],[147.2759615,-36.86209],[147.2766305,-36.8619908]]}},{"type":"Feature","id":969751188,"properties":{"kind":"run","name":"International","subtype":"advanced","status":"active"},"geometry":{"type":"LineString","coordinates":[[147.270793,-36.8623737],[147.2713261,-36.8624852],[147.2720934,-36.8625232],[147.273173,-36.8625395],[147.2736926,-36.8625017],[147.2740693,-36.8624743],[147.2747619,-36.862382],[147.275339,-36.8623711],[147.2759615,-36.86209]]}},{"type":"Feature","id":969751189,"properties":{"kind":"run","name":"Grand Couer","subtype":"advanced","status":"active"},"geometry":{"type":"LineString","coordinates":[[147.2713013,-36.8628015],[147.2716453,-36.8627079],[147.2723039,-36.8626428],[147.2729557,-36.8628764],[147.2735207,-36.8631592],[147.2738111,-36.8631391],[147.2740761,-36.8631208],[147.274122,-36.8630941],[147.2744224,-36.8629198],[147.2748791,-36.8626826],[147.2749844,-36.8626279],[147.275339,-36.8623711]]}},{"type":"Feature","id":969751190,"properties":{"kind":"run","name":"Zipper","subtype":"intermediate","status":"active"},"geometry":{"type":"LineString","coordinates":[[147.2655717,-36.865051],[147.2656803,-36.8647718],[147.2662776,-36.8642505],[147.2671825,-36.8636069],[147.2673945,-36.8634562],[147.26824,-36.862848],[147.2688062,-36.8624943],[147.2691439,-36.862194],[147.2696129,-36.8619233],[147.2701016,-36.8618737],[147.2714528,-36.8618011],[147.2716827,-36.8617887],[147.2728385,-36.8617329],[147.2733348,-36.8617292],[147.273668,-36.8617267],[147.2742731,-36.8616584],[147.2749479,-36.8616336],[147.2754598,-36.8616646],[147.2760959,-36.8617267],[147.2765782,-36.8617824]]}},{"type":"Feature","id":969751191,"properties":{"kind":"run","name":"Chainsaw","subtype":"advanced","status":"active"},"geometry":{"type":"LineString","coordinates":[[147.2714528,-36.8618011],[147.2717754,-36.8616894],[147.2721555,-36.8615715],[147.2726054,-36.8614908],[147.2730242,-36.861497],[147.273167,-36.8614707],[147.2734276,-36.8614226],[147.2738154,-36.8612612],[147.2742188,-36.8611619],[147.2743475,-36.8611104],[147.2747462,-36.8609509],[147.275134,-36.8608454],[147.2754788,-36.8608538]]}},{"type":"Feature","id":969751192,"properties":{"kind":"run","name":"Yeti","subtype":"advanced","status":"active"},"geometry":{"type":"LineString","coordinates":[[147.2711859,-36.8607275],[147.2715195,-36.8607027],[147.2722098,-36.8607709],[147.2725899,-36.8609819],[147.2728458,-36.8611867],[147.273167,-36.8614707],[147.2733348,-36.8617292],[147.2735373,-36.8621766],[147.2736926,-36.8625017]]}},{"type":"Feature","id":969751193,"properties":{"kind":"run","name":"Valley of the Moon","subtype":"advanced","status":"active"},"geometry":{"type":"LineString","coordinates":[[147.2671825,-36.8636069],[147.2678506,-36.8621238],[147.2688822,-36.8614164],[147.2699216,-36.8609571],[147.2708059,-36.8607771],[147.2711859,-36.8607275]]}},{"type":"Feature","id":969751194,"properties":{"kind":"run","name":"Wishing Well","subtype":"intermediate","status":"active"},"geometry":{"type":"LineString","coordinates":[[147.2656803,-36.8647718],[147.2657261,-36.8645228],[147.2659381,-36.8640208],[147.266145,-36.863842],[147.2662195,-36.8633618],[147.2661624,-36.8629637],[147.2660821,-36.862431],[147.2661441,-36.86186],[147.2666638,-36.8613139],[147.2675481,-36.8606933],[147.2679282,-36.8602713],[147.2682229,-36.8601359],[147.2690141,-36.8599125],[147.2692963,-36.8598486],[147.2698906,-36.8597139],[147.2703948,-36.859627],[147.2706352,-36.8594409],[147.2707876,-36.8592783],[147.270961,-36.8590933],[147.271248,-36.8588202],[147.271361,-36.8585596],[147.2714852,-36.85833],[147.2716791,-36.858212],[147.271842,-36.8581996],[147.272129,-36.8581003],[147.2723461,-36.8578272],[147.2727185,-36.8578024],[147.2729124,-36.8578707],[147.2732769,-36.8581686]]}},{"type":"Feature","id":969751195,"properties":{"kind":"run","name":"Last Tango","subtype":"intermediate","status":"active"},"geometry":{"type":"LineString","coordinates":[[147.2732769,-36.8581686],[147.2733946,-36.8583157],[147.2736492,-36.8586341],[147.2741612,-36.8591678],[147.2742335,-36.8592224],[147.2745092,-36.8594306],[147.2747119,-36.8595836],[147.2749125,-36.8599004],[147.2750279,-36.8601772],[147.2751218,-36.8604819],[147.2754788,-36.8608538],[147.2756859,-36.8609781],[147.2762778,-36.8614069],[147.2765782,-36.8617824]]}},{"type":"Feature","id":969751196,"properties":{"kind":"run","name":"Rollercoaster","subtype":"advanced","status":"active"},"geometry":{"type":"LineString","coordinates":[[147.2692963,-36.8598486],[147.2696967,-36.8599424],[147.2702862,-36.8599238],[147.2709067,-36.8597314],[147.2712092,-36.8596321],[147.2717599,-36.8594893],[147.2723649,-36.8594335],[147.2728846,-36.8594273],[147.2732523,-36.8593874],[147.2736758,-36.8593156],[147.2742335,-36.8592224]]}},{"type":"Feature","id":969751197,"properties":{"kind":"run","name":"Black & Blue","subtype":"advanced","status":"active"},"geometry":{"type":"LineString","coordinates":[[147.2707876,-36.8592783],[147.2712402,-36.8590611],[147.2716746,-36.8588687],[147.2718252,-36.8588121],[147.2721865,-36.8586763],[147.2728381,-36.8585336],[147.2733946,-36.8583157]]}},{"type":"Feature","id":969751198,"properties":{"kind":"run","name":"Bee Sting","subtype":"advanced","status":"active"},"geometry":{"type":"LineString","coordinates":[[147.2718252,-36.8588121],[147.2720547,-36.8586205],[147.2720702,-36.8584715],[147.2720624,-36.8582667],[147.272129,-36.8581003]]}},{"type":"Feature","id":969751199,"properties":{"kind":"run","name":"Jigsaw","subtype":"advanced","status":"active"},"geometry":{"type":"LineString","coordinates":[[147.2682229,-36.8601359],[147.2689831,-36.8601162],[147.2696889,-36.8601782],[147.2704103,-36.8603272],[147.2711471,-36.8602899],[147.2718995,-36.8601534],[147.272489,-36.8599982],[147.2730242,-36.8597872],[147.2734682,-36.8597851],[147.2738542,-36.8596755],[147.27418,-36.8594956],[147.2745092,-36.8594306]]}},{"type":"Feature","id":969751200,"properties":{"kind":"run","name":"The Hollow","subtype":"advanced","status":"active"},"geometry":{"type":"LineString","coordinates":[[147.2711859,-36.8607275],[147.2712712,-36.8605878],[147.2714341,-36.8603582],[147.2715582,-36.8602713],[147.2719855,-36.8603134],[147.272281,-36.8604503],[147.2727993,-36.8604885],[147.2734819,-36.8607368],[147.2740791,-36.8609416],[147.2743475,-36.8611104]]}},{"type":"Feature","id":1205669729,"properties":{"kind":"run","name":"Boomerang","subtype":"intermediate","status":"active"},"geometry":{"type":"LineString","coordinates":[[147.262012,-36.8773457],[147.2619082,-36.8779205],[147.2619297,-36.8783325],[147.2621979,-36.8788131],[147.2627558,-36.8793366],[147.2635926,-36.8796884],[147.2648264,-36.8797914],[147.2665365,-36.8795803]]}},{"type":"Feature","id":1205669730,"properties":{"kind":"run","name":"Rock Garden","subtype":"advanced","status":"active"},"geometry":{"type":"LineString","coordinates":[[147.2685639,-36.863186],[147.2687854,-36.863235],[147.2690482,-36.8632736],[147.2693701,-36.8632908],[147.2697295,-36.8633037],[147.2702069,-36.8632608],[147.2706737,-36.8632393],[147.2711034,-36.8632186]]}},{"type":"Feature","id":1205669731,"properties":{"kind":"run","name":"Le Plunge","subtype":"advanced","status":"active"},"geometry":{"type":"LineString","coordinates":[[147.2736492,-36.8586341],[147.2738923,-36.8586211],[147.2742088,-36.8585953],[147.2745253,-36.8585438],[147.2747023,-36.8585138],[147.2749491,-36.8585352],[147.27511,-36.858694],[147.2752173,-36.8589172],[147.2752549,-36.8592134],[147.2753031,-36.8596297],[147.2753675,-36.8600718],[147.2756089,-36.8605568],[147.2757913,-36.8608959],[147.2758513,-36.8610935]]}},{"type":"Feature","id":1205669732,"properties":{"kind":"run","name":"Eagle Rock","subtype":"freeride","status":"active"},"geometry":{"type":"LineString","coordinates":[[147.2734174,-36.8692347],[147.2734739,-36.8689645],[147.2734417,-36.8685697],[147.2733612,-36.8681448],[147.2732969,-36.8677199],[147.2731599,-36.8673326]]}},{"type":"Feature","id":1205669733,"properties":{"kind":"run","name":"Stiletto","subtype":"advanced","status":"active"},"geometry":{"type":"LineString","coordinates":[[147.2731599,-36.8695505],[147.2727872,-36.8691791],[147.2726853,-36.8686083],[147.2725566,-36.8682263],[147.2724707,-36.8677371],[147.2723634,-36.8673532]]}},{"type":"Feature","id":1205669734,"properties":{"kind":"run","name":"Adrenaline","subtype":"advanced","status":"active"},"geometry":{"type":"LineString","coordinates":[[147.2722186,-36.8694065],[147.272063,-36.8689688],[147.2719879,-36.8687199],[147.2719772,-36.8684281],[147.2719987,-36.8681877],[147.2719718,-36.8677929],[147.2719772,-36.8674796],[147.2720785,-36.8673532]]}},{"type":"Feature","id":1205669735,"properties":{"kind":"run","name":"Unnamed","subtype":"unknown","status":"active"},"geometry":{"type":"LineString","coordinates":[[147.2661875,-36.8660388],[147.2663499,-36.8672521],[147.2664733,-36.8679431],[147.2666986,-36.8684581],[147.2671009,-36.8689087],[147.2675837,-36.8693293],[147.2681577,-36.8696726],[147.2688444,-36.8699516],[147.2691932,-36.8700738],[147.2696702,-36.8701157],[147.270283,-36.8700413],[147.270856,-36.8698271],[147.2716875,-36.8695267],[147.2722186,-36.8694065],[147.2731599,-36.8695505]]}},{"type":"Feature","id":1205669736,"properties":{"kind":"run","name":"Vertigo Valley","subtype":"intermediate","status":"active"},"geometry":{"type":"LineString","coordinates":[[147.2692391,-36.8724307],[147.2693272,-36.8728783],[147.2695096,-36.8735392],[147.2695418,-36.8740971],[147.2695525,-36.8748523],[147.2695525,-36.8755046],[147.2693916,-36.8763285],[147.2691341,-36.8773584],[147.269148,-36.8776048]]}},{"type":"Feature","id":1205669737,"properties":{"kind":"run","name":"Funnel","subtype":"intermediate","status":"active"},"geometry":{"type":"LineString","coordinates":[[147.2747267,-36.8763121],[147.2747989,-36.8767405],[147.2750778,-36.8771352],[147.2756679,-36.8776244],[147.2761024,-36.8780183]]}},{"type":"Feature","id":1205669738,"properties":{"kind":"run","name":"Corkscrew Gully","subtype":"intermediate","status":"active"},"geometry":{"type":"LineString","coordinates":[[147.2745439,-36.8733599],[147.2743161,-36.8736422],[147.274005,-36.8740542],[147.2735973,-36.8745005],[147.2732218,-36.8750068],[147.2729857,-36.8754874],[147.2725136,-36.876071],[147.2722025,-36.8764315],[147.2716875,-36.876955],[147.2711223,-36.8774543]]}},{"type":"Feature","id":1205669739,"properties":{"kind":"run","name":"By-pass","subtype":"intermediate","status":"active"},"geometry":{"type":"LineString","coordinates":[[147.2782217,-36.8684671],[147.2783884,-36.8681242],[147.278329,-36.8678724],[147.2783447,-36.8676458],[147.2782739,-36.8674063]]}},{"type":"Feature","id":1205669740,"properties":{"kind":"run","name":"Gully Glades","subtype":"advanced","status":"active"},"geometry":{"type":"LineString","coordinates":[[147.2744224,-36.8629198],[147.2745782,-36.8630659],[147.2748771,-36.8632202],[147.2756502,-36.8633957]]}},{"type":"Feature","id":1205669741,"properties":{"kind":"run","name":"Gully Glades","subtype":"advanced","status":"active"},"geometry":{"type":"LineString","coordinates":[[147.274122,-36.8630941],[147.2742938,-36.8632891],[147.2747176,-36.8635594],[147.2752115,-36.8638332]]}},{"type":"Feature","id":1205669742,"properties":{"kind":"run","name":"Gully Glades","subtype":"unknown","status":"active"},"geometry":{"type":"LineString","coordinates":[[147.2738111,-36.8631391],[147.2740417,-36.8634564],[147.2744011,-36.863744],[147.274852,-36.8640703]]}},{"type":"Feature","id":1205669743,"properties":{"kind":"run","name":"Gully Glades","subtype":"unknown","status":"active"},"geometry":{"type":"LineString","coordinates":[[147.2748791,-36.8626826],[147.275238,-36.8629328],[147.2759147,-36.8631866]]}},{"type":"Feature","id":1420321836,"properties":{"kind":"run","name":"Britt Cox's Cut Through","subtype":"intermediate","status":"active"},"geometry":{"type":"LineString","coordinates":[[147.2759729,-36.8749129],[147.2762957,-36.8756406],[147.2779488,-36.8763683],[147.2789955,-36.8779097]]}}]}