{"type":"FeatureCollection","features":[{"type":"Feature","id":"building-170188945","properties":{"kind":"building","name":"Resort building","height":7},"geometry":{"type":"Polygon","coordinates":[[[147.2759146,-36.8711847],[147.2758991,-36.8712105],[147.2759337,-36.8712238],[147.2759492,-36.8711979],[147.2759146,-36.8711847]]]}},{"type":"Feature","id":"building-170188947","properties":{"kind":"building","name":"Resort building","height":7},"geometry":{"type":"Polygon","coordinates":[[[147.2746656,-36.8731253],[147.2746112,-36.8731774],[147.274644,-36.8731993],[147.2746984,-36.8731473],[147.2746656,-36.8731253]]]}},{"type":"Feature","id":"building-170188948","properties":{"kind":"building","name":"Ski Patrol Base","height":7},"geometry":{"type":"Polygon","coordinates":[[[147.2758835,-36.8710894],[147.2756581,-36.8710278],[147.275622,-36.8711125],[147.2757383,-36.8711442],[147.2757228,-36.8711806],[147.2757793,-36.871196],[147.2757953,-36.8711584],[147.275848,-36.8711728],[147.2758835,-36.8710894]]]}},{"type":"Feature","id":"building-170188949","properties":{"kind":"building","name":"Cloud 9","height":7},"geometry":{"type":"Polygon","coordinates":[[[147.2792557,-36.87163],[147.2791521,-36.8718611],[147.278912,-36.8717923],[147.2788785,-36.8718671],[147.2787389,-36.8718271],[147.2787754,-36.8717457],[147.2786712,-36.8717158],[147.2787293,-36.8715862],[147.2787555,-36.8715937],[147.2787959,-36.8715035],[147.278926,-36.8715408],[147.2789412,-36.8715071],[147.2790712,-36.8715443],[147.2791301,-36.8714128],[147.2795791,-36.8715415],[147.2795071,-36.8717021],[147.2792557,-36.87163]]]}},{"type":"Feature","id":"building-170188952","properties":{"kind":"building","name":"Resort building","height":7},"geometry":{"type":"Polygon","coordinates":[[[147.2799083,-36.8724355],[147.2798937,-36.8724904],[147.279926,-36.8724959],[147.2799406,-36.872441],[147.2799083,-36.8724355]]]}},{"type":"Feature","id":"building-170188953","properties":{"kind":"building","name":"Resort building","height":7},"geometry":{"type":"Polygon","coordinates":[[[147.2746698,-36.8734092],[147.2746529,-36.873441],[147.2746877,-36.8734528],[147.2747046,-36.8734211],[147.2746698,-36.8734092]]]}},{"type":"Feature","id":"building-170190395","properties":{"kind":"building","name":"Resort building","height":7},"geometry":{"type":"Polygon","coordinates":[[[147.2875011,-36.873686],[147.2874818,-36.8736806],[147.287466,-36.8736701],[147.2874587,-36.8736616],[147.2874524,-36.873646],[147.2874531,-36.8736297],[147.2874622,-36.8736127],[147.2874766,-36.873601],[147.2874952,-36.8735939],[147.2875156,-36.8735924],[147.287538,-36.8735976],[147.2875543,-36.8736076],[147.2875653,-36.8736214],[147.2875695,-36.8736345],[147.287568,-36.8736509],[147.2875581,-36.8736677],[147.2875431,-36.8736789],[147.2875243,-36.8736854],[147.2875011,-36.873686]]]}},{"type":"Feature","id":"building-170190417","properties":{"kind":"building","name":"Resort building","height":7},"geometry":{"type":"Polygon","coordinates":[[[147.2875195,-36.8736966],[147.2875019,-36.8737055],[147.2874874,-36.8737218],[147.2874825,-36.873738],[147.2874849,-36.8737545],[147.2874912,-36.873766],[147.287505,-36.8737785],[147.2875218,-36.873786],[147.2875423,-36.8737889],[147.287557,-36.8737875],[147.287576,-36.8737807],[147.287591,-36.8737691],[147.2875972,-36.8737605],[147.2876023,-36.8737444],[147.287597,-36.873721],[147.2875851,-36.8737072],[147.2875699,-36.8736983],[147.28755,-36.8736933],[147.2875195,-36.8736966]]]}},{"type":"Feature","id":"building-178745638","properties":{"kind":"building","name":"Resort building","height":7},"geometry":{"type":"Polygon","coordinates":[[[147.2759459,-36.8646309],[147.276011,-36.8648192],[147.2757848,-36.8648693],[147.2757197,-36.864681],[147.2759459,-36.8646309]]]}},{"type":"Feature","id":"building-178745639","properties":{"kind":"building","name":"Resort building","height":7},"geometry":{"type":"Polygon","coordinates":[[[147.2749205,-36.8652751],[147.2748459,-36.8652185],[147.2750033,-36.8650859],[147.2750779,-36.8651425],[147.2749205,-36.8652751]]]}},{"type":"Feature","id":"building-178745640","properties":{"kind":"building","name":"Resort building","height":7},"geometry":{"type":"Polygon","coordinates":[[[147.2765357,-36.8647591],[147.2763912,-36.8647704],[147.2764137,-36.8649547],[147.2765267,-36.8649459],[147.2765132,-36.864836],[147.2765448,-36.8648336],[147.2765357,-36.8647591]]]}},{"type":"Feature","id":"building-178745641","properties":{"kind":"building","name":"Resort building","height":7},"geometry":{"type":"Polygon","coordinates":[[[147.2748254,-36.8652756],[147.2746359,-36.8654015],[147.2747666,-36.8655275],[147.2749562,-36.8654016],[147.2748254,-36.8652756]]]}},{"type":"Feature","id":"building-178745642","properties":{"kind":"building","name":"Resort building","height":7},"geometry":{"type":"Polygon","coordinates":[[[147.2750975,-36.8650872],[147.275038,-36.8650285],[147.2752262,-36.8649065],[147.2752856,-36.8649652],[147.2750975,-36.8650872]]]}},{"type":"Feature","id":"building-178745643","properties":{"kind":"building","name":"Resort building","height":7},"geometry":{"type":"Polygon","coordinates":[[[147.275371,-36.8649926],[147.2751833,-36.8650938],[147.2752246,-36.8651429],[147.2754124,-36.8650416],[147.275371,-36.8649926]]]}},{"type":"Feature","id":"building-178745644","properties":{"kind":"building","name":"Resort building","height":7},"geometry":{"type":"Polygon","coordinates":[[[147.2752157,-36.8652338],[147.2749784,-36.8653754],[147.2750695,-36.8654731],[147.2753068,-36.8653315],[147.2752157,-36.8652338]]]}},{"type":"Feature","id":"building-178745647","properties":{"kind":"building","name":"Resort building","height":7},"geometry":{"type":"Polygon","coordinates":[[[147.2766513,-36.864834],[147.2769186,-36.8648214],[147.2769369,-36.8649499],[147.2768243,-36.864951],[147.2768258,-36.8649762],[147.2767718,-36.8649799],[147.2767677,-36.8649538],[147.2766644,-36.8649579],[147.2766513,-36.864834]]]}},{"type":"Feature","id":"building-178745648","properties":{"kind":"building","name":"Resort building","height":7},"geometry":{"type":"Polygon","coordinates":[[[147.2754992,-36.8651215],[147.2753053,-36.8652547],[147.2754163,-36.8653581],[147.2756102,-36.8652249],[147.2754992,-36.8651215]]]}},{"type":"Feature","id":"building-178745649","properties":{"kind":"building","name":"Resort building","height":7},"geometry":{"type":"Polygon","coordinates":[[[147.2762705,-36.8648134],[147.2758645,-36.8649289],[147.2759052,-36.8650204],[147.2763112,-36.8649049],[147.2762705,-36.8648134]]]}},{"type":"Feature","id":"building-178745650","properties":{"kind":"building","name":"Resort building","height":7},"geometry":{"type":"Polygon","coordinates":[[[147.2755394,-36.8649299],[147.2753128,-36.8649792],[147.2752872,-36.8649042],[147.2755139,-36.8648548],[147.2755394,-36.8649299]]]}},{"type":"Feature","id":"building-178745651","properties":{"kind":"building","name":"Resort building","height":7},"geometry":{"type":"Polygon","coordinates":[[[147.2761039,-36.8647882],[147.2760216,-36.8646129],[147.2762427,-36.8645465],[147.2763249,-36.8647218],[147.2761039,-36.8647882]]]}},{"type":"Feature","id":"building-178745652","properties":{"kind":"building","name":"Resort building","height":7},"geometry":{"type":"Polygon","coordinates":[[[147.2764071,-36.864505],[147.276364,-36.8643756],[147.2764836,-36.86435],[147.2764934,-36.8643793],[147.276616,-36.8643532],[147.2766493,-36.8644533],[147.2764071,-36.864505]]]}},{"type":"Feature","id":"building-178745797","properties":{"kind":"building","name":"Resort building","height":7},"geometry":{"type":"Polygon","coordinates":[[[147.2739507,-36.8648786],[147.2737094,-36.8649844],[147.2737959,-36.8651107],[147.2740372,-36.8650049],[147.2739507,-36.8648786]]]}},{"type":"Feature","id":"building-178745799","properties":{"kind":"building","name":"Resort building","height":7},"geometry":{"type":"Polygon","coordinates":[[[147.276535,-36.8640985],[147.2763687,-36.8641435],[147.2761944,-36.8641306],[147.2762158,-36.8640255],[147.2763741,-36.8640448],[147.2765288,-36.8640008],[147.276535,-36.8640985]]]}},{"type":"Feature","id":"building-178745800","properties":{"kind":"building","name":"Resort building","height":7},"geometry":{"type":"Polygon","coordinates":[[[147.2802766,-36.8657685],[147.2802198,-36.8658699],[147.2800743,-36.8658177],[147.2801311,-36.8657163],[147.2802766,-36.8657685]]]}},{"type":"Feature","id":"building-178745801","properties":{"kind":"building","name":"Resort building","height":7},"geometry":{"type":"Polygon","coordinates":[[[147.276725,-36.8644154],[147.2767959,-36.864433],[147.2768044,-36.864411],[147.2769997,-36.8644594],[147.2769569,-36.8645699],[147.2767792,-36.8645259],[147.2767674,-36.8645563],[147.2766789,-36.8645344],[147.276725,-36.8644154]]]}},{"type":"Feature","id":"building-178745802","properties":{"kind":"building","name":"Resort building","height":7},"geometry":{"type":"Polygon","coordinates":[[[147.2740143,-36.8650281],[147.2738158,-36.8651206],[147.2738946,-36.8652288],[147.2740931,-36.8651364],[147.2740143,-36.8650281]]]}},{"type":"Feature","id":"building-178745803","properties":{"kind":"building","name":"Resort building","height":15},"geometry":{"type":"Polygon","coordinates":[[[147.2798324,-36.8655683],[147.2796216,-36.8655023],[147.2795288,-36.8656924],[147.2796039,-36.8657159],[147.2795959,-36.8657322],[147.2796701,-36.8657554],[147.2797016,-36.8656908],[147.2797631,-36.8657101],[147.2798324,-36.8655683]]]}},{"type":"Feature","id":"building-178745804","properties":{"kind":"building","name":"Resort building","height":7},"geometry":{"type":"Polygon","coordinates":[[[147.2758623,-36.8638479],[147.275754,-36.8640634],[147.2758376,-36.8640902],[147.2759459,-36.8638747],[147.2758623,-36.8638479]]]}},{"type":"Feature","id":"building-178745805","properties":{"kind":"building","name":"Resort building","height":7},"geometry":{"type":"Polygon","coordinates":[[[147.2777876,-36.8641435],[147.2775435,-36.8642873],[147.2773826,-36.8643195],[147.2774622,-36.8644171],[147.2774952,-36.8643989],[147.2776571,-36.8644349],[147.2778922,-36.8642744],[147.2777876,-36.8641435]]]}},{"type":"Feature","id":"building-178745806","properties":{"kind":"building","name":"Resort building","height":15},"geometry":{"type":"Polygon","coordinates":[[[147.2795258,-36.8655623],[147.2792402,-36.8654713],[147.2792796,-36.8653921],[147.2795652,-36.8654831],[147.2795258,-36.8655623]]]}},{"type":"Feature","id":"building-178745807","properties":{"kind":"building","name":"Resort building","height":7},"geometry":{"type":"Polygon","coordinates":[[[147.2798701,-36.8656186],[147.2800686,-36.8656864],[147.2800164,-36.865784],[147.279818,-36.8657162],[147.2798701,-36.8656186]]]}},{"type":"Feature","id":"building-178745808","properties":{"kind":"building","name":"Bogong Ski Club","height":7},"geometry":{"type":"Polygon","coordinates":[[[147.2741341,-36.8656971],[147.2738599,-36.8658043],[147.2737863,-36.8656837],[147.2740604,-36.8655765],[147.2741341,-36.8656971]]]}},{"type":"Feature","id":"building-178745809","properties":{"kind":"building","name":"Resort building","height":15},"geometry":{"type":"Polygon","coordinates":[[[147.2792265,-36.865399],[147.2791404,-36.865552],[147.2790418,-36.8655164],[147.2790613,-36.8654818],[147.2788949,-36.8654218],[147.2789616,-36.8653035],[147.2792265,-36.865399]]]}},{"type":"Feature","id":"building-178745810","properties":{"kind":"building","name":"Resort building","height":7},"geometry":{"type":"Polygon","coordinates":[[[147.2763928,-36.8654289],[147.2761917,-36.8654997],[147.2760012,-36.8654268],[147.2759717,-36.8653624],[147.2763156,-36.8652597],[147.2763491,-36.8652497],[147.2763867,-36.8653248],[147.2763312,-36.8653452],[147.2763928,-36.8654289]]]}},{"type":"Feature","id":"building-178745811","properties":{"kind":"building","name":"Resort building","height":7},"geometry":{"type":"Polygon","coordinates":[[[147.2730921,-36.8651428],[147.2726457,-36.8651476],[147.272649,-36.865345],[147.2729817,-36.8653414],[147.2729798,-36.8652259],[147.2730935,-36.8652246],[147.2730921,-36.8651428]]]}},{"type":"Feature","id":"building-178745812","properties":{"kind":"building","name":"Resort building","height":7},"geometry":{"type":"Polygon","coordinates":[[[147.2756015,-36.864375],[147.2752861,-36.8644829],[147.2753416,-36.8645868],[147.275657,-36.8644789],[147.2756015,-36.864375]]]}},{"type":"Feature","id":"building-178745813","properties":{"kind":"building","name":"Resort building","height":7},"geometry":{"type":"Polygon","coordinates":[[[147.2741623,-36.8648766],[147.2740405,-36.8649338],[147.2741674,-36.8651067],[147.2742892,-36.8650495],[147.2741623,-36.8648766]]]}},{"type":"Feature","id":"building-178745814","properties":{"kind":"building","name":"Resort building","height":7},"geometry":{"type":"Polygon","coordinates":[[[147.2733652,-36.8652011],[147.2731838,-36.8652026],[147.2731848,-36.8652874],[147.2732308,-36.8652871],[147.2732322,-36.8654],[147.2733676,-36.8653989],[147.2733652,-36.8652011]]]}},{"type":"Feature","id":"building-178745816","properties":{"kind":"building","name":"Resort building","height":7},"geometry":{"type":"Polygon","coordinates":[[[147.2795095,-36.8656019],[147.2794658,-36.8656857],[147.2791751,-36.8655887],[147.2792187,-36.8655049],[147.2795095,-36.8656019]]]}},{"type":"Feature","id":"building-178745817","properties":{"kind":"building","name":"Resort building","height":7},"geometry":{"type":"Polygon","coordinates":[[[147.2804099,-36.8659851],[147.2803178,-36.8658637],[147.280449,-36.8657999],[147.2805412,-36.8659214],[147.2804099,-36.8659851]]]}},{"type":"Feature","id":"building-178745818","properties":{"kind":"building","name":"Resort building","height":7},"geometry":{"type":"Polygon","coordinates":[[[147.2733205,-36.8659727],[147.2734609,-36.8662482],[147.2738505,-36.8661212],[147.2736789,-36.8657843],[147.2735358,-36.8658309],[147.2735485,-36.8658559],[147.2733989,-36.8659047],[147.2734174,-36.8659411],[147.2733205,-36.8659727]]]}},{"type":"Feature","id":"building-178745819","properties":{"kind":"building","name":"Resort building","height":7},"geometry":{"type":"Polygon","coordinates":[[[147.2769821,-36.8655116],[147.2768936,-36.865578],[147.2769312,-36.8656101],[147.2770197,-36.8655437],[147.2769821,-36.8655116]]]}},{"type":"Feature","id":"building-178745820","properties":{"kind":"building","name":"Resort building","height":7},"geometry":{"type":"Polygon","coordinates":[[[147.2759111,-36.863784],[147.2759624,-36.8638486],[147.2762261,-36.8637148],[147.2761749,-36.8636501],[147.2759111,-36.863784]]]}},{"type":"Feature","id":"building-178745821","properties":{"kind":"building","name":"Resort building","height":7},"geometry":{"type":"Polygon","coordinates":[[[147.2762321,-36.8636377],[147.2762417,-36.8637072],[147.2765582,-36.8636795],[147.2765487,-36.8636099],[147.2762321,-36.8636377]]]}},{"type":"Feature","id":"building-178745822","properties":{"kind":"building","name":"Resort building","height":7},"geometry":{"type":"Polygon","coordinates":[[[147.2734081,-36.8649203],[147.2735194,-36.8648343],[147.2736128,-36.8649117],[147.2735015,-36.8649977],[147.2734081,-36.8649203]]]}},{"type":"Feature","id":"building-179561226","properties":{"kind":"building","name":"Resort building","height":7},"geometry":{"type":"Polygon","coordinates":[[[147.2911089,-36.8737036],[147.2910469,-36.873617],[147.2911547,-36.8735676],[147.2912009,-36.8736323],[147.2911545,-36.8736535],[147.2911702,-36.8736755],[147.2911089,-36.8737036]]]}},{"type":"Feature","id":"building-179561230","properties":{"kind":"building","name":"Resort building","height":7},"geometry":{"type":"Polygon","coordinates":[[[147.2907779,-36.8745146],[147.2904991,-36.8745402],[147.2905181,-36.8746721],[147.290847,-36.8746419],[147.2908349,-36.8745581],[147.2907848,-36.8745627],[147.2907779,-36.8745146]]]}},{"type":"Feature","id":"building-179561231","properties":{"kind":"building","name":"Resort building","height":7},"geometry":{"type":"Polygon","coordinates":[[[147.2900305,-36.8737583],[147.2899297,-36.8741447],[147.2898133,-36.8741252],[147.2898469,-36.8739965],[147.2897609,-36.8739822],[147.2897997,-36.8738334],[147.289878,-36.8738465],[147.2899064,-36.8737376],[147.2900305,-36.8737583]]]}},{"type":"Feature","id":"building-179561232","properties":{"kind":"building","name":"Resort building","height":7},"geometry":{"type":"Polygon","coordinates":[[[147.29096,-36.8734912],[147.2908964,-36.873438],[147.2909279,-36.8734139],[147.2909915,-36.8734671],[147.29096,-36.8734912]]]}},{"type":"Feature","id":"building-179561471","properties":{"kind":"building","name":"Resort building","height":7},"geometry":{"type":"Polygon","coordinates":[[[147.2699473,-36.8773516],[147.2698239,-36.8774289],[147.269899,-36.8774889],[147.2699741,-36.8776027],[147.2701565,-36.8775018],[147.2700117,-36.877416],[147.2699473,-36.8773516]]]}},{"type":"Feature","id":"building-179561472","properties":{"kind":"building","name":"Resort building","height":7},"geometry":{"type":"Polygon","coordinates":[[[147.2787224,-36.878114],[147.2786998,-36.8781705],[147.2785987,-36.8781445],[147.2786214,-36.878088],[147.2787224,-36.878114]]]}},{"type":"Feature","id":"building-179561473","properties":{"kind":"building","name":"Resort building","height":7},"geometry":{"type":"Polygon","coordinates":[[[147.2934984,-36.8733733],[147.2935078,-36.8734331],[147.2936034,-36.8734234],[147.2935939,-36.8733636],[147.2934984,-36.8733733]]]}},{"type":"Feature","id":"building-179561475","properties":{"kind":"building","name":"Resort building","height":7},"geometry":{"type":"Polygon","coordinates":[[[147.2692419,-36.8786593],[147.2692045,-36.8786985],[147.2691571,-36.8786695],[147.2691944,-36.8786303],[147.2692419,-36.8786593]]]}},{"type":"Feature","id":"building-179561476","properties":{"kind":"building","name":"Resort building","height":7},"geometry":{"type":"Polygon","coordinates":[[[147.279746,-36.8780324],[147.2794831,-36.8780069],[147.279471,-36.8780868],[147.279498,-36.8780894],[147.2794721,-36.8783095],[147.2797836,-36.8783455],[147.2797955,-36.8782285],[147.2797209,-36.8782211],[147.2797346,-36.8781077],[147.279746,-36.8780324]]]}},{"type":"Feature","id":"building-179561477","properties":{"kind":"building","name":"Resort building","height":7},"geometry":{"type":"Polygon","coordinates":[[[147.269506,-36.8785968],[147.2694879,-36.8786361],[147.2695404,-36.8786516],[147.2695586,-36.8786123],[147.269506,-36.8785968]]]}},{"type":"Feature","id":"building-179561479","properties":{"kind":"building","name":"Resort building","height":7},"geometry":{"type":"Polygon","coordinates":[[[147.2871926,-36.8708324],[147.2871725,-36.8707121],[147.287222,-36.8707068],[147.2872422,-36.870827],[147.2871926,-36.8708324]]]}},{"type":"Feature","id":"building-179561480","properties":{"kind":"building","name":"Resort building","height":7},"geometry":{"type":"Polygon","coordinates":[[[147.270412,-36.877882],[147.2703903,-36.8779326],[147.2703556,-36.8779231],[147.2703774,-36.8778725],[147.270412,-36.877882]]]}},{"type":"Feature","id":"building-179561481","properties":{"kind":"building","name":"Resort building","height":7},"geometry":{"type":"Polygon","coordinates":[[[147.2788527,-36.8781724],[147.2787977,-36.8781675],[147.2787931,-36.8782007],[147.2788481,-36.8782055],[147.2788527,-36.8781724]]]}},{"type":"Feature","id":"building-179561482","properties":{"kind":"building","name":"Resort building","height":7},"geometry":{"type":"Polygon","coordinates":[[[147.2790301,-36.8782414],[147.2789228,-36.8782386],[147.278926,-36.8781624],[147.2790332,-36.8781653],[147.2790301,-36.8782414]]]}},{"type":"Feature","id":"building-180643672","properties":{"kind":"building","name":"Resort building","height":7},"geometry":{"type":"Polygon","coordinates":[[[147.2722483,-36.8659743],[147.2720902,-36.8660576],[147.2721141,-36.8660865],[147.2720148,-36.8661389],[147.2720802,-36.8662183],[147.2721854,-36.8661628],[147.2722111,-36.866194],[147.2723632,-36.8661137],[147.2722483,-36.8659743]]]}},{"type":"Feature","id":"building-180643678","properties":{"kind":"building","name":"Resort building","height":7},"geometry":{"type":"Polygon","coordinates":[[[147.2721304,-36.8663757],[147.2718458,-36.8664186],[147.2718112,-36.8662714],[147.2720957,-36.8662285],[147.2721304,-36.8663757]]]}},{"type":"Feature","id":"building-332873603","properties":{"kind":"building","name":"Gebi's Apartments","height":10},"geometry":{"type":"Polygon","coordinates":[[[147.2767954,-36.8621971],[147.2770237,-36.8620406],[147.2769136,-36.8619378],[147.2766853,-36.8620944],[147.2767954,-36.8621971]]]}},{"type":"Feature","id":"building-421268369","properties":{"kind":"building","name":"Resort building","height":7},"geometry":{"type":"Polygon","coordinates":[[[147.280545,-36.8653407],[147.2806865,-36.8655485],[147.2806033,-36.8655847],[147.2805693,-36.8655347],[147.2805266,-36.8655533],[147.2804193,-36.8653955],[147.280545,-36.8653407]]]}},{"type":"Feature","id":"building-421269629","properties":{"kind":"building","name":"Attunga Mountain Lodge","height":7},"geometry":{"type":"Polygon","coordinates":[[[147.280394,-36.8653169],[147.280331,-36.8654565],[147.2801699,-36.86541],[147.2802329,-36.8652703],[147.280394,-36.8653169]]]}},{"type":"Feature","id":"building-421269630","properties":{"kind":"building","name":"Resort building","height":7},"geometry":{"type":"Polygon","coordinates":[[[147.280103,-36.8653082],[147.2801018,-36.8653945],[147.280068,-36.8653942],[147.2800676,-36.8654238],[147.2799969,-36.8654232],[147.2799975,-36.8653827],[147.2799289,-36.8653821],[147.27993,-36.8653066],[147.280103,-36.8653082]]]}},{"type":"Feature","id":"building-421269631","properties":{"kind":"building","name":"Resort building","height":15},"geometry":{"type":"Polygon","coordinates":[[[147.2799098,-36.8651794],[147.2798276,-36.8653474],[147.2796674,-36.8652973],[147.2797496,-36.8651293],[147.2799098,-36.8651794]]]}},{"type":"Feature","id":"building-421269632","properties":{"kind":"building","name":"Resort building","height":15},"geometry":{"type":"Polygon","coordinates":[[[147.2797893,-36.8648402],[147.279713,-36.8650071],[147.2794303,-36.8649243],[147.2794148,-36.8649582],[147.2790191,-36.8648424],[147.2790367,-36.864804],[147.2795007,-36.8647557],[147.2797893,-36.8648402]]]}},{"type":"Feature","id":"building-421269633","properties":{"kind":"building","name":"Resort building","height":15},"geometry":{"type":"Polygon","coordinates":[[[147.2796709,-36.8650917],[147.2795949,-36.8652659],[147.279451,-36.8652257],[147.2794626,-36.8651991],[147.2793867,-36.8651779],[147.279451,-36.8650303],[147.2796709,-36.8650917]]]}},{"type":"Feature","id":"building-421269634","properties":{"kind":"building","name":"Resort building","height":15},"geometry":{"type":"Polygon","coordinates":[[[147.2793227,-36.8650957],[147.2792777,-36.8651853],[147.2790286,-36.8651052],[147.279071,-36.865021],[147.2791328,-36.8650409],[147.2791232,-36.86506],[147.2792542,-36.8651022],[147.2792666,-36.8650777],[147.2793227,-36.8650957]]]}},{"type":"Feature","id":"building-421269635","properties":{"kind":"building","name":"Resort building","height":15},"geometry":{"type":"Polygon","coordinates":[[[147.278963,-36.8648699],[147.2789724,-36.8650288],[147.2787884,-36.8650358],[147.2787823,-36.8649321],[147.2788541,-36.8649294],[147.2788508,-36.8648742],[147.278963,-36.8648699]]]}},{"type":"Feature","id":"building-421269636","properties":{"kind":"building","name":"Resort building","height":15},"geometry":{"type":"Polygon","coordinates":[[[147.278765,-36.8648157],[147.2786861,-36.8649911],[147.2785624,-36.8649555],[147.2785746,-36.8649282],[147.2785326,-36.8649161],[147.2785992,-36.864768],[147.278765,-36.8648157]]]}},{"type":"Feature","id":"building-456496743","properties":{"kind":"building","name":"Resort building","height":7},"geometry":{"type":"Polygon","coordinates":[[[147.2824139,-36.8635304],[147.282442,-36.8636812],[147.2824271,-36.863683],[147.2824415,-36.8637607],[147.2825679,-36.8637457],[147.282558,-36.8636924],[147.2826599,-36.8636803],[147.2826415,-36.8635811],[147.2825394,-36.8635932],[147.2825253,-36.8635171],[147.2824139,-36.8635304]]]}},{"type":"Feature","id":"building-456496744","properties":{"kind":"building","name":"Falls Creek CFA Fire Station","height":7},"geometry":{"type":"Polygon","coordinates":[[[147.2826568,-36.8635803],[147.2827549,-36.8635695],[147.2829152,-36.8635517],[147.2829347,-36.8636646],[147.2828043,-36.863679],[147.2828085,-36.8637032],[147.2826806,-36.8637174],[147.2826568,-36.8635803]]]}},{"type":"Feature","id":"building-586029932","properties":{"kind":"building","name":"Resort building","height":7},"geometry":{"type":"Polygon","coordinates":[[[147.2788067,-36.8641664],[147.2788626,-36.864311],[147.2790219,-36.864311],[147.2791879,-36.8642699],[147.2791181,-36.8640894],[147.2788067,-36.8641664]]]}},{"type":"Feature","id":"building-586029933","properties":{"kind":"building","name":"Resort building","height":7},"geometry":{"type":"Polygon","coordinates":[[[147.2791642,-36.8640805],[147.2792289,-36.8642302],[147.2794425,-36.8641947],[147.2794014,-36.8640729],[147.2793861,-36.8640318],[147.2791642,-36.8640805]]]}},{"type":"Feature","id":"building-586029935","properties":{"kind":"building","name":"Resort building","height":7},"geometry":{"type":"Polygon","coordinates":[[[147.2779622,-36.8641954],[147.2780117,-36.8642762],[147.2779824,-36.8642879],[147.2780114,-36.8643307],[147.278069,-36.8643068],[147.2780901,-36.8643267],[147.2783404,-36.8642331],[147.2782548,-36.8640828],[147.2779622,-36.8641954]]]}},{"type":"Feature","id":"building-586029937","properties":{"kind":"building","name":"Resort building","height":7},"geometry":{"type":"Polygon","coordinates":[[[147.2778708,-36.8640301],[147.2779513,-36.8641242],[147.2780504,-36.8641383],[147.2781947,-36.8640676],[147.2781318,-36.8639854],[147.2779938,-36.8639628],[147.2778708,-36.8640301]]]}},{"type":"Feature","id":"building-586029939","properties":{"kind":"building","name":"Resort building","height":7},"geometry":{"type":"Polygon","coordinates":[[[147.2777485,-36.8645478],[147.2777354,-36.8646197],[147.2778526,-36.8646333],[147.2778656,-36.8645614],[147.2777485,-36.8645478]]]}},{"type":"Feature","id":"building-586029942","properties":{"kind":"building","name":"Resort building","height":7},"geometry":{"type":"Polygon","coordinates":[[[147.2777578,-36.8647743],[147.277802,-36.8648384],[147.2779068,-36.8647921],[147.2778626,-36.864728],[147.2777578,-36.8647743]]]}},{"type":"Feature","id":"building-586029943","properties":{"kind":"building","name":"Resort building","height":7},"geometry":{"type":"Polygon","coordinates":[[[147.2780831,-36.8646504],[147.2780995,-36.8646837],[147.2780904,-36.8646866],[147.2781129,-36.8647322],[147.2782131,-36.8647006],[147.2781741,-36.8646216],[147.2780831,-36.8646504]]]}},{"type":"Feature","id":"building-586029944","properties":{"kind":"building","name":"Resort building","height":7},"geometry":{"type":"Polygon","coordinates":[[[147.278062,-36.8645547],[147.2780796,-36.8646312],[147.2781841,-36.8646158],[147.27819,-36.8645976],[147.2781643,-36.8645761],[147.2781672,-36.864557],[147.2781544,-36.8645411],[147.278062,-36.8645547]]]}},{"type":"Feature","id":"building-586029945","properties":{"kind":"building","name":"Resort building","height":7},"geometry":{"type":"Polygon","coordinates":[[[147.2778988,-36.8646525],[147.2779233,-36.8647281],[147.2779744,-36.8647175],[147.277975,-36.8647026],[147.2780092,-36.8646955],[147.2779892,-36.8646337],[147.2778988,-36.8646525]]]}},{"type":"Feature","id":"building-586029946","properties":{"kind":"building","name":"Resort building","height":7},"geometry":{"type":"Polygon","coordinates":[[[147.2778328,-36.8645215],[147.2779016,-36.8645902],[147.277948,-36.8645604],[147.2779571,-36.8645696],[147.2779956,-36.864545],[147.2779851,-36.8645413],[147.2779868,-36.8645291],[147.2779219,-36.8644644],[147.2778328,-36.8645215]]]}},{"type":"Feature","id":"building-586029948","properties":{"kind":"building","name":"Resort building","height":7},"geometry":{"type":"Polygon","coordinates":[[[147.277937,-36.8644637],[147.2780173,-36.8644069],[147.278078,-36.8644619],[147.2780763,-36.8645053],[147.2780109,-36.8645305],[147.277937,-36.8644637]]]}},{"type":"Feature","id":"building-586029949","properties":{"kind":"building","name":"Resort building","height":7},"geometry":{"type":"Polygon","coordinates":[[[147.2780886,-36.8644306],[147.2780912,-36.8645146],[147.2782087,-36.8645122],[147.2782061,-36.8644283],[147.2780886,-36.8644306]]]}},{"type":"Feature","id":"building-586932952","properties":{"kind":"building","name":"Resort building","height":7},"geometry":{"type":"Polygon","coordinates":[[[147.2777359,-36.8646621],[147.2777664,-36.8647425],[147.2778577,-36.8647204],[147.2778536,-36.8647098],[147.2778824,-36.8647028],[147.2778559,-36.864633],[147.2777359,-36.8646621]]]}},{"type":"Feature","id":"building-586936821","properties":{"kind":"building","name":"Resort building","height":7},"geometry":{"type":"Polygon","coordinates":[[[147.2774691,-36.8637628],[147.27774,-36.8637236],[147.277726,-36.8636638],[147.2777984,-36.8636488],[147.2777704,-36.8636096],[147.2777423,-36.8636115],[147.277733,-36.8635461],[147.2775742,-36.8635723],[147.2775765,-36.8635928],[147.2775392,-36.863619],[147.2775625,-36.8636545],[147.2775882,-36.8636507],[147.2775882,-36.8636806],[147.2774598,-36.8636899],[147.2774691,-36.8637628]]]}},{"type":"Feature","id":"building-586936822","properties":{"kind":"building","name":"Resort building","height":7},"geometry":{"type":"Polygon","coordinates":[[[147.277217,-36.8634321],[147.277287,-36.8635162],[147.2776116,-36.863406],[147.2775392,-36.8633107],[147.277217,-36.8634321]]]}},{"type":"Feature","id":"building-586936823","properties":{"kind":"building","name":"Resort building","height":7},"geometry":{"type":"Polygon","coordinates":[[[147.2775999,-36.8631575],[147.2777166,-36.8633294],[147.2778287,-36.8632864],[147.2777096,-36.8631127],[147.2775999,-36.8631575]]]}},{"type":"Feature","id":"building-586936824","properties":{"kind":"building","name":"Resort building","height":7},"geometry":{"type":"Polygon","coordinates":[[[147.2778941,-36.8633369],[147.2778941,-36.8634135],[147.2779081,-36.863434],[147.2780062,-36.8634377],[147.2781332,-36.8634216],[147.2781387,-36.8634653],[147.2782198,-36.8634667],[147.2782187,-36.8633088],[147.2781031,-36.863306],[147.2781013,-36.863342],[147.2778941,-36.8633369]]]}},{"type":"Feature","id":"building-586936825","properties":{"kind":"building","name":"Resort building","height":7},"geometry":{"type":"Polygon","coordinates":[[[147.2778643,-36.8630889],[147.2778666,-36.8631646],[147.2779611,-36.8631627],[147.2779587,-36.863087],[147.2778643,-36.8630889]]]}},{"type":"Feature","id":"building-586936826","properties":{"kind":"building","name":"Resort building","height":7},"geometry":{"type":"Polygon","coordinates":[[[147.278011,-36.8631743],[147.2782273,-36.8631739],[147.2782271,-36.8630874],[147.2781514,-36.8630875],[147.2781515,-36.8631059],[147.2780608,-36.8631061],[147.2780609,-36.8631257],[147.2780109,-36.8631258],[147.278011,-36.8631743]]]}},{"type":"Feature","id":"building-586936827","properties":{"kind":"building","name":"Resort building","height":7},"geometry":{"type":"Polygon","coordinates":[[[147.2779516,-36.8630648],[147.2780626,-36.8630644],[147.2780619,-36.8629616],[147.277951,-36.8629621],[147.2779516,-36.8630648]]]}},{"type":"Feature","id":"building-586936828","properties":{"kind":"building","name":"Resort building","height":7},"geometry":{"type":"Polygon","coordinates":[[[147.2780897,-36.8629664],[147.2780921,-36.8630571],[147.2781936,-36.8630553],[147.2781912,-36.8629647],[147.2780897,-36.8629664]]]}},{"type":"Feature","id":"building-586936829","properties":{"kind":"building","name":"Resort building","height":7},"geometry":{"type":"Polygon","coordinates":[[[147.2766659,-36.8635816],[147.2766496,-36.8636115],[147.2766605,-36.8636746],[147.2767243,-36.8636675],[147.2768387,-36.8636021],[147.276813,-36.8635087],[147.276778,-36.8635013],[147.2766659,-36.8635816]]]}},{"type":"Feature","id":"building-586936830","properties":{"kind":"building","name":"Resort building","height":7},"geometry":{"type":"Polygon","coordinates":[[[147.2766868,-36.8633502],[147.2768639,-36.8634638],[147.2770035,-36.8633246],[147.2767558,-36.8631657],[147.2767345,-36.8631775],[147.2766986,-36.8631545],[147.2766292,-36.8632237],[147.2766672,-36.8632481],[147.276638,-36.8632773],[147.2767121,-36.8633249],[147.2766868,-36.8633502]]]}},{"type":"Feature","id":"building-586936831","properties":{"kind":"building","name":"Resort building","height":7},"geometry":{"type":"Polygon","coordinates":[[[147.2769601,-36.8631613],[147.2770862,-36.8630772],[147.2771352,-36.8631146],[147.2771983,-36.8630604],[147.2772286,-36.8630865],[147.2773407,-36.8630118],[147.2773804,-36.863051],[147.277343,-36.8630828],[147.2773804,-36.8631146],[147.2771819,-36.8632547],[147.2771492,-36.8632248],[147.2771212,-36.8632379],[147.2770512,-36.8632341],[147.2769601,-36.8631613]]]}},{"type":"Feature","id":"building-586936832","properties":{"kind":"building","name":"Resort building","height":7},"geometry":{"type":"Polygon","coordinates":[[[147.2770512,-36.8626958],[147.2774164,-36.862375],[147.2774805,-36.8624218],[147.2775621,-36.8623502],[147.2777247,-36.8624687],[147.2773425,-36.8628044],[147.2772613,-36.8627452],[147.2771968,-36.8628019],[147.2770512,-36.8626958]]]}},{"type":"Feature","id":"building-586936833","properties":{"kind":"building","name":"Resort building","height":7},"geometry":{"type":"Polygon","coordinates":[[[147.2784213,-36.8634832],[147.2784782,-36.863571],[147.2785717,-36.863532],[147.2785148,-36.8634474],[147.2784213,-36.8634832]]]}},{"type":"Feature","id":"building-586936834","properties":{"kind":"building","name":"Resort building","height":7},"geometry":{"type":"Polygon","coordinates":[[[147.2786768,-36.8634105],[147.278714,-36.8634669],[147.2786693,-36.8634995],[147.2787166,-36.8635712],[147.2789425,-36.8634759],[147.278851,-36.863337],[147.2786768,-36.8634105]]]}},{"type":"Feature","id":"building-586936835","properties":{"kind":"building","name":"Resort building","height":7},"geometry":{"type":"Polygon","coordinates":[[[147.2787671,-36.8628182],[147.2787475,-36.8629005],[147.2789756,-36.8629352],[147.2789952,-36.8628529],[147.2787671,-36.8628182]]]}},{"type":"Feature","id":"building-586936836","properties":{"kind":"building","name":"Resort building","height":7},"geometry":{"type":"Polygon","coordinates":[[[147.2791475,-36.8631639],[147.2791268,-36.8632696],[147.2794236,-36.8633068],[147.2794443,-36.8632011],[147.2791475,-36.8631639]]]}},{"type":"Feature","id":"building-586936837","properties":{"kind":"building","name":"Resort building","height":7},"geometry":{"type":"Polygon","coordinates":[[[147.2793852,-36.8639811],[147.2794014,-36.8640729],[147.2796236,-36.8640477],[147.2796073,-36.8639559],[147.2793852,-36.8639811]]]}},{"type":"Feature","id":"building-586936838","properties":{"kind":"building","name":"Resort building","height":7},"geometry":{"type":"Polygon","coordinates":[[[147.2796586,-36.8639466],[147.2796694,-36.8640426],[147.2798887,-36.8640269],[147.2798779,-36.8639308],[147.2796586,-36.8639466]]]}},{"type":"Feature","id":"building-586936839","properties":{"kind":"building","name":"Resort building","height":7},"geometry":{"type":"Polygon","coordinates":[[[147.2786597,-36.863629],[147.2784836,-36.8637002],[147.2785793,-36.8638519],[147.2787554,-36.8637807],[147.2786597,-36.863629]]]}},{"type":"Feature","id":"building-586936840","properties":{"kind":"building","name":"Resort building","height":7},"geometry":{"type":"Polygon","coordinates":[[[147.2788801,-36.8635904],[147.2790251,-36.8635332],[147.2790999,-36.8636545],[147.2789549,-36.8637117],[147.2788801,-36.8635904]]]}},{"type":"Feature","id":"building-586936841","properties":{"kind":"building","name":"Resort building","height":7},"geometry":{"type":"Polygon","coordinates":[[[147.2790939,-36.8635196],[147.2791483,-36.863647],[147.2792978,-36.8636061],[147.2792433,-36.8634787],[147.2790939,-36.8635196]]]}},{"type":"Feature","id":"building-586936842","properties":{"kind":"building","name":"Resort building","height":7},"geometry":{"type":"Polygon","coordinates":[[[147.2793528,-36.8635896],[147.2792717,-36.8636845],[147.2794289,-36.8637706],[147.27951,-36.8636756],[147.2793528,-36.8635896]]]}},{"type":"Feature","id":"building-586936843","properties":{"kind":"building","name":"Resort building","height":7},"geometry":{"type":"Polygon","coordinates":[[[147.2793869,-36.8635141],[147.279389,-36.8635906],[147.2795758,-36.8635874],[147.2795737,-36.8635108],[147.2793869,-36.8635141]]]}},{"type":"Feature","id":"building-586936844","properties":{"kind":"building","name":"Resort building","height":7},"geometry":{"type":"Polygon","coordinates":[[[147.2788368,-36.8637583],[147.2788929,-36.8638865],[147.2788563,-36.8638865],[147.2789266,-36.8640442],[147.2792756,-36.8639465],[147.2791544,-36.8636694],[147.2788368,-36.8637583]]]}},{"type":"Feature","id":"building-586936845","properties":{"kind":"building","name":"Resort building","height":7},"geometry":{"type":"Polygon","coordinates":[[[147.2794051,-36.8643452],[147.2793403,-36.8644148],[147.2794255,-36.8644655],[147.2793968,-36.8645341],[147.2796551,-36.8646033],[147.2797182,-36.8644525],[147.2796206,-36.8643159],[147.2794051,-36.8643452]]]}},{"type":"Feature","id":"building-586936846","properties":{"kind":"building","name":"Resort building","height":7},"geometry":{"type":"Polygon","coordinates":[[[147.2797017,-36.8643356],[147.2797445,-36.864427],[147.2797779,-36.864417],[147.2798266,-36.8645212],[147.2800587,-36.8644517],[147.2799926,-36.8643106],[147.2797853,-36.8643106],[147.2797017,-36.8643356]]]}},{"type":"Feature","id":"building-650621147","properties":{"kind":"building","name":"Resort building","height":7},"geometry":{"type":"Polygon","coordinates":[[[147.281401,-36.8645043],[147.2814382,-36.864645],[147.2817094,-36.8645991],[147.2816722,-36.8644584],[147.281401,-36.8645043]]]}},{"type":"Feature","id":"building-860253961","properties":{"kind":"building","name":"Resort building","height":7},"geometry":{"type":"Polygon","coordinates":[[[147.2799474,-36.8630582],[147.2798814,-36.8631776],[147.279362,-36.8629938],[147.2794281,-36.8628744],[147.2799474,-36.8630582]]]}},{"type":"Feature","id":"building-860253970","properties":{"kind":"building","name":"Resort building","height":7},"geometry":{"type":"Polygon","coordinates":[[[147.2755816,-36.866279],[147.2755642,-36.866265],[147.2755422,-36.8662562],[147.2755178,-36.8662533],[147.2754936,-36.8662568],[147.2754719,-36.8662662],[147.2754551,-36.8662806],[147.2754448,-36.8662985],[147.2754422,-36.8663195],[147.2754486,-36.86634],[147.2754632,-36.8663576],[147.2754845,-36.8663702],[147.2755097,-36.8663763],[147.2755361,-36.8663752],[147.2755605,-36.8663671],[147.27558,-36.8663528],[147.2755918,-36.8663355],[147.2755962,-36.8663161],[147.2755927,-36.8662966],[147.2755816,-36.866279]]]}},{"type":"Feature","id":"building-860253973","properties":{"kind":"building","name":"Resort building","height":7},"geometry":{"type":"Polygon","coordinates":[[[147.2737177,-36.8718583],[147.273702,-36.8718471],[147.2736825,-36.8718406],[147.2736615,-36.8718394],[147.2736411,-36.8718438],[147.2736235,-36.8718531],[147.2736107,-36.8718665],[147.2736039,-36.8718825],[147.2736039,-36.8718994],[147.273611,-36.8719156],[147.2736243,-36.8719292],[147.2736425,-36.8719384],[147.2736634,-36.8719424],[147.2736848,-36.8719406],[147.2737043,-36.8719333],[147.2737198,-36.8719213],[147.2737292,-36.8719062],[147.2737322,-36.8718895],[147.2737282,-36.871873],[147.2737177,-36.8718583]]]}},{"type":"Feature","id":"building-973501976","properties":{"kind":"building","name":"Resort building","height":7},"geometry":{"type":"Polygon","coordinates":[[[147.2803803,-36.8644514],[147.2804157,-36.8645479],[147.280579,-36.8645061],[147.2805816,-36.8644715],[147.2806547,-36.8644715],[147.2806591,-36.8645077],[147.2805967,-36.8645256],[147.2806,-36.864585],[147.2808163,-36.8645793],[147.2807939,-36.8645131],[147.2807211,-36.864519],[147.2807117,-36.864483],[147.2809154,-36.8645117],[147.2809362,-36.8643466],[147.2808472,-36.8643311],[147.2808291,-36.8644094],[147.280729,-36.8643942],[147.2806264,-36.8643935],[147.2805308,-36.8644046],[147.2803803,-36.8644514]]]}},{"type":"Feature","id":"building-973501977","properties":{"kind":"building","name":"Resort building","height":7},"geometry":{"type":"Polygon","coordinates":[[[147.2803042,-36.864681],[147.2803264,-36.8648201],[147.2803891,-36.8648215],[147.2803931,-36.8648438],[147.2804905,-36.8648359],[147.280485,-36.8647992],[147.2804901,-36.8647449],[147.2805437,-36.8647334],[147.2805315,-36.8646792],[147.2803042,-36.864681]]]}},{"type":"Feature","id":"building-973501978","properties":{"kind":"building","name":"Resort building","height":7},"geometry":{"type":"Polygon","coordinates":[[[147.2806257,-36.8646797],[147.280865,-36.8646641],[147.280865,-36.8647202],[147.2806833,-36.864905],[147.2805895,-36.8648787],[147.2806264,-36.8648079],[147.2806273,-36.8647511],[147.2806257,-36.8646797]]]}},{"type":"Feature","id":"building-973501979","properties":{"kind":"building","name":"Resort building","height":7},"geometry":{"type":"Polygon","coordinates":[[[147.2798256,-36.8649043],[147.280016,-36.8649556],[147.2800007,-36.865025],[147.2799651,-36.8650184],[147.2799537,-36.8650582],[147.2798835,-36.8650408],[147.2798928,-36.8650029],[147.2797982,-36.8649809],[147.2798256,-36.8649043]]]}},{"type":"Feature","id":"building-973501980","properties":{"kind":"building","name":"Resort building","height":7},"geometry":{"type":"Polygon","coordinates":[[[147.280036,-36.8650074],[147.2800789,-36.8651821],[147.2802254,-36.865165],[147.2801695,-36.8649851],[147.280036,-36.8650074]]]}},{"type":"Feature","id":"building-973501981","properties":{"kind":"building","name":"Resort building","height":7},"geometry":{"type":"Polygon","coordinates":[[[147.2803374,-36.8650515],[147.2803207,-36.8651581],[147.2804627,-36.8651902],[147.2805043,-36.8650918],[147.2803374,-36.8650515]]]}},{"type":"Feature","id":"building-973501982","properties":{"kind":"building","name":"Resort building","height":7},"geometry":{"type":"Polygon","coordinates":[[[147.2806082,-36.8651588],[147.2805286,-36.8652352],[147.2806802,-36.8653053],[147.2807307,-36.8651824],[147.2806082,-36.8651588]]]}},{"type":"Feature","id":"building-973501983","properties":{"kind":"building","name":"Resort building","height":7},"geometry":{"type":"Polygon","coordinates":[[[147.2778326,-36.8650259],[147.2777848,-36.8652199],[147.2779214,-36.8652404],[147.2780025,-36.8651331],[147.2780108,-36.8650209],[147.2778326,-36.8650259]]]}},{"type":"Feature","id":"building-973501984","properties":{"kind":"building","name":"Resort building","height":15},"geometry":{"type":"Polygon","coordinates":[[[147.278435,-36.8651914],[147.2783921,-36.8652429],[147.2783239,-36.8652406],[147.2782847,-36.8653192],[147.2785509,-36.8653873],[147.2785815,-36.8653037],[147.2785302,-36.8652922],[147.2785565,-36.8652026],[147.278435,-36.8651914]]]}},{"type":"Feature","id":"building-973501985","properties":{"kind":"building","name":"Resort building","height":7},"geometry":{"type":"Polygon","coordinates":[[[147.2804476,-36.8640295],[147.2804664,-36.8640857],[147.2805026,-36.8640826],[147.2805062,-36.8641184],[147.2806274,-36.8640815],[147.2806496,-36.8641236],[147.2810613,-36.864031],[147.2809676,-36.8638144],[147.2808522,-36.863842],[147.2808581,-36.8639145],[147.2804476,-36.8640295]]]}},{"type":"Feature","id":"building-973501986","properties":{"kind":"building","name":"Resort building","height":7},"geometry":{"type":"Polygon","coordinates":[[[147.2803008,-36.863291],[147.2802138,-36.863367],[147.280301,-36.8634354],[147.280414,-36.8633508],[147.2803008,-36.863291]]]}},{"type":"Feature","id":"building-973501987","properties":{"kind":"building","name":"Resort building","height":7},"geometry":{"type":"Polygon","coordinates":[[[147.2804605,-36.8639693],[147.2803807,-36.8639323],[147.2804154,-36.863873],[147.2804594,-36.8638145],[147.2805262,-36.8637605],[147.2805853,-36.8637253],[147.2806197,-36.8637488],[147.2806568,-36.8636383],[147.2808522,-36.8636802],[147.2808245,-36.8638233],[147.2806726,-36.8638134],[147.2805756,-36.8639401],[147.2805169,-36.8639951],[147.2804605,-36.8639693]]]}},{"type":"Feature","id":"building-973501990","properties":{"kind":"building","name":"Resort building","height":7},"geometry":{"type":"Polygon","coordinates":[[[147.2827519,-36.8642452],[147.2828363,-36.8643242],[147.2829879,-36.8642206],[147.2829036,-36.8641416],[147.2827519,-36.8642452]]]}},{"type":"Feature","id":"building-973501991","properties":{"kind":"building","name":"Resort building","height":7},"geometry":{"type":"Polygon","coordinates":[[[147.2824454,-36.8638882],[147.282459,-36.8640573],[147.2827272,-36.8640434],[147.2827136,-36.8638743],[147.2824454,-36.8638882]]]}},{"type":"Feature","id":"building-973501992","properties":{"kind":"building","name":"Resort building","height":7},"geometry":{"type":"Polygon","coordinates":[[[147.282566,-36.8641027],[147.2826232,-36.8641314],[147.2826103,-36.8641479],[147.2826409,-36.8641632],[147.2825662,-36.8642586],[147.2824785,-36.8642146],[147.282566,-36.8641027]]]}},{"type":"Feature","id":"building-973501993","properties":{"kind":"building","name":"Resort building","height":7},"geometry":{"type":"Polygon","coordinates":[[[147.2827773,-36.8638827],[147.2827789,-36.8639799],[147.2828857,-36.8639788],[147.2828862,-36.8640089],[147.2831624,-36.8640061],[147.2831603,-36.8638787],[147.2827773,-36.8638827]]]}},{"type":"Feature","id":"building-973501994","properties":{"kind":"building","name":"Resort building","height":7},"geometry":{"type":"Polygon","coordinates":[[[147.2832391,-36.8638856],[147.2832408,-36.863907],[147.2832954,-36.8639042],[147.2833,-36.8639618],[147.2833391,-36.8639598],[147.2833441,-36.8640223],[147.2834389,-36.8640175],[147.2834347,-36.8639643],[147.2834523,-36.8639562],[147.2834459,-36.8638751],[147.2832391,-36.8638856]]]}},{"type":"Feature","id":"building-973501995","properties":{"kind":"building","name":"Resort building","height":7},"geometry":{"type":"Polygon","coordinates":[[[147.2835075,-36.8638753],[147.2835156,-36.8640251],[147.2836575,-36.8640202],[147.2836558,-36.8639893],[147.2837696,-36.8639853],[147.2837632,-36.8638665],[147.2835075,-36.8638753]]]}},{"type":"Feature","id":"building-973501996","properties":{"kind":"building","name":"Resort building","height":7},"geometry":{"type":"Polygon","coordinates":[[[147.2838555,-36.8638812],[147.2838644,-36.864002],[147.2841593,-36.8639881],[147.2841503,-36.8638672],[147.2838555,-36.8638812]]]}},{"type":"Feature","id":"building-973501997","properties":{"kind":"building","name":"Resort building","height":7},"geometry":{"type":"Polygon","coordinates":[[[147.2843111,-36.8636463],[147.2841887,-36.8637466],[147.284356,-36.8638773],[147.2844784,-36.863777],[147.2843111,-36.8636463]]]}},{"type":"Feature","id":"building-973501998","properties":{"kind":"building","name":"Alpine Woodsmoke","height":7},"geometry":{"type":"Polygon","coordinates":[[[147.2844564,-36.8636658],[147.2844965,-36.863771],[147.2846726,-36.863728],[147.2846325,-36.8636228],[147.2844564,-36.8636658]]]}},{"type":"Feature","id":"building-973501999","properties":{"kind":"building","name":"Resort building","height":7},"geometry":{"type":"Polygon","coordinates":[[[147.2846655,-36.863874],[147.2845701,-36.8639919],[147.2849024,-36.8641638],[147.2849977,-36.8640459],[147.2846655,-36.863874]]]}},{"type":"Feature","id":"building-973502000","properties":{"kind":"building","name":"Resort building","height":7},"geometry":{"type":"Polygon","coordinates":[[[147.2850597,-36.8640743],[147.2850481,-36.8641975],[147.2854184,-36.86422],[147.2854301,-36.8640967],[147.2850597,-36.8640743]]]}},{"type":"Feature","id":"building-973502001","properties":{"kind":"building","name":"Resort building","height":7},"geometry":{"type":"Polygon","coordinates":[[[147.2857876,-36.8645213],[147.285739,-36.8646067],[147.2861896,-36.8647586],[147.2862437,-36.8646778],[147.2857876,-36.8645213]]]}},{"type":"Feature","id":"building-973502002","properties":{"kind":"building","name":"Resort building","height":7},"geometry":{"type":"Polygon","coordinates":[[[147.2857686,-36.865258],[147.2857083,-36.8653189],[147.2860952,-36.8655253],[147.2861488,-36.8654596],[147.2857686,-36.865258]]]}},{"type":"Feature","id":"building-1023095986","properties":{"kind":"building","name":"Resort building","height":7},"geometry":{"type":"Polygon","coordinates":[[[147.2814019,-36.8817073],[147.2814569,-36.8816665],[147.2814788,-36.8816855],[147.2814652,-36.8816956],[147.2814949,-36.8817212],[147.2814536,-36.8817518],[147.2814019,-36.8817073]]]}},{"type":"Feature","id":"building-1147619782","properties":{"kind":"building","name":"Resort building","height":7},"geometry":{"type":"Polygon","coordinates":[[[147.2768734,-36.8618567],[147.2766294,-36.8616503],[147.2766481,-36.8616362],[147.2766178,-36.8616105],[147.2766284,-36.861595],[147.2766029,-36.8615734],[147.2766782,-36.8615164],[147.2769336,-36.8617322],[147.2769076,-36.8617518],[147.276931,-36.8617716],[147.2769038,-36.8617921],[147.2769298,-36.8618141],[147.2768734,-36.8618567]]]}},{"type":"Feature","id":"building-1169760783","properties":{"kind":"building","name":"Resort building","height":7},"geometry":{"type":"Polygon","coordinates":[[[147.2739667,-36.8715384],[147.2739356,-36.8715414],[147.2739248,-36.8714684],[147.2739559,-36.8714654],[147.2739667,-36.8715384]]]}},{"type":"Feature","id":"building-1288578035","properties":{"kind":"building","name":"Resort building","height":7},"geometry":{"type":"Polygon","coordinates":[[[147.2776251,-36.8621955],[147.2775148,-36.8623158],[147.2773755,-36.8622341],[147.2773856,-36.8622231],[147.2773059,-36.8621763],[147.2773762,-36.8620997],[147.2773503,-36.8620845],[147.2773855,-36.8620462],[147.2774133,-36.8620625],[147.277432,-36.8620422],[147.2774958,-36.8620796],[147.277472,-36.8621057],[147.2776251,-36.8621955]]]}},{"type":"Feature","id":"building-1288581591","properties":{"kind":"building","name":"Pan Abode","height":7},"geometry":{"type":"Polygon","coordinates":[[[147.2822667,-36.8642004],[147.2821714,-36.8642065],[147.2821429,-36.8639211],[147.2822381,-36.863915],[147.2822667,-36.8642004]]]}},{"type":"Feature","id":"pylon-277851602","properties":{"kind":"pylon","name":"Lift tower","height":13},"geometry":{"type":"Polygon","coordinates":[[[147.2697263,-36.8620629],[147.2697207,-36.862052],[147.2697072,-36.8620475],[147.2696937,-36.862052],[147.2696881,-36.8620629],[147.2696937,-36.8620738],[147.2697072,-36.8620783],[147.2697207,-36.8620738],[147.2697263,-36.8620629]]]}},{"type":"Feature","id":"pylon-9215003478","properties":{"kind":"pylon","name":"Lift tower","height":13},"geometry":{"type":"Polygon","coordinates":[[[147.2706921,-36.8775814],[147.2706865,-36.8775705],[147.270673,-36.877566],[147.2706595,-36.8775705],[147.2706539,-36.8775814],[147.2706595,-36.8775923],[147.270673,-36.8775968],[147.2706865,-36.8775923],[147.2706921,-36.8775814]]]}},{"type":"Feature","id":"pylon-9215003479","properties":{"kind":"pylon","name":"Lift tower","height":13},"geometry":{"type":"Polygon","coordinates":[[[147.2709276,-36.877098],[147.270922,-36.8770871],[147.2709085,-36.8770826],[147.270895,-36.8770871],[147.2708894,-36.877098],[147.270895,-36.8771089],[147.2709085,-36.8771134],[147.270922,-36.8771089],[147.2709276,-36.877098]]]}},{"type":"Feature","id":"pylon-9215003480","properties":{"kind":"pylon","name":"Lift tower","height":13},"geometry":{"type":"Polygon","coordinates":[[[147.2711756,-36.8765892],[147.27117,-36.8765783],[147.2711565,-36.8765738],[147.271143,-36.8765783],[147.2711374,-36.8765892],[147.271143,-36.8766001],[147.2711565,-36.8766046],[147.27117,-36.8766001],[147.2711756,-36.8765892]]]}},{"type":"Feature","id":"pylon-9215003481","properties":{"kind":"pylon","name":"Lift tower","height":13},"geometry":{"type":"Polygon","coordinates":[[[147.2714532,-36.8760195],[147.2714476,-36.8760086],[147.2714341,-36.8760041],[147.2714206,-36.8760086],[147.271415,-36.8760195],[147.2714206,-36.8760304],[147.2714341,-36.8760349],[147.2714476,-36.8760304],[147.2714532,-36.8760195]]]}},{"type":"Feature","id":"pylon-9215003482","properties":{"kind":"pylon","name":"Lift tower","height":13},"geometry":{"type":"Polygon","coordinates":[[[147.2717241,-36.8754635],[147.2717185,-36.8754526],[147.271705,-36.8754481],[147.2716915,-36.8754526],[147.2716859,-36.8754635],[147.2716915,-36.8754744],[147.271705,-36.8754789],[147.2717185,-36.8754744],[147.2717241,-36.8754635]]]}},{"type":"Feature","id":"pylon-9215003483","properties":{"kind":"pylon","name":"Lift tower","height":13},"geometry":{"type":"Polygon","coordinates":[[[147.2719741,-36.8749504],[147.2719685,-36.8749395],[147.271955,-36.874935],[147.2719415,-36.8749395],[147.2719359,-36.8749504],[147.2719415,-36.8749613],[147.271955,-36.8749658],[147.2719685,-36.8749613],[147.2719741,-36.8749504]]]}},{"type":"Feature","id":"pylon-9215003484","properties":{"kind":"pylon","name":"Lift tower","height":13},"geometry":{"type":"Polygon","coordinates":[[[147.2723017,-36.874278],[147.2722961,-36.8742671],[147.2722826,-36.8742626],[147.2722691,-36.8742671],[147.2722635,-36.874278],[147.2722691,-36.8742889],[147.2722826,-36.8742934],[147.2722961,-36.8742889],[147.2723017,-36.874278]]]}},{"type":"Feature","id":"pylon-9215003485","properties":{"kind":"pylon","name":"Lift tower","height":13},"geometry":{"type":"Polygon","coordinates":[[[147.2726288,-36.8736067],[147.2726232,-36.8735958],[147.2726097,-36.8735913],[147.2725962,-36.8735958],[147.2725906,-36.8736067],[147.2725962,-36.8736176],[147.2726097,-36.8736221],[147.2726232,-36.8736176],[147.2726288,-36.8736067]]]}},{"type":"Feature","id":"pylon-9215003486","properties":{"kind":"pylon","name":"Lift tower","height":13},"geometry":{"type":"Polygon","coordinates":[[[147.2728855,-36.8730799],[147.2728799,-36.873069],[147.2728664,-36.8730645],[147.2728529,-36.873069],[147.2728473,-36.8730799],[147.2728529,-36.8730908],[147.2728664,-36.8730953],[147.2728799,-36.8730908],[147.2728855,-36.8730799]]]}},{"type":"Feature","id":"pylon-9215003487","properties":{"kind":"pylon","name":"Lift tower","height":13},"geometry":{"type":"Polygon","coordinates":[[[147.273209,-36.8724159],[147.2732034,-36.872405],[147.2731899,-36.8724005],[147.2731764,-36.872405],[147.2731708,-36.8724159],[147.2731764,-36.8724268],[147.2731899,-36.8724313],[147.2732034,-36.8724268],[147.273209,-36.8724159]]]}},{"type":"Feature","id":"pylon-9215003488","properties":{"kind":"pylon","name":"Lift tower","height":13},"geometry":{"type":"Polygon","coordinates":[[[147.2733935,-36.8720373],[147.2733879,-36.8720264],[147.2733744,-36.8720219],[147.2733609,-36.8720264],[147.2733553,-36.8720373],[147.2733609,-36.8720482],[147.2733744,-36.8720527],[147.2733879,-36.8720482],[147.2733935,-36.8720373]]]}},{"type":"Feature","id":"pylon-9215003489","properties":{"kind":"pylon","name":"Lift tower","height":13},"geometry":{"type":"Polygon","coordinates":[[[147.2739468,-36.8708162],[147.2739412,-36.8708053],[147.2739277,-36.8708008],[147.2739142,-36.8708053],[147.2739086,-36.8708162],[147.2739142,-36.8708271],[147.2739277,-36.8708316],[147.2739412,-36.8708271],[147.2739468,-36.8708162]]]}},{"type":"Feature","id":"pylon-9215003490","properties":{"kind":"pylon","name":"Lift tower","height":13},"geometry":{"type":"Polygon","coordinates":[[[147.2738429,-36.8701288],[147.2738373,-36.8701179],[147.2738238,-36.8701134],[147.2738103,-36.8701179],[147.2738047,-36.8701288],[147.2738103,-36.8701397],[147.2738238,-36.8701442],[147.2738373,-36.8701397],[147.2738429,-36.8701288]]]}},{"type":"Feature","id":"pylon-9215003491","properties":{"kind":"pylon","name":"Lift tower","height":13},"geometry":{"type":"Polygon","coordinates":[[[147.2737455,-36.869485],[147.2737399,-36.8694741],[147.2737264,-36.8694696],[147.2737129,-36.8694741],[147.2737073,-36.869485],[147.2737129,-36.8694959],[147.2737264,-36.8695004],[147.2737399,-36.8694959],[147.2737455,-36.869485]]]}},{"type":"Feature","id":"pylon-9215003492","properties":{"kind":"pylon","name":"Lift tower","height":13},"geometry":{"type":"Polygon","coordinates":[[[147.2732948,-36.8665045],[147.2732892,-36.8664936],[147.2732757,-36.8664891],[147.2732622,-36.8664936],[147.2732566,-36.8665045],[147.2732622,-36.8665154],[147.2732757,-36.8665199],[147.2732892,-36.8665154],[147.2732948,-36.8665045]]]}},{"type":"Feature","id":"pylon-9215003493","properties":{"kind":"pylon","name":"Lift tower","height":13},"geometry":{"type":"Polygon","coordinates":[[[147.2733928,-36.8671525],[147.2733872,-36.8671416],[147.2733737,-36.8671371],[147.2733602,-36.8671416],[147.2733546,-36.8671525],[147.2733602,-36.8671634],[147.2733737,-36.8671679],[147.2733872,-36.8671634],[147.2733928,-36.8671525]]]}},{"type":"Feature","id":"pylon-9215003494","properties":{"kind":"pylon","name":"Lift tower","height":13},"geometry":{"type":"Polygon","coordinates":[[[147.2735396,-36.8681233],[147.273534,-36.8681124],[147.2735205,-36.8681079],[147.273507,-36.8681124],[147.2735014,-36.8681233],[147.273507,-36.8681342],[147.2735205,-36.8681387],[147.273534,-36.8681342],[147.2735396,-36.8681233]]]}},{"type":"Feature","id":"pylon-9215003495","properties":{"kind":"pylon","name":"Lift tower","height":13},"geometry":{"type":"Polygon","coordinates":[[[147.2749955,-36.8731334],[147.2749899,-36.8731225],[147.2749764,-36.873118],[147.2749629,-36.8731225],[147.2749573,-36.8731334],[147.2749629,-36.8731443],[147.2749764,-36.8731488],[147.2749899,-36.8731443],[147.2749955,-36.8731334]]]}},{"type":"Feature","id":"pylon-9215003496","properties":{"kind":"pylon","name":"Lift tower","height":13},"geometry":{"type":"Polygon","coordinates":[[[147.2753243,-36.8725498],[147.2753187,-36.8725389],[147.2753052,-36.8725344],[147.2752917,-36.8725389],[147.2752861,-36.8725498],[147.2752917,-36.8725607],[147.2753052,-36.8725652],[147.2753187,-36.8725607],[147.2753243,-36.8725498]]]}},{"type":"Feature","id":"pylon-9215003497","properties":{"kind":"pylon","name":"Lift tower","height":13},"geometry":{"type":"Polygon","coordinates":[[[147.2756467,-36.8719775],[147.2756411,-36.8719666],[147.2756276,-36.8719621],[147.2756141,-36.8719666],[147.2756085,-36.8719775],[147.2756141,-36.8719884],[147.2756276,-36.8719929],[147.2756411,-36.8719884],[147.2756467,-36.8719775]]]}},{"type":"Feature","id":"pylon-9215003498","properties":{"kind":"pylon","name":"Lift tower","height":13},"geometry":{"type":"Polygon","coordinates":[[[147.275949,-36.8714409],[147.2759434,-36.87143],[147.2759299,-36.8714255],[147.2759164,-36.87143],[147.2759108,-36.8714409],[147.2759164,-36.8714518],[147.2759299,-36.8714563],[147.2759434,-36.8714518],[147.275949,-36.8714409]]]}},{"type":"Feature","id":"pylon-9215003499","properties":{"kind":"pylon","name":"Lift tower","height":13},"geometry":{"type":"Polygon","coordinates":[[[147.2719261,-36.8655938],[147.2719205,-36.8655829],[147.271907,-36.8655784],[147.2718935,-36.8655829],[147.2718879,-36.8655938],[147.2718935,-36.8656047],[147.271907,-36.8656092],[147.2719205,-36.8656047],[147.2719261,-36.8655938]]]}},{"type":"Feature","id":"pylon-9215003500","properties":{"kind":"pylon","name":"Lift tower","height":13},"geometry":{"type":"Polygon","coordinates":[[[147.2711921,-36.8656173],[147.2711865,-36.8656064],[147.271173,-36.8656019],[147.2711595,-36.8656064],[147.2711539,-36.8656173],[147.2711595,-36.8656282],[147.271173,-36.8656327],[147.2711865,-36.8656282],[147.2711921,-36.8656173]]]}},{"type":"Feature","id":"pylon-9215003501","properties":{"kind":"pylon","name":"Lift tower","height":13},"geometry":{"type":"Polygon","coordinates":[[[147.2703232,-36.8656451],[147.2703176,-36.8656342],[147.2703041,-36.8656297],[147.2702906,-36.8656342],[147.270285,-36.8656451],[147.2702906,-36.865656],[147.2703041,-36.8656605],[147.2703176,-36.865656],[147.2703232,-36.8656451]]]}},{"type":"Feature","id":"pylon-9215003502","properties":{"kind":"pylon","name":"Lift tower","height":13},"geometry":{"type":"Polygon","coordinates":[[[147.2696909,-36.8656654],[147.2696853,-36.8656545],[147.2696718,-36.86565],[147.2696583,-36.8656545],[147.2696527,-36.8656654],[147.2696583,-36.8656763],[147.2696718,-36.8656808],[147.2696853,-36.8656763],[147.2696909,-36.8656654]]]}},{"type":"Feature","id":"pylon-9215003503","properties":{"kind":"pylon","name":"Lift tower","height":13},"geometry":{"type":"Polygon","coordinates":[[[147.2689517,-36.8656891],[147.2689461,-36.8656782],[147.2689326,-36.8656737],[147.2689191,-36.8656782],[147.2689135,-36.8656891],[147.2689191,-36.8657],[147.2689326,-36.8657045],[147.2689461,-36.8657],[147.2689517,-36.8656891]]]}},{"type":"Feature","id":"pylon-9215003504","properties":{"kind":"pylon","name":"Lift tower","height":13},"geometry":{"type":"Polygon","coordinates":[[[147.2684338,-36.8657057],[147.2684282,-36.8656948],[147.2684147,-36.8656903],[147.2684012,-36.8656948],[147.2683956,-36.8657057],[147.2684012,-36.8657166],[147.2684147,-36.8657211],[147.2684282,-36.8657166],[147.2684338,-36.8657057]]]}},{"type":"Feature","id":"pylon-9215003505","properties":{"kind":"pylon","name":"Lift tower","height":13},"geometry":{"type":"Polygon","coordinates":[[[147.2676981,-36.8657293],[147.2676925,-36.8657184],[147.267679,-36.8657139],[147.2676655,-36.8657184],[147.2676599,-36.8657293],[147.2676655,-36.8657402],[147.267679,-36.8657447],[147.2676925,-36.8657402],[147.2676981,-36.8657293]]]}},{"type":"Feature","id":"pylon-9215003506","properties":{"kind":"pylon","name":"Lift tower","height":13},"geometry":{"type":"Polygon","coordinates":[[[147.2669586,-36.8657529],[147.266953,-36.865742],[147.2669395,-36.8657375],[147.266926,-36.865742],[147.2669204,-36.8657529],[147.266926,-36.8657638],[147.2669395,-36.8657683],[147.266953,-36.8657638],[147.2669586,-36.8657529]]]}},{"type":"Feature","id":"pylon-9215003507","properties":{"kind":"pylon","name":"Lift tower","height":13},"geometry":{"type":"Polygon","coordinates":[[[147.2664564,-36.865769],[147.2664508,-36.8657581],[147.2664373,-36.8657536],[147.2664238,-36.8657581],[147.2664182,-36.865769],[147.2664238,-36.8657799],[147.2664373,-36.8657844],[147.2664508,-36.8657799],[147.2664564,-36.865769]]]}},{"type":"Feature","id":"pylon-9215003508","properties":{"kind":"pylon","name":"Lift tower","height":13},"geometry":{"type":"Polygon","coordinates":[[[147.2661034,-36.864827],[147.2660978,-36.8648161],[147.2660843,-36.8648116],[147.2660708,-36.8648161],[147.2660652,-36.864827],[147.2660708,-36.8648379],[147.2660843,-36.8648424],[147.2660978,-36.8648379],[147.2661034,-36.864827]]]}},{"type":"Feature","id":"pylon-9215003509","properties":{"kind":"pylon","name":"Lift tower","height":13},"geometry":{"type":"Polygon","coordinates":[[[147.2670397,-36.8641126],[147.2670341,-36.8641017],[147.2670206,-36.8640972],[147.2670071,-36.8641017],[147.2670015,-36.8641126],[147.2670071,-36.8641235],[147.2670206,-36.864128],[147.2670341,-36.8641235],[147.2670397,-36.8641126]]]}},{"type":"Feature","id":"pylon-9215003510","properties":{"kind":"pylon","name":"Lift tower","height":13},"geometry":{"type":"Polygon","coordinates":[[[147.2678757,-36.8634749],[147.2678701,-36.863464],[147.2678566,-36.8634595],[147.2678431,-36.863464],[147.2678375,-36.8634749],[147.2678431,-36.8634858],[147.2678566,-36.8634903],[147.2678701,-36.8634858],[147.2678757,-36.8634749]]]}},{"type":"Feature","id":"pylon-9215003511","properties":{"kind":"pylon","name":"Lift tower","height":13},"geometry":{"type":"Polygon","coordinates":[[[147.2686826,-36.8628592],[147.268677,-36.8628483],[147.2686635,-36.8628438],[147.26865,-36.8628483],[147.2686444,-36.8628592],[147.26865,-36.8628701],[147.2686635,-36.8628746],[147.268677,-36.8628701],[147.2686826,-36.8628592]]]}},{"type":"Feature","id":"pylon-9215003512","properties":{"kind":"pylon","name":"Lift tower","height":13},"geometry":{"type":"Polygon","coordinates":[[[147.2710137,-36.8620283],[147.2710081,-36.8620174],[147.2709946,-36.8620129],[147.2709811,-36.8620174],[147.2709755,-36.8620283],[147.2709811,-36.8620392],[147.2709946,-36.8620437],[147.2710081,-36.8620392],[147.2710137,-36.8620283]]]}},{"type":"Feature","id":"pylon-9215003513","properties":{"kind":"pylon","name":"Lift tower","height":13},"geometry":{"type":"Polygon","coordinates":[[[147.2716964,-36.8620078],[147.2716908,-36.8619969],[147.2716773,-36.8619924],[147.2716638,-36.8619969],[147.2716582,-36.8620078],[147.2716638,-36.8620187],[147.2716773,-36.8620232],[147.2716908,-36.8620187],[147.2716964,-36.8620078]]]}},{"type":"Feature","id":"pylon-9215003514","properties":{"kind":"pylon","name":"Lift tower","height":13},"geometry":{"type":"Polygon","coordinates":[[[147.2737037,-36.8619472],[147.2736981,-36.8619363],[147.2736846,-36.8619318],[147.2736711,-36.8619363],[147.2736655,-36.8619472],[147.2736711,-36.8619581],[147.2736846,-36.8619626],[147.2736981,-36.8619581],[147.2737037,-36.8619472]]]}},{"type":"Feature","id":"pylon-9215003515","properties":{"kind":"pylon","name":"Lift tower","height":13},"geometry":{"type":"Polygon","coordinates":[[[147.2749203,-36.8619106],[147.2749147,-36.8618997],[147.2749012,-36.8618952],[147.2748877,-36.8618997],[147.2748821,-36.8619106],[147.2748877,-36.8619215],[147.2749012,-36.861926],[147.2749147,-36.8619215],[147.2749203,-36.8619106]]]}},{"type":"Feature","id":"pylon-9215003516","properties":{"kind":"pylon","name":"Lift tower","height":13},"geometry":{"type":"Polygon","coordinates":[[[147.2754635,-36.8618942],[147.2754579,-36.8618833],[147.2754444,-36.8618788],[147.2754309,-36.8618833],[147.2754253,-36.8618942],[147.2754309,-36.8619051],[147.2754444,-36.8619096],[147.2754579,-36.8619051],[147.2754635,-36.8618942]]]}},{"type":"Feature","id":"pylon-9215044117","properties":{"kind":"pylon","name":"Lift tower","height":13},"geometry":{"type":"Polygon","coordinates":[[[147.2764142,-36.8618655],[147.2764086,-36.8618546],[147.2763951,-36.8618501],[147.2763816,-36.8618546],[147.276376,-36.8618655],[147.2763816,-36.8618764],[147.2763951,-36.8618809],[147.2764086,-36.8618764],[147.2764142,-36.8618655]]]}},{"type":"Feature","id":"pylon-9215044118","properties":{"kind":"pylon","name":"Lift tower","height":13},"geometry":{"type":"Polygon","coordinates":[[[147.276607,-36.8624727],[147.2766014,-36.8624618],[147.2765879,-36.8624573],[147.2765744,-36.8624618],[147.2765688,-36.8624727],[147.2765744,-36.8624836],[147.2765879,-36.8624881],[147.2766014,-36.8624836],[147.276607,-36.8624727]]]}},{"type":"Feature","id":"pylon-9215044119","properties":{"kind":"pylon","name":"Lift tower","height":13},"geometry":{"type":"Polygon","coordinates":[[[147.2757094,-36.8631679],[147.2757038,-36.863157],[147.2756903,-36.8631525],[147.2756768,-36.863157],[147.2756712,-36.8631679],[147.2756768,-36.8631788],[147.2756903,-36.8631833],[147.2757038,-36.8631788],[147.2757094,-36.8631679]]]}},{"type":"Feature","id":"pylon-9215044120","properties":{"kind":"pylon","name":"Lift tower","height":13},"geometry":{"type":"Polygon","coordinates":[[[147.2749393,-36.8637644],[147.2749337,-36.8637535],[147.2749202,-36.863749],[147.2749067,-36.8637535],[147.2749011,-36.8637644],[147.2749067,-36.8637753],[147.2749202,-36.8637798],[147.2749337,-36.8637753],[147.2749393,-36.8637644]]]}},{"type":"Feature","id":"pylon-9215044121","properties":{"kind":"pylon","name":"Lift tower","height":13},"geometry":{"type":"Polygon","coordinates":[[[147.2739515,-36.8645295],[147.2739459,-36.8645186],[147.2739324,-36.8645141],[147.2739189,-36.8645186],[147.2739133,-36.8645295],[147.2739189,-36.8645404],[147.2739324,-36.8645449],[147.2739459,-36.8645404],[147.2739515,-36.8645295]]]}},{"type":"Feature","id":"pylon-9215044122","properties":{"kind":"pylon","name":"Lift tower","height":13},"geometry":{"type":"Polygon","coordinates":[[[147.2642211,-36.8753769],[147.2642155,-36.875366],[147.264202,-36.8753615],[147.2641885,-36.875366],[147.2641829,-36.8753769],[147.2641885,-36.8753878],[147.264202,-36.8753923],[147.2642155,-36.8753878],[147.2642211,-36.8753769]]]}},{"type":"Feature","id":"pylon-9215044123","properties":{"kind":"pylon","name":"Lift tower","height":13},"geometry":{"type":"Polygon","coordinates":[[[147.2646524,-36.8756694],[147.2646468,-36.8756585],[147.2646333,-36.875654],[147.2646198,-36.8756585],[147.2646142,-36.8756694],[147.2646198,-36.8756803],[147.2646333,-36.8756848],[147.2646468,-36.8756803],[147.2646524,-36.8756694]]]}},{"type":"Feature","id":"pylon-9215044124","properties":{"kind":"pylon","name":"Lift tower","height":13},"geometry":{"type":"Polygon","coordinates":[[[147.2652337,-36.8760636],[147.2652281,-36.8760527],[147.2652146,-36.8760482],[147.2652011,-36.8760527],[147.2651955,-36.8760636],[147.2652011,-36.8760745],[147.2652146,-36.876079],[147.2652281,-36.8760745],[147.2652337,-36.8760636]]]}},{"type":"Feature","id":"pylon-9215044125","properties":{"kind":"pylon","name":"Lift tower","height":13},"geometry":{"type":"Polygon","coordinates":[[[147.2659269,-36.8765338],[147.2659213,-36.8765229],[147.2659078,-36.8765184],[147.2658943,-36.8765229],[147.2658887,-36.8765338],[147.2658943,-36.8765447],[147.2659078,-36.8765492],[147.2659213,-36.8765447],[147.2659269,-36.8765338]]]}},{"type":"Feature","id":"pylon-9215044126","properties":{"kind":"pylon","name":"Lift tower","height":13},"geometry":{"type":"Polygon","coordinates":[[[147.2667628,-36.8771007],[147.2667572,-36.8770898],[147.2667437,-36.8770853],[147.2667302,-36.8770898],[147.2667246,-36.8771007],[147.2667302,-36.8771116],[147.2667437,-36.8771161],[147.2667572,-36.8771116],[147.2667628,-36.8771007]]]}},{"type":"Feature","id":"pylon-9215044127","properties":{"kind":"pylon","name":"Lift tower","height":13},"geometry":{"type":"Polygon","coordinates":[[[147.2676375,-36.8776939],[147.2676319,-36.877683],[147.2676184,-36.8776785],[147.2676049,-36.877683],[147.2675993,-36.8776939],[147.2676049,-36.8777048],[147.2676184,-36.8777093],[147.2676319,-36.8777048],[147.2676375,-36.8776939]]]}},{"type":"Feature","id":"pylon-9215044128","properties":{"kind":"pylon","name":"Lift tower","height":13},"geometry":{"type":"Polygon","coordinates":[[[147.2682804,-36.8781299],[147.2682748,-36.878119],[147.2682613,-36.8781145],[147.2682478,-36.878119],[147.2682422,-36.8781299],[147.2682478,-36.8781408],[147.2682613,-36.8781453],[147.2682748,-36.8781408],[147.2682804,-36.8781299]]]}},{"type":"Feature","id":"pylon-9215044129","properties":{"kind":"pylon","name":"Lift tower","height":13},"geometry":{"type":"Polygon","coordinates":[[[147.2688717,-36.8785309],[147.2688661,-36.87852],[147.2688526,-36.8785155],[147.2688391,-36.87852],[147.2688335,-36.8785309],[147.2688391,-36.8785418],[147.2688526,-36.8785463],[147.2688661,-36.8785418],[147.2688717,-36.8785309]]]}},{"type":"Feature","id":"pylon-9215044130","properties":{"kind":"pylon","name":"Lift tower","height":13},"geometry":{"type":"Polygon","coordinates":[[[147.2793652,-36.8769783],[147.2793596,-36.8769674],[147.2793461,-36.8769629],[147.2793326,-36.8769674],[147.279327,-36.8769783],[147.2793326,-36.8769892],[147.2793461,-36.8769937],[147.2793596,-36.8769892],[147.2793652,-36.8769783]]]}},{"type":"Feature","id":"pylon-9215044131","properties":{"kind":"pylon","name":"Lift tower","height":13},"geometry":{"type":"Polygon","coordinates":[[[147.2792732,-36.8775739],[147.2792676,-36.877563],[147.2792541,-36.8775585],[147.2792406,-36.877563],[147.279235,-36.8775739],[147.2792406,-36.8775848],[147.2792541,-36.8775893],[147.2792676,-36.8775848],[147.2792732,-36.8775739]]]}},{"type":"Feature","id":"pylon-9215044132","properties":{"kind":"pylon","name":"Lift tower","height":13},"geometry":{"type":"Polygon","coordinates":[[[147.2794664,-36.8763232],[147.2794608,-36.8763123],[147.2794473,-36.8763078],[147.2794338,-36.8763123],[147.2794282,-36.8763232],[147.2794338,-36.8763341],[147.2794473,-36.8763386],[147.2794608,-36.8763341],[147.2794664,-36.8763232]]]}},{"type":"Feature","id":"pylon-9215044133","properties":{"kind":"pylon","name":"Lift tower","height":13},"geometry":{"type":"Polygon","coordinates":[[[147.279574,-36.8756265],[147.2795684,-36.8756156],[147.2795549,-36.8756111],[147.2795414,-36.8756156],[147.2795358,-36.8756265],[147.2795414,-36.8756374],[147.2795549,-36.8756419],[147.2795684,-36.8756374],[147.279574,-36.8756265]]]}},{"type":"Feature","id":"pylon-9215044134","properties":{"kind":"pylon","name":"Lift tower","height":13},"geometry":{"type":"Polygon","coordinates":[[[147.2796851,-36.8749072],[147.2796795,-36.8748963],[147.279666,-36.8748918],[147.2796525,-36.8748963],[147.2796469,-36.8749072],[147.2796525,-36.8749181],[147.279666,-36.8749226],[147.2796795,-36.8749181],[147.2796851,-36.8749072]]]}},{"type":"Feature","id":"pylon-9215044135","properties":{"kind":"pylon","name":"Lift tower","height":13},"geometry":{"type":"Polygon","coordinates":[[[147.2798006,-36.8741593],[147.279795,-36.8741484],[147.2797815,-36.8741439],[147.279768,-36.8741484],[147.2797624,-36.8741593],[147.279768,-36.8741702],[147.2797815,-36.8741747],[147.279795,-36.8741702],[147.2798006,-36.8741593]]]}},{"type":"Feature","id":"pylon-9215044136","properties":{"kind":"pylon","name":"Lift tower","height":13},"geometry":{"type":"Polygon","coordinates":[[[147.2799086,-36.8734602],[147.279903,-36.8734493],[147.2798895,-36.8734448],[147.279876,-36.8734493],[147.2798704,-36.8734602],[147.279876,-36.8734711],[147.2798895,-36.8734756],[147.279903,-36.8734711],[147.2799086,-36.8734602]]]}},{"type":"Feature","id":"pylon-9215044137","properties":{"kind":"pylon","name":"Lift tower","height":13},"geometry":{"type":"Polygon","coordinates":[[[147.28,-36.8728688],[147.2799944,-36.8728579],[147.2799809,-36.8728534],[147.2799674,-36.8728579],[147.2799618,-36.8728688],[147.2799674,-36.8728797],[147.2799809,-36.8728842],[147.2799944,-36.8728797],[147.28,-36.8728688]]]}},{"type":"Feature","id":"pylon-9215044138","properties":{"kind":"pylon","name":"Lift tower","height":13},"geometry":{"type":"Polygon","coordinates":[[[147.2808312,-36.8730221],[147.2808256,-36.8730112],[147.2808121,-36.8730067],[147.2807986,-36.8730112],[147.280793,-36.8730221],[147.2807986,-36.873033],[147.2808121,-36.8730375],[147.2808256,-36.873033],[147.2808312,-36.8730221]]]}},{"type":"Feature","id":"pylon-9215044139","properties":{"kind":"pylon","name":"Lift tower","height":13},"geometry":{"type":"Polygon","coordinates":[[[147.281068,-36.8734283],[147.2810624,-36.8734174],[147.2810489,-36.8734129],[147.2810354,-36.8734174],[147.2810298,-36.8734283],[147.2810354,-36.8734392],[147.2810489,-36.8734437],[147.2810624,-36.8734392],[147.281068,-36.8734283]]]}},{"type":"Feature","id":"pylon-9215044140","properties":{"kind":"pylon","name":"Lift tower","height":13},"geometry":{"type":"Polygon","coordinates":[[[147.2814071,-36.8740103],[147.2814015,-36.8739994],[147.281388,-36.8739949],[147.2813745,-36.8739994],[147.2813689,-36.8740103],[147.2813745,-36.8740212],[147.281388,-36.8740257],[147.2814015,-36.8740212],[147.2814071,-36.8740103]]]}},{"type":"Feature","id":"pylon-9215044141","properties":{"kind":"pylon","name":"Lift tower","height":13},"geometry":{"type":"Polygon","coordinates":[[[147.2819337,-36.874914],[147.2819281,-36.8749031],[147.2819146,-36.8748986],[147.2819011,-36.8749031],[147.2818955,-36.874914],[147.2819011,-36.8749249],[147.2819146,-36.8749294],[147.2819281,-36.8749249],[147.2819337,-36.874914]]]}},{"type":"Feature","id":"pylon-9215044142","properties":{"kind":"pylon","name":"Lift tower","height":13},"geometry":{"type":"Polygon","coordinates":[[[147.2823916,-36.8756997],[147.282386,-36.8756888],[147.2823725,-36.8756843],[147.282359,-36.8756888],[147.2823534,-36.8756997],[147.282359,-36.8757106],[147.2823725,-36.8757151],[147.282386,-36.8757106],[147.2823916,-36.8756997]]]}},{"type":"Feature","id":"pylon-9215044143","properties":{"kind":"pylon","name":"Lift tower","height":13},"geometry":{"type":"Polygon","coordinates":[[[147.2826522,-36.876147],[147.2826466,-36.8761361],[147.2826331,-36.8761316],[147.2826196,-36.8761361],[147.282614,-36.876147],[147.2826196,-36.8761579],[147.2826331,-36.8761624],[147.2826466,-36.8761579],[147.2826522,-36.876147]]]}},{"type":"Feature","id":"pylon-9215044144","properties":{"kind":"pylon","name":"Lift tower","height":13},"geometry":{"type":"Polygon","coordinates":[[[147.2829888,-36.8767246],[147.2829832,-36.8767137],[147.2829697,-36.8767092],[147.2829562,-36.8767137],[147.2829506,-36.8767246],[147.2829562,-36.8767355],[147.2829697,-36.87674],[147.2829832,-36.8767355],[147.2829888,-36.8767246]]]}},{"type":"Feature","id":"pylon-9215044145","properties":{"kind":"pylon","name":"Lift tower","height":13},"geometry":{"type":"Polygon","coordinates":[[[147.2833992,-36.8774289],[147.2833936,-36.877418],[147.2833801,-36.8774135],[147.2833666,-36.877418],[147.283361,-36.8774289],[147.2833666,-36.8774398],[147.2833801,-36.8774443],[147.2833936,-36.8774398],[147.2833992,-36.8774289]]]}},{"type":"Feature","id":"pylon-9215044146","properties":{"kind":"pylon","name":"Lift tower","height":13},"geometry":{"type":"Polygon","coordinates":[[[147.2792645,-36.8706106],[147.2792589,-36.8705997],[147.2792454,-36.8705952],[147.2792319,-36.8705997],[147.2792263,-36.8706106],[147.2792319,-36.8706215],[147.2792454,-36.870626],[147.2792589,-36.8706215],[147.2792645,-36.8706106]]]}},{"type":"Feature","id":"pylon-9215044147","properties":{"kind":"pylon","name":"Lift tower","height":13},"geometry":{"type":"Polygon","coordinates":[[[147.2790156,-36.8712038],[147.27901,-36.8711929],[147.2789965,-36.8711884],[147.278983,-36.8711929],[147.2789774,-36.8712038],[147.278983,-36.8712147],[147.2789965,-36.8712192],[147.27901,-36.8712147],[147.2790156,-36.8712038]]]}},{"type":"Feature","id":"pylon-9215044148","properties":{"kind":"pylon","name":"Lift tower","height":13},"geometry":{"type":"Polygon","coordinates":[[[147.2794737,-36.8701118],[147.2794681,-36.8701009],[147.2794546,-36.8700964],[147.2794411,-36.8701009],[147.2794355,-36.8701118],[147.2794411,-36.8701227],[147.2794546,-36.8701272],[147.2794681,-36.8701227],[147.2794737,-36.8701118]]]}},{"type":"Feature","id":"pylon-9215044149","properties":{"kind":"pylon","name":"Lift tower","height":13},"geometry":{"type":"Polygon","coordinates":[[[147.2797284,-36.8695047],[147.2797228,-36.8694938],[147.2797093,-36.8694893],[147.2796958,-36.8694938],[147.2796902,-36.8695047],[147.2796958,-36.8695156],[147.2797093,-36.8695201],[147.2797228,-36.8695156],[147.2797284,-36.8695047]]]}},{"type":"Feature","id":"pylon-9215044150","properties":{"kind":"pylon","name":"Lift tower","height":13},"geometry":{"type":"Polygon","coordinates":[[[147.2799195,-36.8690491],[147.2799139,-36.8690382],[147.2799004,-36.8690337],[147.2798869,-36.8690382],[147.2798813,-36.8690491],[147.2798869,-36.86906],[147.2799004,-36.8690645],[147.2799139,-36.86906],[147.2799195,-36.8690491]]]}},{"type":"Feature","id":"pylon-9215044151","properties":{"kind":"pylon","name":"Lift tower","height":13},"geometry":{"type":"Polygon","coordinates":[[[147.2803604,-36.8679983],[147.2803548,-36.8679874],[147.2803413,-36.8679829],[147.2803278,-36.8679874],[147.2803222,-36.8679983],[147.2803278,-36.8680092],[147.2803413,-36.8680137],[147.2803548,-36.8680092],[147.2803604,-36.8679983]]]}},{"type":"Feature","id":"pylon-9215044152","properties":{"kind":"pylon","name":"Lift tower","height":13},"geometry":{"type":"Polygon","coordinates":[[[147.2809107,-36.8666864],[147.2809051,-36.8666755],[147.2808916,-36.866671],[147.2808781,-36.8666755],[147.2808725,-36.8666864],[147.2808781,-36.8666973],[147.2808916,-36.8667018],[147.2809051,-36.8666973],[147.2809107,-36.8666864]]]}},{"type":"Feature","id":"pylon-9215044153","properties":{"kind":"pylon","name":"Lift tower","height":13},"geometry":{"type":"Polygon","coordinates":[[[147.2812047,-36.8659856],[147.2811991,-36.8659747],[147.2811856,-36.8659702],[147.2811721,-36.8659747],[147.2811665,-36.8659856],[147.2811721,-36.8659965],[147.2811856,-36.866001],[147.2811991,-36.8659965],[147.2812047,-36.8659856]]]}},{"type":"Feature","id":"pylon-9215044154","properties":{"kind":"pylon","name":"Lift tower","height":13},"geometry":{"type":"Polygon","coordinates":[[[147.2816337,-36.864963],[147.2816281,-36.8649521],[147.2816146,-36.8649476],[147.2816011,-36.8649521],[147.2815955,-36.864963],[147.2816011,-36.8649739],[147.2816146,-36.8649784],[147.2816281,-36.8649739],[147.2816337,-36.864963]]]}},{"type":"Feature","id":"pylon-9215044155","properties":{"kind":"pylon","name":"Lift tower","height":13},"geometry":{"type":"Polygon","coordinates":[[[147.28188,-36.8643759],[147.2818744,-36.864365],[147.2818609,-36.8643605],[147.2818474,-36.864365],[147.2818418,-36.8643759],[147.2818474,-36.8643868],[147.2818609,-36.8643913],[147.2818744,-36.8643868],[147.28188,-36.8643759]]]}},{"type":"Feature","id":"pylon-9417101425","properties":{"kind":"pylon","name":"Lift tower","height":13},"geometry":{"type":"Polygon","coordinates":[[[147.280556,-36.8725498],[147.2805504,-36.8725389],[147.2805369,-36.8725344],[147.2805234,-36.8725389],[147.2805178,-36.8725498],[147.2805234,-36.8725607],[147.2805369,-36.8725652],[147.2805504,-36.8725607],[147.280556,-36.8725498]]]}},{"type":"Feature","id":"pylon-9417101426","properties":{"kind":"pylon","name":"Lift tower","height":13},"geometry":{"type":"Polygon","coordinates":[[[147.2740328,-36.8713845],[147.2740272,-36.8713736],[147.2740137,-36.8713691],[147.2740002,-36.8713736],[147.2739946,-36.8713845],[147.2740002,-36.8713954],[147.2740137,-36.8713999],[147.2740272,-36.8713954],[147.2740328,-36.8713845]]]}},{"type":"Feature","id":"pylon-9417101427","properties":{"kind":"pylon","name":"Lift tower","height":13},"geometry":{"type":"Polygon","coordinates":[[[147.2736621,-36.8689331],[147.2736565,-36.8689222],[147.273643,-36.8689177],[147.2736295,-36.8689222],[147.2736239,-36.8689331],[147.2736295,-36.868944],[147.273643,-36.8689485],[147.2736565,-36.868944],[147.2736621,-36.8689331]]]}},{"type":"Feature","id":"pylon-9417101428","properties":{"kind":"pylon","name":"Lift tower","height":13},"geometry":{"type":"Polygon","coordinates":[[[147.2655863,-36.8652215],[147.2655807,-36.8652106],[147.2655672,-36.8652061],[147.2655537,-36.8652106],[147.2655481,-36.8652215],[147.2655537,-36.8652324],[147.2655672,-36.8652369],[147.2655807,-36.8652324],[147.2655863,-36.8652215]]]}},{"type":"Feature","id":"pylon-11173279950","properties":{"kind":"pylon","name":"Lift tower","height":13},"geometry":{"type":"Polygon","coordinates":[[[147.2680991,-36.8709472],[147.2680935,-36.8709363],[147.26808,-36.8709318],[147.2680665,-36.8709363],[147.2680609,-36.8709472],[147.2680665,-36.8709581],[147.26808,-36.8709626],[147.2680935,-36.8709581],[147.2680991,-36.8709472]]]}},{"type":"Feature","id":"pylon-11173279951","properties":{"kind":"pylon","name":"Lift tower","height":13},"geometry":{"type":"Polygon","coordinates":[[[147.2691317,-36.8710137],[147.2691261,-36.8710028],[147.2691126,-36.8709983],[147.2690991,-36.8710028],[147.2690935,-36.8710137],[147.2690991,-36.8710246],[147.2691126,-36.8710291],[147.2691261,-36.8710246],[147.2691317,-36.8710137]]]}},{"type":"Feature","properties":{"kind":"marker","name":"Summit zone \u00b7 1773 m","height":26},"geometry":{"type":"Polygon","coordinates":[[[147.2661375,-36.8657798],[147.2661327,-36.8657653],[147.2661196,-36.8657547],[147.2661016,-36.8657509],[147.2660836,-36.8657547],[147.2660705,-36.8657653],[147.2660657,-36.8657798],[147.2660705,-36.8657943],[147.2660836,-36.8658049],[147.2661016,-36.8658087],[147.2661196,-36.8658049],[147.2661327,-36.8657943],[147.2661375,-36.8657798]]]}},{"type":"Feature","properties":{"kind":"marker","name":"Falls Creek village \u00b7 1522 m","height":18},"geometry":{"type":"Polygon","coordinates":[[[147.2742359,-36.864],[147.2742311,-36.8639855],[147.274218,-36.8639749],[147.2742,-36.8639711],[147.274182,-36.8639749],[147.2741689,-36.8639855],[147.2741641,-36.864],[147.2741689,-36.8640145],[147.274182,-36.8640251],[147.2742,-36.8640289],[147.274218,-36.8640251],[147.2742311,-36.8640145],[147.2742359,-36.864]]]}}]}