{"type":"FeatureCollection","features":[{"type":"Feature","id":41703497,"properties":{"kind":"lift","name":"Gulmarg Gondola G1-G2","subtype":"gondola","status":"active"},"geometry":{"type":"LineString","coordinates":[[74.38463,34.04564],[74.3805498,34.0426409],[74.3771816,34.0401651],[74.3739931,34.0378213],[74.3695979,34.0345904],[74.3676946,34.0331912],[74.3670211,34.0327276]]}},{"type":"Feature","id":41703499,"properties":{"kind":"lift","name":"T-Lift- 2","subtype":"drag_lift","status":"active"},"geometry":{"type":"LineString","coordinates":[[74.38701,34.04948],[74.38708,34.05154]]}},{"type":"Feature","id":41703507,"properties":{"kind":"lift","name":"T-Lift-1","subtype":"drag_lift","status":"active"},"geometry":{"type":"LineString","coordinates":[[74.38991,34.05062],[74.38751,34.04972]]}},{"type":"Feature","id":41703508,"properties":{"kind":"run","name":"Bunny Slopes","subtype":"novice","pisteType":"downhill","featured":false},"geometry":{"type":"LineString","coordinates":[[74.3874579,34.0496556],[74.3899395,34.0505641],[74.3900218,34.0504097],[74.3874607,34.0494726],[74.3874579,34.0496556]]}},{"type":"Feature","id":41703509,"properties":{"kind":"run","name":"Bunny Slopes","subtype":"novice","pisteType":"downhill","featured":false},"geometry":{"type":"LineString","coordinates":[[74.3871063,34.0515347],[74.3873923,34.0515337],[74.3874579,34.0496556],[74.3874607,34.0494726],[74.3870969,34.0495459],[74.3871063,34.0515347]]}},{"type":"Feature","id":41747295,"properties":{"kind":"lift","name":"Gulmarg Gondola G3-G4","subtype":"gondola","status":"active"},"geometry":{"type":"LineString","coordinates":[[74.3670211,34.0327276],[74.3662924,34.0322033],[74.3654599,34.0316277],[74.3634329,34.0302401],[74.3632016,34.0300818],[74.3629703,34.0299234],[74.3596101,34.0276232],[74.3572731,34.0260232],[74.3526179,34.0228362],[74.3511569,34.021836],[74.3494177,34.0206453],[74.3466929,34.0187797],[74.3464283,34.0185985],[74.345961,34.0182786]]}},{"type":"Feature","id":222088304,"properties":{"kind":"lift","name":"Kongdoori - Marry Shoulder","subtype":"chair_lift","status":"active"},"geometry":{"type":"LineString","coordinates":[[74.3665719,34.0329099],[74.3659741,34.0325085],[74.3650341,34.0318491],[74.3639177,34.0310961],[74.3627118,34.0302628],[74.3617852,34.0295968],[74.3592957,34.0278303],[74.3584035,34.0271551],[74.3549677,34.0247599],[74.354315,34.0242827],[74.3540916,34.0241081]]}},{"type":"Feature","id":1358174206,"properties":{"kind":"run","name":"Groomer Run","subtype":"easy","pisteType":"downhill","featured":false},"geometry":{"type":"LineString","coordinates":[[74.3662291,34.0317054],[74.3667919,34.0314725],[74.3672661,34.031834],[74.3677284,34.0320475],[74.3685059,34.0315342],[74.3691501,34.0315854],[74.3696406,34.0318489],[74.3698983,34.0323397],[74.3695547,34.0342466],[74.3695231,34.0352393],[74.3699796,34.036116],[74.3702509,34.0368352],[74.3703051,34.037738],[74.3697174,34.0390492],[74.3703277,34.0400868],[74.3718874,34.0404802],[74.3727732,34.0404905],[74.3750105,34.0405949],[74.3761382,34.0407987],[74.3770739,34.0410522],[74.3773858,34.0422451],[74.3780516,34.0428465],[74.3798211,34.0434479],[74.3804689,34.0438902],[74.380187,34.044924],[74.3806908,34.0454856],[74.3826342,34.0461367],[74.3841699,34.0458247]]}},{"type":"Feature","id":1358174213,"properties":{"kind":"run","name":"Mapped ski run","subtype":"intermediate","pisteType":"downhill","featured":false},"geometry":{"type":"LineString","coordinates":[[74.3540558,34.0241531],[74.3538529,34.0243438],[74.3537871,34.0244538],[74.3537564,34.0245672],[74.3537266,34.0246595],[74.3537833,34.0247937],[74.3538174,34.0248887],[74.353853,34.0250298],[74.3539143,34.0252296],[74.3540549,34.0254413],[74.354278,34.0257471],[74.3545767,34.0260231],[74.3547415,34.0262415],[74.3548342,34.0264001],[74.3548949,34.0266707],[74.3549845,34.0269292],[74.3552719,34.0274374],[74.3555676,34.027727],[74.3556728,34.0277943],[74.3558316,34.0278959],[74.3562578,34.0282754],[74.3566221,34.0285997],[74.3571531,34.0293991],[74.3576011,34.0299476],[74.3582149,34.0303707],[74.3586204,34.0307386],[74.3591167,34.0309862],[74.3595203,34.031148],[74.3601638,34.0314059],[74.3612263,34.031641],[74.3622162,34.0317406],[74.3634363,34.0319554],[74.3643069,34.0322757],[74.3650425,34.0325686],[74.3655572,34.0328312],[74.3659413,34.0328962],[74.3661668,34.0329341],[74.3664464,34.0329753]]}},{"type":"Feature","id":1475183373,"properties":{"kind":"run","name":"Gulmarg Ski Resort area Phase 2","subtype":"advanced","pisteType":"downhill","featured":false},"geometry":{"type":"LineString","coordinates":[[74.3442795,34.0195405],[74.3445827,34.0193073],[74.3449878,34.0189705],[74.345337,34.0187647],[74.3458923,34.0183614],[74.3461173,34.0182403],[74.3463963,34.0183372],[74.3467597,34.0185491],[74.3467981,34.0187725],[74.3468989,34.0189877],[74.3477998,34.0196714],[74.348885,34.0203809],[74.3502953,34.0209098],[74.3509358,34.0215587],[74.3510205,34.0216445],[74.3514987,34.0222852],[74.3523918,34.0228759],[74.3535049,34.0231992],[74.3546822,34.0237009],[74.3547233,34.0237144],[74.3558413,34.0240821],[74.3580294,34.0252108],[74.358557,34.0254051],[74.3590551,34.0255343],[74.3598054,34.0258732],[74.3604422,34.0262288],[74.3614908,34.027078],[74.3624056,34.0275911],[74.3639315,34.028118],[74.3643594,34.0283344],[74.3653304,34.0288256],[74.3665293,34.0300301],[74.3674558,34.0309334],[74.3681552,34.0320249],[74.3681643,34.0328755],[74.3671673,34.0344725],[74.3657161,34.0354825],[74.3647389,34.0357069],[74.3632594,34.0358713],[74.361785,34.0357677],[74.359573,34.0353703],[74.3578276,34.0346068],[74.3566986,34.0342059],[74.3557069,34.0335014],[74.3542125,34.0321528],[74.3529591,34.0306022],[74.3520128,34.0292761],[74.3519599,34.029202],[74.3509244,34.0280126],[74.3504808,34.0274211],[74.3500888,34.0268985],[74.3493621,34.0260102],[74.348145,34.0248961],[74.3470732,34.0234356],[74.3455835,34.0223365],[74.3443024,34.0213482],[74.3437792,34.0209506],[74.3435061,34.0205897],[74.3434466,34.020304],[74.3434848,34.0200967],[74.3439614,34.0197327],[74.3442795,34.0195405]]}},{"type":"Feature","id":1475184740,"properties":{"kind":"run","name":"Sheenmai Bowl","subtype":"unknown","pisteType":"downhill","featured":false},"geometry":{"type":"LineString","coordinates":[[74.3467981,34.0187725],[74.3467655,34.0185425],[74.3469465,34.0182903],[74.3473491,34.0179442],[74.3476201,34.0176401],[74.3479108,34.0174682],[74.347973,34.0172845],[74.348142,34.0171561],[74.3484445,34.0169193],[74.3485439,34.0168415],[74.3487978,34.0167572],[74.3493286,34.0170741],[74.3505451,34.0175692],[74.3518872,34.0180269],[74.3524928,34.0181909],[74.3533708,34.0186131],[74.3542727,34.0190617],[74.3549649,34.0193998],[74.3566212,34.0200247],[74.3579623,34.020575],[74.3586784,34.0209047],[74.3603418,34.0219333],[74.3604713,34.0221827],[74.3605099,34.0223718],[74.3603844,34.0227882],[74.3603558,34.0232629],[74.3604938,34.0239773],[74.3604181,34.0243764],[74.3601099,34.0249218],[74.3595995,34.0253611],[74.359374,34.0254919],[74.3590551,34.0255343],[74.358557,34.0254051],[74.3580294,34.0252108],[74.3558413,34.0240821],[74.3547233,34.0237144],[74.3535049,34.0231992],[74.3523918,34.0228759],[74.3514987,34.0222852],[74.3509358,34.0215587],[74.3502953,34.0209098],[74.348885,34.0203809],[74.3477998,34.0196714],[74.3468989,34.0189877],[74.3467981,34.0187725]]}},{"type":"Feature","id":1475189167,"properties":{"kind":"run","name":"Hapat Khud Bowl","subtype":"unknown","pisteType":"downhill","featured":false},"geometry":{"type":"LineString","coordinates":[[74.3489947,34.0161526],[74.3501227,34.0146666],[74.3506542,34.0143387],[74.3512846,34.0140621],[74.3518655,34.013765],[74.352533,34.0135191],[74.3536976,34.0135278],[74.3541027,34.0137855],[74.3547825,34.0144924],[74.3549954,34.0149357],[74.3554623,34.0154248],[74.356068,34.0159268],[74.3566119,34.0162444],[74.3576872,34.0178016],[74.3580951,34.0182729],[74.358676,34.0188774],[74.3592693,34.0193998],[74.3599986,34.0199018],[74.3609132,34.0203526],[74.3616178,34.0207317],[74.3618773,34.0210595],[74.3619144,34.0213156],[74.3618566,34.0215371],[74.3616598,34.0218006],[74.3614363,34.0218981],[74.3610054,34.0220516],[74.360719,34.0220527],[74.3603418,34.0219333],[74.3598018,34.0216102],[74.3586784,34.0209047],[74.3579623,34.020575],[74.3566212,34.0200247],[74.3556694,34.0196661],[74.3549649,34.0193998],[74.3533708,34.0186131],[74.3524928,34.0181909],[74.3518872,34.0180269],[74.3505451,34.0175692],[74.3493286,34.0170741],[74.3487978,34.0167572],[74.3489947,34.0161526]]}},{"type":"Feature","id":1475189168,"properties":{"kind":"run","name":"Shaggy's Face","subtype":"unknown","pisteType":"downhill","featured":false},"geometry":{"type":"LineString","coordinates":[[74.3479108,34.0174682],[74.347973,34.0172845],[74.348142,34.0171561],[74.3484445,34.0169193],[74.3485439,34.0168415],[74.3487978,34.0167572],[74.3493286,34.0170741],[74.3505451,34.0175692],[74.3518872,34.0180269],[74.3524928,34.0181909],[74.3533708,34.0186131],[74.3542727,34.0190617],[74.3549649,34.0193998],[74.3556694,34.0196661],[74.3566212,34.0200247],[74.3579623,34.020575],[74.3586784,34.0209047],[74.3587265,34.020982],[74.358724,34.0210295],[74.3586687,34.0211215],[74.3585714,34.0211882],[74.3584428,34.0212214],[74.3575082,34.0211105],[74.3561607,34.020892],[74.3543354,34.0203595],[74.3523866,34.0198475],[74.351239,34.019522],[74.350427,34.0194267],[74.3497968,34.0191506],[74.3490367,34.0185645],[74.3479899,34.0179203],[74.3479108,34.0174682]]}},{"type":"Feature","id":1475189169,"properties":{"kind":"run","name":"Trajan Bowl","subtype":"unknown","pisteType":"downhill","featured":false},"geometry":{"type":"LineString","coordinates":[[74.3536976,34.0135278],[74.3535871,34.0132874],[74.3537458,34.0130469],[74.3542498,34.0127016],[74.3549162,34.0125041],[74.3554697,34.0124016],[74.3557472,34.0126434],[74.3565542,34.0129885],[74.3573134,34.0133582],[74.357984,34.0137825],[74.3585618,34.0142188],[74.3591057,34.0147004],[74.3600327,34.0153663],[74.3614788,34.0162167],[74.3628211,34.0168906],[74.3654762,34.0183514],[74.3663688,34.0190533],[74.3669808,34.0198751],[74.3667693,34.0205406],[74.3662315,34.0208935],[74.3653159,34.0211401],[74.3642173,34.021159],[74.3630042,34.0209883],[74.3622594,34.0208733],[74.3616178,34.0207317],[74.3599986,34.0199018],[74.3592693,34.0193998],[74.358676,34.0188774],[74.3580951,34.0182729],[74.3576872,34.0178016],[74.3566119,34.0162444],[74.356068,34.0159268],[74.3554623,34.0154248],[74.3549954,34.0149357],[74.3547825,34.0144924],[74.3541027,34.0137855],[74.3536976,34.0135278]]}},{"type":"Feature","id":1475189170,"properties":{"kind":"run","name":"Drung Bowls","subtype":"unknown","pisteType":"downhill","featured":false},"geometry":{"type":"LineString","coordinates":[[74.3554697,34.0124016],[74.3555047,34.0119479],[74.356079,34.0110831],[74.3567983,34.01072],[74.3575046,34.0102727],[74.357724,34.0096999],[74.3578681,34.0090907],[74.358173,34.0084302],[74.3585807,34.0081071],[74.3593467,34.0079889],[74.3596885,34.0075169],[74.3599706,34.0068966],[74.360401,34.0062046],[74.3611563,34.0053698],[74.3618429,34.0049713],[74.3633078,34.004478],[74.3643606,34.0042313],[74.3651779,34.0043075],[74.3660315,34.004459],[74.3667056,34.0047596],[74.3671072,34.0052559],[74.3676794,34.0056733],[74.3685949,34.0060338],[74.3703316,34.0073839],[74.3706313,34.0077076],[74.3714052,34.0087646],[74.3712033,34.0096848],[74.3708501,34.0105353],[74.3712033,34.0117065],[74.3719602,34.0123757],[74.3732553,34.0130868],[74.3748031,34.0141791],[74.3761307,34.0148051],[74.379129,34.0152415],[74.3850342,34.0173473],[74.3871857,34.0186374],[74.3890535,34.0195732],[74.3907381,34.020547],[74.3929627,34.021343],[74.3949585,34.0222907],[74.3965969,34.0225147],[74.398084,34.0227526],[74.3993029,34.0232809],[74.3996364,34.0238291],[74.3997429,34.0242344],[74.399704,34.0246246],[74.3994315,34.0249603],[74.3989592,34.025296],[74.3980691,34.0253801],[74.3968442,34.0252104],[74.3937491,34.0249417],[74.3921825,34.0245181],[74.3901021,34.0238225],[74.3874567,34.0227855],[74.3856435,34.022463],[74.3842102,34.0222608],[74.3829742,34.0222418],[74.3808685,34.0221469],[74.3791519,34.022128],[74.3759933,34.0216158],[74.3745285,34.0214261],[74.3722626,34.0211036],[74.3705688,34.0208],[74.3690124,34.0203637],[74.3669808,34.0198751],[74.3663688,34.0190533],[74.3654762,34.0183514],[74.3628211,34.0168906],[74.3614788,34.0162167],[74.3600327,34.0153663],[74.3591057,34.0147004],[74.3585618,34.0142188],[74.357984,34.0137825],[74.3573134,34.0133582],[74.3565542,34.0129885],[74.3557472,34.0126434],[74.3554697,34.0124016]]}},{"type":"Feature","id":1475190645,"properties":{"kind":"run","name":"Apharwat S Bowl","subtype":"advanced","pisteType":"downhill","featured":false},"geometry":{"type":"LineString","coordinates":[[74.3434848,34.0200967],[74.343182,34.0198489],[74.3427615,34.0196885],[74.3421392,34.0194446],[74.3415252,34.019354],[74.3403563,34.01934],[74.3395826,34.0195422],[74.3388509,34.0199161],[74.3387766,34.0202632],[74.3390655,34.0206856],[74.3393013,34.0210904],[74.3398013,34.0216355],[74.3402469,34.0221212],[74.3412141,34.0229786],[74.3419542,34.0233689],[74.3427615,34.0239683],[74.3436866,34.0245887],[74.3447357,34.0254106],[74.3457542,34.0262168],[74.3463983,34.0267165],[74.3474218,34.0273383],[74.3480252,34.0276016],[74.3483598,34.0278161],[74.3487686,34.0281228],[74.3493699,34.0283563],[74.3498461,34.0283257],[74.3502798,34.0281697],[74.3504635,34.0278981],[74.3504808,34.0274211],[74.3500888,34.0268985],[74.3493621,34.0260102],[74.348145,34.0248961],[74.3470732,34.0234356],[74.3455835,34.0223365],[74.3443024,34.0213482],[74.3437792,34.0209506],[74.3435061,34.0205897],[74.3434466,34.020304],[74.3434848,34.0200967]]}},{"type":"Feature","id":1475190646,"properties":{"kind":"run","name":"Apharwat N Bowl","subtype":"advanced","pisteType":"downhill","featured":false},"geometry":{"type":"LineString","coordinates":[[74.3387766,34.0202632],[74.3390655,34.0206856],[74.3393013,34.0210904],[74.3398013,34.0216355],[74.3402469,34.0221212],[74.3412141,34.0229786],[74.3419542,34.0233689],[74.3427615,34.0239683],[74.3436866,34.0245887],[74.3447357,34.0254106],[74.3457542,34.0262168],[74.3463983,34.0267165],[74.3474218,34.0273383],[74.3480252,34.0276016],[74.3483598,34.0278161],[74.3487686,34.0281228],[74.3493699,34.0283563],[74.3497928,34.0287476],[74.3504355,34.0294441],[74.351276,34.0303148],[74.3516468,34.0308168],[74.3518322,34.0313085],[74.3517828,34.0315441],[74.3513007,34.0316875],[74.3508274,34.0317478],[74.3504973,34.0317899],[74.3498095,34.0320841],[74.3490759,34.0321886],[74.3480253,34.0319435],[74.3469376,34.0317387],[74.346542,34.0314211],[74.3458375,34.0308782],[74.3454543,34.030448],[74.3450959,34.0301817],[74.3443666,34.0298334],[74.3435138,34.0294237],[74.3424384,34.0286964],[74.3413754,34.0281944],[74.3407821,34.0278973],[74.3401641,34.0276617],[74.3396203,34.0274159],[74.3391629,34.0269754],[74.3387921,34.0266783],[74.3383471,34.0264632],[74.3377291,34.0262378],[74.336765,34.0259612],[74.3359616,34.0254695],[74.335702,34.0247729],[74.3356773,34.0240149],[74.3358998,34.0225602],[74.3361717,34.0215972],[74.3363448,34.0209825],[74.3365549,34.0206649],[74.3372347,34.0202961],[74.3379763,34.0202346],[74.3387766,34.0202632]]}},{"type":"Feature","id":1479259458,"properties":{"kind":"run","name":"Mapped ski run","subtype":"advanced","pisteType":"downhill","featured":false},"geometry":{"type":"LineString","coordinates":[[74.3463026,34.0183714],[74.3463564,34.0186213],[74.346491,34.0188623],[74.3466131,34.0192182],[74.3467783,34.0193492],[74.3469867,34.019522],[74.3471736,34.0196828],[74.3473388,34.0197542],[74.3476478,34.0199567],[74.3478778,34.0201771],[74.3480718,34.0202724],[74.3484383,34.0204987],[74.3486754,34.0208382],[74.3487832,34.0210765],[74.3490203,34.0216244],[74.3491712,34.0219163],[74.3492934,34.0221962],[74.3494443,34.0225357],[74.3496489,34.022994],[74.3498522,34.023179],[74.3500842,34.0232805],[74.350558,34.0234079],[74.3510445,34.0236095],[74.3514799,34.0236626],[74.3521073,34.0235989],[74.3524146,34.0235989],[74.3527987,34.0237793],[74.3532468,34.0240764],[74.3534395,34.0242588],[74.3536192,34.0245209],[74.3537266,34.0246595]]}},{"type":"Feature","id":1479259459,"properties":{"kind":"run","name":"Mapped ski run","subtype":"advanced","pisteType":"downhill","featured":false},"geometry":{"type":"LineString","coordinates":[[74.3466131,34.0192182],[74.3465896,34.0193976],[74.3464675,34.0195524],[74.3463812,34.0196537],[74.3463022,34.0197609],[74.3462303,34.0198919],[74.3461297,34.0200051],[74.345871,34.0200885],[74.3457129,34.0201897],[74.3456267,34.0203088],[74.3455836,34.0204816],[74.3454183,34.0207615],[74.3453393,34.0208985],[74.3452458,34.0211069],[74.3452387,34.0212737],[74.3451452,34.0214524],[74.344865,34.0216727],[74.3444075,34.0218382],[74.3441677,34.0218382],[74.3438607,34.02187],[74.3435058,34.0218461],[74.343314,34.0218382],[74.3430262,34.0218382],[74.3426617,34.021862],[74.3425274,34.0219177],[74.3422876,34.0220926],[74.3421342,34.0224345],[74.3421821,34.0229035],[74.3422205,34.0233646],[74.3422205,34.0237542],[74.3424795,34.0241914],[74.3429111,34.024565],[74.3434099,34.0249307],[74.3437648,34.0253044],[74.344206,34.0256462],[74.3447048,34.0259801],[74.3453283,34.0263697],[74.3456736,34.026791],[74.3458751,34.0270454],[74.3462492,34.0272839],[74.3467,34.0276337],[74.3472084,34.0278324],[74.3476304,34.0281027],[74.348369,34.0285717],[74.3491843,34.0292474],[74.3495009,34.029462],[74.3500284,34.0298277],[74.3503066,34.0300423],[74.3504313,34.0302093],[74.3507766,34.030416],[74.3511411,34.0307021],[74.351496,34.0308532],[74.3518509,34.0310996],[74.3522154,34.0312745],[74.3527622,34.0314732],[74.3535487,34.0318627],[74.3538749,34.0319422],[74.3542969,34.0320694],[74.3547286,34.0320774],[74.3552465,34.0320774],[74.3559372,34.032141],[74.3562729,34.0321648],[74.3565319,34.0321171],[74.3568964,34.0320376],[74.3577788,34.0321092],[74.3582393,34.0322443],[74.3588531,34.0324112],[74.3593136,34.0324907],[74.3597932,34.0324669],[74.3603399,34.0324987],[74.360762,34.032451],[74.3614334,34.0324112],[74.3621049,34.032284],[74.362642,34.0321012],[74.3631312,34.031982],[74.3634363,34.0319554]]}},{"type":"Feature","id":1479259460,"properties":{"kind":"run","name":"Mapped ski run","subtype":"expert","pisteType":"downhill","featured":false},"geometry":{"type":"LineString","coordinates":[[74.3471964,34.0189964],[74.3474048,34.0187641],[74.3475341,34.0186986],[74.3476634,34.018645],[74.347879,34.0185974],[74.3481736,34.0186093],[74.3483605,34.0187403],[74.3484683,34.0188594],[74.3485545,34.0189666],[74.348727,34.0190798],[74.3489785,34.0191453],[74.3491366,34.0192466],[74.3492587,34.0193359],[74.3494312,34.0194133],[74.3496468,34.0194074],[74.3497977,34.01933],[74.3499558,34.0193002],[74.3501282,34.0193478],[74.350466,34.0194848],[74.3508253,34.0195206],[74.3510552,34.0195384],[74.351278,34.0195861],[74.351472,34.0196337],[74.3518097,34.019729],[74.3521044,34.0198184],[74.3524493,34.0200328],[74.3527583,34.0202055],[74.3533866,34.0202136],[74.3536246,34.0202237],[74.3538746,34.0202872],[74.3542618,34.0203741],[74.3548345,34.0205613],[74.3554838,34.0207685],[74.3558992,34.0208989],[74.3563063,34.0210428],[74.3570971,34.0213173],[74.3575364,34.0214461],[74.3580771,34.0216646],[74.3585638,34.0218718],[74.3590658,34.0221828],[74.3594993,34.022622],[74.3598124,34.0230811],[74.359969,34.0235303],[74.3601737,34.0239595],[74.360258,34.0241591],[74.3605109,34.0245583],[74.3608601,34.0250175],[74.3611973,34.0253468],[74.3615179,34.0256563],[74.3617302,34.0259657],[74.361977,34.0262227],[74.3622328,34.0264723],[74.3626304,34.0267794],[74.3629631,34.0270675],[74.363404,34.0273705],[74.3638467,34.0276424],[74.3641237,34.0280017],[74.3643594,34.0283344],[74.3644489,34.0285606],[74.3645211,34.0289299],[74.3644007,34.0295786],[74.36422,34.0299778],[74.36422,34.0302972],[74.3642803,34.0304369],[74.3644368,34.0306066],[74.3647861,34.030926],[74.3652437,34.031395],[74.3656893,34.0318841],[74.3660505,34.0323032],[74.3663998,34.0327024]]}},{"type":"Feature","id":1479259461,"properties":{"kind":"run","name":"Mapped ski run","subtype":"expert","pisteType":"downhill","featured":false},"geometry":{"type":"LineString","coordinates":[[74.3462139,34.0181955],[74.3464548,34.0180857],[74.3466475,34.0180158],[74.347069,34.0177563],[74.3472857,34.0175866],[74.3474692,34.017561],[74.3477399,34.0173816],[74.3481459,34.0172395],[74.3485699,34.0172021],[74.3488496,34.0171572],[74.3491792,34.0172181],[74.3496946,34.0174556],[74.3501668,34.0177031],[74.3504501,34.0178975],[74.3507769,34.0181246],[74.3511264,34.0182983],[74.3513814,34.0185228],[74.3516193,34.0187874],[74.3517636,34.0189519],[74.3519802,34.0191762],[74.3522418,34.0194754],[74.3523681,34.0197072],[74.3524854,34.0199539],[74.3524493,34.0200328]]}},{"type":"Feature","id":1479259462,"properties":{"kind":"run","name":"Mapped ski run","subtype":"intermediate","pisteType":"downhill","featured":false},"geometry":{"type":"LineString","coordinates":[[74.3538529,34.0243438],[74.3537109,34.0244451],[74.3535352,34.0245852],[74.3534135,34.0246748],[74.3532311,34.0248092],[74.3531026,34.0249493],[74.3529539,34.0250501],[74.3527782,34.0251453],[74.3526228,34.0251901],[74.3522105,34.0252686],[74.3520686,34.0253526],[74.3519266,34.0254142],[74.3518658,34.0255262],[74.3519537,34.0257223],[74.3519739,34.0259351],[74.3521159,34.0261648],[74.3522646,34.0264225],[74.3524741,34.0268202],[74.3526295,34.0270947],[74.352839,34.027554],[74.3529539,34.0278284],[74.353177,34.0280917],[74.3533527,34.0283046],[74.3537447,34.0287583],[74.3540016,34.0289599],[74.3542989,34.0291448],[74.3546166,34.029352],[74.3548599,34.0296321],[74.3551641,34.0299009],[74.3554479,34.0301642],[74.3558602,34.0304499],[74.3561711,34.03087],[74.3566172,34.0311556],[74.3571511,34.0313461],[74.3577505,34.0315309],[74.3583136,34.0316261],[74.3591787,34.0317998],[74.3603953,34.0319678],[74.3613821,34.0320462],[74.3622472,34.0319846],[74.3629634,34.0319364],[74.3634363,34.0319554]]}},{"type":"Feature","id":1479259463,"properties":{"kind":"run","name":"Mapped ski run","subtype":"intermediate","pisteType":"downhill","featured":false},"geometry":{"type":"LineString","coordinates":[[74.3524741,34.0268202],[74.3526451,34.027499],[74.3527263,34.0280597],[74.3526902,34.0282616],[74.3526361,34.0284411],[74.352582,34.0287327],[74.3524827,34.0288897],[74.3522572,34.0290093],[74.3521128,34.0291215],[74.3520128,34.0292761],[74.3519685,34.0294953],[74.3520316,34.0297196],[74.3524647,34.0300636],[74.3526,34.0302729],[74.3528616,34.0305832],[74.3531594,34.030901],[74.3538179,34.0314841],[74.3540254,34.0315813],[74.354269,34.0316038],[74.3546119,34.0316038],[74.3550088,34.0316038],[74.3554148,34.0315963],[74.3559471,34.0316337],[74.3565696,34.0316112],[74.3571199,34.0315514],[74.3577505,34.0315309]]}},{"type":"Feature","id":1479259464,"properties":{"kind":"run","name":"Mapped ski run","subtype":"intermediate","pisteType":"downhill","featured":false},"geometry":{"type":"LineString","coordinates":[[74.3520686,34.0253526],[74.3520639,34.0254877],[74.3521586,34.0256334],[74.3523208,34.0258462],[74.3525979,34.0260647],[74.352902,34.0262439],[74.3531115,34.0264512],[74.3536928,34.0270617],[74.3540375,34.0272186],[74.3543754,34.027437],[74.3547134,34.0277339],[74.3549702,34.0277899],[74.3553622,34.0278571],[74.3556393,34.0279468],[74.3560043,34.0281372],[74.3562578,34.0282754]]}},{"type":"Feature","id":1479259465,"properties":{"kind":"run","name":"Mapped ski run","subtype":"intermediate","pisteType":"downhill","featured":false},"geometry":{"type":"LineString","coordinates":[[74.3540916,34.0241081],[74.3544118,34.0241323],[74.3546042,34.0242498],[74.3547966,34.0243883],[74.3550143,34.0245981],[74.3550549,34.0247282],[74.3550397,34.0249212],[74.3550903,34.0250723],[74.3551004,34.0252402],[74.3551814,34.0253493],[74.3553131,34.0254878],[74.3554802,34.0256892],[74.3556068,34.0258319],[74.3556827,34.0260375],[74.3556827,34.0261676],[74.3556878,34.0262977],[74.3556878,34.0264781],[74.3557384,34.0266166],[74.3557485,34.0267509],[74.3556675,34.027011],[74.3556169,34.0272041],[74.3556219,34.0274349],[74.3556523,34.0276321],[74.3556728,34.0277943]]}},{"type":"Feature","id":1479259466,"properties":{"kind":"run","name":"Mapped ski run","subtype":"intermediate","pisteType":"downhill","featured":false},"geometry":{"type":"LineString","coordinates":[[74.3544118,34.0241323],[74.3548403,34.0242021],[74.3551715,34.0242819],[74.3554786,34.0243817],[74.3559603,34.0245315],[74.3565745,34.024781],[74.3571405,34.0250904],[74.3577306,34.0253898],[74.3585133,34.0257092],[74.3588385,34.0258789],[74.3593202,34.0261184],[74.3597899,34.0263779],[74.3599826,34.0265276],[74.3602355,34.0266574],[74.3604884,34.026857],[74.360681,34.0271165],[74.3607774,34.0274359],[74.360681,34.0277053],[74.3607051,34.0280547],[74.3607894,34.0282543],[74.361235,34.0285437],[74.3616685,34.0288232],[74.3622827,34.0291226],[74.3627524,34.0293422],[74.3631257,34.0296116],[74.3640048,34.0301406],[74.3642803,34.0304369]]}},{"type":"Feature","id":1479259467,"properties":{"kind":"run","name":"Mapped ski run","subtype":"intermediate","pisteType":"downhill","featured":false},"geometry":{"type":"LineString","coordinates":[[74.3577306,34.0253898],[74.3580919,34.0256493],[74.3584893,34.0259787],[74.3588265,34.0262681],[74.3591034,34.0266175],[74.3592118,34.0269768],[74.35926,34.0271864],[74.3593082,34.0275656],[74.35926,34.0280547],[74.3591275,34.028893],[74.3593323,34.0293521],[74.3599103,34.0298412],[74.3606449,34.0302803],[74.3610182,34.0306296],[74.3615963,34.0310388],[74.3621021,34.0313382],[74.3625356,34.0315478],[74.3631859,34.0318073],[74.3634363,34.0319554]]}},{"type":"Feature","id":1479259468,"properties":{"kind":"run","name":"Mapped ski run","subtype":"intermediate","pisteType":"downhill","featured":false},"geometry":{"type":"LineString","coordinates":[[74.3565745,34.024781],[74.3568635,34.0251503],[74.3569918,34.0254929],[74.3571242,34.0257756],[74.3573209,34.026268],[74.3573912,34.0265741],[74.3575258,34.0269668],[74.3575861,34.027371],[74.3576824,34.0276754],[74.3577547,34.0280946],[74.3578751,34.028404],[74.3580316,34.0288032],[74.3582484,34.0292623],[74.3588746,34.0299809],[74.3589951,34.0302204],[74.3591757,34.0304999],[74.3593239,34.0308539],[74.3595203,34.031148]]}},{"type":"Feature","id":1479259469,"properties":{"kind":"run","name":"Mapped ski run","subtype":"advanced","pisteType":"downhill","featured":false},"geometry":{"type":"LineString","coordinates":[[74.3511411,34.0307021],[74.3512421,34.0308554],[74.3514516,34.0310515],[74.3515395,34.0311691],[74.3516409,34.0313932],[74.3518031,34.0316284],[74.3518301,34.0317572],[74.3518842,34.0318581],[74.351918,34.0320933],[74.3520126,34.0323117],[74.3523438,34.0326422],[74.3527966,34.0328551],[74.3530872,34.0330175],[74.3534117,34.0332023],[74.3536482,34.0333704],[74.3539388,34.0335776],[74.3541619,34.0336728],[74.3543646,34.0336616],[74.3545133,34.0336],[74.3548242,34.0334544],[74.3552095,34.0333199],[74.3556488,34.0331295],[74.3558741,34.0330641],[74.356203,34.0329671],[74.3566694,34.0328271],[74.356933,34.0327598],[74.3574061,34.0326422],[74.3579535,34.0325078],[74.3583861,34.0324686],[74.3587173,34.0324798],[74.3593136,34.0324907]]}},{"type":"Feature","id":1479259470,"properties":{"kind":"run","name":"Mapped ski run","subtype":"unknown","pisteType":"downhill","featured":false},"geometry":{"type":"LineString","coordinates":[[74.351918,34.0320933],[74.3518928,34.0323308],[74.3517665,34.0326224],[74.3517394,34.0330411],[74.351992,34.0333925],[74.3523529,34.0335495],[74.352813,34.0337514],[74.3535258,34.0341102],[74.3537874,34.0341999],[74.3542926,34.0342448],[74.3546535,34.0340953],[74.3549873,34.0338112],[74.3553121,34.0335645],[74.3556278,34.0333476],[74.3558353,34.0331831],[74.356203,34.0329671]]}},{"type":"Feature","id":1479259471,"properties":{"kind":"run","name":"Mapped ski run","subtype":"expert","pisteType":"downhill","featured":false},"geometry":{"type":"LineString","coordinates":[[74.3469674,34.0188611],[74.3472741,34.0191004],[74.347635,34.0192724],[74.34805,34.0192574],[74.3485372,34.0194369],[74.3489702,34.0197136],[74.349304,34.0200501],[74.3495566,34.0202894],[74.3499085,34.020581],[74.3503686,34.0207231],[74.3508828,34.0211568],[74.3511986,34.0212465],[74.3516136,34.0212764],[74.3522542,34.0213213],[74.3527684,34.021411],[74.3530932,34.0215606],[74.3533819,34.0217101],[74.3536165,34.0218447],[74.3540946,34.0220092],[74.3546359,34.0222485],[74.3551502,34.0223158],[74.3556734,34.0223382],[74.3561516,34.0223756],[74.3564403,34.0224803],[74.3570808,34.0227121],[74.3576402,34.0230561],[74.3580462,34.0234225],[74.3593724,34.0243646],[74.360446,34.0249478],[74.3609963,34.0252993],[74.3615179,34.0256563]]}}]}