{"type":"FeatureCollection","features":[{"type":"Feature","id":"pylon-gulmarg-apharwat-0","properties":{"kind":"pylon","name":"Lift tower","height":13},"geometry":{"type":"Polygon","coordinates":[[[74.35842734592512,34.0271551],[74.35842036161536,34.02716907444232],[74.3584035,34.027174862845854],[74.35838663838463,34.02716907444232],[74.35837965407487,34.0271551],[74.35838663838463,34.027141125557684],[74.3584035,34.02713533715415],[74.35842036161536,34.027141125557684],[74.35842734592512,34.0271551]]]}},{"type":"Feature","id":"pylon-gulmarg-apharwat-1","properties":{"kind":"pylon","name":"Lift tower","height":13},"geometry":{"type":"Polygon","coordinates":[[[74.3627356467985,34.0302628],[74.36272866223293,34.03027677444232],[74.3627118,34.030282562845855],[74.36269493776707,34.03027677444232],[74.3626879532015,34.0302628],[74.36269493776707,34.030248825557685],[74.3627118,34.03024303715415],[74.36272866223293,34.030248825557685],[74.3627356467985,34.0302628]]]}},{"type":"Feature","id":"pylon-gulmarg-apharwat-2","properties":{"kind":"pylon","name":"Lift tower","height":13},"geometry":{"type":"Polygon","coordinates":[[[74.34671674357203,34.0187797],[74.34670975995148,34.01879367444232],[74.3466929,34.018799462845855],[74.34667604004851,34.01879367444232],[74.34666905642796,34.0187797],[74.34667604004851,34.018765725557685],[74.3466929,34.01875993715415],[74.34670975995148,34.018765725557685],[74.34671674357203,34.0187797]]]}},{"type":"Feature","id":"pylon-gulmarg-apharwat-3","properties":{"kind":"pylon","name":"Lift tower","height":13},"geometry":{"type":"Polygon","coordinates":[[[74.34645214352115,34.0185985],[74.34644515991549,34.01861247444232],[74.3464283,34.018618262845855],[74.34641144008451,34.01861247444232],[74.34640445647885,34.0185985],[74.34641144008451,34.018584525557685],[74.3464283,34.01857873715415],[74.34644515991549,34.018584525557685],[74.34645214352115,34.0185985]]]}},{"type":"Feature","id":"pylon-gulmarg-apharwat-4","properties":{"kind":"pylon","name":"Lift tower","height":13},"geometry":{"type":"Polygon","coordinates":[[[74.34944154409611,34.0206453],[74.34943456032205,34.020659274442316],[74.3494177,34.02066506284585],[74.34940083967795,34.020659274442316],[74.3493938559039,34.0206453],[74.34940083967795,34.02063132555768],[74.3494177,34.020625537154146],[74.34943456032205,34.02063132555768],[74.34944154409611,34.0206453]]]}},{"type":"Feature","id":"pylon-gulmarg-apharwat-5","properties":{"kind":"pylon","name":"Lift tower","height":13},"geometry":{"type":"Polygon","coordinates":[[[74.35118074443061,34.021836],[74.35117376055858,34.02184997444232],[74.3511569,34.02185576284585],[74.35114003944143,34.02184997444232],[74.3511330555694,34.021836],[74.35114003944143,34.02182202555768],[74.3511569,34.02181623715415],[74.35117376055858,34.02182202555768],[74.35118074443061,34.021836]]]}},{"type":"Feature","id":"pylon-gulmarg-apharwat-6","properties":{"kind":"pylon","name":"Lift tower","height":13},"geometry":{"type":"Polygon","coordinates":[[[74.3526417447116,34.0228362],[74.35263476075727,34.02285017444232],[74.3526179,34.02285596284585],[74.35260103924273,34.02285017444232],[74.35259405528839,34.0228362],[74.35260103924273,34.02282222555768],[74.3526179,34.02281643715415],[74.35263476075727,34.02282222555768],[74.3526417447116,34.0228362]]]}},{"type":"Feature","id":"pylon-gulmarg-apharwat-7","properties":{"kind":"pylon","name":"Lift tower","height":13},"geometry":{"type":"Polygon","coordinates":[[[74.35729694560706,34.0260232],[74.35728996139046,34.026037174442315],[74.3572731,34.02604296284585],[74.35725623860954,34.026037174442315],[74.35724925439294,34.0260232],[74.35725623860954,34.02600922555768],[74.3572731,34.026003437154145],[74.35728996139046,34.02600922555768],[74.35729694560706,34.0260232]]]}},{"type":"Feature","id":"pylon-gulmarg-apharwat-8","properties":{"kind":"pylon","name":"Lift tower","height":13},"geometry":{"type":"Polygon","coordinates":[[[74.35963394605668,34.0276232],[74.35962696170837,34.02763717444232],[74.3596101,34.02764296284585],[74.35959323829162,34.02763717444232],[74.35958625394332,34.0276232],[74.35959323829162,34.02760922555768],[74.3596101,34.02760343715415],[74.35962696170837,34.02760922555768],[74.35963394605668,34.0276232]]]}},{"type":"Feature","id":"pylon-gulmarg-apharwat-9","properties":{"kind":"pylon","name":"Lift tower","height":13},"geometry":{"type":"Polygon","coordinates":[[[74.3549915452521,34.0247599],[74.35498456113946,34.02477387444232],[74.3549677,34.02477966284585],[74.35495083886055,34.02477387444232],[74.3549438547479,34.0247599],[74.35495083886055,34.02474592555768],[74.3549677,34.02474013715415],[74.35498456113946,34.02474592555768],[74.3549915452521,34.0247599]]]}},{"type":"Feature","id":"pylon-gulmarg-apharwat-10","properties":{"kind":"pylon","name":"Lift tower","height":13},"geometry":{"type":"Polygon","coordinates":[[[74.35931954611488,34.0278303],[74.35931256174953,34.027844274442316],[74.3592957,34.02785006284585],[74.35927883825048,34.027844274442316],[74.35927185388513,34.0278303],[74.35927883825048,34.02781632555768],[74.3592957,34.027810537154146],[74.35931256174953,34.02781632555768],[74.35931954611488,34.0278303]]]}},{"type":"Feature","id":"pylon-gulmarg-apharwat-11","properties":{"kind":"pylon","name":"Lift tower","height":13},"geometry":{"type":"Polygon","coordinates":[[[74.36180904661131,34.0295968],[74.36180206210057,34.02961077444232],[74.3617852,34.02961656284585],[74.36176833789943,34.02961077444232],[74.36176135338869,34.0295968],[74.36176833789943,34.02958282555768],[74.3617852,34.02957703715415],[74.36180206210057,34.02958282555768],[74.36180904661131,34.0295968]]]}},{"type":"Feature","id":"pylon-gulmarg-apharwat-12","properties":{"kind":"pylon","name":"Lift tower","height":13},"geometry":{"type":"Polygon","coordinates":[[[74.36299414670312,34.0299234],[74.36298716216548,34.02993737444232],[74.3629703,34.02994316284585],[74.36295343783452,34.02993737444232],[74.36294645329689,34.0299234],[74.36295343783452,34.02990942555768],[74.3629703,34.02990363715415],[74.36298716216548,34.02990942555768],[74.36299414670312,34.0299234]]]}},{"type":"Feature","id":"pylon-gulmarg-apharwat-13","properties":{"kind":"pylon","name":"Lift tower","height":13},"geometry":{"type":"Polygon","coordinates":[[[74.36345674679212,34.0302401],[74.36344976222843,34.03025407444232],[74.3634329,34.03025986284585],[74.36341603777159,34.03025407444232],[74.36340905320789,34.0302401],[74.36341603777159,34.03022612555768],[74.3634329,34.03022033715415],[74.36344976222843,34.03022612555768],[74.36345674679212,34.0302401]]]}},{"type":"Feature","id":"pylon-gulmarg-apharwat-14","properties":{"kind":"pylon","name":"Lift tower","height":13},"geometry":{"type":"Polygon","coordinates":[[[74.36322544674762,34.0300818],[74.36321846219695,34.030095774442316],[74.3632016,34.03010156284585],[74.36318473780304,34.030095774442316],[74.36317775325237,34.0300818],[74.36318473780304,34.03006782555768],[74.3632016,34.030062037154146],[74.36321846219695,34.03006782555768],[74.36322544674762,34.0300818]]]}},{"type":"Feature","id":"pylon-gulmarg-apharwat-15","properties":{"kind":"pylon","name":"Lift tower","height":13},"geometry":{"type":"Polygon","coordinates":[[[74.36394154703271,34.0310961],[74.36393456239854,34.03111007444232],[74.3639177,34.03111586284585],[74.36390083760146,34.03111007444232],[74.3638938529673,34.0310961],[74.36390083760146,34.03108212555768],[74.3639177,34.03107633715415],[74.36393456239854,34.03108212555768],[74.36394154703271,34.0310961]]]}},{"type":"Feature","id":"pylon-gulmarg-apharwat-16","properties":{"kind":"pylon","name":"Lift tower","height":13},"geometry":{"type":"Polygon","coordinates":[[[74.36548374718213,34.0316277],[74.3654767625042,34.03164167444232],[74.3654599,34.031647462845854],[74.36544303749581,34.03164167444232],[74.36543605281788,34.0316277],[74.36544303749581,34.03161372555768],[74.3654599,34.03160793715415],[74.3654767625042,34.03161372555768],[74.36548374718213,34.0316277]]]}},{"type":"Feature","id":"pylon-gulmarg-apharwat-17","properties":{"kind":"pylon","name":"Lift tower","height":13},"geometry":{"type":"Polygon","coordinates":[[[74.36505794724435,34.0318491],[74.3650509625482,34.03186307444232],[74.3650341,34.031868862845855],[74.36501723745181,34.03186307444232],[74.36501025275565,34.0318491],[74.36501723745181,34.031835125557684],[74.3650341,34.03182933715415],[74.3650509625482,34.031835125557684],[74.36505794724435,34.0318491]]]}},{"type":"Feature","id":"pylon-gulmarg-apharwat-18","properties":{"kind":"pylon","name":"Lift tower","height":13},"geometry":{"type":"Polygon","coordinates":[[[74.3659979474297,34.0325085],[74.36599096267925,34.03252247444232],[74.3659741,34.03252826284585],[74.36595723732076,34.03252247444232],[74.3659502525703,34.0325085],[74.36595723732076,34.03249452555768],[74.3659741,34.03248873715415],[74.36599096267925,34.03249452555768],[74.3659979474297,34.0325085]]]}},{"type":"Feature","id":"pylon-gulmarg-apharwat-19","properties":{"kind":"pylon","name":"Lift tower","height":13},"geometry":{"type":"Polygon","coordinates":[[[74.36631624734392,34.0322033],[74.3663092626186,34.03221727444232],[74.3662924,34.03222306284585],[74.36627553738141,34.03221727444232],[74.3662685526561,34.0322033],[74.36627553738141,34.03218932555768],[74.3662924,34.03218353715415],[74.3663092626186,34.03218932555768],[74.36631624734392,34.0322033]]]}},{"type":"Feature","id":"pylon-gulmarg-apharwat-20","properties":{"kind":"pylon","name":"Lift tower","height":13},"geometry":{"type":"Polygon","coordinates":[[[74.36771844762158,34.0331912],[74.36771146281494,34.033205174442315],[74.3676946,34.03321096284585],[74.36767773718505,34.033205174442315],[74.3676707523784,34.0331912],[74.36767773718505,34.03317722555768],[74.3676946,34.033171437154145],[74.36771146281494,34.03317722555768],[74.36771844762158,34.0331912]]]}},{"type":"Feature","id":"pylon-gulmarg-apharwat-21","properties":{"kind":"pylon","name":"Lift tower","height":13},"geometry":{"type":"Polygon","coordinates":[[[74.37401694892324,34.0378213],[74.37400996373536,34.037835274442315],[74.3739931,34.03784106284585],[74.37397623626465,34.037835274442315],[74.37396925107677,34.0378213],[74.37397623626465,34.03780732555768],[74.3739931,34.037801537154145],[74.37400996373536,34.03780732555768],[74.37401694892324,34.0378213]]]}},{"type":"Feature","id":"pylon-gulmarg-apharwat-22","properties":{"kind":"pylon","name":"Lift tower","height":13},"geometry":{"type":"Polygon","coordinates":[[[74.37720544958226,34.0401651],[74.37719846420134,34.04017907444232],[74.3771816,34.040184862845855],[74.37716473579866,34.04017907444232],[74.37715775041774,34.0401651],[74.37716473579866,34.040151125557685],[74.3771816,34.04014533715415],[74.37719846420134,34.040151125557685],[74.37720544958226,34.0401651]]]}},{"type":"Feature","id":"pylon-gulmarg-apharwat-23","properties":{"kind":"pylon","name":"Lift tower","height":13},"geometry":{"type":"Polygon","coordinates":[[[74.36962174801492,34.0345904],[74.36961476309307,34.03460437444232],[74.3695979,34.03461016284585],[74.36958103690694,34.03460437444232],[74.36957405198508,34.0345904],[74.36958103690694,34.03457642555768],[74.3695979,34.03457063715415],[74.36961476309307,34.03457642555768],[74.36962174801492,34.0345904]]]}},{"type":"Feature","id":"pylon-gulmarg-apharwat-24","properties":{"kind":"pylon","name":"Lift tower","height":13},"geometry":{"type":"Polygon","coordinates":[[[74.38057365027848,34.0426409],[74.38056666469365,34.04265487444232],[74.3805498,34.042660662845854],[74.38053293530635,34.04265487444232],[74.38052594972152,34.0426409],[74.38053293530635,34.042626925557684],[74.3805498,34.04262113715415],[74.38056666469365,34.042626925557684],[74.38057365027848,34.0426409]]]}},{"type":"Feature","id":"pylon-gulmarg-apharwat-25","properties":{"kind":"pylon","name":"Lift tower","height":13},"geometry":{"type":"Polygon","coordinates":[[[74.35433884511802,34.0242827],[74.35433186104464,34.02429667444232],[74.354315,34.02430246284585],[74.35429813895536,34.02429667444232],[74.35429115488198,34.0242827],[74.35429813895536,34.02426872555768],[74.354315,34.02426293715415],[74.35433186104464,34.02426872555768],[74.35433884511802,34.0242827]]]}},{"type":"Feature","id":"marker-gulmarg-apharwat-summit","properties":{"kind":"marker","markerType":"summit","name":"Upper mountain · 3980 m","height":26},"geometry":{"type":"Polygon","coordinates":[[[74.37607587504779,34.028999999999996],[74.37606138420311,34.02903696098424],[74.37602344667921,34.029059804128764],[74.37597655332077,34.029059804128764],[74.37593861579687,34.02903696098424],[74.37592412495219,34.028999999999996],[74.37593861579687,34.02896303901575],[74.37597655332077,34.02894019587123],[74.37602344667921,34.02894019587123],[74.37606138420311,34.02896303901575],[74.37607587504779,34.028999999999996]]]}},{"type":"Feature","id":"marker-gulmarg-apharwat-base","properties":{"kind":"marker","markerType":"base","name":"Base · 2160 m","height":18},"geometry":{"type":"Polygon","coordinates":[[[74.38007587147132,34.025],[74.38006138130969,34.025036960984245],[74.38002344557403,34.025059804128766],[74.37997655442597,34.025059804128766],[74.3799386186903,34.025036960984245],[74.37992412852867,34.025],[74.3799386186903,34.02496303901575],[74.37997655442597,34.02494019587123],[74.38002344557403,34.02494019587123],[74.38006138130969,34.02496303901575],[74.38007587147132,34.025]]]}},{"type":"Feature","id":"marker-gulmarg-apharwat-peak","properties":{"kind":"marker","markerType":"peak","name":"Peak · 4200 m","height":22},"geometry":{"type":"Polygon","coordinates":[[[74.3840758768363,34.031],[74.38406138565004,34.031036960984245],[74.3840234472319,34.031059804128766],[74.3839765527681,34.031059804128766],[74.38393861434996,34.031036960984245],[74.3839241231637,34.031],[74.38393861434996,34.03096303901575],[74.3839765527681,34.03094019587123],[74.3840234472319,34.03094019587123],[74.38406138565004,34.03096303901575],[74.3840758768363,34.031]]]}},{"type":"Feature","id":"marker-gulmarg-apharwat-featured-run","properties":{"kind":"marker","markerType":"featured-run","name":"Powder · Southeast Shoulder to Drang","height":20},"geometry":{"type":"Polygon","coordinates":[[[74.38307586878943,34.022],[74.38306137913999,34.022036960984245],[74.38302344474528,34.022059804128766],[74.38297655525471,34.022059804128766],[74.38293862086,34.022036960984245],[74.38292413121056,34.022],[74.38293862086,34.02196303901575],[74.38297655525471,34.02194019587123],[74.38302344474528,34.02194019587123],[74.38306137913999,34.02196303901575],[74.38307586878943,34.022]]]}}]}