{"type":"FeatureCollection","features":[{"type":"Feature","id":"building-200718962","properties":{"kind":"building","name":"1750 Apartments","height":7.2},"geometry":{"type":"Polygon","coordinates":[[[147.1436718,-36.9838996],[147.143822,-36.9839082],[147.1440685,-36.9840494],[147.1441304,-36.9840539],[147.1441304,-36.9840732],[147.144157,-36.9840773],[147.1441492,-36.9841075],[147.1441731,-36.9841115],[147.1441438,-36.9841996],[147.1440339,-36.9841696],[147.1440416,-36.984133],[147.1439614,-36.9841118],[147.1439695,-36.9840882],[147.1438997,-36.984071],[147.1439078,-36.9840496],[147.1438354,-36.9840325],[147.143752,-36.9839873],[147.14365,-36.9839337],[147.1436718,-36.9838996]]]}},{"type":"Feature","id":"building-200718963","properties":{"kind":"building","name":"Lawlers Apartments","height":7.2},"geometry":{"type":"Polygon","coordinates":[[[147.1419757,-36.9836959],[147.1419241,-36.9839074],[147.1417759,-36.9838844],[147.1418275,-36.9836729],[147.1419757,-36.9836959]]]}},{"type":"Feature","id":"building-200718964","properties":{"kind":"building","name":"Razorback","height":7.2},"geometry":{"type":"Polygon","coordinates":[[[147.1440796,-36.9844761],[147.1444593,-36.9846137],[147.1443956,-36.9847259],[147.1440158,-36.9845883],[147.1440796,-36.9844761]]]}},{"type":"Feature","id":"building-200718967","properties":{"kind":"building","name":"Alpine Heights Chalet & Apartments","height":7.2},"geometry":{"type":"Polygon","coordinates":[[[147.1418291,-36.9845296],[147.142218,-36.9844803],[147.1422529,-36.9846453],[147.1422767,-36.9846879],[147.1421778,-36.9847888],[147.1421322,-36.9847224],[147.1420893,-36.9847481],[147.1421053,-36.9848274],[147.1418996,-36.9848637],[147.1418291,-36.9845296]]]}},{"type":"Feature","id":"building-200718969","properties":{"kind":"building","name":"Resort building","height":7.2},"geometry":{"type":"Polygon","coordinates":[[[147.141829,-36.9815131],[147.1419213,-36.9819717],[147.1417186,-36.9819975],[147.1416294,-36.9815413],[147.141829,-36.9815131]]]}},{"type":"Feature","id":"building-200718970","properties":{"kind":"building","name":"Mount Hotham Medical Centre","height":7.2},"geometry":{"type":"Polygon","coordinates":[[[147.1424223,-36.9834066],[147.1420683,-36.9835959],[147.14199,-36.9835025],[147.1422346,-36.9833716],[147.1422518,-36.9833921],[147.142269,-36.9834126],[147.1423783,-36.9833541],[147.1423973,-36.9833768],[147.1424223,-36.9834066]]]}},{"type":"Feature","id":"building-200718971","properties":{"kind":"building","name":"Mt Hotham Alpine Resort","height":7.2},"geometry":{"type":"Polygon","coordinates":[[[147.1417722,-36.982068],[147.141893,-36.9820164],[147.141998,-36.9821733],[147.1420566,-36.9821482],[147.1421157,-36.9822365],[147.1419362,-36.9823131],[147.1417722,-36.982068]]]}},{"type":"Feature","id":"building-200718972","properties":{"kind":"building","name":"Lawlers Apartments","height":7.2},"geometry":{"type":"Polygon","coordinates":[[[147.1420598,-36.9837884],[147.1419928,-36.9840252],[147.1421402,-36.9840518],[147.1422072,-36.983815],[147.1420598,-36.9837884]]]}},{"type":"Feature","id":"building-200718973","properties":{"kind":"building","name":"Razorback","height":7.2},"geometry":{"type":"Polygon","coordinates":[[[147.1440625,-36.9846754],[147.144274,-36.9847135],[147.1442413,-36.9848295],[147.1440297,-36.9847913],[147.1440625,-36.9846754]]]}},{"type":"Feature","id":"building-200718974","properties":{"kind":"building","name":"Lawlers Apartments","height":7.2},"geometry":{"type":"Polygon","coordinates":[[[147.1421479,-36.9840939],[147.1422215,-36.9844014],[147.1420592,-36.9844262],[147.1419856,-36.9841186],[147.1421479,-36.9840939]]]}},{"type":"Feature","id":"building-200718975","properties":{"kind":"building","name":"Workshop","height":7.2},"geometry":{"type":"Polygon","coordinates":[[[147.1426489,-36.9799885],[147.1425154,-36.9804195],[147.1426324,-36.9804426],[147.142723,-36.98015],[147.1427955,-36.9801644],[147.1428384,-36.9800259],[147.1426489,-36.9799885]]]}},{"type":"Feature","id":"building-200718976","properties":{"kind":"building","name":"Snowmaking Shed","height":4.1},"geometry":{"type":"Polygon","coordinates":[[[147.1424314,-36.9805906],[147.1424319,-36.9806189],[147.1423764,-36.9806195],[147.1423789,-36.9807692],[147.1425455,-36.9807674],[147.1425425,-36.9805894],[147.1424314,-36.9805906]]]}},{"type":"Feature","id":"building-200718977","properties":{"kind":"building","name":"Lawlers Apartments","height":7.2},"geometry":{"type":"Polygon","coordinates":[[[147.1417723,-36.9842587],[147.1419235,-36.9842349],[147.1419745,-36.984442],[147.1418233,-36.9844657],[147.1417723,-36.9842587]]]}},{"type":"Feature","id":"building-200718978","properties":{"kind":"building","name":"Lawlers Apartments","height":7.2},"geometry":{"type":"Polygon","coordinates":[[[147.1418941,-36.9839576],[147.1418786,-36.984175],[147.1417269,-36.9841681],[147.1417424,-36.9839507],[147.1418941,-36.9839576]]]}},{"type":"Feature","id":"building-200718979","properties":{"kind":"building","name":"Zirky's","height":7.2},"geometry":{"type":"Polygon","coordinates":[[[147.142446,-36.9808764],[147.142564,-36.9808807],[147.1426203,-36.9809536],[147.1427971,-36.9809555],[147.1427974,-36.9809814],[147.1428832,-36.9809836],[147.1428832,-36.9811078],[147.1427944,-36.9811055],[147.1427974,-36.9811743],[147.1427625,-36.9811743],[147.1427571,-36.9812193],[147.1426632,-36.9812214],[147.1426579,-36.9813071],[147.1423545,-36.9812897],[147.1423253,-36.9812664],[147.1423307,-36.9812193],[147.1423518,-36.9809876],[147.1424138,-36.98099],[147.1424192,-36.9809],[147.142446,-36.9808764]]]}},{"type":"Feature","id":"building-200718980","properties":{"kind":"building","name":"Chalet Hotham","height":7.2},"geometry":{"type":"Polygon","coordinates":[[[147.1423556,-36.9842623],[147.1427404,-36.9842047],[147.1427025,-36.984043],[147.1425485,-36.984066],[147.1425339,-36.9840038],[147.1423825,-36.9840264],[147.1423923,-36.9840681],[147.1423128,-36.98408],[147.1423556,-36.9842623]]]}},{"type":"Feature","id":"building-200718981","properties":{"kind":"building","name":"Mink","height":7.2},"geometry":{"type":"Polygon","coordinates":[[[147.142681,-36.9842793],[147.1428457,-36.9842596],[147.1428692,-36.9843851],[147.1427046,-36.9844049],[147.142681,-36.9842793]]]}},{"type":"Feature","id":"building-200718982","properties":{"kind":"building","name":"Hotham Central","height":16.5},"geometry":{"type":"Polygon","coordinates":[[[147.1427544,-36.9822927],[147.14284,-36.9823503],[147.1428695,-36.9823332],[147.1428939,-36.9823484],[147.1429232,-36.9823225],[147.1429661,-36.9823353],[147.1429983,-36.9822775],[147.1429798,-36.9822456],[147.1429983,-36.9822304],[147.1429717,-36.982192],[147.1429851,-36.9821599],[147.1429607,-36.9821189],[147.1429771,-36.9820977],[147.1429342,-36.9820484],[147.1429258,-36.9819775],[147.1428588,-36.9819754],[147.1428537,-36.9819156],[147.1428242,-36.981907],[147.1428135,-36.9814978],[147.1425989,-36.9814914],[147.1425747,-36.9814335],[147.1424272,-36.9814571],[147.1424648,-36.9815214],[147.1424377,-36.9815404],[147.1424379,-36.9816349],[147.1424567,-36.9816628],[147.1424004,-36.9816606],[147.1423977,-36.9817871],[147.1424621,-36.9817892],[147.1424701,-36.9819049],[147.1424296,-36.9819368],[147.1424135,-36.9819711],[147.1424138,-36.9820056],[147.1424272,-36.9820399],[147.1424487,-36.9820699],[147.1424835,-36.9820849],[147.1425289,-36.9820954],[147.1425852,-36.9821018],[147.1425345,-36.9821449],[147.1426123,-36.9822156],[147.142674,-36.9821813],[147.142674,-36.9822391],[147.1427491,-36.9822391],[147.1427544,-36.9822927]]]}},{"type":"Feature","id":"building-200719742","properties":{"kind":"building","name":"Fountains","height":7.2},"geometry":{"type":"Polygon","coordinates":[[[147.1457286,-36.9847927],[147.1456495,-36.9848747],[147.1459327,-36.9850491],[147.1460119,-36.9849671],[147.1457286,-36.9847927]]]}},{"type":"Feature","id":"building-200719743","properties":{"kind":"building","name":"Alpine Haven","height":7.2},"geometry":{"type":"Polygon","coordinates":[[[147.1460941,-36.9850137],[147.145827,-36.9852022],[147.1459168,-36.9852834],[147.1461839,-36.9850949],[147.1460941,-36.9850137]]]}},{"type":"Feature","id":"building-200719744","properties":{"kind":"building","name":"Anton Huette","height":7.2},"geometry":{"type":"Polygon","coordinates":[[[147.1471935,-36.9864621],[147.1470379,-36.9866078],[147.1471399,-36.9868263],[147.1472203,-36.9868435],[147.1472713,-36.9868006],[147.1471828,-36.9866249],[147.1473005,-36.9865197],[147.1471935,-36.9864621]]]}},{"type":"Feature","id":"building-200719746","properties":{"kind":"building","name":"Ultima","height":7.2},"geometry":{"type":"Polygon","coordinates":[[[147.1444882,-36.984026],[147.144425,-36.9840994],[147.1445917,-36.984191],[147.1446549,-36.9841176],[147.1444882,-36.984026]]]}},{"type":"Feature","id":"building-200719747","properties":{"kind":"building","name":"Resort building","height":7.2},"geometry":{"type":"Polygon","coordinates":[[[147.1466669,-36.9864136],[147.146746,-36.9863958],[147.1467602,-36.9864361],[147.1466811,-36.9864538],[147.1466669,-36.9864136]]]}},{"type":"Feature","id":"building-200719748","properties":{"kind":"building","name":"The Arlberg","height":7.2},"geometry":{"type":"Polygon","coordinates":[[[147.1441533,-36.9839402],[147.1441241,-36.9840295],[147.144361,-36.9840788],[147.1443901,-36.9839895],[147.1441533,-36.9839402]]]}},{"type":"Feature","id":"building-200719749","properties":{"kind":"building","name":"Resort building","height":7.2},"geometry":{"type":"Polygon","coordinates":[[[147.1444414,-36.9841542],[147.1443986,-36.9842239],[147.1445326,-36.9842763],[147.1445753,-36.9842066],[147.1444414,-36.9841542]]]}},{"type":"Feature","id":"building-200719750","properties":{"kind":"building","name":"Arlberg","height":16.5},"geometry":{"type":"Polygon","coordinates":[[[147.1446851,-36.9841838],[147.1445199,-36.9843618],[147.1454907,-36.9849368],[147.1456559,-36.9847589],[147.1446851,-36.9841838]]]}},{"type":"Feature","id":"building-200719751","properties":{"kind":"building","name":"Snowtel","height":7.2},"geometry":{"type":"Polygon","coordinates":[[[147.1461126,-36.9853027],[147.1463936,-36.9855622],[147.1463215,-36.985612],[147.1460405,-36.9853525],[147.1461126,-36.9853027]]]}},{"type":"Feature","id":"building-200719753","properties":{"kind":"building","name":"Resort building","height":7.2},"geometry":{"type":"Polygon","coordinates":[[[147.1442926,-36.9842349],[147.1443896,-36.9842746],[147.144343,-36.9843471],[147.1442461,-36.9843074],[147.1442926,-36.9842349]]]}},{"type":"Feature","id":"building-200719754","properties":{"kind":"building","name":"Resort building","height":7.2},"geometry":{"type":"Polygon","coordinates":[[[147.1456078,-36.984915],[147.1455282,-36.9849904],[147.1457798,-36.98516],[147.1458594,-36.9850847],[147.1456078,-36.984915]]]}},{"type":"Feature","id":"building-200720675","properties":{"kind":"building","name":"The General","height":7.2},"geometry":{"type":"Polygon","coordinates":[[[147.1489746,-36.9921949],[147.1488206,-36.9922701],[147.1486647,-36.9920665],[147.1488188,-36.9919913],[147.1489746,-36.9921949]]]}},{"type":"Feature","id":"building-200720678","properties":{"kind":"building","name":"Pearse apartments","height":7.2},"geometry":{"type":"Polygon","coordinates":[[[147.1478721,-36.9914582],[147.1479443,-36.9914816],[147.1479257,-36.9915204],[147.147963,-36.9915544],[147.1479123,-36.9915996],[147.1478641,-36.9915568],[147.1478077,-36.9915696],[147.147789,-36.9915054],[147.1478506,-36.9914989],[147.1478721,-36.9914582]]]}},{"type":"Feature","id":"building-200720679","properties":{"kind":"building","name":"A.P.E.A","height":7.2},"geometry":{"type":"Polygon","coordinates":[[[147.1480223,-36.9889088],[147.148124,-36.989035],[147.1480945,-36.9890521],[147.1482181,-36.9891937],[147.1482127,-36.9892451],[147.1480947,-36.9892366],[147.1480894,-36.9891894],[147.1480008,-36.9890845],[147.1479579,-36.9891037],[147.1478691,-36.9889836],[147.1480223,-36.9889088]]]}},{"type":"Feature","id":"building-200720680","properties":{"kind":"building","name":"Spiral Stairs","height":7.2},"geometry":{"type":"Polygon","coordinates":[[[147.1478128,-36.9879212],[147.1479455,-36.9883167],[147.1477857,-36.9883509],[147.1477365,-36.9882044],[147.147686,-36.9882152],[147.1476179,-36.9880123],[147.1476686,-36.9880014],[147.1476531,-36.9879554],[147.1478128,-36.9879212]]]}},{"type":"Feature","id":"building-200720681","properties":{"kind":"building","name":"Koomerang","height":7.2},"geometry":{"type":"Polygon","coordinates":[[[147.1495859,-36.993195],[147.149668,-36.9932684],[147.149607,-36.9933119],[147.149525,-36.9932385],[147.1495859,-36.993195]]]}},{"type":"Feature","id":"building-200720683","properties":{"kind":"building","name":"Mount Hotham Police Station","height":7.2},"geometry":{"type":"Polygon","coordinates":[[[147.1495538,-36.9919017],[147.1494412,-36.9920324],[147.1495348,-36.992075],[147.1496075,-36.9921673],[147.1497336,-36.9921202],[147.1496182,-36.9919852],[147.1496477,-36.991951],[147.1495538,-36.9919017]]]}},{"type":"Feature","id":"building-200720684","properties":{"kind":"building","name":"CFA","height":7.2},"geometry":{"type":"Polygon","coordinates":[[[147.148184,-36.9903835],[147.1480563,-36.9905703],[147.1479415,-36.9905202],[147.1480692,-36.9903334],[147.148184,-36.9903835]]]}},{"type":"Feature","id":"building-200720685","properties":{"kind":"building","name":"Kalyna","height":7.2},"geometry":{"type":"Polygon","coordinates":[[[147.1497968,-36.9934201],[147.1499349,-36.9935918],[147.1498511,-36.9936348],[147.1498133,-36.9935878],[147.1496319,-36.9936808],[147.1495653,-36.9935979],[147.149748,-36.9935042],[147.1497144,-36.9934624],[147.1497968,-36.9934201]]]}},{"type":"Feature","id":"building-200720686","properties":{"kind":"building","name":"Blue Ribbon","height":7.2},"geometry":{"type":"Polygon","coordinates":[[[147.1483665,-36.9873488],[147.1485403,-36.9873338],[147.1485832,-36.9876514],[147.1484094,-36.9876663],[147.1483665,-36.9873488]]]}},{"type":"Feature","id":"building-200720687","properties":{"kind":"building","name":"Ormond","height":7.2},"geometry":{"type":"Polygon","coordinates":[[[147.1473598,-36.9890502],[147.1475553,-36.9892364],[147.1475392,-36.9893242],[147.147459,-36.9893458],[147.1474242,-36.9892687],[147.1472489,-36.9891057],[147.1473598,-36.9890502]]]}},{"type":"Feature","id":"building-200720688","properties":{"kind":"building","name":"Asgaard","height":7.2},"geometry":{"type":"Polygon","coordinates":[[[147.1493622,-36.9928762],[147.1494716,-36.9930202],[147.1492571,-36.9931242],[147.1492148,-36.9930685],[147.1492517,-36.9930506],[147.149207,-36.9929918],[147.1493025,-36.9929455],[147.1492801,-36.992916],[147.1493622,-36.9928762]]]}},{"type":"Feature","id":"building-200720689","properties":{"kind":"building","name":"Big D Ski Centre","height":7.2},"geometry":{"type":"Polygon","coordinates":[[[147.1486817,-36.9918944],[147.148282,-36.9920952],[147.148211,-36.992005],[147.1483817,-36.9919193],[147.1483186,-36.9918392],[147.1485476,-36.9917242],[147.1486817,-36.9918944]]]}},{"type":"Feature","id":"building-200720690","properties":{"kind":"building","name":"Aardvark Alpine Club","height":7.2},"geometry":{"type":"Polygon","coordinates":[[[147.1472307,-36.9895022],[147.1472782,-36.9895949],[147.146985,-36.9896908],[147.1469375,-36.9895981],[147.1472307,-36.9895022]]]}},{"type":"Feature","id":"building-200720693","properties":{"kind":"building","name":"Pearse apartments","height":7.2},"geometry":{"type":"Polygon","coordinates":[[[147.1476656,-36.9913704],[147.1476897,-36.9914239],[147.1476575,-36.9914539],[147.1477136,-36.991488],[147.1477568,-36.9914539],[147.1478128,-36.9914644],[147.1478396,-36.9914066],[147.1477729,-36.9913875],[147.1477511,-36.9913445],[147.1476656,-36.9913704]]]}},{"type":"Feature","id":"building-200720694","properties":{"kind":"building","name":"Tantani","height":7.2},"geometry":{"type":"Polygon","coordinates":[[[147.1490555,-36.9926304],[147.1490783,-36.9927899],[147.1491624,-36.9927823],[147.1491396,-36.9926227],[147.1490555,-36.9926304]]]}},{"type":"Feature","id":"building-200720697","properties":{"kind":"building","name":"Higgi","height":7.2},"geometry":{"type":"Polygon","coordinates":[[[147.1474295,-36.9913661],[147.147502,-36.991349],[147.14751,-36.9913832],[147.1475607,-36.9913659],[147.1475663,-36.9913875],[147.1475982,-36.9913787],[147.1476465,-36.9915051],[147.1475985,-36.9915139],[147.1475878,-36.9914904],[147.1475422,-36.9915011],[147.1475288,-36.9914689],[147.1474751,-36.9914796],[147.1474295,-36.9913661]]]}},{"type":"Feature","id":"building-200720700","properties":{"kind":"building","name":"Karnulurra","height":7.2},"geometry":{"type":"Polygon","coordinates":[[[147.1489054,-36.9923331],[147.1488387,-36.9923645],[147.1489401,-36.9925019],[147.1490068,-36.9924705],[147.1489054,-36.9923331]]]}},{"type":"Feature","id":"building-200720702","properties":{"kind":"building","name":"S.C.E.G.","height":7.2},"geometry":{"type":"Polygon","coordinates":[[[147.1472018,-36.9911202],[147.147418,-36.9910738],[147.1474317,-36.9911145],[147.1474797,-36.9911042],[147.147526,-36.9912418],[147.1473378,-36.9912822],[147.1473025,-36.9911773],[147.1472265,-36.9911936],[147.1472018,-36.9911202]]]}},{"type":"Feature","id":"building-200720703","properties":{"kind":"building","name":"RCH Alpine Club","height":7.2},"geometry":{"type":"Polygon","coordinates":[[[147.147149,-36.9908226],[147.1473001,-36.9908029],[147.147324,-36.99092],[147.1471729,-36.9909397],[147.147149,-36.9908226]]]}},{"type":"Feature","id":"building-200720704","properties":{"kind":"building","name":"U.S.C.","height":7.2},"geometry":{"type":"Polygon","coordinates":[[[147.1485965,-36.9878621],[147.148627,-36.9880856],[147.1484881,-36.9880977],[147.1484577,-36.9878742],[147.1485965,-36.9878621]]]}},{"type":"Feature","id":"building-200724405","properties":{"kind":"building","name":"Ettamogah","height":7.2},"geometry":{"type":"Polygon","coordinates":[[[147.1539376,-36.9934023],[147.1539694,-36.9935281],[147.1538413,-36.9935487],[147.1538095,-36.993423],[147.1539376,-36.9934023]]]}},{"type":"Feature","id":"building-200724407","properties":{"kind":"building","name":"Wongungarra","height":7.2},"geometry":{"type":"Polygon","coordinates":[[[147.1513858,-36.994601],[147.151544,-36.994616],[147.151528,-36.9947317],[147.1514984,-36.9947317],[147.1514877,-36.9947981],[147.1512088,-36.9947766],[147.1512326,-36.9946222],[147.1513295,-36.9946267],[147.1513241,-36.9946867],[147.1513721,-36.9946886],[147.1513858,-36.994601]]]}},{"type":"Feature","id":"building-200724408","properties":{"kind":"building","name":"JACKFROST","height":7.2},"geometry":{"type":"Polygon","coordinates":[[[147.1508762,-36.9939969],[147.1510824,-36.9940523],[147.1510237,-36.9941982],[147.1511495,-36.9942302],[147.1511846,-36.9943032],[147.1511524,-36.9943589],[147.1510156,-36.9943611],[147.1510371,-36.9943139],[147.1509352,-36.9942882],[147.1509137,-36.9943161],[147.150726,-36.9942604],[147.1507686,-36.9941809],[147.1508705,-36.9942152],[147.1508949,-36.9941704],[147.1508359,-36.994149],[147.1508571,-36.994108],[147.1508279,-36.9940997],[147.1508762,-36.9939969]]]}},{"type":"Feature","id":"building-200724409","properties":{"kind":"building","name":"Kongoola","height":7.2},"geometry":{"type":"Polygon","coordinates":[[[147.1501875,-36.9946893],[147.150433,-36.9948213],[147.1503573,-36.994911],[147.1502725,-36.9948653],[147.1502416,-36.994902],[147.150081,-36.9948156],[147.1501875,-36.9946893]]]}},{"type":"Feature","id":"building-200724410","properties":{"kind":"building","name":"McMillan","height":7.2},"geometry":{"type":"Polygon","coordinates":[[[147.1508654,-36.9946552],[147.1511393,-36.9946075],[147.1511581,-36.9946765],[147.1510938,-36.9946877],[147.1511048,-36.994728],[147.1508952,-36.9947645],[147.1508654,-36.9946552]]]}},{"type":"Feature","id":"building-200724411","properties":{"kind":"building","name":"Kobla","height":7.2},"geometry":{"type":"Polygon","coordinates":[[[147.1528164,-36.9949069],[147.1528066,-36.9950138],[147.1526888,-36.9950069],[147.1526934,-36.994957],[147.1526215,-36.9949528],[147.1526268,-36.9948958],[147.1528164,-36.9949069]]]}},{"type":"Feature","id":"building-200724412","properties":{"kind":"building","name":"Tanderra","height":7.2},"geometry":{"type":"Polygon","coordinates":[[[147.1543585,-36.9932844],[147.1544216,-36.9934259],[147.1541865,-36.9934928],[147.1541469,-36.9934039],[147.1542799,-36.9933661],[147.1542564,-36.9933134],[147.1543585,-36.9932844]]]}},{"type":"Feature","id":"building-200724415","properties":{"kind":"building","name":"Rodondo","height":7.2},"geometry":{"type":"Polygon","coordinates":[[[147.1546079,-36.9931922],[147.1546808,-36.9933527],[147.1545788,-36.9933822],[147.1545059,-36.9932217],[147.1546079,-36.9931922]]]}},{"type":"Feature","id":"building-200724418","properties":{"kind":"building","name":"Gravbrot","height":7.2},"geometry":{"type":"Polygon","coordinates":[[[147.1527004,-36.9943098],[147.1527421,-36.9944076],[147.1529938,-36.9943391],[147.1529521,-36.9942414],[147.1527004,-36.9943098]]]}},{"type":"Feature","id":"building-200724421","properties":{"kind":"building","name":"Taki","height":7.2},"geometry":{"type":"Polygon","coordinates":[[[147.1532434,-36.9936293],[147.1533022,-36.9938222],[147.1531747,-36.993847],[147.1531159,-36.9936541],[147.1532434,-36.9936293]]]}},{"type":"Feature","id":"building-200724422","properties":{"kind":"building","name":"Moritz","height":7.2},"geometry":{"type":"Polygon","coordinates":[[[147.1535944,-36.9933977],[147.1532381,-36.9934983],[147.1532718,-36.9935743],[147.1533337,-36.9935569],[147.1534058,-36.99372],[147.1537003,-36.9936368],[147.1535944,-36.9933977]]]}},{"type":"Feature","id":"building-200724423","properties":{"kind":"building","name":"Asterix","height":7.2},"geometry":{"type":"Polygon","coordinates":[[[147.1495547,-36.9950927],[147.1495931,-36.9951393],[147.1495659,-36.9951536],[147.1496383,-36.9952415],[147.1495114,-36.9953081],[147.1494006,-36.9951737],[147.1495547,-36.9950927]]]}},{"type":"Feature","id":"building-200724425","properties":{"kind":"building","name":"Burrumbeep","height":7.2},"geometry":{"type":"Polygon","coordinates":[[[147.150501,-36.9944775],[147.1505785,-36.994586],[147.1506324,-36.9945614],[147.1506942,-36.9946479],[147.1504587,-36.9947552],[147.1503881,-36.9946563],[147.1504719,-36.9946181],[147.1504033,-36.994522],[147.150501,-36.9944775]]]}},{"type":"Feature","id":"building-200724426","properties":{"kind":"building","name":"Sun Apartments","height":7.2},"geometry":{"type":"Polygon","coordinates":[[[147.1523797,-36.9943939],[147.1523365,-36.9944825],[147.1522581,-36.9944582],[147.1523013,-36.9943695],[147.1523797,-36.9943939]]]}},{"type":"Feature","id":"building-200724427","properties":{"kind":"building","name":"Karoondah Apartments","height":7.2},"geometry":{"type":"Polygon","coordinates":[[[147.1514046,-36.9940868],[147.1516537,-36.9939838],[147.1517479,-36.9941254],[147.151713,-36.9941361],[147.1518147,-36.9942623],[147.1517396,-36.9943009],[147.1516403,-36.994183],[147.151525,-36.9942344],[147.1515843,-36.9943332],[147.1515145,-36.9943568],[147.1514475,-36.9942518],[147.1515011,-36.9942261],[147.1514046,-36.9940868]]]}},{"type":"Feature","id":"building-200724428","properties":{"kind":"building","name":"Players","height":7.2},"geometry":{"type":"Polygon","coordinates":[[[147.150024,-36.9940484],[147.1501373,-36.9942219],[147.1500793,-36.9942461],[147.1501059,-36.9942867],[147.1500019,-36.9943301],[147.149862,-36.9941159],[147.150024,-36.9940484]]]}},{"type":"Feature","id":"building-200724429","properties":{"kind":"building","name":"Sun Apartments","height":7.2},"geometry":{"type":"Polygon","coordinates":[[[147.1526193,-36.9944586],[147.1526564,-36.9945366],[147.1523696,-36.9946237],[147.1523324,-36.9945456],[147.1526193,-36.9944586]]]}},{"type":"Feature","id":"building-200724430","properties":{"kind":"building","name":"Resort building","height":7.2},"geometry":{"type":"Polygon","coordinates":[[[147.1516436,-36.9809529],[147.1517335,-36.9810221],[147.1516816,-36.9810652],[147.1515916,-36.980996],[147.1516436,-36.9809529]]]}},{"type":"Feature","id":"building-200724431","properties":{"kind":"building","name":"Sun Apartments","height":7.2},"geometry":{"type":"Polygon","coordinates":[[[147.1525499,-36.9942989],[147.1525794,-36.9943568],[147.1525311,-36.9943739],[147.1525499,-36.9944232],[147.1524748,-36.9944403],[147.1524614,-36.994391],[147.1525013,-36.9943694],[147.1524694,-36.9943139],[147.1525499,-36.9942989]]]}},{"type":"Feature","id":"building-200724432","properties":{"kind":"building","name":"Arrabri","height":7.2},"geometry":{"type":"Polygon","coordinates":[[[147.1531409,-36.9941548],[147.153329,-36.9940978],[147.1533919,-36.9942303],[147.1532037,-36.9942872],[147.1531409,-36.9941548]]]}},{"type":"Feature","id":"building-200724434","properties":{"kind":"building","name":"Bundarra","height":7.2},"geometry":{"type":"Polygon","coordinates":[[[147.1492508,-36.9948473],[147.1493205,-36.9948366],[147.1495163,-36.9949566],[147.149527,-36.995008],[147.149291,-36.9950359],[147.1492508,-36.9948473]]]}},{"type":"Feature","id":"building-200724435","properties":{"kind":"building","name":"Swindlers Valley","height":7.2},"geometry":{"type":"Polygon","coordinates":[[[147.1536772,-36.9939845],[147.1534362,-36.9940531],[147.1534763,-36.994143],[147.1537173,-36.9940744],[147.1536772,-36.9939845]]]}},{"type":"Feature","id":"building-200724436","properties":{"kind":"building","name":"Jalanga","height":7.2},"geometry":{"type":"Polygon","coordinates":[[[147.1500021,-36.9937481],[147.1500016,-36.9939002],[147.1499664,-36.9939001],[147.1499661,-36.9939919],[147.1498634,-36.9939917],[147.1498642,-36.9937478],[147.1500021,-36.9937481]]]}},{"type":"Feature","id":"building-200724437","properties":{"kind":"building","name":"Pegasus Alpine Club Co-op","height":7.2},"geometry":{"type":"Polygon","coordinates":[[[147.1495723,-36.9945248],[147.1497376,-36.9947885],[147.1495944,-36.9948458],[147.149429,-36.9945821],[147.1495723,-36.9945248]]]}},{"type":"Feature","id":"building-200724438","properties":{"kind":"building","name":"Tinogra","height":7.2},"geometry":{"type":"Polygon","coordinates":[[[147.1521005,-36.994848],[147.1521225,-36.994939],[147.1519105,-36.9949717],[147.1518885,-36.9948808],[147.1521005,-36.994848]]]}},{"type":"Feature","id":"building-200724439","properties":{"kind":"building","name":"Trapdoor","height":7.2},"geometry":{"type":"Polygon","coordinates":[[[147.1523675,-36.9938855],[147.1523031,-36.9939519],[147.1523728,-36.9939926],[147.1524235,-36.9939559],[147.1524292,-36.993984],[147.1525389,-36.9939645],[147.1525201,-36.9938938],[147.1524319,-36.9939112],[147.1523675,-36.9938855]]]}},{"type":"Feature","id":"building-200724440","properties":{"kind":"building","name":"I.H.P.","height":7.2},"geometry":{"type":"Polygon","coordinates":[[[147.1526196,-36.9946481],[147.1527159,-36.99471],[147.1526518,-36.9947788],[147.1525123,-36.9948216],[147.1524667,-36.9947359],[147.1525764,-36.9946972],[147.1526196,-36.9946481]]]}},{"type":"Feature","id":"building-200724441","properties":{"kind":"building","name":"B'Brush","height":7.2},"geometry":{"type":"Polygon","coordinates":[[[147.1497344,-36.9951806],[147.1499469,-36.9951667],[147.1499523,-36.9952192],[147.1500217,-36.9952146],[147.1500314,-36.9953087],[147.1497177,-36.9953292],[147.1497104,-36.9952582],[147.1497422,-36.9952561],[147.1497344,-36.9951806]]]}},{"type":"Feature","id":"building-200724442","properties":{"kind":"building","name":"Dolomite","height":7.2},"geometry":{"type":"Polygon","coordinates":[[[147.1498207,-36.9944418],[147.1499234,-36.9945621],[147.1498207,-36.994618],[147.1497181,-36.9944977],[147.1498207,-36.9944418]]]}},{"type":"Feature","id":"building-200724443","properties":{"kind":"building","name":"Shamrock","height":7.2},"geometry":{"type":"Polygon","coordinates":[[[147.1500723,-36.9949879],[147.1502112,-36.9950645],[147.150097,-36.9951966],[147.1499581,-36.9951199],[147.1500723,-36.9949879]]]}},{"type":"Feature","id":"building-200724445","properties":{"kind":"building","name":"Hangman's Drop","height":7.2},"geometry":{"type":"Polygon","coordinates":[[[147.1527172,-36.9937401],[147.1527637,-36.9938647],[147.1526409,-36.9938939],[147.1525944,-36.9937693],[147.1527172,-36.9937401]]]}},{"type":"Feature","id":"building-200724446","properties":{"kind":"building","name":"Rangers Apartments","height":7.2},"geometry":{"type":"Polygon","coordinates":[[[147.1505055,-36.9938076],[147.1504579,-36.9938942],[147.1507592,-36.994],[147.1506932,-36.9941199],[147.1503933,-36.9940146],[147.1504426,-36.993925],[147.1503353,-36.9938873],[147.1503997,-36.9937704],[147.1505055,-36.9938076]]]}},{"type":"Feature","id":"building-200724447","properties":{"kind":"building","name":"Nindethana","height":7.2},"geometry":{"type":"Polygon","coordinates":[[[147.1540823,-36.9938889],[147.1541314,-36.9939902],[147.1538616,-36.9940735],[147.1538157,-36.9939787],[147.1539336,-36.9939423],[147.1539052,-36.9938836],[147.1540079,-36.9938519],[147.1540331,-36.9939041],[147.1540823,-36.9938889]]]}},{"type":"Feature","id":"building-200724448","properties":{"kind":"building","name":"Lachen Apartments","height":7.2},"geometry":{"type":"Polygon","coordinates":[[[147.1517273,-36.9945281],[147.1520779,-36.9946642],[147.1520124,-36.9947719],[147.1516617,-36.9946358],[147.1517273,-36.9945281]]]}},{"type":"Feature","id":"building-200724449","properties":{"kind":"building","name":"Marouka Lodge","height":7.2},"geometry":{"type":"Polygon","coordinates":[[[147.1518926,-36.9939979],[147.1520227,-36.9940106],[147.1519998,-36.9941602],[147.1518697,-36.9941474],[147.1518926,-36.9939979]]]}},{"type":"Feature","id":"building-200724455","properties":{"kind":"building","name":"Dargo","height":7.2},"geometry":{"type":"Polygon","coordinates":[[[147.1522142,-36.9950748],[147.1522233,-36.9951498],[147.152191,-36.9951523],[147.1521981,-36.9952109],[147.152101,-36.9952184],[147.1520848,-36.9950848],[147.1522142,-36.9950748]]]}},{"type":"Feature","id":"building-200726143","properties":{"kind":"building","name":"Outside Edge","height":7.2},"geometry":{"type":"Polygon","coordinates":[[[147.1451228,-36.9834861],[147.145273,-36.9835461],[147.1453616,-36.983604],[147.1452972,-36.9836704],[147.1451979,-36.983604],[147.145077,-36.9835609],[147.1451228,-36.9834861]]]}},{"type":"Feature","id":"building-200726144","properties":{"kind":"building","name":"Mount Hotham Race Centre","height":10.3},"geometry":{"type":"Polygon","coordinates":[[[147.1415246,-36.9810569],[147.1415827,-36.9811912],[147.1414403,-36.9812305],[147.1413822,-36.9810961],[147.1415246,-36.9810569]]]}},{"type":"Feature","id":"building-200726145","properties":{"kind":"building","name":"Sambuca","height":7.2},"geometry":{"type":"Polygon","coordinates":[[[147.1442504,-36.9834502],[147.1444646,-36.9835375],[147.1444117,-36.9836203],[147.1441975,-36.983533],[147.1442504,-36.9834502]]]}},{"type":"Feature","id":"building-200726146","properties":{"kind":"building","name":"Schnapps","height":7.2},"geometry":{"type":"Polygon","coordinates":[[[147.1444954,-36.9835487],[147.1444436,-36.9836357],[147.1446522,-36.9837151],[147.1447041,-36.9836281],[147.1444954,-36.9835487]]]}},{"type":"Feature","id":"building-200726147","properties":{"kind":"building","name":"Hoys Ski Hire","height":7.2},"geometry":{"type":"Polygon","coordinates":[[[147.1418069,-36.982198],[147.1418818,-36.982316],[147.1417571,-36.9823665],[147.1416822,-36.9822485],[147.1418069,-36.982198]]]}},{"type":"Feature","id":"building-200726148","properties":{"kind":"building","name":"Absollut","height":7.2},"geometry":{"type":"Polygon","coordinates":[[[147.1439775,-36.983334],[147.1440819,-36.9833552],[147.1442136,-36.9834261],[147.1441385,-36.9835183],[147.1440365,-36.9834626],[147.1438971,-36.9834283],[147.1439266,-36.983349],[147.1439719,-36.9833595],[147.1439775,-36.983334]]]}},{"type":"Feature","id":"building-200726151","properties":{"kind":"building","name":"Resort building","height":7.2},"geometry":{"type":"Polygon","coordinates":[[[147.1341787,-36.9769464],[147.1344509,-36.9768977],[147.1344275,-36.9768143],[147.1341553,-36.9768631],[147.1341787,-36.9769464]]]}},{"type":"Feature","id":"building-200726310","properties":{"kind":"building","name":"C.S.I.R","height":7.2},"geometry":{"type":"Polygon","coordinates":[[[147.1465358,-36.9840021],[147.1466407,-36.9840066],[147.1466383,-36.9840732],[147.1467912,-36.984191],[147.1467268,-36.9842446],[147.1465927,-36.9841375],[147.1465578,-36.9841653],[147.1465149,-36.9841268],[147.1465361,-36.984103],[147.1465358,-36.9840021]]]}},{"type":"Feature","id":"building-200726597","properties":{"kind":"building","name":"Jibber Jabber","height":7.2},"geometry":{"type":"Polygon","coordinates":[[[147.1439658,-36.9827451],[147.1439202,-36.9828677],[147.1438254,-36.9828452],[147.143871,-36.9827226],[147.1439658,-36.9827451]]]}},{"type":"Feature","id":"building-200726598","properties":{"kind":"building","name":"Blowhard","height":7.2},"geometry":{"type":"Polygon","coordinates":[[[147.1447366,-36.9830898],[147.1448087,-36.9831431],[147.1447929,-36.9831797],[147.1447554,-36.9832097],[147.144683,-36.983169],[147.1446722,-36.983139],[147.144691,-36.9831112],[147.1447366,-36.9830898]]]}},{"type":"Feature","id":"building-200726599","properties":{"kind":"building","name":"Dendrite Lodge","height":7.2},"geometry":{"type":"Polygon","coordinates":[[[147.1440203,-36.9829806],[147.1441274,-36.9829674],[147.1441145,-36.982901],[147.1440074,-36.9829143],[147.1440203,-36.9829806]]]}},{"type":"Feature","id":"building-200726600","properties":{"kind":"building","name":"Caravaggio","height":7.2},"geometry":{"type":"Polygon","coordinates":[[[147.1438221,-36.9830886],[147.143889,-36.9831433],[147.1438353,-36.9831852],[147.1437684,-36.9831305],[147.1438221,-36.9830886]]]}},{"type":"Feature","id":"building-200726601","properties":{"kind":"building","name":"Dingo Joe's","height":7.2},"geometry":{"type":"Polygon","coordinates":[[[147.1436049,-36.9828853],[147.1435526,-36.9829897],[147.1434555,-36.9829587],[147.1435078,-36.9828543],[147.1436049,-36.9828853]]]}},{"type":"Feature","id":"building-200726602","properties":{"kind":"building","name":"Home Run","height":7.2},"geometry":{"type":"Polygon","coordinates":[[[147.1447034,-36.983049],[147.1446288,-36.9831041],[147.1445627,-36.9830469],[147.1446372,-36.9829918],[147.1447034,-36.983049]]]}},{"type":"Feature","id":"building-200726603","properties":{"kind":"building","name":"Gotcha","height":7.2},"geometry":{"type":"Polygon","coordinates":[[[147.1440295,-36.982723],[147.1439937,-36.9828098],[147.1440968,-36.9828369],[147.1441325,-36.9827501],[147.1440295,-36.982723]]]}},{"type":"Feature","id":"building-200726604","properties":{"kind":"building","name":"Cloudbreaker","height":7.2},"geometry":{"type":"Polygon","coordinates":[[[147.1439802,-36.9831133],[147.1440872,-36.9831624],[147.1441572,-36.9831519],[147.144176,-36.9832097],[147.1440607,-36.9832333],[147.1439343,-36.9831795],[147.1439802,-36.9831133]]]}},{"type":"Feature","id":"building-200726605","properties":{"kind":"building","name":"Eagle's Nest","height":7.2},"geometry":{"type":"Polygon","coordinates":[[[147.1437603,-36.9829796],[147.1437212,-36.9830555],[147.1436206,-36.9830225],[147.1436596,-36.9829466],[147.1437603,-36.9829796]]]}},{"type":"Feature","id":"building-200726606","properties":{"kind":"building","name":"Black Diamond","height":7.2},"geometry":{"type":"Polygon","coordinates":[[[147.1441808,-36.9827773],[147.1442765,-36.9828253],[147.1442197,-36.9828977],[147.144124,-36.9828497],[147.1441808,-36.9827773]]]}},{"type":"Feature","id":"building-200726607","properties":{"kind":"building","name":"Summit Lodge","height":7.2},"geometry":{"type":"Polygon","coordinates":[[[147.1437877,-36.9827831],[147.1437485,-36.9828997],[147.1436236,-36.982873],[147.1436628,-36.9827563],[147.1437877,-36.9827831]]]}},{"type":"Feature","id":"building-200726608","properties":{"kind":"building","name":"Bella's","height":7.2},"geometry":{"type":"Polygon","coordinates":[[[147.1442724,-36.9830569],[147.1443664,-36.9831007],[147.1443196,-36.9831648],[147.1442256,-36.983121],[147.1442724,-36.9830569]]]}},{"type":"Feature","id":"building-200726609","properties":{"kind":"building","name":"Timbertop","height":7.2},"geometry":{"type":"Polygon","coordinates":[[[147.144485,-36.9833104],[147.144412,-36.9833666],[147.1443494,-36.9833147],[147.1444225,-36.9832585],[147.144485,-36.9833104]]]}},{"type":"Feature","id":"building-200726610","properties":{"kind":"building","name":"Bunny's","height":7.2},"geometry":{"type":"Polygon","coordinates":[[[147.1442797,-36.9829109],[147.1443721,-36.9829605],[147.1444252,-36.9828973],[147.1443328,-36.9828477],[147.1442797,-36.9829109]]]}},{"type":"Feature","id":"building-200726611","properties":{"kind":"building","name":"Gundanora","height":7.2},"geometry":{"type":"Polygon","coordinates":[[[147.1442016,-36.9832099],[147.1443127,-36.9832662],[147.1442803,-36.983307],[147.1441692,-36.9832507],[147.1442016,-36.9832099]]]}},{"type":"Feature","id":"building-200726612","properties":{"kind":"building","name":"Twirligig","height":7.2},"geometry":{"type":"Polygon","coordinates":[[[147.1438806,-36.9829345],[147.143966,-36.9829861],[147.143905,-36.9830505],[147.1438196,-36.9829989],[147.1438806,-36.9829345]]]}},{"type":"Feature","id":"building-200726613","properties":{"kind":"building","name":"Australia Drift","height":7.2},"geometry":{"type":"Polygon","coordinates":[[[147.1432505,-36.9829082],[147.1433115,-36.9829908],[147.1432261,-36.983031],[147.1431651,-36.9829484],[147.1432505,-36.9829082]]]}},{"type":"Feature","id":"building-200726614","properties":{"kind":"building","name":"Double Back","height":7.2},"geometry":{"type":"Polygon","coordinates":[[[147.1440666,-36.9830088],[147.1442207,-36.9830065],[147.1442221,-36.9830666],[147.1440681,-36.9830689],[147.1440666,-36.9830088]]]}},{"type":"Feature","id":"building-200726615","properties":{"kind":"building","name":"Nolyski","height":7.2},"geometry":{"type":"Polygon","coordinates":[[[147.144615,-36.9833196],[147.1446516,-36.9833812],[147.1445398,-36.9834235],[147.1445032,-36.9833619],[147.144615,-36.9833196]]]}},{"type":"Feature","id":"building-200726616","properties":{"kind":"building","name":"Corungra","height":7.2},"geometry":{"type":"Polygon","coordinates":[[[147.1434575,-36.9828786],[147.1434171,-36.9829763],[147.1433032,-36.9829463],[147.1433436,-36.9828485],[147.1434575,-36.9828786]]]}},{"type":"Feature","id":"building-200726617","properties":{"kind":"building","name":"KT","height":7.2},"geometry":{"type":"Polygon","coordinates":[[[147.1436471,-36.9830847],[147.1437528,-36.9831063],[147.1437329,-36.9831684],[147.1436272,-36.9831468],[147.1436471,-36.9830847]]]}},{"type":"Feature","id":"building-200726618","properties":{"kind":"building","name":"Red Robin","height":7.2},"geometry":{"type":"Polygon","coordinates":[[[147.1433305,-36.9829999],[147.143451,-36.9830556],[147.1434174,-36.9831019],[147.143297,-36.9830462],[147.1433305,-36.9829999]]]}},{"type":"Feature","id":"building-200726619","properties":{"kind":"building","name":"Sanki","height":7.2},"geometry":{"type":"Polygon","coordinates":[[[147.1444416,-36.9829291],[147.1444252,-36.982991],[147.1445593,-36.9830253],[147.1446076,-36.9829846],[147.1445408,-36.9829419],[147.1444416,-36.9829291]]]}},{"type":"Feature","id":"building-200726620","properties":{"kind":"building","name":"Sub Zero","height":7.2},"geometry":{"type":"Polygon","coordinates":[[[147.1435161,-36.9830465],[147.1434578,-36.9830898],[147.1435081,-36.983133],[147.1435664,-36.9830896],[147.1435161,-36.9830465]]]}},{"type":"Feature","id":"building-200726621","properties":{"kind":"building","name":"Andromeda","height":7.2},"geometry":{"type":"Polygon","coordinates":[[[147.1444523,-36.9831142],[147.1445149,-36.9831603],[147.1444468,-36.9832193],[147.1443842,-36.9831732],[147.1444523,-36.9831142]]]}},{"type":"Feature","id":"building-200727356","properties":{"kind":"building","name":"Alpine Gateway","height":7.2},"geometry":{"type":"Polygon","coordinates":[[[147.1375833,-36.9742952],[147.1376049,-36.974311],[147.1372571,-36.9746158],[147.1372076,-36.9746572],[147.1372422,-36.9746836],[147.1373664,-36.9747726],[147.1375897,-36.9747894],[147.1377015,-36.9746913],[147.137719,-36.974676],[147.1377737,-36.9747157],[147.1378416,-36.9746562],[147.1378588,-36.9746688],[147.1378802,-36.9746501],[147.1379221,-36.9746134],[147.1379386,-36.974599],[147.1379617,-36.9746159],[147.1379931,-36.9745898],[147.1380188,-36.9745684],[147.1378883,-36.9744501],[147.1376532,-36.9742371],[147.1375833,-36.9742952]]]}},{"type":"Feature","id":"building-215037330","properties":{"kind":"building","name":"Snake Gully Hut","height":7.2},"geometry":{"type":"Polygon","coordinates":[[[147.1491165,-36.9770005],[147.1490829,-36.9770937],[147.1489958,-36.977142],[147.149073,-36.9772435],[147.1492546,-36.977143],[147.1491165,-36.9770005]]]}},{"type":"Feature","id":"building-225519849","properties":{"kind":"building","name":"Resort building","height":7.2},"geometry":{"type":"Polygon","coordinates":[[[147.1428059,-36.9720582],[147.1428055,-36.9721114],[147.142873,-36.9721117],[147.1428734,-36.9720585],[147.1428059,-36.9720582]]]}},{"type":"Feature","id":"building-225519851","properties":{"kind":"building","name":"Race Start Hut","height":7.2},"geometry":{"type":"Polygon","coordinates":[[[147.1431098,-36.9730683],[147.1430749,-36.9731052],[147.142961,-36.9730366],[147.142996,-36.9729996],[147.1431098,-36.9730683]]]}},{"type":"Feature","id":"building-314205754","properties":{"kind":"building","name":"Jagungal","height":7.2},"geometry":{"type":"Polygon","coordinates":[[[147.1447541,-36.9833872],[147.1447326,-36.983445],[147.1448292,-36.9834814],[147.1448533,-36.9834515],[147.1449525,-36.9834793],[147.1449928,-36.9834407],[147.1447541,-36.9833529],[147.1447541,-36.9833872]]]}},{"type":"Feature","id":"building-324394717","properties":{"kind":"building","name":"Race Timing Hut","height":7.2},"geometry":{"type":"Polygon","coordinates":[[[147.148878,-36.9764344],[147.148951,-36.9764341],[147.1489513,-36.976483],[147.1488783,-36.9764833],[147.148878,-36.9764344]]]}},{"type":"Feature","id":"building-324394719","properties":{"kind":"building","name":"Bottom Ticket Office","height":7.2},"geometry":{"type":"Polygon","coordinates":[[[147.1511332,-36.9806401],[147.1512027,-36.9806255],[147.1512236,-36.9806888],[147.1511541,-36.9807035],[147.1511332,-36.9806401]]]}},{"type":"Feature","id":"building-386420770","properties":{"kind":"building","name":"Mountain Dreaming","height":7.2},"geometry":{"type":"Polygon","coordinates":[[[147.1484206,-36.9921312],[147.1485092,-36.9922444],[147.1486764,-36.9921609],[147.1485877,-36.9920477],[147.1484206,-36.9921312]]]}},{"type":"Feature","id":"building-592251007","properties":{"kind":"building","name":"Summit Unload","height":3},"geometry":{"type":"Polygon","coordinates":[[[147.1362866,-36.9772491],[147.1363261,-36.9772763],[147.1362987,-36.9773018],[147.1362591,-36.9772746],[147.1362866,-36.9772491]]]}},{"type":"Feature","id":"building-592251009","properties":{"kind":"building","name":"Summit Snowmaking","height":3},"geometry":{"type":"Polygon","coordinates":[[[147.1359083,-36.9773125],[147.1359501,-36.9772765],[147.1360468,-36.9773481],[147.136005,-36.9773842],[147.1359083,-36.9773125]]]}},{"type":"Feature","id":"building-592251011","properties":{"kind":"building","name":"Road Runner Lift Control","height":3},"geometry":{"type":"Polygon","coordinates":[[[147.1388027,-36.9778634],[147.13874,-36.9778455],[147.1387283,-36.9778728],[147.1387914,-36.9778926],[147.1388027,-36.9778634]]]}},{"type":"Feature","id":"building-592251017","properties":{"kind":"building","name":"Summit load station","height":5.0},"geometry":{"type":"Polygon","coordinates":[[[147.1413503,-36.9807126],[147.1413986,-36.9807507],[147.1413262,-36.9808048],[147.1412779,-36.9807647],[147.1413503,-36.9807126]]]}},{"type":"Feature","id":"building-592251021","properties":{"kind":"building","name":"Disabled Wintersport Australia","height":3},"geometry":{"type":"Polygon","coordinates":[[[147.141417,-36.9809458],[147.14138,-36.9809717],[147.1414362,-36.9810221],[147.1414732,-36.9809957],[147.141417,-36.9809458]]]}},{"type":"Feature","id":"building-592251023","properties":{"kind":"building","name":"Resort building","height":3},"geometry":{"type":"Polygon","coordinates":[[[147.141923,-36.9809095],[147.1419793,-36.9809015],[147.1419846,-36.9809385],[147.1419307,-36.9809452],[147.141923,-36.9809095]]]}},{"type":"Feature","id":"building-770935645","properties":{"kind":"building","name":"Alpine Club of Victoria","height":7.2},"geometry":{"type":"Polygon","coordinates":[[[147.1495122,-36.9898327],[147.1495593,-36.9899523],[147.1495502,-36.9899542],[147.1495514,-36.9899778],[147.149613,-36.9899711],[147.1496106,-36.9899494],[147.1496486,-36.9899465],[147.1496849,-36.9899325],[147.1496468,-36.9898423],[147.1496088,-36.9898423],[147.1495895,-36.9898245],[147.1495122,-36.9898327]]]}},{"type":"Feature","id":"building-778988863","properties":{"kind":"building","name":"Joyce Brockoff Hut","height":7.2},"geometry":{"type":"Polygon","coordinates":[[[147.1463222,-36.9732585],[147.146396,-36.973301],[147.1463312,-36.9733727],[147.1462574,-36.9733302],[147.1463222,-36.9732585]]]}},{"type":"Feature","id":"building-778989074","properties":{"kind":"building","name":"Resort building","height":7.2},"geometry":{"type":"Polygon","coordinates":[[[147.139766,-36.9740445],[147.13981,-36.9740945],[147.1397069,-36.9741524],[147.139663,-36.9741024],[147.139766,-36.9740445]]]}},{"type":"Feature","id":"building-778989075","properties":{"kind":"building","name":"Resort building","height":7.2},"geometry":{"type":"Polygon","coordinates":[[[147.1396183,-36.9741669],[147.139653,-36.9742523],[147.1395405,-36.9742814],[147.1395059,-36.974196],[147.1396183,-36.9741669]]]}},{"type":"Feature","id":"building-860276478","properties":{"kind":"building","name":"Resort building","height":7.2},"geometry":{"type":"Polygon","coordinates":[[[147.145537,-36.988456],[147.1455903,-36.988507],[147.145618,-36.9884886],[147.1455647,-36.9884376],[147.145537,-36.988456]]]}},{"type":"Feature","id":"building-860276480","properties":{"kind":"building","name":"Resort building","height":7.2},"geometry":{"type":"Polygon","coordinates":[[[147.1468602,-36.9894681],[147.1468725,-36.9894742],[147.1468818,-36.9894832],[147.1468869,-36.9894941],[147.1468873,-36.9895057],[147.1468831,-36.9895168],[147.1468745,-36.9895262],[147.1468627,-36.9895329],[147.1468485,-36.9895362],[147.1468337,-36.9895357],[147.14682,-36.9895313],[147.1468089,-36.9895235],[147.1468015,-36.9895133],[147.1467988,-36.9895017],[147.146801,-36.98949],[147.1468078,-36.9894795],[147.1468183,-36.9894715],[147.1468316,-36.9894667],[147.146846,-36.9894655],[147.1468602,-36.9894681]]]}},{"type":"Feature","id":"building-971831972","properties":{"kind":"building","name":"Resort building","height":7.2},"geometry":{"type":"Polygon","coordinates":[[[147.1428051,-36.9824145],[147.1426818,-36.9824165],[147.1426803,-36.9823576],[147.1428036,-36.9823556],[147.1428051,-36.9824145]]]}},{"type":"Feature","id":"building-971831973","properties":{"kind":"building","name":"Resort building","height":7.2},"geometry":{"type":"Polygon","coordinates":[[[147.1429706,-36.9827205],[147.1430178,-36.9827109],[147.1429896,-36.9826223],[147.1429424,-36.9826319],[147.1429706,-36.9827205]]]}},{"type":"Feature","id":"building-971832530","properties":{"kind":"building","name":"Snowmaking Shed","height":7.2},"geometry":{"type":"Polygon","coordinates":[[[147.1394058,-36.9742324],[147.1394812,-36.974209],[147.139391,-36.9740237],[147.1393157,-36.9740471],[147.1394058,-36.9742324]]]}},{"type":"Feature","id":"building-971832531","properties":{"kind":"building","name":"Resort building","height":7.2},"geometry":{"type":"Polygon","coordinates":[[[147.14022,-36.9744295],[147.1402071,-36.974461],[147.14015,-36.9744462],[147.1401628,-36.9744147],[147.14022,-36.9744295]]]}},{"type":"Feature","id":"building-971834882","properties":{"kind":"building","name":"Resort building","height":7.2},"geometry":{"type":"Polygon","coordinates":[[[147.1471523,-36.9900493],[147.1472028,-36.9900807],[147.1472855,-36.9899957],[147.147235,-36.9899644],[147.1471523,-36.9900493]]]}},{"type":"Feature","id":"building-972214458","properties":{"kind":"building","name":"Resort building","height":7.2},"geometry":{"type":"Polygon","coordinates":[[[147.1418344,-36.9798845],[147.1418069,-36.9798866],[147.1418035,-36.9798577],[147.141831,-36.9798556],[147.1418344,-36.9798845]]]}},{"type":"Feature","id":"building-972214459","properties":{"kind":"building","name":"Resort building","height":7.2},"geometry":{"type":"Polygon","coordinates":[[[147.1427303,-36.9791709],[147.1427041,-36.9791709],[147.1427041,-36.9791414],[147.1427303,-36.9791414],[147.1427303,-36.9791709]]]}},{"type":"Feature","id":"building-972217346","properties":{"kind":"building","name":"Resort building","height":7.2},"geometry":{"type":"Polygon","coordinates":[[[147.1279778,-36.9751591],[147.1279084,-36.9751594],[147.1279081,-36.9751056],[147.1279774,-36.9751053],[147.1279778,-36.9751591]]]}},{"type":"Feature","id":"building-972217348","properties":{"kind":"building","name":"Resort building","height":7.2},"geometry":{"type":"Polygon","coordinates":[[[147.1319494,-36.9771392],[147.1319198,-36.9771503],[147.1319008,-36.9771177],[147.1319304,-36.9771067],[147.1319494,-36.9771392]]]}},{"type":"Feature","id":"building-972222840","properties":{"kind":"building","name":"Resort building","height":7.2},"geometry":{"type":"Polygon","coordinates":[[[147.1488091,-36.9769708],[147.1488607,-36.9769836],[147.1488736,-36.9769504],[147.1488219,-36.9769376],[147.1488091,-36.9769708]]]}},{"type":"Feature","id":"building-972222841","properties":{"kind":"building","name":"Resort building","height":7.2},"geometry":{"type":"Polygon","coordinates":[[[147.1492987,-36.978283],[147.1493136,-36.9783934],[147.1492534,-36.9783986],[147.1492385,-36.9782882],[147.1492987,-36.978283]]]}},{"type":"Feature","id":"building-972222842","properties":{"kind":"building","name":"Pumphouse","height":7.2},"geometry":{"type":"Polygon","coordinates":[[[147.1494605,-36.9787606],[147.1495952,-36.9788305],[147.1496344,-36.9787823],[147.1494997,-36.9787124],[147.1494605,-36.9787606]]]}},{"type":"Feature","id":"building-972222846","properties":{"kind":"building","name":"Silver Brumby Hut","height":7.2},"geometry":{"type":"Polygon","coordinates":[[[147.1572919,-36.9864949],[147.1572297,-36.9865082],[147.1572129,-36.9864584],[147.1572751,-36.986445],[147.1572919,-36.9864949]]]}},{"type":"Feature","id":"building-972222847","properties":{"kind":"building","name":"Resort building","height":7.2},"geometry":{"type":"Polygon","coordinates":[[[147.1577092,-36.9864837],[147.1576692,-36.9864879],[147.1576651,-36.9864632],[147.1577052,-36.9864589],[147.1577092,-36.9864837]]]}},{"type":"Feature","id":"building-976637695","properties":{"kind":"building","name":"Resort building","height":7.2},"geometry":{"type":"Polygon","coordinates":[[[147.1458596,-36.9665309],[147.1458196,-36.9665547],[147.1457963,-36.9665296],[147.1458363,-36.9665058],[147.1458596,-36.9665309]]]}},{"type":"Feature","id":"building-976637697","properties":{"kind":"building","name":"Resort building","height":7.2},"geometry":{"type":"Polygon","coordinates":[[[147.1459129,-36.9668295],[147.1459416,-36.9668276],[147.1459388,-36.9668015],[147.1459102,-36.9668034],[147.1459129,-36.9668295]]]}},{"type":"Feature","id":"building-1058044740","properties":{"kind":"building","name":"Resort building","height":7.2},"geometry":{"type":"Polygon","coordinates":[[[147.1482347,-36.9916414],[147.1482644,-36.9916746],[147.1482389,-36.9916891],[147.1482092,-36.991656],[147.1482347,-36.9916414]]]}},{"type":"Feature","id":"building-1162951155","properties":{"kind":"building","name":"Resort building","height":7.2},"geometry":{"type":"Polygon","coordinates":[[[147.142903,-36.9832782],[147.142956,-36.9833094],[147.1429182,-36.9833504],[147.1429529,-36.9833708],[147.1429102,-36.9834171],[147.1428596,-36.9833873],[147.1428753,-36.9833703],[147.1428381,-36.9833484],[147.142903,-36.9832782]]]}},{"type":"Feature","id":"pylon-mount-hotham-0","properties":{"kind":"pylon","name":"Lift tower","height":13},"geometry":{"type":"Polygon","coordinates":[[[147.14519013792133,-36.9758882],[147.14518289235193,-36.97587422555768],[147.1451654,-36.97586843715415],[147.14514790764807,-36.97587422555768],[147.14514066207866,-36.9758882],[147.14514790764807,-36.97590217444232],[147.1451654,-36.97590796284585],[147.14518289235193,-36.97590217444232],[147.14519013792133,-36.9758882]]]}},{"type":"Feature","id":"pylon-mount-hotham-1","properties":{"kind":"pylon","name":"Lift tower","height":13},"geometry":{"type":"Polygon","coordinates":[[[147.1468044347134,-36.9660173],[147.14679719008356,-36.96600332555768],[147.1467797,-36.965997537154145],[147.14676220991643,-36.96600332555768],[147.1467549652866,-36.9660173],[147.14676220991643,-36.966031274442315],[147.1467797,-36.96603706284585],[147.14679719008356,-36.966031274442315],[147.1468044347134,-36.9660173]]]}},{"type":"Feature","id":"pylon-mount-hotham-2","properties":{"kind":"pylon","name":"Lift tower","height":13},"geometry":{"type":"Polygon","coordinates":[[[147.14769484280228,-36.9908978],[147.1476875958033,-36.99088382555768],[147.1476701,-36.99087803715415],[147.1476526041967,-36.99088382555768],[147.14764535719772,-36.9908978],[147.1476526041967,-36.99091177444232],[147.1476701,-36.99091756284585],[147.1476875958033,-36.99091177444232],[147.14769484280228,-36.9908978]]]}},{"type":"Feature","id":"pylon-mount-hotham-3","properties":{"kind":"pylon","name":"Lift tower","height":13},"geometry":{"type":"Polygon","coordinates":[[[147.14719044261324,-36.9903167],[147.1471831956696,-36.99030272555768],[147.1471657,-36.99029693715415],[147.14714820433036,-36.99030272555768],[147.14714095738674,-36.9903167],[147.14714820433036,-36.99033067444232],[147.1471657,-36.99033646284585],[147.1471831956696,-36.99033067444232],[147.14719044261324,-36.9903167]]]}},{"type":"Feature","id":"pylon-mount-hotham-4","properties":{"kind":"pylon","name":"Lift tower","height":13},"geometry":{"type":"Polygon","coordinates":[[[147.14672324243818,-36.9897785],[147.14671599554583,-36.98976452555768],[147.1466985,-36.98975873715415],[147.1466810044542,-36.98976452555768],[147.14667375756184,-36.9897785],[147.1466810044542,-36.98979247444232],[147.1466985,-36.98979826284585],[147.14671599554583,-36.98979247444232],[147.14672324243818,-36.9897785]]]}},{"type":"Feature","id":"pylon-mount-hotham-5","properties":{"kind":"pylon","name":"Lift tower","height":13},"geometry":{"type":"Polygon","coordinates":[[[147.1461986422416,-36.9891741],[147.14619139540682,-36.98916012555768],[147.1461739,-36.98915433715415],[147.1461564045932,-36.98916012555768],[147.14614915775843,-36.9891741],[147.1461564045932,-36.98918807444232],[147.1461739,-36.98919386284585],[147.14619139540682,-36.98918807444232],[147.1461986422416,-36.9891741]]]}},{"type":"Feature","id":"pylon-mount-hotham-6","properties":{"kind":"pylon","name":"Lift tower","height":13},"geometry":{"type":"Polygon","coordinates":[[[147.14879724159923,-36.9871992],[147.14878999495258,-36.98718522555768],[147.1487725,-36.98717943715415],[147.14875500504743,-36.98718522555768],[147.1487477584008,-36.9871992],[147.14875500504743,-36.98721317444232],[147.1487725,-36.98721896284585],[147.14878999495258,-36.98721317444232],[147.14879724159923,-36.9871992]]]}},{"type":"Feature","id":"pylon-mount-hotham-7","properties":{"kind":"pylon","name":"Lift tower","height":13},"geometry":{"type":"Polygon","coordinates":[[[147.14967184156916,-36.9871068],[147.14966459493135,-36.98709282555768],[147.1496471,-36.98708703715415],[147.14962960506867,-36.98709282555768],[147.14962235843086,-36.9871068],[147.14962960506867,-36.98712077444232],[147.1496471,-36.98712656284585],[147.14966459493135,-36.98712077444232],[147.14967184156916,-36.9871068]]]}},{"type":"Feature","id":"pylon-mount-hotham-8","properties":{"kind":"pylon","name":"Lift tower","height":13},"geometry":{"type":"Polygon","coordinates":[[[147.15021974155036,-36.987049],[147.15021249491804,-36.98703502555768],[147.150195,-36.98702923715415],[147.15017750508196,-36.98703502555768],[147.15017025844963,-36.987049],[147.15017750508196,-36.98706297444232],[147.150195,-36.98706876284585],[147.15021249491804,-36.98706297444232],[147.15021974155036,-36.987049]]]}},{"type":"Feature","id":"pylon-mount-hotham-9","properties":{"kind":"pylon","name":"Lift tower","height":13},"geometry":{"type":"Polygon","coordinates":[[[147.15140104150979,-36.9869242],[147.15139379488934,-36.98691022555768],[147.1513763,-36.986904437154145],[147.15135880511068,-36.98691022555768],[147.15135155849023,-36.9869242],[147.15135880511068,-36.986938174442315],[147.1513763,-36.98694396284585],[147.15139379488934,-36.986938174442315],[147.15140104150979,-36.9869242]]]}},{"type":"Feature","id":"pylon-mount-hotham-10","properties":{"kind":"pylon","name":"Lift tower","height":13},"geometry":{"type":"Polygon","coordinates":[[[147.15248464147257,-36.9868098],[147.152477394863,-36.986795825557685],[147.1524599,-36.98679003715415],[147.15244240513698,-36.986795825557685],[147.15243515852742,-36.9868098],[147.15244240513698,-36.98682377444232],[147.1524599,-36.986829562845855],[147.152477394863,-36.98682377444232],[147.15248464147257,-36.9868098]]]}},{"type":"Feature","id":"pylon-mount-hotham-11","properties":{"kind":"pylon","name":"Lift tower","height":13},"geometry":{"type":"Polygon","coordinates":[[[147.15368034143148,-36.9866835],[147.15367309483398,-36.98666952555768],[147.1536556,-36.986663737154146],[147.15363810516604,-36.98666952555768],[147.15363085856853,-36.9866835],[147.15363810516604,-36.986697474442316],[147.1536556,-36.98670326284585],[147.15367309483398,-36.986697474442316],[147.15368034143148,-36.9866835]]]}},{"type":"Feature","id":"pylon-mount-hotham-12","properties":{"kind":"pylon","name":"Lift tower","height":13},"geometry":{"type":"Polygon","coordinates":[[[147.15430904140987,-36.9866171],[147.1543017948187,-36.98660312555768],[147.1542843,-36.986597337154144],[147.1542668051813,-36.98660312555768],[147.15425955859013,-36.9866171],[147.1542668051813,-36.986631074442315],[147.1542843,-36.98663686284585],[147.1543017948187,-36.986631074442315],[147.15430904140987,-36.9866171]]]}},{"type":"Feature","id":"pylon-mount-hotham-13","properties":{"kind":"pylon","name":"Lift tower","height":13},"geometry":{"type":"Polygon","coordinates":[[[147.15553614136772,-36.9864875],[147.1555288947889,-36.986473525557685],[147.1555114,-36.98646773715415],[147.1554939052111,-36.986473525557685],[147.15548665863227,-36.9864875],[147.1554939052111,-36.98650147444232],[147.1555114,-36.986507262845855],[147.1555288947889,-36.98650147444232],[147.15553614136772,-36.9864875]]]}},{"type":"Feature","id":"pylon-mount-hotham-14","properties":{"kind":"pylon","name":"Lift tower","height":13},"geometry":{"type":"Polygon","coordinates":[[[147.14381384003644,-36.9823938],[147.14380659384753,-36.98237982555768],[147.1437891,-36.982374037154145],[147.14377160615246,-36.98237982555768],[147.14376435996354,-36.9823938],[147.14377160615246,-36.982407774442315],[147.1437891,-36.98241356284585],[147.14380659384753,-36.982407774442315],[147.14381384003644,-36.9823938]]]}},{"type":"Feature","id":"pylon-mount-hotham-15","properties":{"kind":"pylon","name":"Lift tower","height":13},"geometry":{"type":"Polygon","coordinates":[[[147.1447225399676,-36.9821821],[147.14471529379884,-36.982168125557685],[147.1446978,-36.98216233715415],[147.14468030620114,-36.982168125557685],[147.14467306003237,-36.9821821],[147.14468030620114,-36.98219607444232],[147.1446978,-36.982201862845855],[147.14471529379884,-36.98219607444232],[147.1447225399676,-36.9821821]]]}},{"type":"Feature","id":"pylon-mount-hotham-16","properties":{"kind":"pylon","name":"Lift tower","height":13},"geometry":{"type":"Polygon","coordinates":[[[147.14511123993816,-36.9820916],[147.14510399377804,-36.98207762555768],[147.1450865,-36.982071837154145],[147.14506900622195,-36.98207762555768],[147.14506176006182,-36.9820916],[147.14506900622195,-36.982105574442315],[147.1450865,-36.98211136284585],[147.14510399377804,-36.982105574442315],[147.14511123993816,-36.9820916]]]}},{"type":"Feature","id":"pylon-mount-hotham-17","properties":{"kind":"pylon","name":"Lift tower","height":13},"geometry":{"type":"Polygon","coordinates":[[[147.1458846398796,-36.9819114],[147.1458773937366,-36.98189742555768],[147.1458599,-36.98189163715415],[147.1458424062634,-36.98189742555768],[147.1458351601204,-36.9819114],[147.1458424062634,-36.98192537444232],[147.1458599,-36.981931162845854],[147.1458773937366,-36.98192537444232],[147.1458846398796,-36.9819114]]]}},{"type":"Feature","id":"pylon-mount-hotham-18","properties":{"kind":"pylon","name":"Lift tower","height":13},"geometry":{"type":"Polygon","coordinates":[[[147.14834493969326,-36.9813384],[147.14833769360487,-36.98132442555768],[147.1483202,-36.981318637154146],[147.14830270639513,-36.98132442555768],[147.14829546030674,-36.9813384],[147.14830270639513,-36.98135237444232],[147.1483202,-36.98135816284585],[147.14833769360487,-36.98135237444232],[147.14834493969326,-36.9813384]]]}},{"type":"Feature","id":"pylon-mount-hotham-19","properties":{"kind":"pylon","name":"Lift tower","height":13},"geometry":{"type":"Polygon","coordinates":[[[147.1485317396791,-36.9812949],[147.14852449359486,-36.981280925557684],[147.148507,-36.98127513715415],[147.14848950640513,-36.981280925557684],[147.1484822603209,-36.9812949],[147.14848950640513,-36.98130887444232],[147.148507,-36.981314662845854],[147.14852449359486,-36.98130887444232],[147.1485317396791,-36.9812949]]]}},{"type":"Feature","id":"pylon-mount-hotham-20","properties":{"kind":"pylon","name":"Lift tower","height":13},"geometry":{"type":"Polygon","coordinates":[[[147.14875073966252,-36.9812438],[147.14874349358314,-36.98122982555768],[147.148726,-36.98122403715415],[147.14870850641688,-36.98122982555768],[147.1487012603375,-36.9812438],[147.14870850641688,-36.98125777444232],[147.148726,-36.981263562845854],[147.14874349358314,-36.98125777444232],[147.14875073966252,-36.9812438]]]}},{"type":"Feature","id":"pylon-mount-hotham-21","properties":{"kind":"pylon","name":"Lift tower","height":13},"geometry":{"type":"Polygon","coordinates":[[[147.14660403982512,-36.9817439],[147.1465967936981,-36.98172992555768],[147.1465793,-36.981724137154146],[147.14656180630192,-36.98172992555768],[147.1465545601749,-36.9817439],[147.14656180630192,-36.981757874442316],[147.1465793,-36.98176366284585],[147.1465967936981,-36.981757874442316],[147.14660403982512,-36.9817439]]]}},{"type":"Feature","id":"pylon-mount-hotham-22","properties":{"kind":"pylon","name":"Lift tower","height":13},"geometry":{"type":"Polygon","coordinates":[[[147.15005103956406,-36.980941],[147.1500437935135,-36.98092702555768],[147.1500263,-36.98092123715415],[147.1500088064865,-36.98092702555768],[147.15000156043595,-36.980941],[147.1500088064865,-36.98095497444232],[147.1500263,-36.980960762845854],[147.1500437935135,-36.98095497444232],[147.15005103956406,-36.980941]]]}},{"type":"Feature","id":"pylon-mount-hotham-23","properties":{"kind":"pylon","name":"Lift tower","height":13},"geometry":{"type":"Polygon","coordinates":[[[147.14542863912808,-36.9796002],[147.14542139320523,-36.97958622555768],[147.1454039,-36.97958043715415],[147.14538640679476,-36.97958622555768],[147.1453791608719,-36.9796002],[147.14538640679476,-36.97961417444232],[147.1454039,-36.97961996284585],[147.14542139320523,-36.97961417444232],[147.14542863912808,-36.9796002]]]}},{"type":"Feature","id":"pylon-mount-hotham-24","properties":{"kind":"pylon","name":"Lift tower","height":13},"geometry":{"type":"Polygon","coordinates":[[[147.14508093909825,-36.9795084],[147.14507369318414,-36.97949442555768],[147.1450562,-36.97948863715415],[147.14503870681585,-36.97949442555768],[147.14503146090175,-36.9795084],[147.14503870681585,-36.97952237444232],[147.1450562,-36.97952816284585],[147.14507369318414,-36.97952237444232],[147.14508093909825,-36.9795084]]]}},{"type":"Feature","id":"pylon-mount-hotham-25","properties":{"kind":"pylon","name":"Lift tower","height":13},"geometry":{"type":"Polygon","coordinates":[[[147.1439390390003,-36.9792071],[147.1439317931149,-36.979193125557686],[147.1439143,-36.97918733715415],[147.14389680688512,-36.979193125557686],[147.14388956099972,-36.9792071],[147.14389680688512,-36.97922107444232],[147.1439143,-36.979226862845856],[147.1439317931149,-36.97922107444232],[147.1439390390003,-36.9792071]]]}},{"type":"Feature","id":"pylon-mount-hotham-26","properties":{"kind":"pylon","name":"Lift tower","height":13},"geometry":{"type":"Polygon","coordinates":[[[147.14345883895908,-36.9790803],[147.14345159308573,-36.97906632555768],[147.1434341,-36.97906053715415],[147.1434166069143,-36.97906632555768],[147.14340936104094,-36.9790803],[147.1434166069143,-36.97909427444232],[147.1434341,-36.97910006284585],[147.14345159308573,-36.97909427444232],[147.14345883895908,-36.9790803]]]}},{"type":"Feature","id":"pylon-mount-hotham-27","properties":{"kind":"pylon","name":"Lift tower","height":13},"geometry":{"type":"Polygon","coordinates":[[[147.14287463890895,-36.9789262],[147.14286739305027,-36.97891222555768],[147.1428499,-36.978906437154144],[147.1428324069497,-36.97891222555768],[147.14282516109103,-36.9789262],[147.1428324069497,-36.978940174442315],[147.1428499,-36.97894596284585],[147.14286739305027,-36.978940174442315],[147.14287463890895,-36.9789262]]]}},{"type":"Feature","id":"pylon-mount-hotham-28","properties":{"kind":"pylon","name":"Lift tower","height":13},"geometry":{"type":"Polygon","coordinates":[[[147.14195743883027,-36.9786841],[147.14195019299464,-36.978670125557684],[147.1419327,-36.97866433715415],[147.14191520700538,-36.978670125557684],[147.14190796116975,-36.9786841],[147.14191520700538,-36.97869807444232],[147.1419327,-36.978703862845855],[147.14195019299464,-36.97869807444232],[147.14195743883027,-36.9786841]]]}},{"type":"Feature","id":"pylon-mount-hotham-29","properties":{"kind":"pylon","name":"Lift tower","height":13},"geometry":{"type":"Polygon","coordinates":[[[147.14037243869424,-36.9782657],[147.14036519289846,-36.97825172555768],[147.1403477,-36.97824593715415],[147.14033020710156,-36.97825172555768],[147.14032296130577,-36.9782657],[147.14033020710156,-36.97827967444232],[147.1403477,-36.978285462845854],[147.14036519289846,-36.97827967444232],[147.14037243869424,-36.9782657]]]}},{"type":"Feature","id":"pylon-mount-hotham-30","properties":{"kind":"pylon","name":"Lift tower","height":13},"geometry":{"type":"Polygon","coordinates":[[[147.1397644386421,-36.9781053],[147.1397571928616,-36.978091325557685],[147.1397397,-36.97808553715415],[147.13972220713842,-36.978091325557685],[147.13971496135792,-36.9781053],[147.13972220713842,-36.97811927444232],[147.1397397,-36.978125062845855],[147.1397571928616,-36.97811927444232],[147.1397644386421,-36.9781053]]]}},{"type":"Feature","id":"pylon-mount-hotham-31","properties":{"kind":"pylon","name":"Lift tower","height":13},"geometry":{"type":"Polygon","coordinates":[[[147.1390107385774,-36.9779064],[147.13900349281585,-36.977892425557684],[147.138986,-36.97788663715415],[147.13896850718413,-36.977892425557684],[147.13896126142257,-36.9779064],[147.13896850718413,-36.97792037444232],[147.138986,-36.977926162845854],[147.13900349281585,-36.97792037444232],[147.1390107385774,-36.9779064]]]}},{"type":"Feature","id":"pylon-mount-hotham-32","properties":{"kind":"pylon","name":"Lift tower","height":13},"geometry":{"type":"Polygon","coordinates":[[[147.14099133941642,-36.9804869],[147.14098409340912,-36.980472925557685],[147.1409666,-36.98046713715415],[147.1409491065909,-36.980472925557685],[147.1409418605836,-36.9804869],[147.1409491065909,-36.98050087444232],[147.1409666,-36.980506662845855],[147.14098409340912,-36.98050087444232],[147.14099133941642,-36.9804869]]]}},{"type":"Feature","id":"pylon-mount-hotham-33","properties":{"kind":"pylon","name":"Lift tower","height":13},"geometry":{"type":"Polygon","coordinates":[[[147.140627839334,-36.9802335],[147.14062059335083,-36.98021952555768],[147.1406031,-36.980213737154145],[147.14058560664915,-36.98021952555768],[147.14057836066598,-36.9802335],[147.14058560664915,-36.980247474442315],[147.1406031,-36.98025326284585],[147.14062059335083,-36.980247474442315],[147.140627839334,-36.9802335]]]}},{"type":"Feature","id":"pylon-mount-hotham-34","properties":{"kind":"pylon","name":"Lift tower","height":13},"geometry":{"type":"Polygon","coordinates":[[[147.1401827392331,-36.9799231],[147.1401754932795,-36.97990912555768],[147.140158,-36.97990333715415],[147.14014050672054,-36.97990912555768],[147.14013326076693,-36.9799231],[147.14014050672054,-36.97993707444232],[147.140158,-36.97994286284585],[147.1401754932795,-36.97993707444232],[147.1401827392331,-36.9799231]]]}},{"type":"Feature","id":"pylon-mount-hotham-35","properties":{"kind":"pylon","name":"Lift tower","height":13},"geometry":{"type":"Polygon","coordinates":[[[147.139807539148,-36.9796614],[147.1398002932193,-36.97964742555768],[147.1397828,-36.979641637154145],[147.1397653067807,-36.97964742555768],[147.13975806085202,-36.9796614],[147.1397653067807,-36.979675374442316],[147.1397828,-36.97968116284585],[147.1398002932193,-36.979675374442316],[147.139807539148,-36.9796614]]]}},{"type":"Feature","id":"pylon-mount-hotham-36","properties":{"kind":"pylon","name":"Lift tower","height":13},"geometry":{"type":"Polygon","coordinates":[[[147.139313439036,-36.9793169],[147.13930619314013,-36.97930292555768],[147.1392887,-36.97929713715415],[147.1392712068599,-36.97930292555768],[147.13926396096403,-36.9793169],[147.1392712068599,-36.97933087444232],[147.1392887,-36.97933666284585],[147.13930619314013,-36.97933087444232],[147.139313439036,-36.9793169]]]}},{"type":"Feature","id":"pylon-mount-hotham-37","properties":{"kind":"pylon","name":"Lift tower","height":13},"geometry":{"type":"Polygon","coordinates":[[[147.1387528389089,-36.978926],[147.13874559305026,-36.97891202555768],[147.1387281,-36.97890623715415],[147.13871060694976,-36.97891202555768],[147.1387033610911,-36.978926],[147.13871060694976,-36.97893997444232],[147.1387281,-36.97894576284585],[147.13874559305026,-36.97893997444232],[147.1387528389089,-36.978926]]]}},{"type":"Feature","id":"pylon-mount-hotham-38","properties":{"kind":"pylon","name":"Lift tower","height":13},"geometry":{"type":"Polygon","coordinates":[[[147.13822283878875,-36.9785564],[147.13821559296528,-36.978542425557684],[147.1381981,-36.97853663715415],[147.13818060703474,-36.978542425557684],[147.13817336121127,-36.9785564],[147.13818060703474,-36.97857037444232],[147.1381981,-36.978576162845854],[147.13821559296528,-36.97857037444232],[147.13822283878875,-36.9785564]]]}},{"type":"Feature","id":"pylon-mount-hotham-39","properties":{"kind":"pylon","name":"Lift tower","height":13},"geometry":{"type":"Polygon","coordinates":[[[147.13755843863814,-36.9780931],[147.13755119285878,-36.978079125557684],[147.1375337,-36.97807333715415],[147.13751620714123,-36.978079125557684],[147.13750896136187,-36.9780931],[147.13751620714123,-36.97810707444232],[147.1375337,-36.978112862845855],[147.13755119285878,-36.97810707444232],[147.13755843863814,-36.9780931]]]}},{"type":"Feature","id":"pylon-mount-hotham-40","properties":{"kind":"pylon","name":"Lift tower","height":13},"geometry":{"type":"Polygon","coordinates":[[[147.1370215385164,-36.9777187],[147.1370142927727,-36.97770472555768],[147.1369968,-36.977698937154145],[147.13697930722728,-36.97770472555768],[147.1369720614836,-36.9777187],[147.13697930722728,-36.977732674442315],[147.1369968,-36.97773846284585],[147.1370142927727,-36.977732674442315],[147.1370215385164,-36.9777187]]]}},{"type":"Feature","id":"pylon-mount-hotham-41","properties":{"kind":"pylon","name":"Lift tower","height":13},"geometry":{"type":"Polygon","coordinates":[[[147.13667233843725,-36.9774752],[147.13666509271673,-36.97746122555768],[147.1366476,-36.97745543715415],[147.13663010728328,-36.97746122555768],[147.13662286156276,-36.9774752],[147.13663010728328,-36.97748917444232],[147.1366476,-36.97749496284585],[147.13666509271673,-36.97748917444232],[147.13667233843725,-36.9774752]]]}},{"type":"Feature","id":"pylon-mount-hotham-42","properties":{"kind":"pylon","name":"Lift tower","height":13},"geometry":{"type":"Polygon","coordinates":[[[147.13313543881796,-36.9786463],[147.13312819298594,-36.97863232555768],[147.1331107,-36.97862653715415],[147.13309320701407,-36.97863232555768],[147.13308596118205,-36.9786463],[147.13309320701407,-36.97866027444232],[147.1331107,-36.97866606284585],[147.13312819298594,-36.97866027444232],[147.13313543881796,-36.9786463]]]}},{"type":"Feature","id":"pylon-mount-hotham-43","properties":{"kind":"pylon","name":"Lift tower","height":13},"geometry":{"type":"Polygon","coordinates":[[[147.13248453851713,-36.977721],[147.13247729277322,-36.977707025557685],[147.1324598,-36.97770123715415],[147.13244230722677,-36.977707025557685],[147.13243506148285,-36.977721],[147.13244230722677,-36.97773497444232],[147.1324598,-36.977740762845855],[147.13247729277322,-36.97773497444232],[147.13248453851713,-36.977721]]]}},{"type":"Feature","id":"pylon-mount-hotham-44","properties":{"kind":"pylon","name":"Lift tower","height":13},"geometry":{"type":"Polygon","coordinates":[[[147.14058693745807,-36.974463],[147.14057969202435,-36.97444902555768],[147.1405622,-36.97444323715415],[147.14054470797566,-36.97444902555768],[147.14053746254194,-36.974463],[147.14054470797566,-36.97447697444232],[147.1405622,-36.97448276284585],[147.14057969202435,-36.97447697444232],[147.14058693745807,-36.974463]]]}},{"type":"Feature","id":"pylon-mount-hotham-45","properties":{"kind":"pylon","name":"Lift tower","height":13},"geometry":{"type":"Polygon","coordinates":[[[147.1413304375329,-36.9746932],[147.14132319207727,-36.97467922555768],[147.1413057,-36.974673437154145],[147.14128820792274,-36.97467922555768],[147.1412809624671,-36.9746932],[147.14128820792274,-36.974707174442315],[147.1413057,-36.97471296284585],[147.14132319207727,-36.974707174442315],[147.1413304375329,-36.9746932]]]}},{"type":"Feature","id":"pylon-mount-hotham-46","properties":{"kind":"pylon","name":"Lift tower","height":13},"geometry":{"type":"Polygon","coordinates":[[[147.1430734377083,-36.9752328],[147.1430661922013,-36.97521882555768],[147.1430487,-36.97521303715415],[147.1430312077987,-36.97521882555768],[147.14302396229172,-36.9752328],[147.1430312077987,-36.97524677444232],[147.1430487,-36.97525256284585],[147.1430661922013,-36.97524677444232],[147.1430734377083,-36.9752328]]]}},{"type":"Feature","id":"pylon-mount-hotham-47","properties":{"kind":"pylon","name":"Lift tower","height":13},"geometry":{"type":"Polygon","coordinates":[[[147.14351383775264,-36.9753692],[147.14350659223265,-36.975355225557685],[147.1434891,-36.97534943715415],[147.14347160776737,-36.975355225557685],[147.14346436224739,-36.9753692],[147.14347160776737,-36.97538317444232],[147.1434891,-36.975388962845855],[147.14350659223265,-36.97538317444232],[147.14351383775264,-36.9753692]]]}},{"type":"Feature","id":"pylon-mount-hotham-48","properties":{"kind":"pylon","name":"Lift tower","height":13},"geometry":{"type":"Polygon","coordinates":[[[147.1429007376909,-36.9751793],[147.142893492189,-36.97516532555768],[147.142876,-36.97515953715415],[147.142858507811,-36.97516532555768],[147.1428512623091,-36.9751793],[147.142858507811,-36.97519327444232],[147.142876,-36.97519906284585],[147.142893492189,-36.97519327444232],[147.1429007376909,-36.9751793]]]}},{"type":"Feature","id":"pylon-mount-hotham-49","properties":{"kind":"pylon","name":"Lift tower","height":13},"geometry":{"type":"Polygon","coordinates":[[[147.14176463757659,-36.9748276],[147.14175739210816,-36.97481362555768],[147.1417399,-36.974807837154145],[147.14172240789185,-36.97481362555768],[147.14171516242342,-36.9748276],[147.14172240789185,-36.974841574442316],[147.1417399,-36.97484736284585],[147.14175739210816,-36.974841574442316],[147.14176463757659,-36.9748276]]]}},{"type":"Feature","id":"pylon-mount-hotham-50","properties":{"kind":"pylon","name":"Lift tower","height":13},"geometry":{"type":"Polygon","coordinates":[[[147.14406653780824,-36.9755403],[147.14405929227195,-36.97552632555768],[147.1440418,-36.975520537154146],[147.14402430772805,-36.97552632555768],[147.14401706219175,-36.9755403],[147.14402430772805,-36.97555427444232],[147.1440418,-36.97556006284585],[147.14405929227195,-36.97555427444232],[147.14406653780824,-36.9755403]]]}},{"type":"Feature","id":"pylon-mount-hotham-51","properties":{"kind":"pylon","name":"Lift tower","height":13},"geometry":{"type":"Polygon","coordinates":[[[147.14461123786305,-36.9757089],[147.14460399231072,-36.97569492555768],[147.1445865,-36.97568913715415],[147.14456900768928,-36.97569492555768],[147.14456176213696,-36.9757089],[147.14456900768928,-36.97572287444232],[147.1445865,-36.97572866284585],[147.14460399231072,-36.97572287444232],[147.14461123786305,-36.9757089]]]}},{"type":"Feature","id":"pylon-mount-hotham-52","properties":{"kind":"pylon","name":"Lift tower","height":13},"geometry":{"type":"Polygon","coordinates":[[[147.14605093800796,-36.9761547],[147.14604369241317,-36.976140725557684],[147.1460262,-36.97613493715415],[147.14600870758682,-36.976140725557684],[147.14600146199203,-36.9761547],[147.14600870758682,-36.97616867444232],[147.1460262,-36.976174462845854],[147.14604369241317,-36.97616867444232],[147.14605093800796,-36.9761547]]]}},{"type":"Feature","id":"pylon-mount-hotham-53","properties":{"kind":"pylon","name":"Lift tower","height":13},"geometry":{"type":"Polygon","coordinates":[[[147.1467706380804,-36.9763775],[147.1467633924644,-36.97636352555768],[147.1467459,-36.976357737154146],[147.14672840753562,-36.97636352555768],[147.14672116191963,-36.9763775],[147.14672840753562,-36.976391474442316],[147.1467459,-36.97639726284585],[147.1467633924644,-36.976391474442316],[147.1467706380804,-36.9763775]]]}},{"type":"Feature","id":"pylon-mount-hotham-54","properties":{"kind":"pylon","name":"Lift tower","height":13},"geometry":{"type":"Polygon","coordinates":[[[147.1475783381617,-36.9766276],[147.1475710925219,-36.97661362555768],[147.1475536,-36.97660783715415],[147.14753610747812,-36.97661362555768],[147.1475288618383,-36.9766276],[147.14753610747812,-36.97664157444232],[147.1475536,-36.97664736284585],[147.1475710925219,-36.97664157444232],[147.1475783381617,-36.9766276]]]}},{"type":"Feature","id":"pylon-mount-hotham-55","properties":{"kind":"pylon","name":"Lift tower","height":13},"geometry":{"type":"Polygon","coordinates":[[[147.14837243824158,-36.9768734],[147.14836519257838,-36.976859425557684],[147.1483477,-36.97685363715415],[147.1483302074216,-36.976859425557684],[147.1483229617584,-36.9768734],[147.1483302074216,-36.97688737444232],[147.1483477,-36.976893162845855],[147.14836519257838,-36.97688737444232],[147.14837243824158,-36.9768734]]]}},{"type":"Feature","id":"pylon-mount-hotham-56","properties":{"kind":"pylon","name":"Lift tower","height":13},"geometry":{"type":"Polygon","coordinates":[[[147.14562203611695,-36.9703367],[147.14561479107604,-36.97032272555768],[147.1455973,-36.970316937154145],[147.14557980892394,-36.97032272555768],[147.14557256388304,-36.9703367],[147.14557980892394,-36.970350674442315],[147.1455973,-36.97035646284585],[147.14561479107604,-36.970350674442315],[147.14562203611695,-36.9703367]]]}},{"type":"Feature","id":"pylon-mount-hotham-57","properties":{"kind":"pylon","name":"Lift tower","height":13},"geometry":{"type":"Polygon","coordinates":[[[147.14565373596798,-36.9698782],[147.1456464909707,-36.96986422555768],[147.145629,-36.969858437154144],[147.14561150902932,-36.96986422555768],[147.14560426403204,-36.9698782],[147.14561150902932,-36.969892174442315],[147.145629,-36.96989796284585],[147.1456464909707,-36.969892174442315],[147.14565373596798,-36.9698782]]]}},{"type":"Feature","id":"pylon-mount-hotham-58","properties":{"kind":"pylon","name":"Lift tower","height":13},"geometry":{"type":"Polygon","coordinates":[[[147.1456993357534,-36.9692179],[147.14569209081895,-36.96920392555768],[147.1456746,-36.969198137154144],[147.14565710918106,-36.96920392555768],[147.14564986424662,-36.9692179],[147.14565710918106,-36.969231874442315],[147.1456746,-36.96923766284585],[147.14569209081895,-36.969231874442315],[147.1456993357534,-36.9692179]]]}},{"type":"Feature","id":"pylon-mount-hotham-59","properties":{"kind":"pylon","name":"Lift tower","height":13},"geometry":{"type":"Polygon","coordinates":[[[147.14572203564677,-36.9688898],[147.14571479074357,-36.96887582555768],[147.1456973,-36.96887003715415],[147.14567980925642,-36.96887582555768],[147.14567256435322,-36.9688898],[147.14567980925642,-36.96890377444232],[147.1456973,-36.96890956284585],[147.14571479074357,-36.96890377444232],[147.14572203564677,-36.9688898]]]}},{"type":"Feature","id":"pylon-mount-hotham-60","properties":{"kind":"pylon","name":"Lift tower","height":13},"geometry":{"type":"Polygon","coordinates":[[[147.1457619354591,-36.9683122],[147.14575469061086,-36.96829822555768],[147.1457372,-36.96829243715415],[147.14571970938917,-36.96829822555768],[147.14571246454094,-36.9683122],[147.14571970938917,-36.96832617444232],[147.1457372,-36.96833196284585],[147.14575469061086,-36.96832617444232],[147.1457619354591,-36.9683122]]]}},{"type":"Feature","id":"pylon-mount-hotham-61","properties":{"kind":"pylon","name":"Lift tower","height":13},"geometry":{"type":"Polygon","coordinates":[[[147.14581893519104,-36.9674873],[147.14581169042134,-36.967473325557684],[147.1457942,-36.96746753715415],[147.14577670957868,-36.967473325557684],[147.14576946480898,-36.9674873],[147.14577670957868,-36.96750127444232],[147.1457942,-36.967507062845854],[147.14581169042134,-36.96750127444232],[147.14581893519104,-36.9674873]]]}},{"type":"Feature","id":"pylon-mount-hotham-62","properties":{"kind":"pylon","name":"Lift tower","height":13},"geometry":{"type":"Polygon","coordinates":[[[147.14593463485735,-36.9664604],[147.14592739018536,-36.966446425557685],[147.1459099,-36.96644063715415],[147.14589240981462,-36.966446425557685],[147.14588516514263,-36.9664604],[147.14589240981462,-36.96647437444232],[147.1459099,-36.966480162845855],[147.14592739018536,-36.96647437444232],[147.14593463485735,-36.9664604]]]}},{"type":"Feature","id":"pylon-mount-hotham-63","properties":{"kind":"pylon","name":"Lift tower","height":13},"geometry":{"type":"Polygon","coordinates":[[[147.14704293467392,-36.9658958],[147.14703569005565,-36.96588182555768],[147.1470182,-36.965876037154146],[147.14700070994434,-36.96588182555768],[147.14699346532606,-36.9658958],[147.14700070994434,-36.965909774442316],[147.1470182,-36.96591556284585],[147.14703569005565,-36.965909774442316],[147.14704293467392,-36.9658958]]]}},{"type":"Feature","id":"pylon-mount-hotham-64","properties":{"kind":"pylon","name":"Lift tower","height":13},"geometry":{"type":"Polygon","coordinates":[[[147.14785703453921,-36.9654812],[147.14784978996042,-36.96546722555768],[147.1478323,-36.96546143715415],[147.1478148100396,-36.96546722555768],[147.1478075654608,-36.9654812],[147.1478148100396,-36.96549517444232],[147.1478323,-36.96550096284585],[147.14784978996042,-36.96549517444232],[147.14785703453921,-36.9654812]]]}},{"type":"Feature","id":"pylon-mount-hotham-65","properties":{"kind":"pylon","name":"Lift tower","height":13},"geometry":{"type":"Polygon","coordinates":[[[147.1485211344293,-36.9651429],[147.14851388988268,-36.96512892555768],[147.1484964,-36.965123137154144],[147.14847891011732,-36.96512892555768],[147.1484716655707,-36.9651429],[147.14847891011732,-36.965156874442314],[147.1484964,-36.96516266284585],[147.14851388988268,-36.965156874442314],[147.1485211344293,-36.9651429]]]}},{"type":"Feature","id":"pylon-mount-hotham-66","properties":{"kind":"pylon","name":"Lift tower","height":13},"geometry":{"type":"Polygon","coordinates":[[[147.14960973424917,-36.9645884],[147.1496024897553,-36.96457442555768],[147.149585,-36.964568637154144],[147.1495675102447,-36.96457442555768],[147.14956026575084,-36.9645884],[147.1495675102447,-36.964602374442315],[147.149585,-36.96460816284585],[147.1496024897553,-36.964602374442315],[147.14960973424917,-36.9645884]]]}},{"type":"Feature","id":"pylon-mount-hotham-67","properties":{"kind":"pylon","name":"Lift tower","height":13},"geometry":{"type":"Polygon","coordinates":[[[147.15036663412388,-36.9642028],[147.15035938966673,-36.964188825557684],[147.1503419,-36.96418303715415],[147.15032441033327,-36.964188825557684],[147.15031716587612,-36.9642028],[147.15032441033327,-36.96421677444232],[147.1503419,-36.964222562845855],[147.15035938966673,-36.96421677444232],[147.15036663412388,-36.9642028]]]}},{"type":"Feature","id":"pylon-mount-hotham-68","properties":{"kind":"pylon","name":"Lift tower","height":13},"geometry":{"type":"Polygon","coordinates":[[[147.15103633401304,-36.9638616],[147.15102908958835,-36.96384762555768],[147.1510116,-36.96384183715415],[147.15099411041166,-36.96384762555768],[147.15098686598697,-36.9638616],[147.15099411041166,-36.96387557444232],[147.1510116,-36.963881362845854],[147.15102908958835,-36.96387557444232],[147.15103633401304,-36.9638616]]]}},{"type":"Feature","id":"pylon-mount-hotham-69","properties":{"kind":"pylon","name":"Lift tower","height":13},"geometry":{"type":"Polygon","coordinates":[[[147.15170983390158,-36.9635185],[147.15170258950954,-36.96350452555768],[147.1516851,-36.96349873715415],[147.15166761049048,-36.96350452555768],[147.15166036609844,-36.9635185],[147.15166761049048,-36.96353247444232],[147.1516851,-36.96353826284585],[147.15170258950954,-36.96353247444232],[147.15170983390158,-36.9635185]]]}},{"type":"Feature","id":"pylon-mount-hotham-70","properties":{"kind":"pylon","name":"Lift tower","height":13},"geometry":{"type":"Polygon","coordinates":[[[147.15250503377,-36.9631135],[147.1524977894165,-36.96309952555768],[147.1524803,-36.963093737154146],[147.15246281058353,-36.96309952555768],[147.15245556623,-36.9631135],[147.15246281058353,-36.96312747444232],[147.1524803,-36.96313326284585],[147.1524977894165,-36.96312747444232],[147.15250503377,-36.9631135]]]}},{"type":"Feature","id":"pylon-mount-hotham-71","properties":{"kind":"pylon","name":"Lift tower","height":13},"geometry":{"type":"Polygon","coordinates":[[[147.15317603365892,-36.9627716],[147.15316878933794,-36.962757625557686],[147.1531513,-36.96275183715415],[147.15313381066204,-36.962757625557686],[147.15312656634106,-36.9627716],[147.15313381066204,-36.96278557444232],[147.1531513,-36.962791362845856],[147.15316878933794,-36.96278557444232],[147.15317603365892,-36.9627716]]]}},{"type":"Feature","id":"pylon-mount-hotham-72","properties":{"kind":"pylon","name":"Lift tower","height":13},"geometry":{"type":"Polygon","coordinates":[[[147.15393043353413,-36.9623874],[147.1539231892497,-36.96237342555768],[147.1539057,-36.962367637154145],[147.1538882107503,-36.96237342555768],[147.15388096646586,-36.9623874],[147.1538882107503,-36.962401374442315],[147.1539057,-36.96240716284585],[147.1539231892497,-36.962401374442315],[147.15393043353413,-36.9623874]]]}},{"type":"Feature","id":"pylon-mount-hotham-73","properties":{"kind":"pylon","name":"Lift tower","height":13},"geometry":{"type":"Polygon","coordinates":[[[147.1481372429681,-36.9914075],[147.14812999592053,-36.99139352555768],[147.1481125,-36.99138773715415],[147.14809500407947,-36.99139352555768],[147.1480877570319,-36.9914075],[147.14809500407947,-36.99142147444232],[147.1481125,-36.99142726284585],[147.14812999592053,-36.99142147444232],[147.1481372429681,-36.9914075]]]}},{"type":"Feature","id":"pylon-mount-hotham-74","properties":{"kind":"pylon","name":"Lift tower","height":13},"geometry":{"type":"Polygon","coordinates":[[[147.15037353953957,-36.9808658],[147.1503662934962,-36.98085182555768],[147.1503488,-36.980846037154144],[147.15033130650377,-36.98085182555768],[147.1503240604604,-36.9808658],[147.15033130650377,-36.980879774442315],[147.1503488,-36.98088556284585],[147.1503662934962,-36.980879774442315],[147.15037353953957,-36.9808658]]]}},{"type":"Feature","id":"pylon-mount-hotham-75","properties":{"kind":"pylon","name":"Lift tower","height":13},"geometry":{"type":"Polygon","coordinates":[[[147.14584243508097,-36.9671485],[147.1458351903435,-36.96713452555768],[147.1458177,-36.96712873715415],[147.14580020965653,-36.96713452555768],[147.14579296491905,-36.9671485],[147.14580020965653,-36.96716247444232],[147.1458177,-36.96716826284585],[147.1458351903435,-36.96716247444232],[147.14584243508097,-36.9671485]]]}},{"type":"Feature","id":"pylon-mount-hotham-76","properties":{"kind":"pylon","name":"Lift tower","height":13},"geometry":{"type":"Polygon","coordinates":[[[147.14306324009328,-36.9825686],[147.1430559938877,-36.98255462555768],[147.1430385,-36.98254883715415],[147.14302100611226,-36.98255462555768],[147.1430137599067,-36.9825686],[147.14302100611226,-36.98258257444232],[147.1430385,-36.98258836284585],[147.1430559938877,-36.98258257444232],[147.14306324009328,-36.9825686]]]}},{"type":"Feature","id":"marker-mount-hotham-summit zone \u00b7 1845 m","properties":{"kind":"marker","name":"Summit zone \u00b7 1845 m","height":26},"geometry":{"type":"Polygon","coordinates":[[[147.12647870754668,-36.972],[147.12646367574283,-36.971963039015755],[147.1264243219695,-36.971940195871234],[147.12637567803048,-36.971940195871234],[147.12633632425715,-36.971963039015755],[147.1263212924533,-36.972],[147.12633632425715,-36.97203696098425],[147.12637567803048,-36.97205980412877],[147.1264243219695,-36.97205980412877],[147.12646367574283,-36.97203696098425],[147.12647870754668,-36.972]]]}},{"type":"Feature","id":"marker-mount-hotham-resort base \u00b7 1450 m","properties":{"kind":"marker","name":"Resort base \u00b7 1450 m","height":18},"geometry":{"type":"Polygon","coordinates":[[[147.13247871375225,-36.978],[147.13246368076327,-36.977963039015755],[147.13242432388714,-36.977940195871234],[147.13237567611284,-36.977940195871234],[147.1323363192367,-36.977963039015755],[147.13232128624773,-36.978],[147.1323363192367,-36.97803696098425],[147.13237567611284,-36.97805980412877],[147.13242432388714,-36.97805980412877],[147.13246368076327,-36.97803696098425],[147.13247871375225,-36.978]]]}}]}