{"type":"FeatureCollection","features":[{"type":"Feature","id":"building-401834396","properties":{"kind":"building","name":"Alpine building","height":7.2},"geometry":{"type":"Polygon","coordinates":[[[-110.8698034,43.5964353],[-110.8697207,43.5963428],[-110.8695443,43.5964255],[-110.8695315,43.5964112],[-110.8694471,43.5964508],[-110.8695083,43.5965193],[-110.8695787,43.5964862],[-110.8695931,43.5965023],[-110.8696705,43.596466],[-110.8696905,43.5964883],[-110.8698034,43.5964353]]]}},{"type":"Feature","id":"building-401834395","properties":{"kind":"building","name":"Corbet's Cabin","height":7.2},"geometry":{"type":"Polygon","coordinates":[[[-110.870895,43.5969779],[-110.870845,43.5968895],[-110.87065,43.5969473],[-110.8706376,43.5969253],[-110.8705589,43.5969487],[-110.8706212,43.5970591],[-110.870895,43.5969779]]]}},{"type":"Feature","id":"building-1483154854","properties":{"kind":"building","name":"Alpine building","height":7.2},"geometry":{"type":"Polygon","coordinates":[[[-110.8609921,43.5949654],[-110.861003,43.5949182],[-110.8609355,43.59491],[-110.8609246,43.5949573],[-110.8609921,43.5949654]]]}},{"type":"Feature","id":"building-1483154853","properties":{"kind":"building","name":"Alpine building","height":7.2},"geometry":{"type":"Polygon","coordinates":[[[-110.8608965,43.5951042],[-110.8609059,43.5950498],[-110.860805,43.5950406],[-110.8607955,43.595095],[-110.8608965,43.5951042]]]}},{"type":"Feature","id":"building-402047216","properties":{"kind":"building","name":"Backcountry Ski Yurt","height":7.2},"geometry":{"type":"Polygon","coordinates":[[[-110.8581285,43.5790509],[-110.8581539,43.5790428],[-110.858164,43.5790242],[-110.8581529,43.5790058],[-110.8581271,43.5789984],[-110.8581017,43.5790065],[-110.8580916,43.5790251],[-110.8581027,43.5790435],[-110.8581285,43.5790509]]]}},{"type":"Feature","id":"building-318672191","properties":{"kind":"building","name":"Alpine building","height":7.2},"geometry":{"type":"Polygon","coordinates":[[[-110.8541852,43.5889301],[-110.8541039,43.5888862],[-110.8541575,43.588834],[-110.8542389,43.5888779],[-110.8541852,43.5889301]]]}},{"type":"Feature","id":"building-1476316506","properties":{"kind":"building","name":"Alpine building","height":7.2},"geometry":{"type":"Polygon","coordinates":[[[-110.8542597,43.5896903],[-110.8543127,43.5896227],[-110.8542089,43.5895801],[-110.854156,43.5896477],[-110.8542597,43.5896903]]]}},{"type":"Feature","id":"building-318672192","properties":{"kind":"building","name":"Alpine building","height":7.2},"geometry":{"type":"Polygon","coordinates":[[[-110.8540423,43.5894484],[-110.8539885,43.5894111],[-110.8539129,43.5894684],[-110.8539667,43.5895057],[-110.8540423,43.5894484]]]}},{"type":"Feature","id":"building-318672193","properties":{"kind":"building","name":"Alpine building","height":7.2},"geometry":{"type":"Polygon","coordinates":[[[-110.8538195,43.5891153],[-110.8537331,43.5890664],[-110.8538001,43.5890043],[-110.8538865,43.5890532],[-110.8538195,43.5891153]]]}},{"type":"Feature","id":"building-1483154851","properties":{"kind":"building","name":"Alpine building","height":7.2},"geometry":{"type":"Polygon","coordinates":[[[-110.8481743,43.59357],[-110.8481802,43.5935391],[-110.8481108,43.5935322],[-110.8481049,43.593563],[-110.8481743,43.59357]]]}},{"type":"Feature","id":"building-1272902962","properties":{"kind":"building","name":"Alpine building","height":7.2},"geometry":{"type":"Polygon","coordinates":[[[-110.8482436,43.5939686],[-110.848232,43.5938986],[-110.8481844,43.5939027],[-110.848196,43.5939727],[-110.8482436,43.5939686]]]}},{"type":"Feature","id":"building-318672163","properties":{"kind":"building","name":"Gondola Summit","height":7.2},"geometry":{"type":"Polygon","coordinates":[[[-110.8543681,43.6016105],[-110.854217,43.6013587],[-110.8539063,43.6014564],[-110.8539339,43.6015024],[-110.8538776,43.6015201],[-110.8540536,43.6018135],[-110.8543031,43.601735],[-110.8542839,43.6017029],[-110.8543761,43.6016739],[-110.8543428,43.6016185],[-110.8543681,43.6016105]]]}},{"type":"Feature","id":"pylon-jackson-hole-0","properties":{"kind":"pylon","name":"Lift tower","height":13},"geometry":{"type":"Polygon","coordinates":[[[-110.83114481503274,43.5883049],[-110.83115280661464,43.588318874442315],[-110.8311721,43.58832466284585],[-110.83119139338537,43.588318874442315],[-110.83119938496726,43.5883049],[-110.83119139338537,43.58829092555768],[-110.8311721,43.588285137154145],[-110.83115280661464,43.58829092555768],[-110.83114481503274,43.5883049]]]}},{"type":"Feature","id":"pylon-jackson-hole-1","properties":{"kind":"pylon","name":"Lift tower","height":13},"geometry":{"type":"Polygon","coordinates":[[[-110.83049551170771,43.5956386],[-110.83050350426348,43.59565257444232],[-110.8305228,43.59565836284585],[-110.83054209573652,43.59565257444232],[-110.83055008829228,43.5956386],[-110.83054209573652,43.59562462555768],[-110.8305228,43.59561883715415],[-110.83050350426348,43.59562462555768],[-110.83049551170771,43.5956386]]]}},{"type":"Feature","id":"pylon-jackson-hole-2","properties":{"kind":"pylon","name":"Lift tower","height":13},"geometry":{"type":"Polygon","coordinates":[[[-110.83004811216593,43.5946281],[-110.83005610458748,43.59464207444232],[-110.8300754,43.594647862845854],[-110.83009469541251,43.59464207444232],[-110.83010268783407,43.5946281],[-110.83009469541251,43.59461412555768],[-110.8300754,43.59460833715415],[-110.83005610458748,43.59461412555768],[-110.83004811216593,43.5946281]]]}},{"type":"Feature","id":"pylon-jackson-hole-3","properties":{"kind":"pylon","name":"Lift tower","height":13},"geometry":{"type":"Polygon","coordinates":[[[-110.85190361291033,43.5929864],[-110.85191160511386,43.59300037444232],[-110.8519309,43.59300616284585],[-110.85195019488614,43.59300037444232],[-110.85195818708966,43.5929864],[-110.85195019488614,43.59297242555768],[-110.8519309,43.59296663715415],[-110.85191160511386,43.59297242555768],[-110.85190361291033,43.5929864]]]}},{"type":"Feature","id":"pylon-jackson-hole-4","properties":{"kind":"pylon","name":"Lift tower","height":13},"geometry":{"type":"Polygon","coordinates":[[[-110.85852631221903,43.594511],[-110.85853430462502,43.594524974442315],[-110.8585536,43.59453076284585],[-110.85857289537496,43.594524974442315],[-110.85858088778096,43.594511],[-110.85857289537496,43.59449702555768],[-110.8585536,43.594491237154145],[-110.85853430462502,43.59449702555768],[-110.85852631221903,43.594511]]]}},{"type":"Feature","id":"pylon-jackson-hole-5","properties":{"kind":"pylon","name":"Lift tower","height":13},"geometry":{"type":"Polygon","coordinates":[[[-110.8633999117185,43.5956148],[-110.86340790427111,43.59562877444232],[-110.8634272,43.59563456284585],[-110.8634464957289,43.59562877444232],[-110.8634544882815,43.5956148],[-110.8634464957289,43.59560082555768],[-110.8634272,43.59559503715415],[-110.86340790427111,43.59560082555768],[-110.8633999117185,43.5956148]]]}},{"type":"Feature","id":"pylon-jackson-hole-6","properties":{"kind":"pylon","name":"Lift tower","height":13},"geometry":{"type":"Polygon","coordinates":[[[-110.86844061120492,43.5967473],[-110.86844860390795,43.596761274442315],[-110.8684679,43.59676706284585],[-110.86848719609205,43.596761274442315],[-110.86849518879508,43.5967473],[-110.86848719609205,43.59673332555768],[-110.8684679,43.596727537154145],[-110.86844860390795,43.59673332555768],[-110.86844061120492,43.5967473]]]}},{"type":"Feature","id":"pylon-jackson-hole-7","properties":{"kind":"pylon","name":"Lift tower","height":13},"geometry":{"type":"Polygon","coordinates":[[[-110.85974751201742,43.5949556],[-110.85975550448248,43.59496957444232],[-110.8597748,43.59497536284585],[-110.85979409551751,43.59496957444232],[-110.85980208798257,43.5949556],[-110.85979409551751,43.59494162555768],[-110.8597748,43.594935837154146],[-110.85975550448248,43.59494162555768],[-110.85974751201742,43.5949556]]]}},{"type":"Feature","id":"pylon-jackson-hole-8","properties":{"kind":"pylon","name":"Lift tower","height":13},"geometry":{"type":"Polygon","coordinates":[[[-110.85903001205656,43.5948693],[-110.85903800451015,43.59488327444232],[-110.8590573,43.59488906284585],[-110.85907659548985,43.59488327444232],[-110.85908458794344,43.5948693],[-110.85907659548985,43.59485532555768],[-110.8590573,43.59484953715415],[-110.85903800451015,43.59485532555768],[-110.85903001205656,43.5948693]]]}},{"type":"Feature","id":"pylon-jackson-hole-9","properties":{"kind":"pylon","name":"Lift tower","height":13},"geometry":{"type":"Polygon","coordinates":[[[-110.85654301218217,43.5945923],[-110.85655100459897,43.59460627444232],[-110.8565703,43.594612062845854],[-110.85658959540103,43.59460627444232],[-110.85659758781783,43.5945923],[-110.85658959540103,43.594578325557684],[-110.8565703,43.59457253715415],[-110.85655100459897,43.594578325557684],[-110.85654301218217,43.5945923]]]}},{"type":"Feature","id":"pylon-jackson-hole-10","properties":{"kind":"pylon","name":"Lift tower","height":13},"geometry":{"type":"Polygon","coordinates":[[[-110.85527711224972,43.5944433],[-110.85528510464674,43.59445727444232],[-110.8553044,43.594463062845854],[-110.85532369535325,43.59445727444232],[-110.85533168775027,43.5944433],[-110.85532369535325,43.594429325557684],[-110.8553044,43.59442353715415],[-110.85528510464674,43.594429325557684],[-110.85527711224972,43.5944433]]]}},{"type":"Feature","id":"pylon-jackson-hole-11","properties":{"kind":"pylon","name":"Lift tower","height":13},"geometry":{"type":"Polygon","coordinates":[[[-110.8540396123153,43.5942987],[-110.85404760469311,43.59431267444232],[-110.8540669,43.594318462845855],[-110.8540861953069,43.59431267444232],[-110.85409418768471,43.5942987],[-110.8540861953069,43.594284725557685],[-110.8540669,43.59427893715415],[-110.85404760469311,43.594284725557685],[-110.8540396123153,43.5942987]]]}},{"type":"Feature","id":"pylon-jackson-hole-12","properties":{"kind":"pylon","name":"Lift tower","height":13},"geometry":{"type":"Polygon","coordinates":[[[-110.85257811238763,43.5941392],[-110.85258610474425,43.59415317444232],[-110.8526054,43.59415896284585],[-110.85262469525576,43.59415317444232],[-110.85263268761237,43.5941392],[-110.85262469525576,43.59412522555768],[-110.8526054,43.59411943715415],[-110.85258610474425,43.59412522555768],[-110.85257811238763,43.5941392]]]}},{"type":"Feature","id":"pylon-jackson-hole-13","properties":{"kind":"pylon","name":"Lift tower","height":13},"geometry":{"type":"Polygon","coordinates":[[[-110.85084651247827,43.5939393],[-110.85085450480834,43.59395327444232],[-110.8508738,43.593959062845855],[-110.85089309519167,43.59395327444232],[-110.85090108752173,43.5939393],[-110.85089309519167,43.593925325557684],[-110.8508738,43.59391953715415],[-110.85085450480834,43.593925325557684],[-110.85084651247827,43.5939393]]]}},{"type":"Feature","id":"pylon-jackson-hole-14","properties":{"kind":"pylon","name":"Lift tower","height":13},"geometry":{"type":"Polygon","coordinates":[[[-110.84933341255554,43.5937689],[-110.84934140486298,43.59378287444232],[-110.8493607,43.59378866284585],[-110.84937999513703,43.59378287444232],[-110.84938798744447,43.5937689],[-110.84937999513703,43.59375492555768],[-110.8493607,43.59374913715415],[-110.84934140486298,43.59375492555768],[-110.84933341255554,43.5937689]]]}},{"type":"Feature","id":"pylon-jackson-hole-15","properties":{"kind":"pylon","name":"Lift tower","height":13},"geometry":{"type":"Polygon","coordinates":[[[-110.8482824126119,43.5936446],[-110.84829040490283,43.593658574442316],[-110.8483097,43.59366436284585],[-110.84832899509718,43.593658574442316],[-110.84833698738811,43.5936446],[-110.84832899509718,43.59363062555768],[-110.8483097,43.593624837154145],[-110.84829040490283,43.59363062555768],[-110.8482824126119,43.5936446]]]}},{"type":"Feature","id":"pylon-jackson-hole-16","properties":{"kind":"pylon","name":"Lift tower","height":13},"geometry":{"type":"Polygon","coordinates":[[[-110.85333550908776,43.6014152],[-110.8533435024109,43.601429174442316],[-110.8533628,43.60143496284585],[-110.8533820975891,43.601429174442316],[-110.85339009091224,43.6014152],[-110.8533820975891,43.60140122555768],[-110.8533628,43.601395437154146],[-110.8533435024109,43.60140122555768],[-110.85333550908776,43.6014152]]]}},{"type":"Feature","id":"pylon-jackson-hole-17","properties":{"kind":"pylon","name":"Lift tower","height":13},"geometry":{"type":"Polygon","coordinates":[[[-110.85327630910146,43.601385],[-110.85328430242058,43.60139897444232],[-110.8533036,43.60140476284585],[-110.85332289757943,43.60139897444232],[-110.85333089089855,43.601385],[-110.85332289757943,43.60137102555768],[-110.8533036,43.60136523715415],[-110.85328430242058,43.60137102555768],[-110.85327630910146,43.601385]]]}},{"type":"Feature","id":"pylon-jackson-hole-18","properties":{"kind":"pylon","name":"Lift tower","height":13},"geometry":{"type":"Polygon","coordinates":[[[-110.85320700911743,43.6013498],[-110.85321500243187,43.60136377444232],[-110.8532343,43.60136956284585],[-110.85325359756813,43.60136377444232],[-110.85326159088257,43.6013498],[-110.85325359756813,43.60133582555768],[-110.8532343,43.60133003715415],[-110.85321500243187,43.60133582555768],[-110.85320700911743,43.6013498]]]}},{"type":"Feature","id":"pylon-jackson-hole-19","properties":{"kind":"pylon","name":"Lift tower","height":13},"geometry":{"type":"Polygon","coordinates":[[[-110.85311910913775,43.601305],[-110.85312710244624,43.60131897444232],[-110.8531464,43.601324762845856],[-110.85316569755376,43.60131897444232],[-110.85317369086225,43.601305],[-110.85316569755376,43.601291025557686],[-110.8531464,43.60128523715415],[-110.85312710244624,43.601291025557686],[-110.85311910913775,43.601305]]]}},{"type":"Feature","id":"pylon-jackson-hole-20","properties":{"kind":"pylon","name":"Lift tower","height":13},"geometry":{"type":"Polygon","coordinates":[[[-110.85266160924336,43.6010722],[-110.85266960252092,43.601086174442315],[-110.8526889,43.60109196284585],[-110.85270819747909,43.601086174442315],[-110.85271619075665,43.6010722],[-110.85270819747909,43.60105822555768],[-110.8526889,43.601052437154145],[-110.85266960252092,43.60105822555768],[-110.85266160924336,43.6010722]]]}},{"type":"Feature","id":"pylon-jackson-hole-21","properties":{"kind":"pylon","name":"Lift tower","height":13},"geometry":{"type":"Polygon","coordinates":[[[-110.85088890965258,43.60017],[-110.85089690281028,43.60018397444232],[-110.8509162,43.60018976284585],[-110.85093549718972,43.60018397444232],[-110.85094349034742,43.60017],[-110.85093549718972,43.60015602555768],[-110.8509162,43.600150237154146],[-110.85089690281028,43.60015602555768],[-110.85088890965258,43.60017]]]}},{"type":"Feature","id":"pylon-jackson-hole-22","properties":{"kind":"pylon","name":"Lift tower","height":13},"geometry":{"type":"Polygon","coordinates":[[[-110.8491625100511,43.5992914],[-110.84917050309207,43.59930537444232],[-110.8491898,43.59931116284585],[-110.84920909690794,43.59930537444232],[-110.84921708994891,43.5992914],[-110.84920909690794,43.59927742555768],[-110.8491898,43.599271637154146],[-110.84917050309207,43.59927742555768],[-110.8491625100511,43.5992914]]]}},{"type":"Feature","id":"pylon-jackson-hole-23","properties":{"kind":"pylon","name":"Lift tower","height":13},"geometry":{"type":"Polygon","coordinates":[[[-110.84845071021542,43.5989291],[-110.84845870320827,43.59894307444232],[-110.848478,43.59894886284585],[-110.84849729679173,43.59894307444232],[-110.84850528978458,43.5989291],[-110.84849729679173,43.59891512555768],[-110.848478,43.59890933715415],[-110.84845870320827,43.59891512555768],[-110.84845071021542,43.5989291]]]}},{"type":"Feature","id":"pylon-jackson-hole-24","properties":{"kind":"pylon","name":"Lift tower","height":13},"geometry":{"type":"Polygon","coordinates":[[[-110.84698181055448,43.5981815],[-110.84698980344801,43.59819547444232],[-110.8470091,43.598201262845855],[-110.84702839655198,43.59819547444232],[-110.8470363894455,43.5981815],[-110.84702839655198,43.598167525557685],[-110.8470091,43.59816173715415],[-110.84698980344801,43.598167525557685],[-110.84698181055448,43.5981815]]]}},{"type":"Feature","id":"pylon-jackson-hole-25","properties":{"kind":"pylon","name":"Lift tower","height":13},"geometry":{"type":"Polygon","coordinates":[[[-110.84585941081353,43.5976103],[-110.84586740363119,43.59762427444232],[-110.8458867,43.59763006284585],[-110.8459059963688,43.59762427444232],[-110.84591398918646,43.5976103],[-110.8459059963688,43.59759632555768],[-110.8458867,43.59759053715415],[-110.84586740363119,43.59759632555768],[-110.84585941081353,43.5976103]]]}},{"type":"Feature","id":"pylon-jackson-hole-26","properties":{"kind":"pylon","name":"Lift tower","height":13},"geometry":{"type":"Polygon","coordinates":[[[-110.84512111098397,43.5972345],[-110.84512910375172,43.59724847444232],[-110.8451484,43.59725426284585],[-110.84516769624828,43.59724847444232],[-110.84517568901603,43.5972345],[-110.84516769624828,43.59722052555768],[-110.8451484,43.59721473715415],[-110.84512910375172,43.59722052555768],[-110.84512111098397,43.5972345]]]}},{"type":"Feature","id":"pylon-jackson-hole-27","properties":{"kind":"pylon","name":"Lift tower","height":13},"geometry":{"type":"Polygon","coordinates":[[[-110.84427731117876,43.596805],[-110.84428530388945,43.59681897444232],[-110.8443046,43.596824762845856],[-110.84432389611055,43.59681897444232],[-110.84433188882124,43.596805],[-110.84432389611055,43.596791025557685],[-110.8443046,43.59678523715415],[-110.84428530388945,43.596791025557685],[-110.84427731117876,43.596805]]]}},{"type":"Feature","id":"pylon-jackson-hole-28","properties":{"kind":"pylon","name":"Lift tower","height":13},"geometry":{"type":"Polygon","coordinates":[[[-110.84277981152437,43.5960429],[-110.84278780413383,43.59605687444232],[-110.8428071,43.59606266284585],[-110.84282639586617,43.59605687444232],[-110.84283438847564,43.5960429],[-110.84282639586617,43.59602892555768],[-110.8428071,43.59602313715415],[-110.84278780413383,43.59602892555768],[-110.84277981152437,43.5960429]]]}},{"type":"Feature","id":"pylon-jackson-hole-29","properties":{"kind":"pylon","name":"Lift tower","height":13},"geometry":{"type":"Polygon","coordinates":[[[-110.84153831181091,43.595411],[-110.84154630433645,43.59542497444232],[-110.8415656,43.59543076284585],[-110.84158489566354,43.59542497444232],[-110.84159288818908,43.595411],[-110.84158489566354,43.59539702555768],[-110.8415656,43.595391237154146],[-110.84154630433645,43.59539702555768],[-110.84153831181091,43.595411]]]}},{"type":"Feature","id":"pylon-jackson-hole-30","properties":{"kind":"pylon","name":"Lift tower","height":13},"geometry":{"type":"Polygon","coordinates":[[[-110.83915931236001,43.5942001],[-110.83916730472473,43.59421407444232],[-110.8391866,43.594219862845854],[-110.83920589527528,43.59421407444232],[-110.83921388764,43.5942001],[-110.83920589527528,43.594186125557684],[-110.8391866,43.59418033715415],[-110.83916730472473,43.594186125557684],[-110.83915931236001,43.5942001]]]}},{"type":"Feature","id":"pylon-jackson-hole-31","properties":{"kind":"pylon","name":"Lift tower","height":13},"geometry":{"type":"Polygon","coordinates":[[[-110.83820351258062,43.5937136],[-110.83821150488072,43.59372757444232],[-110.8382308,43.59373336284585],[-110.83825009511929,43.59372757444232],[-110.83825808741939,43.5937136],[-110.83825009511929,43.59369962555768],[-110.8382308,43.59369383715415],[-110.83821150488072,43.59369962555768],[-110.83820351258062,43.5937136]]]}},{"type":"Feature","id":"pylon-jackson-hole-32","properties":{"kind":"pylon","name":"Lift tower","height":13},"geometry":{"type":"Polygon","coordinates":[[[-110.83647431297972,43.5928334],[-110.83648230516292,43.59284737444232],[-110.8365016,43.592853162845856],[-110.8365208948371,43.59284737444232],[-110.8365288870203,43.5928334],[-110.8365208948371,43.592819425557686],[-110.8365016,43.59281363715415],[-110.83648230516292,43.592819425557686],[-110.83647431297972,43.5928334]]]}},{"type":"Feature","id":"pylon-jackson-hole-33","properties":{"kind":"pylon","name":"Lift tower","height":13},"geometry":{"type":"Polygon","coordinates":[[[-110.83513871328793,43.5921536],[-110.83514670538086,43.59216757444232],[-110.835166,43.592173362845855],[-110.83518529461914,43.59216757444232],[-110.83519328671207,43.5921536],[-110.83518529461914,43.592139625557685],[-110.835166,43.59213383715415],[-110.83514670538086,43.592139625557685],[-110.83513871328793,43.5921536]]]}},{"type":"Feature","id":"pylon-jackson-hole-34","properties":{"kind":"pylon","name":"Lift tower","height":13},"geometry":{"type":"Polygon","coordinates":[[[-110.83488111334742,43.5920224],[-110.83488910542293,43.592036374442316],[-110.8349084,43.59204216284585],[-110.83492769457708,43.592036374442316],[-110.83493568665259,43.5920224],[-110.83492769457708,43.59200842555768],[-110.8349084,43.592002637154145],[-110.83488910542293,43.59200842555768],[-110.83488111334742,43.5920224]]]}},{"type":"Feature","id":"pylon-jackson-hole-35","properties":{"kind":"pylon","name":"Lift tower","height":13},"geometry":{"type":"Polygon","coordinates":[[[-110.83418601350779,43.5916687],[-110.83419400553632,43.59168267444232],[-110.8342133,43.59168846284585],[-110.83423259446369,43.59168267444232],[-110.83424058649221,43.5916687],[-110.83423259446369,43.59165472555768],[-110.8342133,43.59164893715415],[-110.83419400553632,43.59165472555768],[-110.83418601350779,43.5916687]]]}},{"type":"Feature","id":"pylon-jackson-hole-36","properties":{"kind":"pylon","name":"Lift tower","height":13},"geometry":{"type":"Polygon","coordinates":[[[-110.83318711373833,43.5911602],[-110.83319510569935,43.591174174442315],[-110.8332144,43.59117996284585],[-110.83323369430066,43.591174174442315],[-110.83324168626167,43.5911602],[-110.83323369430066,43.59114622555768],[-110.8332144,43.591140437154145],[-110.83319510569935,43.59114622555768],[-110.83318711373833,43.5911602]]]}},{"type":"Feature","id":"pylon-jackson-hole-37","properties":{"kind":"pylon","name":"Lift tower","height":13},"geometry":{"type":"Polygon","coordinates":[[[-110.83192701402912,43.5905188],[-110.83193500590497,43.590532774442316],[-110.8319543,43.59053856284585],[-110.83197359409505,43.590532774442316],[-110.8319815859709,43.5905188],[-110.83197359409505,43.59050482555768],[-110.8319543,43.590499037154146],[-110.83193500590497,43.59050482555768],[-110.83192701402912,43.5905188]]]}},{"type":"Feature","id":"pylon-jackson-hole-38","properties":{"kind":"pylon","name":"Lift tower","height":13},"geometry":{"type":"Polygon","coordinates":[[[-110.83072071430747,43.5899048],[-110.83072870610178,43.58991877444232],[-110.830748,43.58992456284585],[-110.83076729389822,43.58991877444232],[-110.83077528569252,43.5899048],[-110.83076729389822,43.58989082555768],[-110.830748,43.58988503715415],[-110.83072870610178,43.58989082555768],[-110.83072071430747,43.5899048]]]}},{"type":"Feature","id":"pylon-jackson-hole-39","properties":{"kind":"pylon","name":"Lift tower","height":13},"geometry":{"type":"Polygon","coordinates":[[[-110.82963801455735,43.5893536],[-110.82964600627848,43.58936757444232],[-110.8296653,43.589373362845855],[-110.82968459372152,43.58936757444232],[-110.82969258544266,43.5893536],[-110.82968459372152,43.589339625557685],[-110.8296653,43.58933383715415],[-110.82964600627848,43.589339625557685],[-110.82963801455735,43.5893536]]]}},{"type":"Feature","id":"pylon-jackson-hole-40","properties":{"kind":"pylon","name":"Lift tower","height":13},"geometry":{"type":"Polygon","coordinates":[[[-110.83916611130473,43.5965272],[-110.83917410397854,43.596541174442315],[-110.8391934,43.59654696284585],[-110.83921269602146,43.596541174442315],[-110.83922068869526,43.5965272],[-110.83921269602146,43.59651322555768],[-110.8391934,43.596507437154145],[-110.83917410397854,43.59651322555768],[-110.83916611130473,43.5965272]]]}},{"type":"Feature","id":"pylon-jackson-hole-41","properties":{"kind":"pylon","name":"Lift tower","height":13},"geometry":{"type":"Polygon","coordinates":[[[-110.83922811126827,43.5966076],[-110.83923610395274,43.59662157444232],[-110.8392554,43.59662736284585],[-110.83927469604726,43.59662157444232],[-110.83928268873173,43.5966076],[-110.83927469604726,43.59659362555768],[-110.8392554,43.596587837154146],[-110.83923610395274,43.59659362555768],[-110.83922811126827,43.5966076]]]}},{"type":"Feature","id":"pylon-jackson-hole-42","properties":{"kind":"pylon","name":"Lift tower","height":13},"geometry":{"type":"Polygon","coordinates":[[[-110.83991841089866,43.5974226],[-110.8399264036914,43.59743657444232],[-110.8399457,43.597442362845854],[-110.83996499630861,43.59743657444232],[-110.83997298910134,43.5974226],[-110.83996499630861,43.597408625557684],[-110.8399457,43.59740283715415],[-110.8399264036914,43.597408625557684],[-110.83991841089866,43.5974226]]]}},{"type":"Feature","id":"pylon-jackson-hole-43","properties":{"kind":"pylon","name":"Lift tower","height":13},"geometry":{"type":"Polygon","coordinates":[[[-110.8404283106157,43.5980465],[-110.84043630349132,43.59806047444232],[-110.8404556,43.598066262845855],[-110.84047489650868,43.59806047444232],[-110.84048288938429,43.5980465],[-110.84047489650868,43.598032525557684],[-110.8404556,43.59802673715415],[-110.84043630349132,43.598032525557684],[-110.8404283106157,43.5980465]]]}},{"type":"Feature","id":"pylon-jackson-hole-44","properties":{"kind":"pylon","name":"Lift tower","height":13},"geometry":{"type":"Polygon","coordinates":[[[-110.84097181031706,43.598705],[-110.84097980328013,43.59871897444232],[-110.8409991,43.598724762845855],[-110.84101839671987,43.59871897444232],[-110.84102638968295,43.598705],[-110.84101839671987,43.598691025557684],[-110.8409991,43.59868523715415],[-110.84097980328013,43.598691025557684],[-110.84097181031706,43.598705]]]}},{"type":"Feature","id":"pylon-jackson-hole-45","properties":{"kind":"pylon","name":"Lift tower","height":13},"geometry":{"type":"Polygon","coordinates":[[[-110.8415264100154,43.5993701],[-110.84153440306683,43.59938407444232],[-110.8415537,43.599389862845854],[-110.84157299693318,43.59938407444232],[-110.8415809899846,43.5993701],[-110.84157299693318,43.599356125557684],[-110.8415537,43.59935033715415],[-110.84153440306683,43.599356125557684],[-110.8415264100154,43.5993701]]]}},{"type":"Feature","id":"pylon-jackson-hole-46","properties":{"kind":"pylon","name":"Lift tower","height":13},"geometry":{"type":"Polygon","coordinates":[[[-110.8425338094667,43.6005798],[-110.84254180267884,43.600593774442316],[-110.8425611,43.60059956284585],[-110.84258039732116,43.600593774442316],[-110.8425883905333,43.6005798],[-110.84258039732116,43.60056582555768],[-110.8425611,43.600560037154146],[-110.84254180267884,43.60056582555768],[-110.8425338094667,43.6005798]]]}},{"type":"Feature","id":"pylon-jackson-hole-47","properties":{"kind":"pylon","name":"Lift tower","height":13},"geometry":{"type":"Polygon","coordinates":[[[-110.84210940969776,43.6000704],[-110.84211740284222,43.60008437444232],[-110.8421367,43.60009016284585],[-110.84215599715778,43.60008437444232],[-110.84216399030224,43.6000704],[-110.84215599715778,43.60005642555768],[-110.8421367,43.60005063715415],[-110.84211740284222,43.60005642555768],[-110.84210940969776,43.6000704]]]}},{"type":"Feature","id":"pylon-jackson-hole-48","properties":{"kind":"pylon","name":"Lift tower","height":13},"geometry":{"type":"Polygon","coordinates":[[[-110.84336390901365,43.6015786],[-110.84337190235848,43.60159257444232],[-110.8433912,43.601598362845856],[-110.84341049764151,43.60159257444232],[-110.84341849098635,43.6015786],[-110.84341049764151,43.601564625557685],[-110.8433912,43.60155883715415],[-110.84337190235848,43.601564625557685],[-110.84336390901365,43.6015786]]]}},{"type":"Feature","id":"pylon-jackson-hole-49","properties":{"kind":"pylon","name":"Lift tower","height":13},"geometry":{"type":"Polygon","coordinates":[[[-110.84389220872518,43.6022145],[-110.8439002021545,43.60222847444232],[-110.8439195,43.602234262845855],[-110.8439387978455,43.60222847444232],[-110.84394679127482,43.6022145],[-110.8439387978455,43.602200525557684],[-110.8439195,43.60219473715415],[-110.8439002021545,43.602200525557684],[-110.84389220872518,43.6022145]]]}},{"type":"Feature","id":"pylon-jackson-hole-50","properties":{"kind":"pylon","name":"Lift tower","height":13},"geometry":{"type":"Polygon","coordinates":[[[-110.8442960085025,43.6027054],[-110.84430400199705,43.602719374442316],[-110.8443233,43.60272516284585],[-110.84434259800295,43.602719374442316],[-110.8443505914975,43.6027054],[-110.84434259800295,43.60269142555768],[-110.8443233,43.602685637154146],[-110.84430400199705,43.60269142555768],[-110.8442960085025,43.6027054]]]}},{"type":"Feature","id":"pylon-jackson-hole-51","properties":{"kind":"pylon","name":"Lift tower","height":13},"geometry":{"type":"Polygon","coordinates":[[[-110.82808991426997,43.5899875],[-110.82809790607527,43.59000147444232],[-110.8281172,43.59000726284585],[-110.82813649392472,43.59000147444232],[-110.82814448573002,43.5899875],[-110.82813649392472,43.58997352555768],[-110.8281172,43.58996773715415],[-110.82809790607527,43.58997352555768],[-110.82808991426997,43.5899875]]]}},{"type":"Feature","id":"pylon-jackson-hole-52","properties":{"kind":"pylon","name":"Lift tower","height":13},"geometry":{"type":"Polygon","coordinates":[[[-110.82792081444983,43.5895908],[-110.82792880620244,43.58960477444232],[-110.8279481,43.589610562845856],[-110.82796739379756,43.58960477444232],[-110.82797538555018,43.5895908],[-110.82796739379756,43.589576825557685],[-110.8279481,43.58957103715415],[-110.82792880620244,43.589576825557685],[-110.82792081444983,43.5895908]]]}},{"type":"Feature","id":"pylon-jackson-hole-53","properties":{"kind":"pylon","name":"Lift tower","height":13},"geometry":{"type":"Polygon","coordinates":[[[-110.82839321394736,43.5906991],[-110.82840120584714,43.59071307444232],[-110.8284205,43.590718862845854],[-110.82843979415284,43.59071307444232],[-110.82844778605262,43.5906991],[-110.82843979415284,43.590685125557684],[-110.8284205,43.59067933715415],[-110.82840120584714,43.590685125557684],[-110.82839321394736,43.5906991]]]}},{"type":"Feature","id":"pylon-jackson-hole-54","properties":{"kind":"pylon","name":"Lift tower","height":13},"geometry":{"type":"Polygon","coordinates":[[[-110.82887881343089,43.5918383],[-110.82888680548194,43.59185227444232],[-110.8289061,43.59185806284585],[-110.82892539451805,43.59185227444232],[-110.8289333865691,43.5918383],[-110.82892539451805,43.59182432555768],[-110.8289061,43.59181853715415],[-110.82888680548194,43.59182432555768],[-110.82887881343089,43.5918383]]]}},{"type":"Feature","id":"pylon-jackson-hole-55","properties":{"kind":"pylon","name":"Lift tower","height":13},"geometry":{"type":"Polygon","coordinates":[[[-110.82919951308975,43.5925907],[-110.82920750524073,43.59260467444232],[-110.8292268,43.592610462845855],[-110.82924609475927,43.59260467444232],[-110.82925408691025,43.5925907],[-110.82924609475927,43.592576725557684],[-110.8292268,43.59257093715415],[-110.82920750524073,43.592576725557684],[-110.82919951308975,43.5925907]]]}},{"type":"Feature","id":"pylon-jackson-hole-56","properties":{"kind":"pylon","name":"Lift tower","height":13},"geometry":{"type":"Polygon","coordinates":[[[-110.82958601267869,43.5934973],[-110.82959400495007,43.59351127444232],[-110.8296133,43.593517062845855],[-110.82963259504994,43.59351127444232],[-110.82964058732132,43.5934973],[-110.82963259504994,43.593483325557685],[-110.8296133,43.59347753715415],[-110.82959400495007,43.593483325557685],[-110.82958601267869,43.5934973]]]}},{"type":"Feature","id":"pylon-jackson-hole-57","properties":{"kind":"pylon","name":"Lift tower","height":13},"geometry":{"type":"Polygon","coordinates":[[[-110.82786571132297,43.596487],[-110.82787370399143,43.59650097444232],[-110.827893,43.596506762845856],[-110.82791229600858,43.59650097444232],[-110.82792028867703,43.596487],[-110.82791229600858,43.596473025557685],[-110.827893,43.59646723715415],[-110.82787370399143,43.596473025557685],[-110.82786571132297,43.596487]]]}},{"type":"Feature","id":"pylon-jackson-hole-58","properties":{"kind":"pylon","name":"Lift tower","height":13},"geometry":{"type":"Polygon","coordinates":[[[-110.82810061092974,43.5973541],[-110.82810860371336,43.597368074442315],[-110.8281279,43.59737386284585],[-110.82814719628664,43.597368074442315],[-110.82815518907026,43.5973541],[-110.82814719628664,43.59734012555768],[-110.8281279,43.597334337154145],[-110.82810860371336,43.59734012555768],[-110.82810061092974,43.5973541]]]}},{"type":"Feature","id":"pylon-jackson-hole-59","properties":{"kind":"pylon","name":"Lift tower","height":13},"geometry":{"type":"Polygon","coordinates":[[[-110.82835301050704,43.5982861],[-110.82836100341449,43.59830007444232],[-110.8283803,43.598305862845855],[-110.82839959658553,43.59830007444232],[-110.82840758949297,43.5982861],[-110.82839959658553,43.598272125557685],[-110.8283803,43.59826633715415],[-110.82836100341449,43.598272125557685],[-110.82835301050704,43.5982861]]]}},{"type":"Feature","id":"pylon-jackson-hole-60","properties":{"kind":"pylon","name":"Lift tower","height":13},"geometry":{"type":"Polygon","coordinates":[[[-110.82863271003875,43.5993186],[-110.82864070308334,43.599332574442315],[-110.82866,43.59933836284585],[-110.82867929691666,43.599332574442315],[-110.82868728996125,43.5993186],[-110.82867929691666,43.59930462555768],[-110.82866,43.599298837154144],[-110.82864070308334,43.59930462555768],[-110.82863271003875,43.5993186]]]}},{"type":"Feature","id":"pylon-jackson-hole-61","properties":{"kind":"pylon","name":"Lift tower","height":13},"geometry":{"type":"Polygon","coordinates":[[[-110.82886910964274,43.6001917],[-110.82887710280332,43.60020567444232],[-110.8288964,43.600211462845856],[-110.82891569719669,43.60020567444232],[-110.82892369035727,43.6001917],[-110.82891569719669,43.600177725557685],[-110.8288964,43.60017193715415],[-110.82887710280332,43.600177725557685],[-110.82886910964274,43.6001917]]]}},{"type":"Feature","id":"pylon-jackson-hole-62","properties":{"kind":"pylon","name":"Lift tower","height":13},"geometry":{"type":"Polygon","coordinates":[[[-110.82919640909465,43.6014],[-110.82920440241577,43.601413974442316],[-110.8292237,43.60141976284585],[-110.82924299758423,43.601413974442316],[-110.82925099090535,43.6014],[-110.82924299758423,43.60138602555768],[-110.8292237,43.601380237154146],[-110.82920440241577,43.60138602555768],[-110.82919640909465,43.6014]]]}},{"type":"Feature","id":"pylon-jackson-hole-63","properties":{"kind":"pylon","name":"Lift tower","height":13},"geometry":{"type":"Polygon","coordinates":[[[-110.82930660891022,43.6018066],[-110.82931460228534,43.60182057444232],[-110.8293339,43.601826362845856],[-110.82935319771465,43.60182057444232],[-110.82936119108977,43.6018066],[-110.82935319771465,43.601792625557685],[-110.8293339,43.60178683715415],[-110.82931460228534,43.601792625557685],[-110.82930660891022,43.6018066]]]}},{"type":"Feature","id":"pylon-jackson-hole-64","properties":{"kind":"pylon","name":"Lift tower","height":13},"geometry":{"type":"Polygon","coordinates":[[[-110.82959990841884,43.6028898],[-110.82960790193789,43.60290377444232],[-110.8296272,43.60290956284585],[-110.82964649806212,43.60290377444232],[-110.82965449158117,43.6028898],[-110.82964649806212,43.60287582555768],[-110.8296272,43.60287003715415],[-110.82960790193789,43.60287582555768],[-110.82959990841884,43.6028898]]]}},{"type":"Feature","id":"pylon-jackson-hole-65","properties":{"kind":"pylon","name":"Lift tower","height":13},"geometry":{"type":"Polygon","coordinates":[[[-110.82985710798818,43.6038391],[-110.82986510163337,43.60385307444232],[-110.8298844,43.603858862845854],[-110.82990369836662,43.60385307444232],[-110.82991169201182,43.6038391],[-110.82990369836662,43.603825125557684],[-110.8298844,43.60381933715415],[-110.82986510163337,43.603825125557684],[-110.82985710798818,43.6038391]]]}},{"type":"Feature","id":"pylon-jackson-hole-66","properties":{"kind":"pylon","name":"Lift tower","height":13},"geometry":{"type":"Polygon","coordinates":[[[-110.82997700778738,43.6042817],[-110.82998500149138,43.60429567444232],[-110.8300043,43.604301462845854],[-110.83002359850862,43.60429567444232],[-110.83003159221262,43.6042817],[-110.83002359850862,43.60426772555768],[-110.8300043,43.60426193715415],[-110.82998500149138,43.60426772555768],[-110.82997700778738,43.6042817]]]}},{"type":"Feature","id":"pylon-jackson-hole-67","properties":{"kind":"pylon","name":"Lift tower","height":13},"geometry":{"type":"Polygon","coordinates":[[[-110.83017530745515,43.605014],[-110.83018330125647,43.605027974442315],[-110.8302026,43.60503376284585],[-110.83022189874355,43.605027974442315],[-110.83022989254486,43.605014],[-110.83022189874355,43.60500002555768],[-110.8302026,43.604994237154145],[-110.83018330125647,43.60500002555768],[-110.83017530745515,43.605014]]]}},{"type":"Feature","id":"pylon-jackson-hole-68","properties":{"kind":"pylon","name":"Lift tower","height":13},"geometry":{"type":"Polygon","coordinates":[[[-110.83060300673873,43.606593],[-110.83061100074987,43.606606974442315],[-110.8306303,43.60661276284585],[-110.83064959925012,43.606606974442315],[-110.83065759326126,43.606593],[-110.83064959925012,43.60657902555768],[-110.8306303,43.606573237154144],[-110.83061100074987,43.60657902555768],[-110.83060300673873,43.606593]]]}},{"type":"Feature","id":"pylon-jackson-hole-69","properties":{"kind":"pylon","name":"Lift tower","height":13},"geometry":{"type":"Polygon","coordinates":[[[-110.83087890627674,43.6076112],[-110.8308869004232,43.60762517444232],[-110.8309062,43.60763096284585],[-110.83092549957681,43.60762517444232],[-110.83093349372326,43.6076112],[-110.83092549957681,43.60759722555768],[-110.8309062,43.60759143715415],[-110.8308869004232,43.60759722555768],[-110.83087890627674,43.6076112]]]}},{"type":"Feature","id":"pylon-jackson-hole-70","properties":{"kind":"pylon","name":"Lift tower","height":13},"geometry":{"type":"Polygon","coordinates":[[[-110.83111610587932,43.608487],[-110.83112410014218,43.608500974442315],[-110.8311434,43.60850676284585],[-110.83116269985783,43.608500974442315],[-110.83117069412069,43.608487],[-110.83116269985783,43.60847302555768],[-110.8311434,43.608467237154144],[-110.83112410014218,43.60847302555768],[-110.83111610587932,43.608487]]]}},{"type":"Feature","id":"pylon-jackson-hole-71","properties":{"kind":"pylon","name":"Lift tower","height":13},"geometry":{"type":"Polygon","coordinates":[[[-110.83113520584729,43.6085576],[-110.83114320011953,43.608571574442315],[-110.8311625,43.60857736284585],[-110.83118179988048,43.608571574442315],[-110.83118979415272,43.6085576],[-110.83118179988048,43.60854362555768],[-110.8311625,43.608537837154145],[-110.83114320011953,43.60854362555768],[-110.83113520584729,43.6085576]]]}},{"type":"Feature","id":"pylon-jackson-hole-72","properties":{"kind":"pylon","name":"Lift tower","height":13},"geometry":{"type":"Polygon","coordinates":[[[-110.83392210950412,43.6004973],[-110.8339301027053,43.60051127444232],[-110.8339494,43.60051706284585],[-110.8339686972947,43.60051127444232],[-110.83397669049587,43.6004973],[-110.8339686972947,43.60048332555768],[-110.8339494,43.60047753715415],[-110.8339301027053,43.60048332555768],[-110.83392210950412,43.6004973]]]}},{"type":"Feature","id":"pylon-jackson-hole-73","properties":{"kind":"pylon","name":"Lift tower","height":13},"geometry":{"type":"Polygon","coordinates":[[[-110.83420210938831,43.6007526],[-110.83421010262342,43.60076657444232],[-110.8342294,43.60077236284585],[-110.83424869737658,43.60076657444232],[-110.83425669061168,43.6007526],[-110.83424869737658,43.60073862555768],[-110.8342294,43.60073283715415],[-110.83421010262342,43.60073862555768],[-110.83420210938831,43.6007526]]]}},{"type":"Feature","id":"pylon-jackson-hole-74","properties":{"kind":"pylon","name":"Lift tower","height":13},"geometry":{"type":"Polygon","coordinates":[[[-110.83477680915058,43.6012767],[-110.83478480245532,43.60129067444232],[-110.8348041,43.60129646284585],[-110.83482339754468,43.60129067444232],[-110.83483139084942,43.6012767],[-110.83482339754468,43.60126272555768],[-110.8348041,43.60125693715415],[-110.83478480245532,43.60126272555768],[-110.83477680915058,43.6012767]]]}},{"type":"Feature","id":"pylon-jackson-hole-75","properties":{"kind":"pylon","name":"Lift tower","height":13},"geometry":{"type":"Polygon","coordinates":[[[-110.83534820891421,43.6017978],[-110.83535620228817,43.60181177444232],[-110.8353755,43.60181756284585],[-110.83539479771183,43.60181177444232],[-110.83540279108578,43.6017978],[-110.83539479771183,43.60178382555768],[-110.8353755,43.60177803715415],[-110.83535620228817,43.60178382555768],[-110.83534820891421,43.6017978]]]}},{"type":"Feature","id":"pylon-jackson-hole-76","properties":{"kind":"pylon","name":"Lift tower","height":13},"geometry":{"type":"Polygon","coordinates":[[[-110.83593110867305,43.6023294],[-110.83593910211765,43.60234337444232],[-110.8359584,43.602349162845854],[-110.83597769788234,43.60234337444232],[-110.83598569132694,43.6023294],[-110.83597769788234,43.602315425557684],[-110.8359584,43.60230963715415],[-110.83593910211765,43.602315425557684],[-110.83593110867305,43.6023294]]]}},{"type":"Feature","id":"pylon-jackson-hole-77","properties":{"kind":"pylon","name":"Lift tower","height":13},"geometry":{"type":"Polygon","coordinates":[[[-110.83680790831036,43.6031289],[-110.83681590186119,43.60314287444232],[-110.8368352,43.603148662845854],[-110.8368544981388,43.60314287444232],[-110.83686249168963,43.6031289],[-110.8368544981388,43.60311492555768],[-110.8368352,43.60310913715415],[-110.83681590186119,43.60311492555768],[-110.83680790831036,43.6031289]]]}},{"type":"Feature","id":"pylon-jackson-hole-78","properties":{"kind":"pylon","name":"Lift tower","height":13},"geometry":{"type":"Polygon","coordinates":[[[-110.8375576080002,43.6038126],[-110.83756560164187,43.603826574442316],[-110.8375849,43.60383236284585],[-110.83760419835812,43.603826574442316],[-110.8376121919998,43.6038126],[-110.83760419835812,43.60379862555768],[-110.8375849,43.603792837154145],[-110.83756560164187,43.60379862555768],[-110.8375576080002,43.6038126]]]}},{"type":"Feature","id":"pylon-jackson-hole-79","properties":{"kind":"pylon","name":"Lift tower","height":13},"geometry":{"type":"Polygon","coordinates":[[[-110.83830770768985,43.6044967],[-110.83831570142242,43.60451067444232],[-110.838335,43.60451646284585],[-110.83835429857758,43.60451067444232],[-110.83836229231015,43.6044967],[-110.83835429857758,43.60448272555768],[-110.838335,43.604476937154146],[-110.83831570142242,43.60448272555768],[-110.83830770768985,43.6044967]]]}},{"type":"Feature","id":"pylon-jackson-hole-80","properties":{"kind":"pylon","name":"Lift tower","height":13},"geometry":{"type":"Polygon","coordinates":[[[-110.83915740733832,43.6052715],[-110.83916540117386,43.60528547444232],[-110.8391847,43.60529126284585],[-110.83920399882615,43.60528547444232],[-110.83921199266169,43.6052715],[-110.83920399882615,43.60525752555768],[-110.8391847,43.60525173715415],[-110.83916540117386,43.60525752555768],[-110.83915740733832,43.6052715]]]}},{"type":"Feature","id":"pylon-jackson-hole-81","properties":{"kind":"pylon","name":"Lift tower","height":13},"geometry":{"type":"Polygon","coordinates":[[[-110.83988230703842,43.6059325],[-110.83989030096178,43.60594647444232],[-110.8399096,43.605952262845854],[-110.83992889903821,43.60594647444232],[-110.83993689296157,43.6059325],[-110.83992889903821,43.60591852555768],[-110.8399096,43.60591273715415],[-110.83989030096178,43.60591852555768],[-110.83988230703842,43.6059325]]]}},{"type":"Feature","id":"pylon-jackson-hole-82","properties":{"kind":"pylon","name":"Lift tower","height":13},"geometry":{"type":"Polygon","coordinates":[[[-110.84082600664794,43.6067931],[-110.84083400068569,43.606807074442315],[-110.8408533,43.60681286284585],[-110.84087259931432,43.606807074442315],[-110.84088059335207,43.6067931],[-110.84087259931432,43.60677912555768],[-110.8408533,43.606773337154145],[-110.84083400068569,43.60677912555768],[-110.84082600664794,43.6067931]]]}},{"type":"Feature","id":"pylon-jackson-hole-83","properties":{"kind":"pylon","name":"Lift tower","height":13},"geometry":{"type":"Polygon","coordinates":[[[-110.8416820062938,43.6075736],[-110.84169000043526,43.60758757444232],[-110.8417093,43.607593362845854],[-110.84172859956475,43.60758757444232],[-110.84173659370622,43.6075736],[-110.84172859956475,43.607559625557684],[-110.8417093,43.60755383715415],[-110.84169000043526,43.607559625557684],[-110.8416820062938,43.6075736]]]}},{"type":"Feature","id":"pylon-jackson-hole-84","properties":{"kind":"pylon","name":"Lift tower","height":13},"geometry":{"type":"Polygon","coordinates":[[[-110.8419026062025,43.6077748],[-110.8419106003707,43.60778877444232],[-110.8419299,43.607794562845854],[-110.8419491996293,43.60778877444232],[-110.8419571937975,43.6077748],[-110.8419491996293,43.60776082555768],[-110.8419299,43.60775503715415],[-110.8419106003707,43.60776082555768],[-110.8419026062025,43.6077748]]]}},{"type":"Feature","id":"pylon-jackson-hole-85","properties":{"kind":"pylon","name":"Lift tower","height":13},"geometry":{"type":"Polygon","coordinates":[[[-110.84201820615466,43.6078802],[-110.84202620033687,43.607894174442315],[-110.8420455,43.60789996284585],[-110.84206479966312,43.607894174442315],[-110.84207279384533,43.6078802],[-110.84206479966312,43.60786622555768],[-110.8420455,43.607860437154145],[-110.84202620033687,43.60786622555768],[-110.84201820615466,43.6078802]]]}},{"type":"Feature","id":"pylon-jackson-hole-86","properties":{"kind":"pylon","name":"Lift tower","height":13},"geometry":{"type":"Polygon","coordinates":[[[-110.83810561768823,43.582446],[-110.83811360849234,43.582459974442315],[-110.8381329,43.58246576284585],[-110.83815219150767,43.582459974442315],[-110.83816018231178,43.582446],[-110.83815219150767,43.58243202555768],[-110.8381329,43.582426237154145],[-110.83811360849234,43.58243202555768],[-110.83810561768823,43.582446]]]}},{"type":"Feature","id":"pylon-jackson-hole-87","properties":{"kind":"pylon","name":"Lift tower","height":13},"geometry":{"type":"Polygon","coordinates":[[[-110.83911151756563,43.5827165],[-110.83911950840566,43.582730474442315],[-110.8391388,43.58273626284585],[-110.83915809159434,43.582730474442315],[-110.83916608243437,43.5827165],[-110.83915809159434,43.58270252555768],[-110.8391388,43.582696737154144],[-110.83911950840566,43.58270252555768],[-110.83911151756563,43.5827165]]]}},{"type":"Feature","id":"pylon-jackson-hole-88","properties":{"kind":"pylon","name":"Lift tower","height":13},"geometry":{"type":"Polygon","coordinates":[[[-110.84152041727206,43.5833643],[-110.84152840819807,43.58337827444232],[-110.8415477,43.58338406284585],[-110.84156699180194,43.58337827444232],[-110.84157498272795,43.5833643],[-110.84156699180194,43.58335032555768],[-110.8415477,43.58334453715415],[-110.84152840819807,43.58335032555768],[-110.84152041727206,43.5833643]]]}},{"type":"Feature","id":"pylon-jackson-hole-89","properties":{"kind":"pylon","name":"Lift tower","height":13},"geometry":{"type":"Polygon","coordinates":[[[-110.84040501672278,43.5845763],[-110.84041300780967,43.58459027444232],[-110.8404323,43.584596062845854],[-110.84045159219033,43.58459027444232],[-110.84045958327722,43.5845763],[-110.84045159219033,43.584562325557684],[-110.8404323,43.58455653715415],[-110.84041300780967,43.584562325557684],[-110.84040501672278,43.5845763]]]}},{"type":"Feature","id":"pylon-jackson-hole-90","properties":{"kind":"pylon","name":"Lift tower","height":13},"geometry":{"type":"Polygon","coordinates":[[[-110.8403588163079,43.5854917],[-110.8403668075163,43.58550567444232],[-110.8403861,43.58551146284585],[-110.8404053924837,43.58550567444232],[-110.84041338369211,43.5854917],[-110.8404053924837,43.58547772555768],[-110.8403861,43.585471937154146],[-110.8403668075163,43.58547772555768],[-110.8403588163079,43.5854917]]]}},{"type":"Feature","id":"pylon-jackson-hole-91","properties":{"kind":"pylon","name":"Lift tower","height":13},"geometry":{"type":"Polygon","coordinates":[[[-110.84031141588211,43.5864311],[-110.84031940721522,43.58644507444232],[-110.8403387,43.58645086284585],[-110.84035799278479,43.58644507444232],[-110.8403659841179,43.5864311],[-110.84035799278479,43.58641712555768],[-110.8403387,43.586411337154146],[-110.84031940721522,43.58641712555768],[-110.84031141588211,43.5864311]]]}},{"type":"Feature","id":"pylon-jackson-hole-92","properties":{"kind":"pylon","name":"Lift tower","height":13},"geometry":{"type":"Polygon","coordinates":[[[-110.84026341545186,43.5873803],[-110.84027140691099,43.58739427444232],[-110.8402907,43.58740006284585],[-110.84030999308901,43.58739427444232],[-110.84031798454814,43.5873803],[-110.84030999308901,43.58736632555768],[-110.8402907,43.58736053715415],[-110.84027140691099,43.58736632555768],[-110.84026341545186,43.5873803]]]}},{"type":"Feature","id":"pylon-jackson-hole-93","properties":{"kind":"pylon","name":"Lift tower","height":13},"geometry":{"type":"Polygon","coordinates":[[[-110.84020961496891,43.5884457],[-110.8402176065695,43.58845967444232],[-110.8402369,43.58846546284585],[-110.84025619343049,43.58845967444232],[-110.84026418503107,43.5884457],[-110.84025619343049,43.58843172555768],[-110.8402369,43.58842593715415],[-110.8402176065695,43.58843172555768],[-110.84020961496891,43.5884457]]]}},{"type":"Feature","id":"pylon-jackson-hole-94","properties":{"kind":"pylon","name":"Lift tower","height":13},"geometry":{"type":"Polygon","coordinates":[[[-110.87034131101038,43.5971763],[-110.87034930377038,43.59719027444232],[-110.8703686,43.59719606284585],[-110.87038789622963,43.59719027444232],[-110.87039588898963,43.5971763],[-110.87038789622963,43.59716232555768],[-110.8703686,43.59715653715415],[-110.87034930377038,43.59716232555768],[-110.87034131101038,43.5971763]]]}},{"type":"Feature","id":"pylon-jackson-hole-95","properties":{"kind":"pylon","name":"Lift tower","height":13},"geometry":{"type":"Polygon","coordinates":[[[-110.84488870818753,43.6033997],[-110.84489670177432,43.603413674442315],[-110.844916,43.60341946284585],[-110.84493529822568,43.603413674442315],[-110.84494329181247,43.6033997],[-110.84493529822568,43.60338572555768],[-110.844916,43.603379937154145],[-110.84489670177432,43.60338572555768],[-110.84488870818753,43.6033997]]]}},{"type":"Feature","id":"pylon-jackson-hole-96","properties":{"kind":"pylon","name":"Lift tower","height":13},"geometry":{"type":"Polygon","coordinates":[[[-110.84492320816932,43.6034398],[-110.84493120176145,43.603453774442315],[-110.8449505,43.60345956284585],[-110.84496979823854,43.603453774442315],[-110.84497779183067,43.6034398],[-110.84496979823854,43.60342582555768],[-110.8449505,43.603420037154144],[-110.84493120176145,43.60342582555768],[-110.84492320816932,43.6034398]]]}},{"type":"Feature","id":"pylon-jackson-hole-97","properties":{"kind":"pylon","name":"Lift tower","height":13},"geometry":{"type":"Polygon","coordinates":[[[-110.83032391417699,43.5901926],[-110.83033190600952,43.59020657444232],[-110.8303512,43.590212362845854],[-110.83037049399047,43.59020657444232],[-110.830378485823,43.5901926],[-110.83037049399047,43.590178625557684],[-110.8303512,43.59017283715415],[-110.83033190600952,43.590178625557684],[-110.83032391417699,43.5901926]]]}},{"type":"Feature","id":"pylon-jackson-hole-98","properties":{"kind":"pylon","name":"Lift tower","height":13},"geometry":{"type":"Polygon","coordinates":[[[-110.83097541402422,43.5905296],[-110.83098340590149,43.59054357444232],[-110.8310027,43.590549362845856],[-110.8310219940985,43.59054357444232],[-110.83102998597577,43.5905296],[-110.8310219940985,43.590515625557686],[-110.8310027,43.59050983715415],[-110.83098340590149,43.590515625557686],[-110.83097541402422,43.5905296]]]}},{"type":"Feature","id":"pylon-jackson-hole-99","properties":{"kind":"pylon","name":"Lift tower","height":13},"geometry":{"type":"Polygon","coordinates":[[[-110.83181601382701,43.5909646],[-110.83182400576204,43.59097857444232],[-110.8318433,43.59098436284585],[-110.83186259423796,43.59097857444232],[-110.831870586173,43.5909646],[-110.83186259423796,43.59095062555768],[-110.8318433,43.59094483715415],[-110.83182400576204,43.59095062555768],[-110.83181601382701,43.5909646]]]}},{"type":"Feature","id":"pylon-jackson-hole-100","properties":{"kind":"pylon","name":"Lift tower","height":13},"geometry":{"type":"Polygon","coordinates":[[[-110.83269381362113,43.5914187],[-110.83270180561647,43.591432674442316],[-110.8327211,43.59143846284585],[-110.83274039438353,43.591432674442316],[-110.83274838637887,43.5914187],[-110.83274039438353,43.59140472555768],[-110.8327211,43.591398937154146],[-110.83270180561647,43.59140472555768],[-110.83269381362113,43.5914187]]]}},{"type":"Feature","id":"pylon-jackson-hole-101","properties":{"kind":"pylon","name":"Lift tower","height":13},"geometry":{"type":"Polygon","coordinates":[[[-110.83356521341669,43.5918696],[-110.83357320547191,43.59188357444232],[-110.8335925,43.591889362845855],[-110.83361179452808,43.59188357444232],[-110.8336197865833,43.5918696],[-110.83361179452808,43.591855625557685],[-110.8335925,43.59184983715415],[-110.83357320547191,43.591855625557685],[-110.83356521341669,43.5918696]]]}},{"type":"Feature","id":"pylon-jackson-hole-102","properties":{"kind":"pylon","name":"Lift tower","height":13},"geometry":{"type":"Polygon","coordinates":[[[-110.83434891323284,43.5922751],[-110.8343569053419,43.59228907444232],[-110.8343762,43.592294862845854],[-110.83439549465808,43.59228907444232],[-110.83440348676714,43.5922751],[-110.83439549465808,43.592261125557684],[-110.8343762,43.59225533715415],[-110.8343569053419,43.592261125557684],[-110.83434891323284,43.5922751]]]}},{"type":"Feature","id":"pylon-jackson-hole-103","properties":{"kind":"pylon","name":"Lift tower","height":13},"geometry":{"type":"Polygon","coordinates":[[[-110.82848881444573,43.5895998],[-110.82849680619955,43.58961377444232],[-110.8285161,43.589619562845854],[-110.82853539380045,43.58961377444232],[-110.82854338555427,43.5895998],[-110.82853539380045,43.589585825557684],[-110.8285161,43.58958003715415],[-110.82849680619955,43.589585825557684],[-110.82848881444573,43.5895998]]]}},{"type":"Feature","id":"pylon-jackson-hole-104","properties":{"kind":"pylon","name":"Lift tower","height":13},"geometry":{"type":"Polygon","coordinates":[[[-110.8299509139403,43.5907147],[-110.82995890584215,43.59072867444232],[-110.8299782,43.59073446284585],[-110.82999749415785,43.59072867444232],[-110.8300054860597,43.5907147],[-110.82999749415785,43.59070072555768],[-110.8299782,43.59069493715415],[-110.82995890584215,43.59070072555768],[-110.8299509139403,43.5907147]]]}},{"type":"Feature","id":"pylon-jackson-hole-105","properties":{"kind":"pylon","name":"Lift tower","height":13},"geometry":{"type":"Polygon","coordinates":[[[-110.83065581369667,43.5912521],[-110.83066380566987,43.591266074442316],[-110.8306831,43.59127186284585],[-110.83070239433013,43.591266074442316],[-110.83071038630334,43.5912521],[-110.83070239433013,43.59123812555768],[-110.8306831,43.591232337154146],[-110.83066380566987,43.59123812555768],[-110.83065581369667,43.5912521]]]}},{"type":"Feature","id":"pylon-jackson-hole-106","properties":{"kind":"pylon","name":"Lift tower","height":13},"geometry":{"type":"Polygon","coordinates":[[[-110.83122341350044,43.5916849],[-110.83123140553113,43.591698874442315],[-110.8312507,43.59170466284585],[-110.83126999446887,43.591698874442315],[-110.83127798649956,43.5916849],[-110.83126999446887,43.59167092555768],[-110.8312507,43.591665137154145],[-110.83123140553113,43.59167092555768],[-110.83122341350044,43.5916849]]]}},{"type":"Feature","id":"pylon-jackson-hole-107","properties":{"kind":"pylon","name":"Lift tower","height":13},"geometry":{"type":"Polygon","coordinates":[[[-110.83213701318465,43.5923814],[-110.83214500530784,43.59239537444232],[-110.8321643,43.59240116284585],[-110.83218359469217,43.59239537444232],[-110.83219158681536,43.5923814],[-110.83218359469217,43.59236742555768],[-110.8321643,43.59236163715415],[-110.83214500530784,43.59236742555768],[-110.83213701318465,43.5923814]]]}},{"type":"Feature","id":"pylon-jackson-hole-108","properties":{"kind":"pylon","name":"Lift tower","height":13},"geometry":{"type":"Polygon","coordinates":[[[-110.83761751128996,43.5965598],[-110.83762550396808,43.59657377444232],[-110.8376448,43.596579562845854],[-110.83766409603193,43.59657377444232],[-110.83767208871005,43.5965598],[-110.83766409603193,43.59654582555768],[-110.8376448,43.59654003715415],[-110.83762550396808,43.59654582555768],[-110.83761751128996,43.5965598]]]}},{"type":"Feature","id":"pylon-jackson-hole-109","properties":{"kind":"pylon","name":"Lift tower","height":13},"geometry":{"type":"Polygon","coordinates":[[[-110.83627071175559,43.595533],[-110.83627870429733,43.59554697444232],[-110.836298,43.595552762845855],[-110.83631729570267,43.59554697444232],[-110.83632528824441,43.595533],[-110.83631729570267,43.595519025557685],[-110.836298,43.59551323715415],[-110.83627870429733,43.595519025557685],[-110.83627071175559,43.595533]]]}},{"type":"Feature","id":"pylon-jackson-hole-110","properties":{"kind":"pylon","name":"Lift tower","height":13},"geometry":{"type":"Polygon","coordinates":[[[-110.83472791228895,43.5943568],[-110.83473590467447,43.59437077444232],[-110.8347552,43.59437656284585],[-110.83477449532553,43.59437077444232],[-110.83478248771105,43.5943568],[-110.83477449532553,43.59434282555768],[-110.8347552,43.59433703715415],[-110.83473590467447,43.59434282555768],[-110.83472791228895,43.5943568]]]}},{"type":"Feature","id":"pylon-jackson-hole-111","properties":{"kind":"pylon","name":"Lift tower","height":13},"geometry":{"type":"Polygon","coordinates":[[[-110.83442081239515,43.5941226],[-110.83442880474958,43.59413657444232],[-110.8344481,43.59414236284585],[-110.83446739525043,43.59413657444232],[-110.83447538760485,43.5941226],[-110.83446739525043,43.59410862555768],[-110.8344481,43.594102837154146],[-110.83442880474958,43.59410862555768],[-110.83442081239515,43.5941226]]]}},{"type":"Feature","id":"pylon-jackson-hole-112","properties":{"kind":"pylon","name":"Lift tower","height":13},"geometry":{"type":"Polygon","coordinates":[[[-110.83334911276566,43.5933055],[-110.83335710501156,43.59331947444232],[-110.8333764,43.59332526284585],[-110.83339569498845,43.59331947444232],[-110.83340368723435,43.5933055],[-110.83339569498845,43.59329152555768],[-110.8333764,43.59328573715415],[-110.83335710501156,43.59329152555768],[-110.83334911276566,43.5933055]]]}},{"type":"Feature","id":"pylon-jackson-hole-113","properties":{"kind":"pylon","name":"Lift tower","height":13},"geometry":{"type":"Polygon","coordinates":[[[-110.84805051218213,43.5945924],[-110.84805850459894,43.59460637444232],[-110.8480778,43.594612162845856],[-110.84809709540106,43.59460637444232],[-110.84810508781787,43.5945924],[-110.84809709540106,43.594578425557685],[-110.8480778,43.59457263715415],[-110.84805850459894,43.594578425557685],[-110.84805051218213,43.5945924]]]}},{"type":"Feature","id":"pylon-jackson-hole-114","properties":{"kind":"pylon","name":"Lift tower","height":13},"geometry":{"type":"Polygon","coordinates":[[[-110.84852221191899,43.5951727],[-110.84853020441287,43.59518667444232],[-110.8485495,43.59519246284585],[-110.84856879558714,43.59518667444232],[-110.84857678808102,43.5951727],[-110.84856879558714,43.59515872555768],[-110.8485495,43.59515293715415],[-110.84853020441287,43.59515872555768],[-110.84852221191899,43.5951727]]]}},{"type":"Feature","id":"pylon-jackson-hole-115","properties":{"kind":"pylon","name":"Lift tower","height":13},"geometry":{"type":"Polygon","coordinates":[[[-110.84922301152808,43.5960347],[-110.84923100413646,43.596048674442315],[-110.8492503,43.59605446284585],[-110.84926959586353,43.596048674442315],[-110.8492775884719,43.5960347],[-110.84926959586353,43.59602072555768],[-110.8492503,43.596014937154145],[-110.84923100413646,43.59602072555768],[-110.84922301152808,43.5960347]]]}},{"type":"Feature","id":"pylon-jackson-hole-116","properties":{"kind":"pylon","name":"Lift tower","height":13},"geometry":{"type":"Polygon","coordinates":[[[-110.8498150111978,43.596763],[-110.84982300390293,43.59677697444232],[-110.8498423,43.596782762845855],[-110.84986159609709,43.59677697444232],[-110.8498695888022,43.596763],[-110.84986159609709,43.596749025557685],[-110.8498423,43.59674323715415],[-110.84982300390293,43.596749025557685],[-110.8498150111978,43.596763]]]}},{"type":"Feature","id":"pylon-jackson-hole-117","properties":{"kind":"pylon","name":"Lift tower","height":13},"geometry":{"type":"Polygon","coordinates":[[[-110.8504855108238,43.5975877],[-110.85049350363845,43.597601674442316],[-110.8505128,43.59760746284585],[-110.85053209636156,43.597601674442316],[-110.8505400891762,43.5975877],[-110.85053209636156,43.59757372555768],[-110.8505128,43.597567937154146],[-110.85049350363845,43.59757372555768],[-110.8504855108238,43.5975877]]]}},{"type":"Feature","id":"pylon-jackson-hole-118","properties":{"kind":"pylon","name":"Lift tower","height":13},"geometry":{"type":"Polygon","coordinates":[[[-110.85117251044052,43.5984328],[-110.85118050336743,43.598446774442316],[-110.8511998,43.59845256284585],[-110.85121909663258,43.598446774442316],[-110.85122708955949,43.5984328],[-110.85121909663258,43.59841882555768],[-110.8511998,43.598413037154145],[-110.85118050336743,43.59841882555768],[-110.85117251044052,43.5984328]]]}},{"type":"Feature","id":"pylon-jackson-hole-119","properties":{"kind":"pylon","name":"Lift tower","height":13},"geometry":{"type":"Polygon","coordinates":[[[-110.85180511008761,43.5992109],[-110.85181310311789,43.59922487444232],[-110.8518324,43.599230662845855],[-110.85185169688212,43.59922487444232],[-110.8518596899124,43.5992109],[-110.85185169688212,43.599196925557685],[-110.8518324,43.59919113715415],[-110.85181310311789,43.599196925557685],[-110.85180511008761,43.5992109]]]}},{"type":"Feature","id":"pylon-jackson-hole-120","properties":{"kind":"pylon","name":"Lift tower","height":13},"geometry":{"type":"Polygon","coordinates":[[[-110.85241730974606,43.5999639],[-110.85242530287638,43.59997787444232],[-110.8524446,43.59998366284585],[-110.85246389712361,43.59997787444232],[-110.85247189025394,43.5999639],[-110.85246389712361,43.59994992555768],[-110.8524446,43.59994413715415],[-110.85242530287638,43.59994992555768],[-110.85241730974606,43.5999639]]]}},{"type":"Feature","id":"pylon-jackson-hole-121","properties":{"kind":"pylon","name":"Lift tower","height":13},"geometry":{"type":"Polygon","coordinates":[[[-110.8532239092961,43.6009559],[-110.8532319025582,43.60096987444232],[-110.8532512,43.600975662845855],[-110.8532704974418,43.60096987444232],[-110.8532784907039,43.6009559],[-110.8532704974418,43.600941925557684],[-110.8532512,43.60093613715415],[-110.8532319025582,43.600941925557684],[-110.8532239092961,43.6009559]]]}},{"type":"Feature","id":"pylon-jackson-hole-122","properties":{"kind":"pylon","name":"Lift tower","height":13},"geometry":{"type":"Polygon","coordinates":[[[-110.84031601741884,43.5830404],[-110.84032400830186,43.58305437444232],[-110.8403433,43.583060162845854],[-110.84036259169814,43.58305437444232],[-110.84037058258116,43.5830404],[-110.84036259169814,43.583026425557684],[-110.8403433,43.58302063715415],[-110.84032400830186,43.583026425557684],[-110.84031601741884,43.5830404]]]}},{"type":"Feature","id":"pylon-jackson-hole-123","properties":{"kind":"pylon","name":"Lift tower","height":13},"geometry":{"type":"Polygon","coordinates":[[[-110.84980031253082,43.5938234],[-110.8498083048455,43.593837374442316],[-110.8498276,43.59384316284585],[-110.8498468951545,43.593837374442316],[-110.84985488746918,43.5938234],[-110.8498468951545,43.59380942555768],[-110.8498276,43.593803637154146],[-110.8498083048455,43.59380942555768],[-110.84980031253082,43.5938234]]]}},{"type":"Feature","id":"pylon-jackson-hole-124","properties":{"kind":"pylon","name":"Lift tower","height":13},"geometry":{"type":"Polygon","coordinates":[[[-110.85208211241365,43.5940818],[-110.85209010476265,43.594095774442316],[-110.8521094,43.59410156284585],[-110.85212869523735,43.594095774442316],[-110.85213668758635,43.5940818],[-110.85212869523735,43.59406782555768],[-110.8521094,43.594062037154146],[-110.85209010476265,43.59406782555768],[-110.85208211241365,43.5940818]]]}},{"type":"Feature","id":"pylon-jackson-hole-125","properties":{"kind":"pylon","name":"Lift tower","height":13},"geometry":{"type":"Polygon","coordinates":[[[-110.86012591199857,43.5949972],[-110.86013390446914,43.59501117444232],[-110.8601532,43.595016962845854],[-110.86017249553086,43.59501117444232],[-110.86018048800143,43.5949972],[-110.86017249553086,43.594983225557684],[-110.8601532,43.59497743715415],[-110.86013390446914,43.594983225557684],[-110.86012591199857,43.5949972]]]}},{"type":"Feature","id":"marker-jackson-hole-summit","properties":{"kind":"marker","markerType":"summit","name":"Upper mountain · 3185 m","height":26},"geometry":{"type":"Polygon","coordinates":[[[-110.8769131803076,43.591],[-110.8769297613934,43.59103696098425],[-110.87697317123961,43.59105980412877],[-110.8770268287604,43.59105980412877],[-110.87707023860662,43.59103696098425],[-110.87708681969242,43.591],[-110.87707023860662,43.590963039015755],[-110.8770268287604,43.590940195871234],[-110.87697317123961,43.590940195871234],[-110.8769297613934,43.590963039015755],[-110.8769131803076,43.591]]]}},{"type":"Feature","id":"marker-jackson-hole-base","properties":{"kind":"marker","markerType":"base","name":"Base · 1924 m","height":18},"geometry":{"type":"Polygon","coordinates":[[[-110.87291318607714,43.587],[-110.87292976606106,43.58703696098425],[-110.87297317302249,43.58705980412877],[-110.87302682697752,43.58705980412877],[-110.87307023393895,43.58703696098425],[-110.87308681392287,43.587],[-110.87307023393895,43.58696303901576],[-110.87302682697752,43.586940195871236],[-110.87297317302249,43.586940195871236],[-110.87292976606106,43.58696303901576],[-110.87291318607714,43.587]]]}}]}