{"type":"FeatureCollection","features":[{"type":"Feature","id":104577172,"properties":{"kind":"run","name":"24","subtype":"advanced","pisteType":"nordic","featured":false},"geometry":{"type":"LineString","coordinates":[[-70.9131213,47.1100173],[-70.9130891,47.1098712],[-70.9127565,47.109371],[-70.9124722,47.1090041],[-70.9123729,47.1088745],[-70.9123649,47.1087942],[-70.912389,47.1087029],[-70.9124588,47.1085514],[-70.9125392,47.1084765],[-70.912794,47.108336],[-70.9131856,47.1082264],[-70.9133707,47.1081589],[-70.9134619,47.1080804],[-70.9135021,47.1079289],[-70.9135585,47.1076696],[-70.9136014,47.1075911],[-70.9136845,47.1075272],[-70.9138937,47.1074487],[-70.9140064,47.107425]]}},{"type":"Feature","id":198869894,"properties":{"kind":"lift","name":"L'Étoile Fillante","subtype":"gondola","status":"active"},"geometry":{"type":"LineString","coordinates":[[-70.9084867,47.0743821],[-70.9088447,47.0745769],[-70.9092694,47.074808],[-70.9098292,47.0751126],[-70.9104063,47.0754267],[-70.9113226,47.0759252],[-70.9122314,47.0764197],[-70.9139644,47.0773627],[-70.9151372,47.0780008],[-70.9165766,47.078784],[-70.9177905,47.0794445],[-70.9189649,47.0800835],[-70.9191149,47.0801651],[-70.9203021,47.080811],[-70.9207733,47.0810674],[-70.9213203,47.081365],[-70.9222696,47.0818815],[-70.9225469,47.0820323],[-70.9238372,47.0827344],[-70.9248862,47.0833051],[-70.9249918,47.0833625],[-70.9261646,47.0840006],[-70.9271491,47.0845362],[-70.9282295,47.085124],[-70.9290911,47.0855927],[-70.9301014,47.0861424],[-70.9313126,47.0868013],[-70.9317575,47.0870433]]}},{"type":"Feature","id":200084002,"properties":{"kind":"lift","name":"La Montée Magique","subtype":"magic_carpet","status":"active"},"geometry":{"type":"LineString","coordinates":[[-70.9071459,47.0756862],[-70.9075106,47.0758689]]}},{"type":"Feature","id":200084004,"properties":{"kind":"lift","name":"Le Mille-Pattes","subtype":"magic_carpet","status":"active"},"geometry":{"type":"LineString","coordinates":[[-70.9071351,47.0756241],[-70.9090771,47.0765667]]}},{"type":"Feature","id":200084006,"properties":{"kind":"lift","name":"L'Express du Sud","subtype":"chair_lift","status":"active"},"geometry":{"type":"LineString","coordinates":[[-70.9068884,47.0769758],[-70.9074259,47.0775793],[-70.9077857,47.0779831],[-70.9082163,47.0784666],[-70.9086572,47.0789616],[-70.9091174,47.0794782],[-70.9092947,47.0796772],[-70.9098954,47.0803515],[-70.9101032,47.0805848],[-70.910473,47.081],[-70.9111191,47.0817252],[-70.9115711,47.0822327],[-70.9119142,47.0826178],[-70.9124026,47.0831661],[-70.9127337,47.0835378],[-70.913124,47.0839759],[-70.9136216,47.0845345],[-70.9142754,47.0852683],[-70.9146997,47.0857446],[-70.9153641,47.0864904],[-70.9155566,47.0867065],[-70.916263,47.0874994],[-70.9169237,47.0882409],[-70.9171866,47.088536],[-70.917783,47.0892055],[-70.9183909,47.0898877],[-70.9190872,47.0906693],[-70.9196599,47.0913121],[-70.9197919,47.0914603],[-70.9199239,47.0916084]]}},{"type":"Feature","id":200084331,"properties":{"kind":"lift","name":"L'Échappée","subtype":"t-bar","status":"active"},"geometry":{"type":"LineString","coordinates":[[-70.9406091,47.0981347],[-70.936508,47.0928668],[-70.9324552,47.0876605]]}},{"type":"Feature","id":200084332,"properties":{"kind":"lift","name":"L'Express du Nord","subtype":"chair_lift","status":"active"},"geometry":{"type":"LineString","coordinates":[[-70.9402658,47.0983173],[-70.9400983,47.0981016],[-70.9397722,47.0976819],[-70.9392786,47.0970464],[-70.938796,47.096425],[-70.9381896,47.0956443],[-70.9379124,47.0952875],[-70.9374059,47.0946354],[-70.9368501,47.0939198],[-70.9363739,47.0933067],[-70.9359999,47.0928253],[-70.9357493,47.0925026],[-70.9352737,47.0918901],[-70.9348007,47.0912812],[-70.9342813,47.0906124],[-70.9339189,47.0901458],[-70.9334282,47.0895139],[-70.9328131,47.0887219],[-70.9325551,47.0883897],[-70.9324076,47.0881998],[-70.9322299,47.087971]]}},{"type":"Feature","id":200084333,"properties":{"kind":"lift","name":"La Tortue","subtype":"chair_lift","status":"active"},"geometry":{"type":"LineString","coordinates":[[-70.9205569,47.0901915],[-70.9211647,47.0900487],[-70.9218007,47.089903],[-70.9224987,47.0897326],[-70.9233766,47.0895289],[-70.924296,47.0893049],[-70.9251806,47.0890984],[-70.9258202,47.0889476],[-70.9267853,47.0887164],[-70.9277184,47.0884949],[-70.9278669,47.0884578],[-70.9286449,47.088269],[-70.9295975,47.0880445],[-70.9301611,47.0879103],[-70.9312777,47.0876442],[-70.9315513,47.0875674]]}},{"type":"Feature","id":200084334,"properties":{"kind":"lift","name":"La Corde Raide","subtype":"t-bar","status":"active"},"geometry":{"type":"LineString","coordinates":[[-70.9459893,47.0848151],[-70.9423209,47.0847689],[-70.9323586,47.0846435]]}},{"type":"Feature","id":200085521,"properties":{"kind":"run","name":"La Crête","subtype":"advanced","pisteType":"downhill","featured":true},"geometry":{"type":"LineString","coordinates":[[-70.9342694,47.0813312],[-70.9344548,47.0809259],[-70.9344362,47.0807989],[-70.9343579,47.0806136],[-70.9342207,47.0804012],[-70.9341295,47.0801884],[-70.9340675,47.0799907],[-70.933968,47.0796799],[-70.9337082,47.0791648],[-70.9334882,47.0787783],[-70.9333949,47.0786048],[-70.9332863,47.0782565],[-70.933104,47.0779756],[-70.9326941,47.0774313],[-70.9321835,47.0770225],[-70.9319013,47.0767711],[-70.9317689,47.0766827],[-70.9316838,47.0766259],[-70.9314357,47.0764898],[-70.9312674,47.0764357],[-70.9309738,47.0764169],[-70.9303309,47.0764059],[-70.9301251,47.0763839],[-70.929922,47.0763434],[-70.9297158,47.0762717],[-70.9294722,47.076131],[-70.9291007,47.0759303],[-70.9289039,47.0758579],[-70.9287609,47.0758311],[-70.9285596,47.0758008],[-70.9283465,47.0758141],[-70.9281594,47.0758501],[-70.9279074,47.0759491],[-70.9277001,47.0760516],[-70.9275644,47.0761385],[-70.9273254,47.0763147],[-70.9271815,47.0764802],[-70.9270572,47.0765974],[-70.926844,47.0767274],[-70.9264795,47.0769428],[-70.926054,47.0771556],[-70.9256717,47.0773303],[-70.9253445,47.0774171],[-70.9250308,47.0774727],[-70.9245802,47.0775384],[-70.9242262,47.0775604],[-70.9239369,47.0775601],[-70.9235824,47.0775092],[-70.9233172,47.0774381],[-70.923058,47.0773513],[-70.9227285,47.0772524],[-70.9224237,47.0771877],[-70.9219527,47.0770505],[-70.9214259,47.0768955],[-70.9210178,47.0768403],[-70.9206654,47.0767831],[-70.9202285,47.0766939],[-70.9198841,47.0765894],[-70.9193982,47.0763767],[-70.9192158,47.0762671],[-70.9187762,47.0760388],[-70.9186403,47.0759715],[-70.918552,47.0759277],[-70.918238,47.0758059]]}},{"type":"Feature","id":200085522,"properties":{"kind":"run","name":"Les Sept-Chutes","subtype":"expert","pisteType":"downhill","featured":false},"geometry":{"type":"LineString","coordinates":[[-70.9318902,47.0861809],[-70.9304977,47.0852634],[-70.9277796,47.0834929],[-70.9252476,47.0818345],[-70.9233035,47.0805778],[-70.921666,47.0794747],[-70.9212865,47.0792993]]}},{"type":"Feature","id":200085523,"properties":{"kind":"run","name":"Munster","subtype":"advanced","pisteType":"downhill","featured":false},"geometry":{"type":"LineString","coordinates":[[-70.933104,47.0779756],[-70.9323801,47.0779184],[-70.9318436,47.0778672],[-70.9312965,47.0778453],[-70.9308566,47.0778965],[-70.9303631,47.0779841],[-70.9297086,47.0780864],[-70.9291078,47.0781157],[-70.9284644,47.0781021],[-70.9282066,47.0780645],[-70.927595,47.0779403],[-70.9269191,47.0780134],[-70.92654,47.0780749],[-70.9258033,47.078028],[-70.9253527,47.0779257],[-70.9251596,47.0778745],[-70.9246768,47.0777942],[-70.9243978,47.0776919],[-70.9239369,47.0775601]]}},{"type":"Feature","id":200085525,"properties":{"kind":"run","name":"La Beauregard","subtype":"advanced","pisteType":"downhill","featured":false},"geometry":{"type":"LineString","coordinates":[[-70.9277001,47.0760516],[-70.9267582,47.0759091],[-70.9258999,47.075763],[-70.9254278,47.0756899],[-70.9250308,47.075668],[-70.9245159,47.0757264],[-70.9240867,47.0759164],[-70.9238507,47.0759968],[-70.923561,47.0760406],[-70.9230889,47.0760187],[-70.9225525,47.0759602],[-70.9220804,47.0759602],[-70.92178,47.0760187],[-70.9214045,47.0759968],[-70.9211255,47.075931],[-70.9203316,47.0757556],[-70.9197093,47.0755949],[-70.9194304,47.075573],[-70.9191622,47.075573],[-70.9189583,47.0756022],[-70.9187974,47.0756534],[-70.9186257,47.0757118],[-70.918238,47.0758059]]}},{"type":"Feature","id":200085527,"properties":{"kind":"run","name":"La «S»","subtype":"expert","pisteType":"downhill","featured":false},"geometry":{"type":"LineString","coordinates":[[-70.9320548,47.0857628],[-70.9318544,47.085648],[-70.9316613,47.0854799],[-70.9315111,47.0852389],[-70.9309746,47.0841577],[-70.9307493,47.0837193],[-70.9305133,47.0834636],[-70.9303953,47.0832664],[-70.9302987,47.0830983],[-70.9302021,47.0830545],[-70.9300519,47.0830253],[-70.9298481,47.0829595],[-70.9296657,47.0828646],[-70.9295262,47.0827111],[-70.929258,47.0825139],[-70.928979,47.0824043],[-70.9287859,47.0822874],[-70.9286465,47.0821121],[-70.9283782,47.0819002],[-70.9278632,47.0815422],[-70.9275843,47.0813742],[-70.9269835,47.0810527],[-70.92649,47.0808189],[-70.9260072,47.0806144],[-70.9253956,47.0803952],[-70.9250845,47.0802637],[-70.9247841,47.080081],[-70.9244622,47.0798545],[-70.9242584,47.0797522],[-70.9237112,47.0795038],[-70.9231855,47.0792262],[-70.9227885,47.0790582],[-70.922413,47.0789047],[-70.9221984,47.0787659],[-70.9218766,47.078554],[-70.9215761,47.0783568],[-70.9210397,47.0780499],[-70.9208251,47.0779549],[-70.9205676,47.0778892],[-70.9202243,47.0778599],[-70.9198059,47.0777796],[-70.9194304,47.0776188],[-70.9181544,47.0770182]]}},{"type":"Feature","id":200085528,"properties":{"kind":"run","name":"Le Canyon","subtype":"expert","pisteType":"downhill","featured":false},"geometry":{"type":"LineString","coordinates":[[-70.9318758,47.0862178],[-70.9310068,47.0857283],[-70.9290756,47.0846983],[-70.9282495,47.0842965],[-70.9278418,47.0840846],[-70.9272088,47.0837485],[-70.9267045,47.0835075],[-70.9262754,47.083281],[-70.9256746,47.082923],[-70.9253527,47.0827184],[-70.9250416,47.0826016],[-70.9248592,47.0825212],[-70.9244837,47.0823093],[-70.9240652,47.0820025],[-70.9238507,47.0818125],[-70.9236468,47.0815349],[-70.9234001,47.0813888],[-70.9231747,47.08125],[-70.9229387,47.0810673],[-70.9225525,47.0806582],[-70.9222365,47.0803773],[-70.9218658,47.079986],[-70.921501,47.0795696],[-70.9213401,47.0793869],[-70.9212865,47.0792993],[-70.9211363,47.0791897],[-70.9205676,47.0788536]]}},{"type":"Feature","id":200085529,"properties":{"kind":"run","name":"La Super «S»","subtype":"expert","pisteType":"downhill","featured":false},"geometry":{"type":"LineString","coordinates":[[-70.9305133,47.0835586],[-70.9301378,47.0834563],[-70.9298481,47.083376],[-70.9295262,47.0832298],[-70.92914,47.0829084],[-70.9289039,47.0828207],[-70.9285284,47.0826673],[-70.9282388,47.0825066],[-70.9280671,47.0823166],[-70.9278847,47.0821121],[-70.927713,47.0820025],[-70.9273912,47.0818198],[-70.9268977,47.0815641],[-70.9259964,47.0811039],[-70.9256746,47.080987],[-70.9250738,47.0807605],[-70.9246124,47.0805705],[-70.9242584,47.0803513],[-70.923797,47.0800445],[-70.9231855,47.0796719],[-70.9226061,47.0792993],[-70.9223915,47.0790582],[-70.9223594,47.0789559]]}},{"type":"Feature","id":200085530,"properties":{"kind":"run","name":"La Saint-Laurent","subtype":"expert","pisteType":"downhill","featured":false},"geometry":{"type":"LineString","coordinates":[[-70.9336139,47.0823824],[-70.9332228,47.0822553],[-70.9323801,47.0819367],[-70.9301807,47.0811331],[-70.9281207,47.0803879],[-70.9271301,47.0800245],[-70.9249343,47.0792189],[-70.922928,47.0784883],[-70.9210675,47.0777455],[-70.9201798,47.0774357],[-70.9184522,47.0768041],[-70.9174191,47.0765528]]}},{"type":"Feature","id":200085531,"properties":{"kind":"run","name":"Triumph","subtype":"expert","pisteType":"downhill","featured":false},"geometry":{"type":"LineString","coordinates":[[-70.9337082,47.0791648],[-70.9332104,47.0791111],[-70.932948,47.0790997],[-70.9326403,47.0791496],[-70.9322192,47.0790728],[-70.9318866,47.0789559],[-70.9313501,47.0788536],[-70.931039,47.0787367],[-70.9306527,47.0787148],[-70.9302772,47.0787221],[-70.9297408,47.0786636],[-70.9293438,47.0785467],[-70.9290541,47.0784006],[-70.9288288,47.0782691],[-70.9284644,47.0781021]]}},{"type":"Feature","id":200085532,"properties":{"kind":"run","name":"La Brunelle","subtype":"expert","pisteType":"downhill","featured":false},"geometry":{"type":"LineString","coordinates":[[-70.9337621,47.0820201],[-70.9331526,47.0817614],[-70.9325732,47.0814692],[-70.9322835,47.0813011],[-70.9318651,47.0811988],[-70.9314359,47.08106],[-70.9308888,47.0807751],[-70.9305347,47.0806582],[-70.9300519,47.0805267],[-70.9296764,47.0804463],[-70.929376,47.0804317],[-70.9292687,47.0804025],[-70.9291293,47.0803221],[-70.9285392,47.0801176],[-70.9280027,47.0799714],[-70.9276916,47.0798399],[-70.9274556,47.0796938],[-70.9270908,47.079555],[-70.9267474,47.0794016],[-70.9264685,47.0792993],[-70.926093,47.0792262],[-70.9256746,47.0791093],[-70.9253742,47.0789705],[-70.9250094,47.0788974],[-70.9244837,47.0787294],[-70.9243442,47.078649],[-70.9240331,47.0783787],[-70.9239365,47.0782399],[-70.9237495,47.0780327]]}},{"type":"Feature","id":200085533,"properties":{"kind":"run","name":"L'Espoir","subtype":"advanced","pisteType":"downhill","featured":false},"geometry":{"type":"LineString","coordinates":[[-70.9342694,47.0813312],[-70.9337426,47.0809943],[-70.9337223,47.080977],[-70.9331633,47.0806509],[-70.9327341,47.0804098],[-70.9324874,47.0803002],[-70.9322192,47.0802418],[-70.9318651,47.0802125],[-70.9311999,47.0802052],[-70.9306527,47.0801541],[-70.9299983,47.0800372],[-70.9294189,47.0799276],[-70.9291722,47.0798399],[-70.9287967,47.0797011],[-70.9284426,47.0795331],[-70.9281315,47.079365],[-70.9278632,47.0791458],[-70.9276058,47.078934],[-70.9273268,47.0788244],[-70.9268118,47.0786709],[-70.9264041,47.0785833],[-70.9260823,47.0784517],[-70.9256746,47.0782837],[-70.9252347,47.0782106],[-70.9249557,47.0781741],[-70.9244622,47.0781668],[-70.9241725,47.0781449],[-70.9237495,47.0780327],[-70.923046,47.0778745],[-70.9228207,47.0778453],[-70.9223486,47.0778453],[-70.9219635,47.0778263],[-70.921434,47.077792],[-70.9210675,47.0777455]]}},{"type":"Feature","id":200085534,"properties":{"kind":"run","name":"La Crête","subtype":"intermediate","pisteType":"downhill","featured":true},"geometry":{"type":"LineString","coordinates":[[-70.918238,47.0758059],[-70.9179927,47.0757776],[-70.9176601,47.075763],[-70.9170164,47.0757556],[-70.9166945,47.0757118],[-70.9162184,47.0756089],[-70.9161409,47.0755277],[-70.9160461,47.0754602],[-70.9158174,47.0754092],[-70.9156694,47.0753652],[-70.9154842,47.0753222],[-70.9152324,47.0752353],[-70.9150092,47.0751175],[-70.9148252,47.0749662],[-70.914632,47.074828],[-70.9143556,47.0746085],[-70.9141733,47.0744916],[-70.9138407,47.0743089],[-70.9135617,47.0741701],[-70.9133579,47.074097],[-70.9131647,47.0740459],[-70.9129601,47.0740364],[-70.9127301,47.0740408],[-70.9125734,47.0740839],[-70.9123808,47.07417],[-70.9121294,47.074298],[-70.9120289,47.0743474],[-70.9119226,47.0743919],[-70.9117647,47.0744409],[-70.9116282,47.074482],[-70.9114359,47.0745176],[-70.9111593,47.0745422],[-70.9110273,47.0745341],[-70.910344,47.0746876],[-70.9095999,47.0746884],[-70.9091139,47.0745041],[-70.908769,47.0743197],[-70.9086242,47.07426],[-70.9085213,47.0742328],[-70.9084878,47.0742197],[-70.90847,47.0742028],[-70.9083965,47.0742497],[-70.9082519,47.0743419]]}},{"type":"Feature","id":200085535,"properties":{"kind":"run","name":"Schnell","subtype":"advanced","pisteType":"downhill","featured":false},"geometry":{"type":"LineString","coordinates":[[-70.9321835,47.0770225],[-70.9314252,47.0770343],[-70.930921,47.0769758],[-70.9303738,47.0768443],[-70.929612,47.0768663],[-70.9292902,47.0768589],[-70.9288288,47.0768443],[-70.9284533,47.0769905],[-70.9282495,47.0771585],[-70.9274556,47.0775019],[-70.9271444,47.0776188],[-70.9269191,47.0777357],[-70.92654,47.0780749]]}},{"type":"Feature","id":200086183,"properties":{"kind":"run","name":"La Grande Ouest","subtype":"advanced","pisteType":"downhill","featured":false},"geometry":{"type":"LineString","coordinates":[[-70.9327341,47.0847859],[-70.93281,47.0848578],[-70.9329403,47.0849814],[-70.9331418,47.0851074],[-70.9333451,47.0852066],[-70.9336478,47.0853542],[-70.9338671,47.0854258],[-70.9342096,47.085464],[-70.9346404,47.0854558],[-70.9349359,47.0854636],[-70.9350743,47.0854734],[-70.9352427,47.0855449],[-70.9353763,47.0856456],[-70.9355758,47.0857516],[-70.9357593,47.0858181],[-70.935957,47.085868],[-70.9361337,47.0859027],[-70.9363663,47.0859123]]}},{"type":"Feature","id":200086186,"properties":{"kind":"run","name":"L'Amaroq","subtype":"advanced","pisteType":"downhill","featured":false},"geometry":{"type":"LineString","coordinates":[[-70.9338964,47.0834052],[-70.9343757,47.0835732],[-70.9347297,47.0837778],[-70.9351216,47.0840741],[-70.9353412,47.0841577],[-70.9356095,47.0842526],[-70.9359635,47.0843184],[-70.936339,47.0843476],[-70.9365,47.0843476],[-70.9367467,47.0842892],[-70.9371008,47.0841577],[-70.9375299,47.0840115],[-70.9379591,47.083807],[-70.9381522,47.0837266],[-70.9383775,47.0836463],[-70.938517,47.0836609],[-70.9386994,47.083712],[-70.9389783,47.0838216],[-70.9393431,47.0839458],[-70.9396435,47.0839969],[-70.9399976,47.0840188],[-70.9402765,47.0840042],[-70.9406306,47.0839239],[-70.9409524,47.0838727],[-70.9411886,47.0838503]]}},{"type":"Feature","id":200086190,"properties":{"kind":"run","name":"L'Anore","subtype":"intermediate","pisteType":"downhill","featured":false},"geometry":{"type":"LineString","coordinates":[[-70.9320645,47.0869655],[-70.9324258,47.0868098],[-70.9325703,47.0867697],[-70.9327253,47.0866635],[-70.9329985,47.0866631],[-70.9332273,47.0867158],[-70.933413,47.0867984],[-70.9337921,47.0869225],[-70.9342758,47.0870789],[-70.9346906,47.087223],[-70.9348745,47.0872795],[-70.93547,47.0875546],[-70.9363927,47.087971],[-70.9369828,47.0883289],[-70.937369,47.0885846],[-70.937884,47.0890298],[-70.938238,47.0893732],[-70.9384526,47.08968],[-70.9388067,47.0899941],[-70.9390749,47.0902717],[-70.9394075,47.0906953],[-70.9397293,47.0912066],[-70.9400727,47.0918129],[-70.9403194,47.092222],[-70.9405876,47.0926383],[-70.9408559,47.093135],[-70.941167,47.093807],[-70.9412636,47.0942818],[-70.941285,47.0946762],[-70.9412099,47.0950706],[-70.9410168,47.0955308],[-70.9409202,47.0958667],[-70.9407379,47.0962685],[-70.9407057,47.0965241],[-70.9407486,47.0970354],[-70.9407486,47.097244],[-70.9407486,47.0973932],[-70.9408143,47.097799],[-70.9408427,47.0978987],[-70.9408135,47.0981275],[-70.9407896,47.0983152]]}},{"type":"Feature","id":200086193,"properties":{"kind":"run","name":"La Grande Ouest","subtype":"intermediate","pisteType":"downhill","featured":false},"geometry":{"type":"LineString","coordinates":[[-70.9363663,47.0859123],[-70.9364844,47.0858576],[-70.9365493,47.0858266],[-70.9366866,47.0857711],[-70.9368074,47.0857048],[-70.9369073,47.0856617],[-70.9369958,47.0856354],[-70.9370701,47.0856212],[-70.9371702,47.0856169],[-70.9372474,47.085616],[-70.9373594,47.08561],[-70.9374979,47.0856367],[-70.9375959,47.0856676],[-70.9377312,47.0857257],[-70.937883,47.0857908],[-70.9382322,47.0859611],[-70.9383366,47.0860047],[-70.9384708,47.0860338],[-70.9385732,47.086054],[-70.9387107,47.086072],[-70.938905,47.0860715],[-70.939053,47.0860504],[-70.9391819,47.0860151],[-70.9393358,47.0859664],[-70.9394489,47.0859452],[-70.9395578,47.0859216],[-70.9397578,47.08594],[-70.9402349,47.0860315],[-70.9406063,47.0860913],[-70.9408075,47.0861158],[-70.9409843,47.086117],[-70.9411848,47.086103],[-70.9413303,47.086091],[-70.9414406,47.0860684],[-70.9416216,47.0860233],[-70.9418555,47.0859799],[-70.9419977,47.0859541],[-70.9421072,47.0859556],[-70.9422126,47.0859715],[-70.9423436,47.0860051],[-70.9424499,47.086037],[-70.9430118,47.0861959],[-70.9434839,47.0862397],[-70.9437736,47.0862251],[-70.9440203,47.0861447],[-70.9442993,47.0859913],[-70.9448894,47.0856114],[-70.9458013,47.0850854],[-70.9459837,47.0849905],[-70.9460803,47.0848809]]}},{"type":"Feature","id":200086197,"properties":{"kind":"run","name":"La Passe à Gio","subtype":"intermediate","pisteType":"downhill","featured":false},"geometry":{"type":"LineString","coordinates":[[-70.9348745,47.0872795],[-70.9349993,47.0872859],[-70.9351274,47.087272],[-70.9352491,47.0872308],[-70.9353365,47.087176],[-70.935469,47.0869887],[-70.9355524,47.0868538],[-70.935676,47.0867084],[-70.9358581,47.0865138],[-70.936014,47.0863143],[-70.9361629,47.0861285],[-70.9363663,47.0859123]]}},{"type":"Feature","id":200086202,"properties":{"kind":"run","name":"La Nipivik","subtype":"intermediate","pisteType":"downhill","featured":false},"geometry":{"type":"LineString","coordinates":[[-70.9327581,47.0845898],[-70.9331955,47.0840188],[-70.9334101,47.0837997],[-70.9336892,47.0835214],[-70.9337105,47.0835002],[-70.9338964,47.0834052],[-70.9340967,47.0833029],[-70.9345044,47.0831641],[-70.9351267,47.0830764],[-70.9355666,47.0829815],[-70.9357811,47.0829084],[-70.9362961,47.0826454],[-70.9365214,47.0825139],[-70.9367575,47.0824701],[-70.9377981,47.0823386],[-70.9384526,47.0822801],[-70.9388818,47.0822874],[-70.939268,47.0823312],[-70.9395148,47.0824189],[-70.9396757,47.0825285],[-70.9398366,47.0826819],[-70.9400512,47.0830034],[-70.9404589,47.0833394],[-70.941049,47.0837778],[-70.9411886,47.0838503],[-70.9414567,47.0839896],[-70.941778,47.0840846],[-70.9420833,47.0841445],[-70.9424861,47.0842234],[-70.9429153,47.0842745],[-70.9435483,47.0843403],[-70.9438379,47.0842818],[-70.9442778,47.0841211],[-70.9446212,47.0839896],[-70.9447928,47.0839166],[-70.9450074,47.083902],[-70.945222,47.0839166],[-70.9454795,47.0840115],[-70.9457155,47.0842015],[-70.9459944,47.0845083],[-70.9461554,47.0847713]]}},{"type":"Feature","id":200086204,"properties":{"kind":"run","name":"Sentier des Bouleaux","subtype":"intermediate","pisteType":"downhill","featured":false},"geometry":{"type":"LineString","coordinates":[[-70.9420833,47.0841445],[-70.9422232,47.0843184],[-70.9423209,47.0847689],[-70.9423252,47.085195],[-70.942306,47.0855266],[-70.9423236,47.0857501],[-70.9423408,47.0857873],[-70.9423467,47.0858262],[-70.9423436,47.0860051],[-70.9423681,47.0862543],[-70.9423566,47.0866042],[-70.9423451,47.0868665],[-70.9423145,47.0872405],[-70.942293,47.0876131],[-70.9422608,47.0880806],[-70.9422179,47.0884531],[-70.9422286,47.0887526],[-70.9423037,47.0891029],[-70.9424432,47.0894316],[-70.9424754,47.0897822],[-70.9424861,47.0902497],[-70.9424325,47.0905273],[-70.9424217,47.0907392],[-70.9424754,47.0910021],[-70.9424539,47.0911409],[-70.9423788,47.0913527],[-70.9424647,47.0915792],[-70.9424968,47.0917764],[-70.9423681,47.0920321],[-70.9421964,47.0923461],[-70.9420784,47.0925799],[-70.9419711,47.0927625],[-70.9420033,47.0929305],[-70.9420462,47.0931642],[-70.9419068,47.0933249],[-70.9418853,47.0934637],[-70.9419711,47.093639],[-70.942014,47.0938873],[-70.9419926,47.0943402],[-70.9420248,47.0945593],[-70.9420999,47.0947638],[-70.9420891,47.0950487],[-70.9421642,47.0953555],[-70.9422608,47.095728],[-70.9423037,47.0962173],[-70.9420891,47.0964657],[-70.9414991,47.0970134],[-70.9411885,47.0973859],[-70.9410061,47.0976708],[-70.9408427,47.0978987]]}},{"type":"Feature","id":200091744,"properties":{"kind":"run","name":"La Paradeuse","subtype":"intermediate","pisteType":"downhill","featured":false},"geometry":{"type":"LineString","coordinates":[[-70.9318996,47.087942],[-70.931981,47.0881407],[-70.9322406,47.0882486],[-70.9324445,47.0884312],[-70.9332169,47.0893951],[-70.9343327,47.0908633],[-70.9352554,47.0920759],[-70.9357684,47.0927538],[-70.9358026,47.092799],[-70.9371222,47.094479],[-70.9374011,47.0948705],[-70.9380556,47.0957426],[-70.9386565,47.0964437],[-70.9392465,47.0972106],[-70.9396221,47.0977365],[-70.9399117,47.0981236],[-70.9399976,47.0983208]]}},{"type":"Feature","id":200091745,"properties":{"kind":"run","name":"La Première Neige","subtype":"intermediate","pisteType":"downhill","featured":false},"geometry":{"type":"LineString","coordinates":[[-70.9306742,47.0880367],[-70.9306313,47.0885043],[-70.9305133,47.0886942],[-70.930288,47.0888545],[-70.9297193,47.0892198],[-70.9294082,47.089512],[-70.9292258,47.0898626],[-70.9292044,47.0902132],[-70.9291507,47.0907026],[-70.9292365,47.0911701],[-70.9291722,47.0915792],[-70.9291614,47.0919298],[-70.9293009,47.0924411],[-70.9294161,47.0925841],[-70.9294833,47.0926675],[-70.9298159,47.0930474],[-70.9300305,47.0932738],[-70.9305884,47.0935733],[-70.9310497,47.0939312],[-70.9319295,47.0946251],[-70.932423,47.0950414],[-70.9329916,47.095392],[-70.9335603,47.0956988],[-70.9340431,47.0958302],[-70.9345044,47.0959398],[-70.9349014,47.0961516],[-70.9352447,47.0963196],[-70.9355129,47.0965314],[-70.9355773,47.0966117],[-70.9357157,47.0967954]]}},{"type":"Feature","id":200091746,"properties":{"kind":"run","name":"La Bélanger","subtype":"intermediate","pisteType":"downhill","featured":false},"geometry":{"type":"LineString","coordinates":[[-70.9324337,47.0872332],[-70.9327449,47.0873355],[-70.9330667,47.0875327],[-70.9332706,47.0877884],[-70.9334057,47.0880354],[-70.9335924,47.0883362],[-70.9338178,47.088665],[-70.9342469,47.0889933],[-70.9345366,47.0892636],[-70.9347619,47.0895339],[-70.9350516,47.0898334],[-70.9355022,47.0902205],[-70.9361137,47.0906369],[-70.9365214,47.0909364],[-70.9367253,47.0912139],[-70.9370149,47.0916668],[-70.9373905,47.092222],[-70.9378395,47.0926378],[-70.9379269,47.0927187],[-70.9381415,47.0930328],[-70.9382273,47.0933541],[-70.938399,47.0936098],[-70.938517,47.0938508],[-70.9385599,47.0940846],[-70.9386672,47.094479],[-70.9388281,47.0948442],[-70.9392573,47.0952021],[-70.9394826,47.0954942],[-70.9395684,47.0958521],[-70.9396542,47.0961443],[-70.9399654,47.096619],[-70.9402551,47.096955],[-70.940269,47.097019],[-70.940298,47.0971522],[-70.940298,47.0973567],[-70.9403838,47.097532],[-70.9408143,47.097799]]}},{"type":"Feature","id":200091747,"properties":{"kind":"run","name":"La Quanik","subtype":"intermediate","pisteType":"downhill","featured":false},"geometry":{"type":"LineString","coordinates":[[-70.9292044,47.0902132],[-70.9295584,47.0905931],[-70.9300519,47.0911555],[-70.9303523,47.0916449],[-70.9305884,47.0919736],[-70.9310497,47.0922731],[-70.9314359,47.0925726],[-70.9316,47.0927874],[-70.9317149,47.0929378],[-70.9320153,47.0933395],[-70.9322943,47.0936025],[-70.9327663,47.0939166],[-70.9336032,47.0944352],[-70.934204,47.0947931],[-70.9348048,47.0951437],[-70.93547,47.0954869],[-70.9360413,47.0958853],[-70.936221,47.0960201],[-70.936618,47.0962831],[-70.936736,47.0964511],[-70.9369398,47.0968966],[-70.93709,47.0971741],[-70.9373586,47.0974941]]}},{"type":"Feature","id":200091748,"properties":{"kind":"run","name":"La Mélanie Turgeon","subtype":"advanced","pisteType":"downhill","featured":false},"geometry":{"type":"LineString","coordinates":[[-70.9346653,47.088913],[-70.9351803,47.0890664],[-70.9356309,47.0893366],[-70.9361996,47.0897676],[-70.9370793,47.0904104],[-70.9380986,47.0911701],[-70.9386457,47.0916011],[-70.9389998,47.0918567],[-70.9391285,47.092054],[-70.9392765,47.0922463],[-70.9393646,47.0923608],[-70.9395148,47.0926237],[-70.939783,47.0931496],[-70.9401478,47.0937924],[-70.9403731,47.094384],[-70.940534,47.0948588],[-70.9407379,47.0951437],[-70.9410168,47.0955308]]}},{"type":"Feature","id":200091749,"properties":{"kind":"run","name":"La Printanière","subtype":"intermediate","pisteType":"downhill","featured":false},"geometry":{"type":"LineString","coordinates":[[-70.931981,47.0881407],[-70.9318973,47.0885992],[-70.9319402,47.0888618],[-70.9321011,47.0892563],[-70.9323694,47.0896654],[-70.9327341,47.0901256],[-70.9330989,47.0906077],[-70.9334422,47.0912943],[-70.9338821,47.0918129],[-70.9342576,47.0923534],[-70.9345902,47.0927308],[-70.9346761,47.0928282],[-70.9353627,47.0935148],[-70.9359099,47.0940261],[-70.9363068,47.0945666],[-70.9368218,47.0951583],[-70.9373046,47.0957645],[-70.9377552,47.0961297],[-70.9380878,47.096473],[-70.9382809,47.0968016],[-70.9387637,47.0975028],[-70.9391607,47.0978315],[-70.9397186,47.0982186]]}},{"type":"Feature","id":200091750,"properties":{"kind":"run","name":"Espresso","subtype":"intermediate","pisteType":"downhill","featured":false},"geometry":{"type":"LineString","coordinates":[[-70.9347619,47.0895339],[-70.9347958,47.0897529],[-70.9354593,47.0904616],[-70.9357811,47.0908122],[-70.9360064,47.0912651],[-70.9361459,47.0914988],[-70.9363176,47.0916814],[-70.936618,47.0921051],[-70.9369506,47.092558],[-70.9370504,47.0926758],[-70.9372724,47.0929378],[-70.9375943,47.0933687],[-70.9382809,47.0944863],[-70.9387101,47.0951217],[-70.9392144,47.0958594],[-70.9396757,47.0964437],[-70.9401156,47.0971668],[-70.940298,47.0973567]]}},{"type":"Feature","id":200091751,"properties":{"kind":"run","name":"L'Archipel","subtype":"advanced","pisteType":"downhill","featured":false},"geometry":{"type":"LineString","coordinates":[[-70.9334744,47.0898772],[-70.9334315,47.0900452],[-70.9334959,47.090279],[-70.9336032,47.0905638],[-70.9339572,47.0910313],[-70.9339787,47.0913016],[-70.9340967,47.0914915],[-70.9343864,47.0916303],[-70.9345795,47.0918494],[-70.9346975,47.0920759],[-70.9348048,47.0922877],[-70.934955,47.0924557],[-70.9351159,47.0925799],[-70.9353023,47.0927226],[-70.9353734,47.0927771],[-70.9355236,47.0929232],[-70.9356631,47.0931131],[-70.9357919,47.0932519],[-70.9359313,47.0933687],[-70.936103,47.093639],[-70.9362747,47.09388],[-70.936457,47.0941284],[-70.9365321,47.0943183],[-70.9367038,47.0944936],[-70.9368326,47.0946397],[-70.9370022,47.0947946],[-70.9372038,47.0948472],[-70.9374011,47.0948705]]}},{"type":"Feature","id":200091752,"properties":{"kind":"run","name":"La Soumande","subtype":"intermediate","pisteType":"downhill","featured":false},"geometry":{"type":"LineString","coordinates":[[-70.9320366,47.0877886],[-70.9318996,47.087942],[-70.9315432,47.0882997],[-70.9312965,47.0885846],[-70.9312214,47.0888038],[-70.9312965,47.0890372],[-70.9314252,47.0894754],[-70.9316291,47.0901694],[-70.9317578,47.0907684],[-70.9320368,47.0912213],[-70.932423,47.0917034],[-70.9328629,47.0920174],[-70.9329916,47.0921708],[-70.9330882,47.0923827],[-70.9334637,47.093135],[-70.9334957,47.0931768],[-70.9337212,47.093471],[-70.9339572,47.0935806],[-70.9343327,47.0938216],[-70.9345902,47.0941649],[-70.9349657,47.0945958],[-70.9355451,47.0949757],[-70.9358455,47.0952313],[-70.9360279,47.0954577],[-70.9360386,47.0956184],[-70.9360413,47.0958853]]}},{"type":"Feature","id":200092438,"properties":{"kind":"run","name":"Domino","subtype":"easy","pisteType":"downhill","featured":false},"geometry":{"type":"LineString","coordinates":[[-70.9199303,47.0959164],[-70.9196342,47.0959763],[-70.9193231,47.0959617],[-70.9190549,47.095969],[-70.9188725,47.0960786],[-70.9186745,47.0962473],[-70.9186312,47.0965265],[-70.9186037,47.0966953],[-70.9186009,47.0968551],[-70.918615,47.0971084],[-70.9185404,47.097317],[-70.9183683,47.0974736]]}},{"type":"Feature","id":200092439,"properties":{"kind":"run","name":"La Familliale","subtype":"easy","pisteType":"downhill","featured":false},"geometry":{"type":"LineString","coordinates":[[-70.9263719,47.0892125],[-70.9259964,47.0893951],[-70.9252883,47.0895558],[-70.9244407,47.0898261],[-70.9234322,47.0902351],[-70.9231483,47.0904196],[-70.9229494,47.0905565],[-70.9226919,47.0908122],[-70.9223701,47.0909948],[-70.9220482,47.0911555],[-70.9216834,47.09136],[-70.9211138,47.0915437],[-70.9207217,47.0916338],[-70.9204388,47.0917104],[-70.9203141,47.0917751],[-70.9202186,47.0918476],[-70.9201803,47.0919344],[-70.9201423,47.0920785],[-70.9201244,47.0922353],[-70.9201112,47.0924298],[-70.9201278,47.0931569],[-70.9200848,47.0936536],[-70.9199561,47.0944279],[-70.9199239,47.0950998],[-70.9199561,47.0956988],[-70.9199303,47.0959164]]}},{"type":"Feature","id":200092440,"properties":{"kind":"run","name":"La Pente Douce","subtype":"easy","pisteType":"downhill","featured":false},"geometry":{"type":"LineString","coordinates":[[-70.9254421,47.0987071],[-70.9256209,47.0988759],[-70.9257926,47.0989197],[-70.9260501,47.0988759],[-70.92649,47.0988174],[-70.9269084,47.0988028],[-70.9275521,47.0987444],[-70.9281744,47.0986275],[-70.9288288,47.0985034],[-70.9292795,47.0984669],[-70.9298588,47.0984304],[-70.9303738,47.0983062],[-70.9306098,47.0982843],[-70.9308566,47.0982332],[-70.9312428,47.0981747],[-70.9321119,47.0979483],[-70.9325732,47.0978022],[-70.9331418,47.0977292],[-70.9334852,47.0976343],[-70.9337748,47.0975174],[-70.9340001,47.0974078],[-70.934204,47.097364],[-70.9344615,47.0974005],[-70.9350838,47.0975174],[-70.9355451,47.0976416],[-70.9359694,47.0976682],[-70.9365643,47.0978022],[-70.9370257,47.0978388],[-70.9372617,47.0978388],[-70.9375836,47.0979045],[-70.9378518,47.0979337],[-70.9381951,47.098014],[-70.9386243,47.0980652],[-70.9390105,47.0981017],[-70.9391714,47.098182],[-70.9393753,47.0982989],[-70.9396757,47.0983792],[-70.9401263,47.0984523]]}},{"type":"Feature","id":200092441,"properties":{"kind":"run","name":"La Sidney-Dawes","subtype":"intermediate","pisteType":"downhill","featured":false},"geometry":{"type":"LineString","coordinates":[[-70.9289209,47.0895956],[-70.9284748,47.0900014],[-70.9282388,47.0903447],[-70.9281529,47.0905858],[-70.9282709,47.0909291],[-70.9283353,47.0912432],[-70.9283997,47.0916157],[-70.9282817,47.0920613],[-70.9282817,47.0923242],[-70.9283997,47.0926968],[-70.9285606,47.093062],[-70.9288181,47.0934126],[-70.9290971,47.0936755],[-70.929376,47.0939093],[-70.929773,47.0941211],[-70.9303094,47.0944059],[-70.9304918,47.0946689],[-70.9307708,47.0949172],[-70.931393,47.0951656],[-70.9319187,47.0953409],[-70.9322192,47.09556],[-70.9324874,47.0957645],[-70.9327234,47.0958448],[-70.9330024,47.0959252],[-70.9330989,47.0959982],[-70.933335,47.0961516]]}},{"type":"Feature","id":200092442,"properties":{"kind":"run","name":"La Montmorency","subtype":"intermediate","pisteType":"downhill","featured":false},"geometry":{"type":"LineString","coordinates":[[-70.9126198,47.0861915],[-70.9125103,47.0859986],[-70.9123601,47.0858014],[-70.912167,47.085648],[-70.9119417,47.085553],[-70.9117593,47.0854288],[-70.9116198,47.0852096],[-70.9115125,47.0849101],[-70.9114374,47.0847348],[-70.9113301,47.0845668],[-70.9109653,47.0840992],[-70.9106864,47.0836463],[-70.9103967,47.083113],[-70.9102358,47.0827769],[-70.909989,47.0824335],[-70.9097852,47.0823532],[-70.9093327,47.0822174]]}},{"type":"Feature","id":200092443,"properties":{"kind":"run","name":"L'Escapade","subtype":"easy","pisteType":"downhill","featured":false},"geometry":{"type":"LineString","coordinates":[[-70.9334057,47.0880354],[-70.9334729,47.0882996],[-70.9334785,47.0884353],[-70.9333358,47.0886226],[-70.9331418,47.0887161],[-70.9325732,47.0889714],[-70.9322943,47.089081],[-70.9319831,47.0891832],[-70.9315969,47.0893293],[-70.9311355,47.0894097],[-70.9308351,47.0894681],[-70.9302129,47.0895339],[-70.9289209,47.0895956],[-70.9281637,47.0896288],[-70.9276148,47.0897348],[-70.9271337,47.0898188],[-70.9267045,47.0899722],[-70.9261359,47.0902132],[-70.9256638,47.0903958],[-70.9250738,47.0906004],[-70.9248463,47.0906953],[-70.9246532,47.0908282]]}},{"type":"Feature","id":200092444,"properties":{"kind":"run","name":"La Vital-Roy","subtype":"intermediate","pisteType":"downhill","featured":false},"geometry":{"type":"LineString","coordinates":[[-70.9276148,47.0897348],[-70.9273434,47.0903221],[-70.9272088,47.0904981],[-70.9272624,47.0909875],[-70.9273483,47.09136],[-70.927241,47.0923754],[-70.9273161,47.0926529],[-70.927595,47.0932446],[-70.9279062,47.0937047],[-70.9281422,47.0940334],[-70.9284748,47.0943621],[-70.9288074,47.0945374],[-70.929258,47.0947492],[-70.9296228,47.0949537],[-70.9299125,47.0951656],[-70.930288,47.0953043],[-70.9304274,47.0954723],[-70.9306933,47.0956826]]}},{"type":"Feature","id":200092445,"properties":{"kind":"run","name":"La Pichard","subtype":"intermediate","pisteType":"downhill","featured":false},"geometry":{"type":"LineString","coordinates":[[-70.9231483,47.0904196],[-70.922413,47.090352],[-70.9220268,47.0903666],[-70.9216942,47.0904104],[-70.921147,47.0905565],[-70.9204852,47.0907746],[-70.9199883,47.0908706],[-70.9196879,47.0908925],[-70.9194626,47.0908706],[-70.9191211,47.0907533],[-70.918961,47.0907329],[-70.9187008,47.0906953],[-70.9184411,47.090628],[-70.9181215,47.0906077],[-70.917585,47.0905638],[-70.9172524,47.0906223],[-70.9170164,47.0907392],[-70.9167267,47.0909218],[-70.9165336,47.0911409],[-70.9163727,47.091528],[-70.916303,47.0918087],[-70.9162439,47.0920467],[-70.9161366,47.0923534],[-70.9160258,47.0925801],[-70.9160006,47.0927622],[-70.9159655,47.0929285],[-70.9159258,47.0930451],[-70.9158459,47.0931551],[-70.9157489,47.0932246],[-70.9156048,47.0932753],[-70.9154345,47.0933055],[-70.9152994,47.0933101],[-70.9151387,47.0933063],[-70.9149892,47.0932812],[-70.9147977,47.0932195],[-70.9146732,47.0931526],[-70.91442,47.0930474],[-70.9139942,47.0929095],[-70.9136018,47.0928412],[-70.913378,47.0927723],[-70.91297,47.0926232],[-70.9124376,47.0924701],[-70.9116945,47.0922344],[-70.9110898,47.0919842],[-70.9108334,47.0918312],[-70.9105673,47.0916581],[-70.9103645,47.0915061],[-70.9102383,47.0913428],[-70.9100856,47.0910094],[-70.9099461,47.0905419],[-70.9098487,47.0901881],[-70.9098229,47.0898871],[-70.9098608,47.0894226],[-70.9099145,47.0889071],[-70.9098718,47.0885552],[-70.9097946,47.0882165],[-70.9098097,47.0878739],[-70.9097981,47.0874524],[-70.9096779,47.087109],[-70.9094096,47.0867657],[-70.9091843,47.0866123],[-70.9089376,47.08632],[-70.9088732,47.0861593],[-70.9088839,47.0857502],[-70.9088088,47.0855822],[-70.9086157,47.0852681]]}},{"type":"Feature","id":200092446,"properties":{"kind":"run","name":"La Dolce Vita","subtype":"easy","pisteType":"downhill","featured":false},"geometry":{"type":"LineString","coordinates":[[-70.9242563,47.0883039],[-70.92405,47.0883935],[-70.9238108,47.0885003],[-70.9235181,47.0886577],[-70.9230577,47.0888471],[-70.9227241,47.0889714],[-70.9217049,47.0892636],[-70.9212906,47.0894025],[-70.9208466,47.0896581],[-70.9206329,47.0898572],[-70.9204791,47.0900345],[-70.9204004,47.0901615]]}},{"type":"Feature","id":200092447,"properties":{"kind":"run","name":"La Grande Allée","subtype":"easy","pisteType":"downhill","featured":false},"geometry":{"type":"LineString","coordinates":[[-70.9308673,47.0878468],[-70.9304596,47.0877153],[-70.9302343,47.0877153],[-70.9290971,47.0880221],[-70.9274663,47.0884385],[-70.9254814,47.0889203],[-70.9234108,47.0894097],[-70.9215332,47.0898553],[-70.9212114,47.0898991],[-70.9206329,47.0898572]]}},{"type":"Feature","id":200092448,"properties":{"kind":"run","name":"La Montmorency","subtype":"advanced","pisteType":"downhill","featured":false},"geometry":{"type":"LineString","coordinates":[[-70.9184411,47.090628],[-70.9181463,47.0903538],[-70.9178319,47.0900614],[-70.9173812,47.0897019],[-70.9170808,47.0894681],[-70.9166409,47.0893074],[-70.9157933,47.0890518],[-70.9152461,47.0887161],[-70.9141411,47.0879345],[-70.9139158,47.0877007],[-70.913272,47.0870506],[-70.9130038,47.0868095],[-70.9128107,47.0865465],[-70.9126198,47.0861915]]}},{"type":"Feature","id":200092449,"properties":{"kind":"run","name":"La Familliale","subtype":"easy","pisteType":"downhill","featured":false},"geometry":{"type":"LineString","coordinates":[[-70.9199303,47.0959164],[-70.9199239,47.0962246],[-70.9200205,47.0965314],[-70.9199668,47.0967797],[-70.9197952,47.0970134],[-70.9195699,47.0972253],[-70.9193124,47.0973275],[-70.9187759,47.0974517],[-70.9183683,47.0974736]]}},{"type":"Feature","id":200092450,"properties":{"kind":"run","name":"La Forêt Enchantée","subtype":"easy","pisteType":"downhill","featured":false},"geometry":{"type":"LineString","coordinates":[[-70.9245252,47.0920682],[-70.9243013,47.0924119],[-70.9242369,47.0926456],[-70.9242905,47.0929232],[-70.9243978,47.0932446],[-70.9245051,47.0935075],[-70.9246553,47.0937267],[-70.9250308,47.0939312],[-70.9252991,47.0940919],[-70.9255029,47.0943402],[-70.9257926,47.0946543],[-70.9259535,47.0946908],[-70.9263398,47.0947931],[-70.9267904,47.0949611],[-70.9273804,47.0952021],[-70.9278203,47.0953555],[-70.9282602,47.0955381],[-70.9287323,47.0956476],[-70.9293438,47.0958302],[-70.930009,47.0959617],[-70.9305562,47.0960493],[-70.9309317,47.0961516],[-70.9314681,47.0962465],[-70.9318651,47.0963342],[-70.9320046,47.0963342],[-70.9323479,47.0961954]]}},{"type":"Feature","id":200092451,"properties":{"kind":"run","name":"L'Express","subtype":"intermediate","pisteType":"downhill","featured":false},"geometry":{"type":"LineString","coordinates":[[-70.9197952,47.0916595],[-70.9195162,47.0913893],[-70.9191514,47.0909437],[-70.918969,47.0907684],[-70.918961,47.0907329],[-70.9189476,47.0906734],[-70.9189369,47.0903301],[-70.9187223,47.0899795],[-70.9182824,47.0894462],[-70.9176279,47.0887965],[-70.916201,47.0876277],[-70.9152245,47.0865919],[-70.9149156,47.0864296],[-70.9144548,47.0862556],[-70.9142162,47.0861228],[-70.9137119,47.085816],[-70.9133579,47.0854945],[-70.9128965,47.0850562],[-70.9127678,47.0847786],[-70.9127463,47.0845375],[-70.9126498,47.0841796],[-70.9125532,47.08388],[-70.912403,47.0836243],[-70.9121026,47.0833613],[-70.9117485,47.0830691],[-70.9112502,47.0827371],[-70.9108795,47.0824774],[-70.9102143,47.0818125],[-70.9097637,47.0813523],[-70.9095169,47.0811696],[-70.9093345,47.0809358],[-70.9090878,47.0805559],[-70.9088088,47.0801687],[-70.9086157,47.0800007],[-70.9080602,47.0796296]]}},{"type":"Feature","id":200092452,"properties":{"kind":"run","name":"La Férréolaise","subtype":"easy","pisteType":"downhill","featured":false},"geometry":{"type":"LineString","coordinates":[[-70.9243785,47.0913715],[-70.9245266,47.0917545],[-70.9245252,47.0920682],[-70.9246768,47.0928355],[-70.924827,47.0931423],[-70.924945,47.0932738],[-70.9253312,47.0936025],[-70.9256102,47.0937924],[-70.926093,47.0942526],[-70.9264149,47.0944644],[-70.926844,47.094647],[-70.9279598,47.0950487],[-70.9286465,47.0952897],[-70.929022,47.0954212],[-70.9295584,47.0956184],[-70.9299661,47.0956841],[-70.9304382,47.0957134],[-70.9306933,47.0956826],[-70.9308673,47.0956988],[-70.9311248,47.0957937],[-70.9316183,47.0960347],[-70.9321548,47.0961516],[-70.9323479,47.0961954],[-70.9324766,47.0961954],[-70.932702,47.0961808],[-70.9330453,47.0961443],[-70.933335,47.0961516],[-70.9336246,47.09621],[-70.9342469,47.0963123],[-70.934558,47.0963853],[-70.9353949,47.0966336],[-70.9357157,47.0967954],[-70.9360708,47.0970207],[-70.9364678,47.0972618],[-70.9370257,47.0974298],[-70.9373586,47.0974941],[-70.9382809,47.0977657],[-70.9390105,47.0981017]]}},{"type":"Feature","id":200092453,"properties":{"kind":"run","name":"La Beaupré","subtype":"intermediate","pisteType":"downhill","featured":false},"geometry":{"type":"LineString","coordinates":[[-70.9242563,47.0883039],[-70.9236683,47.0882121],[-70.9224023,47.0880879],[-70.9212757,47.0879637],[-70.9205569,47.0878541],[-70.9200956,47.0877226],[-70.9196235,47.0875911],[-70.9190978,47.0875108],[-70.9182372,47.0872878],[-70.9179069,47.0871382],[-70.9174348,47.0867803],[-70.9170808,47.0864588],[-70.9166409,47.0859621],[-70.9165494,47.0858725],[-70.9164057,47.0857435],[-70.9161366,47.0855019],[-70.9159972,47.0852535],[-70.9160401,47.0850562],[-70.916112,47.0848947],[-70.916201,47.0848078],[-70.9164737,47.084409],[-70.9166409,47.0841869],[-70.9166623,47.0840262],[-70.91659,47.0838928]]}},{"type":"Feature","id":200092454,"properties":{"kind":"run","name":"La Beaupré","subtype":"easy","pisteType":"downhill","featured":false},"geometry":{"type":"LineString","coordinates":[[-70.931554,47.087445],[-70.9313179,47.087445],[-70.9311248,47.0873939],[-70.9302343,47.0874304],[-70.9290541,47.0875546],[-70.9282924,47.0877007],[-70.9274019,47.0878979],[-70.9269519,47.0879078],[-70.9266481,47.0879885],[-70.926022,47.0880935],[-70.9257206,47.0881213],[-70.925366,47.0881497],[-70.9250072,47.0881852],[-70.9245683,47.0882413],[-70.9242563,47.0883039]]}},{"type":"Feature","id":200092455,"properties":{"kind":"run","name":"La Familliale","subtype":"easy","pisteType":"downhill","featured":false},"geometry":{"type":"LineString","coordinates":[[-70.9183683,47.0974736],[-70.917864,47.0974517],[-70.9175314,47.0973567],[-70.9171451,47.0971595],[-70.9168125,47.0968455],[-70.916314,47.0963156],[-70.9161795,47.0961662],[-70.9157504,47.0954358],[-70.9154071,47.0949757],[-70.9148492,47.0944571],[-70.9143449,47.0941065],[-70.9137012,47.0936463],[-70.9129824,47.0932154],[-70.9124566,47.0929086],[-70.9118886,47.0926249],[-70.9116627,47.0926237],[-70.9111155,47.092558],[-70.9108044,47.0924338],[-70.9103001,47.0920905],[-70.9098603,47.0917034],[-70.9096779,47.0914696],[-70.9094633,47.0910532],[-70.9094418,47.0907976],[-70.909444,47.0903286],[-70.9093834,47.0901387],[-70.9091092,47.0899868],[-70.9085943,47.0896508],[-70.9083046,47.089417],[-70.9081866,47.0891832],[-70.9081758,47.0888545],[-70.9082295,47.0883143],[-70.9082509,47.0878468],[-70.9082509,47.0876204],[-70.9083046,47.0874304],[-70.9084441,47.0871382],[-70.9084548,47.0869045],[-70.9083475,47.0867291],[-70.9082831,47.0864954],[-70.9082939,47.0861885],[-70.9083582,47.0857941],[-70.908487,47.0855238],[-70.9086157,47.0852681],[-70.9087552,47.0849466],[-70.9088625,47.0844645],[-70.9090985,47.0841138],[-70.9091736,47.0838873],[-70.9092058,47.083639],[-70.9093238,47.0830691],[-70.9093989,47.0825723],[-70.9094096,47.0823678],[-70.9093327,47.0822174],[-70.9091307,47.0820682],[-70.9088625,47.0817833],[-70.9086776,47.0815859],[-70.9085192,47.0813742],[-70.9084655,47.0812427],[-70.9083387,47.0806294],[-70.9082155,47.0799966],[-70.9080602,47.0796296],[-70.9078373,47.0793442],[-70.9076297,47.0790582],[-70.9073112,47.0784005],[-70.9071878,47.0781573],[-70.9065665,47.0769539]]}},{"type":"Feature","id":200092456,"properties":{"kind":"run","name":"Le Chemin du Roy","subtype":"easy","pisteType":"downhill","featured":false},"geometry":{"type":"LineString","coordinates":[[-70.9318378,47.0875847],[-70.9313072,47.0877445],[-70.9308673,47.0878468],[-70.9306742,47.0880367],[-70.9302772,47.088234],[-70.9298159,47.0883582],[-70.9286786,47.0885992],[-70.9277452,47.0887307],[-70.9270908,47.0889276],[-70.9265329,47.0891467],[-70.9263505,47.0893293],[-70.9261788,47.0895777],[-70.9260286,47.0897603],[-70.9258033,47.0899649],[-70.9255244,47.0900817],[-70.9250845,47.0903009],[-70.9248914,47.090447],[-70.9246532,47.0908282],[-70.9243785,47.0913715],[-70.9242476,47.0915792],[-70.9239472,47.0919736],[-70.923443,47.0923534],[-70.9231081,47.0926694],[-70.922955,47.092792],[-70.922831,47.092958],[-70.922813,47.093027],[-70.922817,47.093259],[-70.9228712,47.0934394],[-70.9229059,47.093664],[-70.922906,47.093798],[-70.923046,47.0942087],[-70.9232069,47.0945082],[-70.9235288,47.0948807],[-70.9242691,47.0956549],[-70.9244086,47.095801],[-70.924709,47.0962612],[-70.9250952,47.0966921],[-70.9252561,47.0969112],[-70.9253956,47.0972545],[-70.9255887,47.0977949],[-70.9256209,47.0981309],[-70.925578,47.0984523],[-70.9254421,47.0987071],[-70.9253849,47.0988101],[-70.9251703,47.099168],[-70.9248699,47.0993506],[-70.9243656,47.0996281],[-70.9237434,47.1000006],[-70.9234752,47.1001394],[-70.9228422,47.1004242],[-70.9223594,47.1005703],[-70.9220697,47.1005849],[-70.9215332,47.100563],[-70.9211041,47.1004826],[-70.9206535,47.1003658],[-70.9204496,47.1003292],[-70.9200956,47.1003219],[-70.9197737,47.1003365],[-70.9194518,47.100395],[-70.9190871,47.1005556],[-70.9186364,47.1007382],[-70.9183575,47.1007674],[-70.9180785,47.1007528],[-70.9177674,47.1006506],[-70.9176065,47.1005483],[-70.9174777,47.1003365],[-70.9174241,47.1001174],[-70.9172846,47.099891],[-70.9170593,47.0996573],[-70.9168125,47.0994967],[-70.9165765,47.0992922],[-70.9163834,47.0990219],[-70.9162976,47.0988686],[-70.9163297,47.0986349],[-70.9163834,47.0982039],[-70.9164049,47.0979921],[-70.9163083,47.097773],[-70.9161474,47.0974882],[-70.9159435,47.0972106],[-70.9154607,47.0966921],[-70.9151174,47.0963561],[-70.9148814,47.0960274],[-70.9145595,47.0955892],[-70.9143771,47.0953774],[-70.9142269,47.0952897],[-70.9139909,47.0951802],[-70.913036,47.0948734],[-70.9123708,47.0945739],[-70.9120919,47.0944059],[-70.9118236,47.0941649],[-70.9115018,47.0939312],[-70.9112443,47.093807],[-70.9109439,47.0937267],[-70.9105576,47.0936244],[-70.9098281,47.0934199],[-70.9095277,47.0932592],[-70.90912,47.0930035],[-70.9089805,47.0929451],[-70.9088303,47.0929524],[-70.9087123,47.0931058],[-70.9084977,47.0935148],[-70.9083582,47.0938289],[-70.9082402,47.0939677],[-70.9080793,47.0939969],[-70.9079076,47.0939604],[-70.9077896,47.0938508],[-70.9076608,47.0936317],[-70.9074248,47.0931131],[-70.9072317,47.0926968],[-70.9071459,47.0923388],[-70.90706,47.0919809],[-70.9069206,47.0917691],[-70.906706,47.0915207],[-70.9065772,47.091192],[-70.9064163,47.0908706],[-70.9062017,47.0905273],[-70.9060408,47.0903301],[-70.9060193,47.0901402],[-70.9060837,47.0899356],[-70.9060944,47.0897238],[-70.9060623,47.0895339],[-70.9060408,47.0893366],[-70.9061052,47.089154],[-70.906191,47.0888257],[-70.9062017,47.0885481],[-70.9061588,47.0881975],[-70.9060301,47.0879491],[-70.9058799,47.087708],[-70.9058799,47.0875765],[-70.9059442,47.0873135],[-70.9059013,47.086773],[-70.9059013,47.0865173],[-70.9059442,47.086342],[-70.9060515,47.0860936],[-70.9062446,47.0856333],[-70.9063841,47.0853704],[-70.906427,47.0850124],[-70.9064592,47.0845887],[-70.9065665,47.0842526],[-70.9068133,47.0834782],[-70.9069527,47.0831495],[-70.9071459,47.0829595],[-70.9076501,47.0824774],[-70.9078218,47.082302],[-70.9078111,47.0821194],[-70.9078003,47.0816956],[-70.9079398,47.0814253],[-70.9081436,47.0811039],[-70.9083387,47.0806294]]}},{"type":"Feature","id":200092787,"properties":{"kind":"run","name":"Le Gros Vallon","subtype":"intermediate","pisteType":"downhill","featured":false},"geometry":{"type":"LineString","coordinates":[[-70.931393,47.0873062],[-70.930931,47.087358],[-70.9306277,47.0873198],[-70.9304551,47.087292],[-70.9301041,47.0871924],[-70.9300112,47.0871466],[-70.9298052,47.0871382],[-70.9290182,47.087236],[-70.9283139,47.0873866],[-70.9274257,47.0875843],[-70.9271981,47.087635],[-70.9266831,47.0876934],[-70.9259428,47.0877007],[-70.9253312,47.087635],[-70.9249343,47.0875035],[-70.9241511,47.0872113],[-70.9237863,47.0869921],[-70.9233679,47.0868168],[-70.9227027,47.0865976],[-70.9222092,47.0863785],[-70.9220099,47.086179],[-70.9218066,47.0858528],[-70.921544,47.0855311],[-70.921265,47.0850854],[-70.9210826,47.0847567],[-70.9208251,47.0845156],[-70.9203209,47.0841211],[-70.9201707,47.08388],[-70.9200848,47.0836609],[-70.9199561,47.0831422],[-70.9199052,47.0828743],[-70.9198703,47.0827038],[-70.9196557,47.0824627],[-70.9192802,47.0822801],[-70.9188618,47.0821778],[-70.9182502,47.082039],[-70.9178211,47.0818856],[-70.9174241,47.0816153],[-70.91707,47.0813377],[-70.9167589,47.0809577],[-70.9163941,47.0804755],[-70.9160186,47.0801395],[-70.9157182,47.0799568],[-70.9154929,47.0796938],[-70.9151067,47.0791897],[-70.9147526,47.0788097],[-70.9143771,47.0785467],[-70.9141196,47.078459],[-70.913787,47.0784371],[-70.9134544,47.0783495],[-70.9131111,47.078196],[-70.9128643,47.0780645],[-70.9123386,47.0777138],[-70.9116627,47.0773119],[-70.9110512,47.0769247],[-70.9107293,47.0766909],[-70.9104718,47.0764498],[-70.9099246,47.0760333],[-70.909781,47.075916],[-70.9096793,47.0758517],[-70.909591,47.0757859],[-70.909538,47.0757468],[-70.9093653,47.0756257],[-70.909282,47.0755564],[-70.9092154,47.0754903],[-70.9091136,47.0754208],[-70.9087874,47.0751346],[-70.908326,47.0748642],[-70.907942,47.0746159]]}},{"type":"Feature","id":200092788,"properties":{"kind":"run","name":"Le Corridor","subtype":"intermediate","pisteType":"downhill","featured":false},"geometry":{"type":"LineString","coordinates":[[-70.9190842,47.0835507],[-70.9191438,47.0834654],[-70.9192278,47.0833753],[-70.9192743,47.0833296],[-70.9193381,47.0832941],[-70.9194579,47.0832466],[-70.9195435,47.0832157],[-70.9196085,47.0831884],[-70.9196612,47.0831589],[-70.9196933,47.0831302],[-70.9197242,47.0830791],[-70.9197678,47.0830266],[-70.9198067,47.0829901],[-70.9198815,47.0829062],[-70.9199052,47.0828743],[-70.9199387,47.08283]]}},{"type":"Feature","id":200092789,"properties":{"kind":"run","name":"L'Orléans","subtype":"intermediate","pisteType":"downhill","featured":false},"geometry":{"type":"LineString","coordinates":[[-70.9149072,47.0833163],[-70.9151388,47.0830983],[-70.9151281,47.0829668],[-70.9149672,47.08285],[-70.91442,47.0824847],[-70.9133793,47.0815934],[-70.9125103,47.0807678],[-70.9116734,47.0801541],[-70.9111462,47.0798196]]}},{"type":"Feature","id":200092790,"properties":{"kind":"run","name":"La Belle","subtype":"advanced","pisteType":"downhill","featured":false},"geometry":{"type":"LineString","coordinates":[[-70.9218066,47.0858528],[-70.9209431,47.085648],[-70.920278,47.0854507],[-70.9199776,47.0853265],[-70.9191085,47.085027],[-70.9186043,47.0848663],[-70.9181078,47.084702]]}},{"type":"Feature","id":200092791,"properties":{"kind":"run","name":"La Gondoleuse (Haut)","subtype":"expert","pisteType":"downhill","featured":false},"geometry":{"type":"LineString","coordinates":[[-70.931672,47.086678],[-70.9311892,47.0866123],[-70.930523,47.0864356],[-70.9300734,47.0862397],[-70.928861,47.0855822],[-70.9249665,47.0834855],[-70.9213294,47.0815203],[-70.9211258,47.0814146]]}},{"type":"Feature","id":200092792,"properties":{"kind":"run","name":"La Gondoleuse","subtype":"intermediate","pisteType":"downhill","featured":false},"geometry":{"type":"LineString","coordinates":[[-70.9211258,47.0814146],[-70.9199025,47.0807459],[-70.9176494,47.0795477],[-70.9150745,47.0781303],[-70.9128858,47.0769466],[-70.9104179,47.0755774],[-70.9100958,47.0753987],[-70.9096317,47.0751503],[-70.9086479,47.0747108],[-70.9081334,47.0744617]]}},{"type":"Feature","id":200092793,"properties":{"kind":"run","name":"Les Îlots","subtype":"intermediate","pisteType":"downhill","featured":false},"geometry":{"type":"LineString","coordinates":[[-70.9290182,47.087236],[-70.926329,47.0868387],[-70.9237434,47.0864515],[-70.9226894,47.0862858],[-70.9220099,47.086179]]}},{"type":"Feature","id":200092794,"properties":{"kind":"run","name":"Le Corridor","subtype":"intermediate","pisteType":"downhill","featured":false},"geometry":{"type":"LineString","coordinates":[[-70.9199387,47.08283],[-70.9199975,47.082668],[-70.9200312,47.0826308],[-70.9200651,47.0824632],[-70.9200942,47.0823999],[-70.9201516,47.0823464],[-70.9202243,47.082134],[-70.9203852,47.0819586],[-70.9205355,47.0818929],[-70.9207822,47.0817906],[-70.9209753,47.0816299],[-70.9211258,47.0814146]]}},{"type":"Feature","id":200092795,"properties":{"kind":"run","name":"La Pionnière","subtype":"advanced","pisteType":"downhill","featured":false},"geometry":{"type":"LineString","coordinates":[[-70.930523,47.0864356],[-70.9300519,47.0863566],[-70.9297086,47.08632],[-70.929258,47.08632],[-70.9289361,47.0862543],[-70.9285606,47.0861009],[-70.9280242,47.0857648],[-70.9277238,47.0856114],[-70.9275092,47.0855968],[-70.927241,47.0856553],[-70.9268655,47.0856626],[-70.9266294,47.0855457],[-70.926329,47.0854069],[-70.9260286,47.0853557],[-70.925578,47.0853557],[-70.925224,47.0853996],[-70.9247841,47.0854069],[-70.9244837,47.0853777],[-70.9242691,47.08529],[-70.9234537,47.0848663],[-70.9225739,47.0844133],[-70.9219624,47.083975],[-70.9218658,47.0838508],[-70.9216191,47.0834709],[-70.921543,47.083282],[-70.9214357,47.0830991],[-70.9213079,47.082923],[-70.9211148,47.0827842],[-70.9209708,47.0827039],[-70.9208037,47.0826235],[-70.9205676,47.0825285],[-70.9202275,47.0823601],[-70.9201516,47.0823464]]}},{"type":"Feature","id":200092797,"properties":{"kind":"run","name":"La Buissonnière","subtype":"advanced","pisteType":"downhill","featured":false},"geometry":{"type":"LineString","coordinates":[[-70.9220099,47.086179],[-70.9202243,47.0859109],[-70.9178318,47.0855676],[-70.9172117,47.0854274]]}},{"type":"Feature","id":200092799,"properties":{"kind":"run","name":"La Miche","subtype":"intermediate","pisteType":"downhill","featured":false},"geometry":{"type":"LineString","coordinates":[[-70.91659,47.0838928],[-70.9164049,47.083639],[-70.9163112,47.0832794],[-70.9162478,47.0831861],[-70.9161458,47.0831279],[-70.9157826,47.0829522],[-70.91545,47.0827623],[-70.9151603,47.082492],[-70.9150316,47.082302],[-70.9148492,47.0821048],[-70.9145488,47.0818856],[-70.9142484,47.0816226],[-70.9140874,47.081418],[-70.9139372,47.0811477],[-70.9138514,47.0807386],[-70.9138728,47.0804975],[-70.9138407,47.0801687],[-70.9138407,47.0798691],[-70.9137741,47.0797303],[-70.9135188,47.0796865],[-70.9132077,47.0797084],[-70.912639,47.0797742],[-70.9122957,47.0797157],[-70.9117163,47.0796061],[-70.911075,47.0795374]]}},{"type":"Feature","id":200092800,"properties":{"kind":"run","name":"Le Court Vallon","subtype":"intermediate","pisteType":"downhill","featured":false},"geometry":{"type":"LineString","coordinates":[[-70.91659,47.0838928],[-70.9161581,47.0838508],[-70.9157826,47.0837485],[-70.9155036,47.0835586],[-70.9149072,47.0833163],[-70.9148277,47.0833394],[-70.9143771,47.0833029],[-70.9137977,47.0831787],[-70.9135081,47.0830253],[-70.9132184,47.0827331],[-70.9128965,47.0825358],[-70.9127356,47.0822801],[-70.9124674,47.0818344],[-70.9122313,47.0815714],[-70.9119846,47.0814472],[-70.9117271,47.0812427],[-70.9115232,47.0810308],[-70.9113623,47.0807313],[-70.9112561,47.0804242],[-70.9111462,47.0798196],[-70.911075,47.0795374],[-70.9109117,47.0792116],[-70.9106971,47.0787148],[-70.9105362,47.0783421],[-70.9105254,47.078028],[-70.9105254,47.0776042],[-70.9104457,47.0772275],[-70.9102465,47.0770635],[-70.9100963,47.0767932],[-70.909871,47.0763329],[-70.9097422,47.0761502],[-70.9096031,47.075953]]}},{"type":"Feature","id":200092801,"properties":{"kind":"run","name":"La Tourmente","subtype":"intermediate","pisteType":"downhill","featured":false},"geometry":{"type":"LineString","coordinates":[[-70.9149156,47.0864296],[-70.9147312,47.0860497],[-70.9144415,47.0856918],[-70.9140445,47.0852462],[-70.9138192,47.0849028],[-70.9130682,47.0836828],[-70.9128,47.0833906],[-70.9125103,47.0830618],[-70.9118022,47.0823824],[-70.9107508,47.0811988],[-70.9097744,47.0800956],[-70.9092165,47.079818],[-70.9091074,47.0796976],[-70.908369,47.0787586],[-70.9083046,47.0783714],[-70.9081415,47.0781087],[-70.9077474,47.0777282],[-70.9076851,47.0774585]]}},{"type":"Feature","id":200092802,"properties":{"kind":"run","name":"La Traverse","subtype":"intermediate","pisteType":"downhill","featured":false},"geometry":{"type":"LineString","coordinates":[[-70.9211258,47.0814146],[-70.9210826,47.0809943],[-70.9209539,47.0805997],[-70.9207071,47.0801979],[-70.9205998,47.0799933],[-70.9203423,47.0795769],[-70.9200956,47.0793285],[-70.9197201,47.0791166],[-70.9194905,47.0789453],[-70.9194089,47.078744],[-70.9194411,47.0785394],[-70.9194905,47.0781785],[-70.9193875,47.078028],[-70.9192051,47.0779111],[-70.9189798,47.0777576],[-70.9184862,47.0773046],[-70.9181544,47.0770182],[-70.9174191,47.0765528],[-70.9169949,47.0763767],[-70.9162332,47.0760625],[-70.9155573,47.0758287],[-70.915171,47.0756753],[-70.9150316,47.0755803],[-70.9149994,47.0754561],[-70.9150092,47.0751175]]}},{"type":"Feature","id":200092803,"properties":{"kind":"run","name":"La Bête","subtype":"expert","pisteType":"downhill","featured":false},"geometry":{"type":"LineString","coordinates":[[-70.9190842,47.0835507],[-70.9186686,47.083617],[-70.9183897,47.083617],[-70.9180678,47.0835951],[-70.9178211,47.0835367],[-70.9175958,47.0834125],[-70.9172095,47.0832298],[-70.91707,47.0831933],[-70.9168984,47.0831422],[-70.9166409,47.0831422],[-70.9161458,47.0831279]]}},{"type":"Feature","id":200092804,"properties":{"kind":"run","name":"Le Corridor","subtype":"intermediate","pisteType":"downhill","featured":false},"geometry":{"type":"LineString","coordinates":[[-70.9172117,47.0854274],[-70.9174043,47.0852969],[-70.9176644,47.0851206],[-70.9177663,47.0850298],[-70.9178983,47.0849122],[-70.9179119,47.0848985],[-70.9181078,47.084702],[-70.918228,47.0844946],[-70.9182955,47.0843572],[-70.9183514,47.0842819],[-70.9184166,47.0841941],[-70.9185202,47.0840952],[-70.9186401,47.0839905],[-70.9186832,47.083951],[-70.918951,47.0837134],[-70.9190505,47.0835995],[-70.9190842,47.0835507]]}},{"type":"Feature","id":200092805,"properties":{"kind":"run","name":"L'Antre du Dragon","subtype":"intermediate","pisteType":"downhill","featured":false},"geometry":{"type":"LineString","coordinates":[[-70.9212906,47.0894025],[-70.9209341,47.0894181],[-70.920422,47.0895616],[-70.9199668,47.0896215],[-70.9193553,47.0895047],[-70.9187545,47.0893147],[-70.9176279,47.0887965]]}},{"type":"Feature","id":200092806,"properties":{"kind":"run","name":"L'Alouette","subtype":"intermediate","pisteType":"downhill","featured":false},"geometry":{"type":"LineString","coordinates":[[-70.9137741,47.0797303],[-70.9136046,47.0794746],[-70.9134222,47.0793358],[-70.9130896,47.0791312],[-70.9127141,47.0788682],[-70.9125425,47.0786636],[-70.9124459,47.078481],[-70.9123494,47.0783129],[-70.9120489,47.0780499],[-70.9116734,47.0778015],[-70.9111906,47.0776115],[-70.9104457,47.0772275]]}},{"type":"Feature","id":200092807,"properties":{"kind":"run","name":"Le Corridor","subtype":"intermediate","pisteType":"downhill","featured":false},"geometry":{"type":"LineString","coordinates":[[-70.9172117,47.0854274],[-70.917025,47.085515],[-70.9166302,47.0856626],[-70.9165632,47.0857589],[-70.9165494,47.0858725]]}},{"type":"Feature","id":200092830,"properties":{"kind":"run","name":"L'Écolière","subtype":"easy","pisteType":"downhill","featured":false},"geometry":{"type":"LineString","coordinates":[[-70.9105898,47.080008],[-70.9101607,47.0799568],[-70.9099032,47.0798765],[-70.9098066,47.0797522],[-70.9097422,47.0795988],[-70.9095384,47.0794381],[-70.9093024,47.0792043],[-70.9090878,47.0789705],[-70.9088839,47.0787294],[-70.9086372,47.0785467],[-70.9083046,47.0783714]]}},{"type":"Feature","id":200092831,"properties":{"kind":"run","name":"L'Oie Blanche","subtype":"novice","pisteType":"downhill","featured":false},"geometry":{"type":"LineString","coordinates":[[-70.9090985,47.0764498],[-70.9090234,47.0763475],[-70.9088088,47.076121],[-70.9083368,47.0758726],[-70.9077681,47.0755657],[-70.9072746,47.0753976]]}},{"type":"Feature","id":200092832,"properties":{"kind":"run","name":"La Juvénile","subtype":"easy","pisteType":"downhill","featured":false},"geometry":{"type":"LineString","coordinates":[[-70.9112561,47.0804242],[-70.9108795,47.0802929],[-70.9107293,47.0801979],[-70.9105898,47.080008],[-70.9103216,47.0795988],[-70.9102787,47.0793796],[-70.9102143,47.079102],[-70.9099461,47.0787805],[-70.9096564,47.0784079],[-70.9094633,47.0783202],[-70.9087874,47.0780572],[-70.9083368,47.0779168],[-70.9076851,47.0774585],[-70.9068932,47.0766463]]}},{"type":"Feature","id":200093137,"properties":{"kind":"run","name":"L'Érablière","subtype":"intermediate","pisteType":"downhill","featured":false},"geometry":{"type":"LineString","coordinates":[[-70.9144548,47.0862556],[-70.9141196,47.0862835],[-70.9136046,47.0863054],[-70.9132184,47.0862908],[-70.9126198,47.0861915]]}},{"type":"Feature","id":200093142,"properties":{"kind":"run","name":"La Rigolo","subtype":"intermediate","pisteType":"downhill","featured":false},"geometry":{"type":"LineString","coordinates":[[-70.9201112,47.0924298],[-70.9200109,47.0924747],[-70.9199158,47.0925086],[-70.9197832,47.0925571],[-70.9196403,47.0925841],[-70.9195486,47.0925963],[-70.9195146,47.0926233],[-70.9195218,47.0926533],[-70.9195559,47.0926875],[-70.9196331,47.0927341],[-70.919658,47.09279],[-70.919673,47.092858],[-70.9196533,47.092954],[-70.9196573,47.0930558],[-70.9196849,47.093164],[-70.919693,47.09332],[-70.91965,47.093683],[-70.9197084,47.0940753],[-70.9196889,47.0941493],[-70.91965,47.09421],[-70.919539,47.094328],[-70.9194703,47.0944076],[-70.9194799,47.094501],[-70.919522,47.094612],[-70.919503,47.094725],[-70.9193663,47.0948951],[-70.9193055,47.0949731],[-70.9192639,47.0952057],[-70.9191997,47.095309],[-70.91911,47.0953314],[-70.9190076,47.0953821],[-70.918911,47.0955186],[-70.918882,47.095615],[-70.9185399,47.0956695],[-70.9183253,47.095801],[-70.9181858,47.0960055],[-70.9179176,47.0961589],[-70.9176065,47.0962685],[-70.917349,47.0963342],[-70.9167696,47.0963853],[-70.916314,47.0963156]]}},{"type":"Feature","id":204616334,"properties":{"kind":"run","name":"La Cachette","subtype":"intermediate","pisteType":"downhill","featured":false},"geometry":{"type":"LineString","coordinates":[[-70.9176279,47.0887965],[-70.9182372,47.0872878]]}},{"type":"Feature","id":243716787,"properties":{"kind":"run","name":"La Yahoo","subtype":"advanced","pisteType":"downhill","featured":false},"geometry":{"type":"LineString","coordinates":[[-70.9151332,47.0908069],[-70.9143342,47.0902863],[-70.913433,47.0897019],[-70.9123923,47.0890152],[-70.9121631,47.0888998],[-70.9116734,47.0886281],[-70.9109868,47.0882921],[-70.9098097,47.0878739]]}},{"type":"Feature","id":243716788,"properties":{"kind":"run","name":"Première Glisse","subtype":"novice","pisteType":"downhill","featured":false},"geometry":{"type":"LineString","coordinates":[[-70.9074677,47.075931],[-70.9072853,47.0758579],[-70.9070922,47.0757337]]}},{"type":"Feature","id":243716789,"properties":{"kind":"run","name":"La Palette","subtype":"intermediate","pisteType":"downhill","featured":false},"geometry":{"type":"LineString","coordinates":[[-70.9178319,47.0900614],[-70.9166731,47.0902424],[-70.9157611,47.0905638],[-70.9151332,47.0908069],[-70.9144951,47.0910971],[-70.9132613,47.0916011],[-70.9116945,47.0922344]]}},{"type":"Feature","id":243716790,"properties":{"kind":"lift","name":"Panorama Express","subtype":"chair_lift","status":"active"},"geometry":{"type":"LineString","coordinates":[[-70.9156592,47.0757447],[-70.9163307,47.0761475],[-70.9173488,47.0767582],[-70.9174613,47.0768257],[-70.9184307,47.0774071],[-70.9198012,47.0782292],[-70.9209108,47.0788947],[-70.9221376,47.0797068],[-70.923169,47.0803847],[-70.9242749,47.0811117],[-70.9253342,47.081808],[-70.9261537,47.0823467],[-70.9271544,47.0830045],[-70.9281289,47.083645],[-70.9289193,47.0841645],[-70.9296265,47.0846294],[-70.9304431,47.0851661],[-70.9314626,47.0858363],[-70.9318872,47.0861153]]}},{"type":"Feature","id":244087689,"properties":{"kind":"run","name":"La Passe à Pierrot","subtype":"easy","pisteType":"downhill","featured":false},"geometry":{"type":"LineString","coordinates":[[-70.9207217,47.0916338],[-70.9205816,47.0911774],[-70.9204852,47.0907746],[-70.9204512,47.0906584],[-70.9204035,47.0902399]]}},{"type":"Feature","id":315223893,"properties":{"kind":"run","name":"13 Sud (Enduro)","subtype":"intermediate","pisteType":"nordic","featured":false},"geometry":{"type":"LineString","coordinates":[[-70.8931529,47.0965385],[-70.8927364,47.0965492]]}},{"type":"Feature","id":315223909,"properties":{"kind":"run","name":"13 Sud (Enduro)","subtype":"intermediate","pisteType":"nordic","featured":false},"geometry":{"type":"LineString","coordinates":[[-70.891143,47.094008],[-70.8915113,47.0942972],[-70.8917904,47.0944891],[-70.8920367,47.0947725],[-70.8923461,47.0950161],[-70.8923166,47.0951504],[-70.8923294,47.0953344],[-70.8923576,47.0955191],[-70.8923984,47.0956341],[-70.8924802,47.0957272],[-70.892505,47.0961022],[-70.8925126,47.0962135],[-70.89251,47.0963284],[-70.8925406,47.0963998],[-70.892636,47.0964636],[-70.8927364,47.0965492]]}},{"type":"Feature","id":553322037,"properties":{"kind":"run","name":"Sentier du Versand Nord","subtype":"intermediate","pisteType":"nordic","featured":false},"geometry":{"type":"LineString","coordinates":[[-70.9159279,47.1079465],[-70.916019,47.107957],[-70.916197,47.108013],[-70.916387,47.108041],[-70.916488,47.10803],[-70.916576,47.107995],[-70.916648,47.107916],[-70.916709,47.107599],[-70.916768,47.107522],[-70.916907,47.10744],[-70.917751,47.107082],[-70.918871,47.106652],[-70.920834,47.105805],[-70.921182,47.105614],[-70.921771,47.105157],[-70.921943,47.105061],[-70.923235,47.104622],[-70.923406,47.104583],[-70.923496,47.104583],[-70.923751,47.104624],[-70.923971,47.10464],[-70.9241,47.104628],[-70.924267,47.104579],[-70.924655,47.104411],[-70.925014,47.10419],[-70.925103,47.104154],[-70.925364,47.104095],[-70.925542,47.104037],[-70.927591,47.103168],[-70.927736,47.103093],[-70.927999,47.102919],[-70.928093,47.102889],[-70.928359,47.102843],[-70.928549,47.102783],[-70.929203,47.102502],[-70.929722,47.102247],[-70.929849,47.102157],[-70.930087,47.101943],[-70.930199,47.101881],[-70.930335,47.101826],[-70.930604,47.101755],[-70.931223,47.10161],[-70.931478,47.101516],[-70.932887,47.10091],[-70.933971,47.100344],[-70.935095,47.09992],[-70.935735,47.09964],[-70.936615,47.099318],[-70.936813,47.099216],[-70.936951,47.0991]]}},{"type":"Feature","id":553350969,"properties":{"kind":"run","name":"13 Nord (Jean Larose)","subtype":"intermediate","pisteType":"nordic","featured":false},"geometry":{"type":"LineString","coordinates":[[-70.8931529,47.0965385],[-70.8932081,47.0967152],[-70.893269,47.09691],[-70.893265,47.09763],[-70.893166,47.09798],[-70.892775,47.098567],[-70.892772,47.099179],[-70.89294,47.099543],[-70.89294,47.100444],[-70.893031,47.100797],[-70.893221,47.101314],[-70.893523,47.101641],[-70.8936428,47.1017475],[-70.8938969,47.1021003],[-70.8943653,47.1030666],[-70.8944569,47.1036734],[-70.8943763,47.1038695],[-70.8943274,47.104022],[-70.8942017,47.1041149],[-70.8940498,47.1041536],[-70.8939002,47.1041499],[-70.8936639,47.1041656],[-70.8934553,47.1042208],[-70.8931753,47.1042703],[-70.892795,47.1042719],[-70.8926002,47.104154],[-70.8923672,47.1041762],[-70.8920722,47.104243],[-70.8917343,47.1043475],[-70.8915545,47.1044229],[-70.8913676,47.104463],[-70.8911468,47.1045186],[-70.8909358,47.1045681],[-70.8906761,47.1046158],[-70.8904927,47.1046568],[-70.8903363,47.1046716],[-70.890179,47.1046944],[-70.889177,47.104804],[-70.88879,47.104916],[-70.8886685,47.1050223],[-70.888478,47.105189],[-70.888048,47.105903],[-70.88795,47.106175],[-70.887716,47.106365],[-70.887306,47.106525],[-70.8862975,47.1067234],[-70.88574,47.106833],[-70.884491,47.106979],[-70.883474,47.107268],[-70.883038,47.107567],[-70.882623,47.107724],[-70.88221,47.107948],[-70.882034,47.108128],[-70.88176,47.108585],[-70.881416,47.108805],[-70.881012,47.108883],[-70.879908,47.108831],[-70.878867,47.10895],[-70.87832,47.109083],[-70.8780719,47.1091997],[-70.877811,47.1094554],[-70.8774876,47.1096294],[-70.8768597,47.1099193],[-70.8767587,47.1100615],[-70.876739,47.1102202],[-70.876784,47.110411],[-70.876782,47.110807],[-70.8767187,47.1110423],[-70.8765734,47.1113876],[-70.8765229,47.1114879],[-70.8758751,47.1120168],[-70.8753773,47.1122935]]}},{"type":"Feature","id":561288464,"properties":{"kind":"run","name":"24","subtype":"advanced","pisteType":"nordic","featured":false},"geometry":{"type":"LineString","coordinates":[[-70.9140064,47.107425],[-70.914023,47.107221],[-70.9140103,47.1071175]]}},{"type":"Feature","id":561294591,"properties":{"kind":"run","name":"24","subtype":"advanced","pisteType":"nordic","featured":false},"geometry":{"type":"LineString","coordinates":[[-70.9140103,47.1071175],[-70.913878,47.107111],[-70.913207,47.107109],[-70.912944,47.107133],[-70.912762,47.10713],[-70.912441,47.10709],[-70.912011,47.10711],[-70.911774,47.107161],[-70.911671,47.107198],[-70.911417,47.107352],[-70.911215,47.1075],[-70.910419,47.107954],[-70.910152,47.108023],[-70.909846,47.10807],[-70.909549,47.108093],[-70.909372,47.108074],[-70.909142,47.107987],[-70.90901,47.107903],[-70.9088,47.107732],[-70.908704,47.107625],[-70.908277,47.107],[-70.90822,47.106942],[-70.908119,47.106898],[-70.908007,47.1069],[-70.907876,47.106942],[-70.907798,47.106998],[-70.907502,47.107387],[-70.907266,47.107638],[-70.907007,47.108085],[-70.906945,47.108258],[-70.906915,47.10854],[-70.90684,47.108801],[-70.906678,47.109027],[-70.906606,47.109087],[-70.906268,47.109234],[-70.906114,47.109282],[-70.9059,47.10932],[-70.905427,47.109434],[-70.905269,47.109488],[-70.905009,47.109617],[-70.904579,47.10972],[-70.904358,47.109726]]}},{"type":"Feature","id":561327907,"properties":{"kind":"run","name":"13 Sud (Enduro)","subtype":"intermediate","pisteType":"nordic","featured":false},"geometry":{"type":"LineString","coordinates":[[-70.8752191,47.112076],[-70.8753001,47.1120082],[-70.875365,47.1119246],[-70.8753784,47.1118427],[-70.8753933,47.1117065],[-70.8753928,47.1115967],[-70.8753475,47.1115008],[-70.8753128,47.1113701],[-70.8752949,47.111247],[-70.8752359,47.1111344],[-70.8751984,47.1109901],[-70.8751686,47.1108957],[-70.8751264,47.110789],[-70.8751086,47.1106941],[-70.8751057,47.1106212],[-70.8751206,47.1105705],[-70.8752043,47.1104346],[-70.875302,47.1103274],[-70.8753846,47.1102757],[-70.8754593,47.1102332],[-70.8756104,47.1100942],[-70.8757986,47.1099878],[-70.8759115,47.1099059],[-70.8760181,47.1097773],[-70.8761689,47.1095895],[-70.876256,47.109459],[-70.8763799,47.1092951],[-70.8764693,47.1092262],[-70.8766288,47.1090521],[-70.8767595,47.1089413],[-70.876911,47.108834],[-70.8770131,47.108779],[-70.877112,47.1087084],[-70.8771689,47.1086527],[-70.8772152,47.10858],[-70.8772638,47.1085199],[-70.8772954,47.1084648],[-70.877316,47.108399],[-70.877371,47.108298],[-70.8773817,47.1082046],[-70.877444,47.108104],[-70.8775529,47.1079878],[-70.8776218,47.1079515],[-70.8776586,47.1079041],[-70.8779913,47.1077527],[-70.878309,47.1076105],[-70.8784765,47.1075554],[-70.8786302,47.1075166],[-70.8787793,47.1075029],[-70.8789147,47.1074748],[-70.879115,47.107403],[-70.8791996,47.107377],[-70.8793014,47.1073306],[-70.879415,47.1072597],[-70.87954,47.1071819],[-70.8796312,47.1070998],[-70.879735,47.107031],[-70.88012,47.106789],[-70.880172,47.106727],[-70.880287,47.106653],[-70.880408,47.106539],[-70.880866,47.106195],[-70.881023,47.106057],[-70.881068,47.106039],[-70.881121,47.105978],[-70.881478,47.105764],[-70.881613,47.105658],[-70.881906,47.10551],[-70.8824494,47.1052751],[-70.8826167,47.105199],[-70.8827019,47.1051793],[-70.8828343,47.1051485],[-70.8829801,47.1051304],[-70.8831146,47.1051263],[-70.8832066,47.1051254],[-70.8833401,47.1051252],[-70.8834749,47.1051474],[-70.8835875,47.1051829],[-70.8836899,47.1052478],[-70.8838058,47.1053004],[-70.8839288,47.1053325],[-70.8842,47.105334],[-70.884512,47.105298],[-70.88476,47.105235],[-70.885021,47.105113],[-70.885178,47.105016],[-70.88527,47.104932],[-70.885302,47.104865],[-70.885369,47.104813],[-70.885471,47.104692],[-70.885543,47.10464],[-70.885667,47.104486],[-70.885885,47.104282],[-70.885921,47.104216],[-70.886078,47.104034],[-70.886216,47.10393],[-70.886318,47.103812],[-70.886643,47.103528],[-70.887091,47.103182],[-70.887457,47.102803],[-70.8878,47.10254],[-70.88833,47.102197],[-70.888562,47.10211],[-70.888713,47.102077],[-70.888882,47.101992],[-70.888977,47.101865],[-70.889013,47.101688],[-70.889063,47.101586],[-70.8890764,47.1014107],[-70.889089,47.101047],[-70.889136,47.100983],[-70.889169,47.100841],[-70.88923,47.100743],[-70.889257,47.100527],[-70.889315,47.100468],[-70.889347,47.100181],[-70.889399,47.100119],[-70.889432,47.099941],[-70.889482,47.099839],[-70.889528,47.099626],[-70.889568,47.099559],[-70.889604,47.099417],[-70.889776,47.0989729],[-70.889828,47.098875],[-70.889861,47.09866],[-70.889951,47.098493],[-70.890118,47.098313],[-70.890258,47.098207],[-70.890338,47.098116],[-70.890378,47.098012],[-70.890434,47.097954],[-70.890462,47.097811],[-70.890511,47.09775],[-70.890548,47.097608],[-70.890605,47.097549],[-70.890637,47.097407],[-70.890685,47.097344],[-70.890719,47.097238],[-70.890776,47.097179],[-70.890813,47.096928],[-70.890859,47.096826],[-70.890891,47.096394],[-70.890864,47.096215],[-70.8908,47.096117],[-70.890776,47.09601],[-70.890726,47.095948],[-70.890689,47.09577],[-70.890632,47.09571],[-70.890603,47.095531],[-70.890603,47.095351],[-70.890646,47.094739],[-70.8906773,47.0945942],[-70.8907943,47.094403],[-70.890873,47.0942712],[-70.891143,47.094008]]}},{"type":"Feature","id":904601712,"properties":{"kind":"run","name":"La Crête","subtype":"unknown","pisteType":"downhill","featured":true},"geometry":{"type":"LineString","coordinates":[[-70.9321254,47.086005],[-70.9320846,47.0858615],[-70.9320548,47.0857628],[-70.9320387,47.0857146],[-70.9319912,47.0855627],[-70.9319403,47.0853734],[-70.9319182,47.0852876],[-70.931906,47.0851726],[-70.9319,47.0848806],[-70.9319585,47.0844024],[-70.9321027,47.0838597],[-70.9321824,47.0837692],[-70.932354,47.0835742],[-70.9324343,47.0834385],[-70.9324941,47.083338],[-70.9325987,47.0832213],[-70.9327464,47.0830785],[-70.9328131,47.0829483],[-70.9328731,47.0827815],[-70.9331955,47.0826235],[-70.9336139,47.0823824],[-70.9337182,47.0822038],[-70.9337621,47.0820201],[-70.9339254,47.0818098],[-70.9341367,47.0815356],[-70.9342694,47.0813312]]}},{"type":"Feature","id":904601713,"properties":{"kind":"run","name":"Lap A Rousseau","subtype":"expert","pisteType":"downhill","featured":false},"geometry":{"type":"LineString","coordinates":[[-70.9319585,47.0844024],[-70.9316796,47.084136],[-70.9313256,47.083873],[-70.9310359,47.0835515],[-70.9309822,47.0832228],[-70.9308106,47.0830036],[-70.9305531,47.0827771],[-70.9303814,47.0826164],[-70.9301883,47.0823972],[-70.9299737,47.0821269],[-70.9298128,47.0818785],[-70.9296089,47.0817032],[-70.9292763,47.0815205],[-70.9289652,47.081294],[-70.9284717,47.0810383],[-70.9283322,47.0808922],[-70.9281069,47.0807096],[-70.9276563,47.0804758],[-70.9273344,47.0802712],[-70.9271301,47.0800245]]}},{"type":"Feature","id":908213753,"properties":{"kind":"run","name":"14 Nord","subtype":"intermediate","pisteType":"nordic","featured":false},"geometry":{"type":"LineString","coordinates":[[-70.904876,47.081923],[-70.9049699,47.0817728],[-70.9050097,47.0814747],[-70.904988,47.0812139],[-70.9049831,47.0811554],[-70.9047487,47.0806645],[-70.9048239,47.080279],[-70.9055051,47.0794929],[-70.9055437,47.0793408],[-70.9055795,47.0792259],[-70.9055714,47.0790417]]}},{"type":"Feature","id":996457794,"properties":{"kind":"run","name":"Ski touring route","subtype":"unknown","pisteType":"skitour","featured":false},"geometry":{"type":"LineString","coordinates":[[-70.9048083,47.0824435],[-70.9049195,47.0825661],[-70.9049424,47.082662],[-70.9049297,47.0827725],[-70.9049378,47.0829175],[-70.9049885,47.0829683],[-70.9050575,47.0830387],[-70.905225,47.083186]]}},{"type":"Feature","id":996861147,"properties":{"kind":"run","name":"La Connexion","subtype":"advanced","pisteType":"downhill","featured":false},"geometry":{"type":"LineString","coordinates":[[-70.9196663,47.0796118],[-70.9104528,47.0752263]]}},{"type":"Feature","id":1043607932,"properties":{"kind":"run","name":"14 Nord","subtype":"intermediate","pisteType":"nordic","featured":false},"geometry":{"type":"LineString","coordinates":[[-70.9048083,47.0824435],[-70.90479,47.082534],[-70.9047414,47.0826087],[-70.9047034,47.0826509],[-70.9046108,47.0827224],[-70.9045005,47.0827919],[-70.9042279,47.0829129],[-70.9040043,47.0830583],[-70.9038533,47.0831617],[-70.9037555,47.0832473],[-70.903684,47.083334],[-70.9035424,47.0834949],[-70.903234,47.08396],[-70.90238,47.084753],[-70.902221,47.0848604],[-70.9016658,47.0851246],[-70.901292,47.085246],[-70.9011311,47.0853221],[-70.9010621,47.0853696],[-70.9010535,47.0854851],[-70.9010981,47.0855986],[-70.9011731,47.0857471],[-70.9012106,47.0858621],[-70.9011818,47.0859894],[-70.901104,47.0861296],[-70.900845,47.086651],[-70.900769,47.086893],[-70.900753,47.087289],[-70.90051,47.087789],[-70.9003889,47.0882837],[-70.900399,47.088461],[-70.900075,47.089206],[-70.900055,47.089386],[-70.899874,47.089674],[-70.899182,47.090112],[-70.89904,47.090264],[-70.898962,47.090398],[-70.898944,47.090829],[-70.898848,47.091032],[-70.898631,47.091186],[-70.898178,47.091273],[-70.8979595,47.0913348],[-70.897776,47.091504],[-70.897728,47.091787],[-70.897327,47.092205],[-70.896864,47.093127],[-70.896253,47.093523],[-70.895385,47.093782],[-70.895083,47.0939547],[-70.894562,47.094338],[-70.8942249,47.0947267],[-70.894026,47.0953093],[-70.8939065,47.0954915],[-70.893462,47.095922],[-70.8932023,47.0963138],[-70.8931529,47.0965385]]}},{"type":"Feature","id":1043607933,"properties":{"kind":"run","name":"14 Sud","subtype":"intermediate","pisteType":"nordic","featured":false},"geometry":{"type":"LineString","coordinates":[[-70.8934792,47.0932089],[-70.8936459,47.0932201],[-70.8937897,47.0932121],[-70.8939108,47.0932082],[-70.89427,47.093137],[-70.894429,47.093096],[-70.894653,47.093003],[-70.894729,47.092955],[-70.894842,47.092837],[-70.894942,47.092672],[-70.894972,47.092531],[-70.894969,47.092369],[-70.894996,47.092247],[-70.895042,47.092173],[-70.895393,47.091763],[-70.8956,47.091555],[-70.895754,47.091337],[-70.8959328,47.0912068],[-70.8962311,47.0910993],[-70.8965031,47.090932],[-70.8967664,47.0907169],[-70.8969419,47.0904062],[-70.897135,47.090221],[-70.897389,47.089994],[-70.897464,47.08994],[-70.897515,47.08976],[-70.897579,47.089644],[-70.897687,47.089545],[-70.898114,47.089254],[-70.898605,47.088768],[-70.8986865,47.0886801],[-70.8986833,47.0886061],[-70.8986447,47.088474],[-70.8985871,47.0883356],[-70.8985447,47.0881352],[-70.8985162,47.0879377],[-70.8984987,47.0877966],[-70.898477,47.0876584],[-70.8984829,47.0875761],[-70.898518,47.0875009],[-70.8985739,47.0874311],[-70.898613,47.0873466],[-70.8986529,47.0872246],[-70.8986414,47.0871032],[-70.8986471,47.0869494],[-70.8988194,47.0866171],[-70.8988863,47.0865225],[-70.8989579,47.086446]]}},{"type":"Feature","id":1043607934,"properties":{"kind":"run","name":"14 Sud","subtype":"intermediate","pisteType":"nordic","featured":false},"geometry":{"type":"LineString","coordinates":[[-70.891143,47.094008],[-70.8912304,47.0940049],[-70.8914568,47.0939017],[-70.8915931,47.09388],[-70.8918727,47.0938772],[-70.8917802,47.093783],[-70.8917458,47.0937229],[-70.8917383,47.0936713],[-70.892068,47.0934339],[-70.8922718,47.0932945],[-70.8924078,47.0931879],[-70.8925107,47.0931409],[-70.8925887,47.0931055],[-70.8926753,47.0930826],[-70.8927682,47.0930807],[-70.8929251,47.093107],[-70.893338,47.093193],[-70.8934792,47.0932089]]}},{"type":"Feature","id":1044085080,"properties":{"kind":"run","name":"14 Nord","subtype":"intermediate","pisteType":"nordic","featured":false},"geometry":{"type":"LineString","coordinates":[[-70.904876,47.081923],[-70.904754,47.081986],[-70.9046666,47.0820783],[-70.9047536,47.0822834],[-70.9048083,47.0824435]]}},{"type":"Feature","id":1074216342,"properties":{"kind":"run","name":"Ski touring route","subtype":"unknown","pisteType":"skitour","featured":false},"geometry":{"type":"LineString","coordinates":[[-70.9065497,47.0911116],[-70.9063145,47.0910522],[-70.906203,47.0910377],[-70.9060899,47.0910188],[-70.9059752,47.0909875],[-70.9058818,47.0909853],[-70.9056622,47.091031],[-70.9055139,47.0910991],[-70.9053965,47.0911366]]}},{"type":"Feature","id":1424521655,"properties":{"kind":"lift","name":"Zip Line","subtype":"zip_line","status":"active"},"geometry":{"type":"LineString","coordinates":[[-70.8770458,47.0745489],[-70.8751868,47.0731852]]}}]}