{"type":"FeatureCollection","features":[{"type":"Feature","id":244638290,"properties":{"kind":"lift","name":"T-Bar","subtype":"t-bar","status":"active"},"geometry":{"type":"LineString","coordinates":[[147.6640928,-41.5326835],[147.6607132,-41.5321695]]}},{"type":"Feature","id":244638291,"properties":{"kind":"lift","name":"T-Bar","subtype":"t-bar","status":"active"},"geometry":{"type":"LineString","coordinates":[[147.6640499,-41.5331413],[147.6595867,-41.5325952]]}},{"type":"Feature","id":244638292,"properties":{"kind":"lift","name":"T-Bar","subtype":"t-bar","status":"active"},"geometry":{"type":"LineString","coordinates":[[147.6616037,-41.535382],[147.6593614,-41.5330369]]}},{"type":"Feature","id":244638293,"properties":{"kind":"lift","name":"T-Bar","subtype":"t-bar","status":"active"},"geometry":{"type":"LineString","coordinates":[[147.6603913,-41.5363136],[147.6578915,-41.5344102]]}},{"type":"Feature","id":244638294,"properties":{"kind":"lift","name":"T-Bar","subtype":"t-bar","status":"active"},"geometry":{"type":"LineString","coordinates":[[147.6647687,-41.5335348],[147.6614213,-41.5345146]]}},{"type":"Feature","id":244638295,"properties":{"kind":"lift","name":"Platter","subtype":"platter","status":"active"},"geometry":{"type":"LineString","coordinates":[[147.6597047,-41.5366429],[147.6570868,-41.5357595]]}}]}