{"type":"FeatureCollection","features":[{"type":"Feature","id":"building-188701720","properties":{"kind":"building","name":"Legges Tor Public Shelter","height":7.2},"geometry":{"type":"Polygon","coordinates":[[[147.6666248,-41.5341517],[147.6665658,-41.5341115],[147.6665711,-41.5340935],[147.6665336,-41.5340874],[147.6665067,-41.5340955],[147.6664799,-41.5341196],[147.6664874,-41.5341288],[147.6664633,-41.5342272],[147.6665202,-41.5342501],[147.6666248,-41.5341517]]]}},{"type":"Feature","id":"building-274726643","properties":{"kind":"building","name":"Resort building","height":7.2},"geometry":{"type":"Polygon","coordinates":[[[147.6654482,-41.5337407],[147.6655481,-41.5339309],[147.6656023,-41.5339095],[147.665568,-41.5338518],[147.6656109,-41.533839],[147.6655909,-41.5338005],[147.6656651,-41.5337813],[147.6656096,-41.5336612],[147.6655248,-41.5336808],[147.6655349,-41.5337178],[147.6654482,-41.5337407]]]}},{"type":"Feature","id":"building-274726644","properties":{"kind":"building","name":"Resort building","height":7.2},"geometry":{"type":"Polygon","coordinates":[[[147.6659191,-41.5332604],[147.6659797,-41.533345],[147.665907,-41.5333843],[147.6658465,-41.5333088],[147.6659191,-41.5332604]]]}},{"type":"Feature","id":"building-274726645","properties":{"kind":"building","name":"Resort building","height":7.2},"geometry":{"type":"Polygon","coordinates":[[[147.6655395,-41.5322771],[147.6656137,-41.5324373],[147.6654681,-41.5324801],[147.6653968,-41.5323177],[147.6655395,-41.5322771]]]}},{"type":"Feature","id":"building-274726646","properties":{"kind":"building","name":"Resort building","height":7.2},"geometry":{"type":"Polygon","coordinates":[[[147.6666153,-41.5345065],[147.6666404,-41.5345628],[147.6669381,-41.5344642],[147.6669159,-41.5344095],[147.6666153,-41.5345065]]]}},{"type":"Feature","id":"building-274726647","properties":{"kind":"building","name":"Resort building","height":7.2},"geometry":{"type":"Polygon","coordinates":[[[147.6652814,-41.5328374],[147.6653136,-41.532925],[147.665459,-41.5328978],[147.6654347,-41.5328072],[147.6652814,-41.5328374]]]}},{"type":"Feature","id":"building-274726648","properties":{"kind":"building","name":"Resort building","height":7.2},"geometry":{"type":"Polygon","coordinates":[[[147.6651603,-41.5329703],[147.6651764,-41.5330368],[147.6650351,-41.5330549],[147.665023,-41.5329854],[147.6651603,-41.5329703]]]}},{"type":"Feature","id":"building-274726649","properties":{"kind":"building","name":"Resort building","height":7.2},"geometry":{"type":"Polygon","coordinates":[[[147.6658344,-41.5330338],[147.6658747,-41.5331426],[147.6657859,-41.5331607],[147.6657415,-41.5330519],[147.6658344,-41.5330338]]]}},{"type":"Feature","id":"building-274726650","properties":{"kind":"building","name":"Resort building","height":7.2},"geometry":{"type":"Polygon","coordinates":[[[147.6660241,-41.5319429],[147.6660039,-41.5318432],[147.6659151,-41.5318523],[147.6659312,-41.531949],[147.6660241,-41.5319429]]]}},{"type":"Feature","id":"building-274726651","properties":{"kind":"building","name":"Resort building","height":7.2},"geometry":{"type":"Polygon","coordinates":[[[147.6656043,-41.5332483],[147.6656527,-41.5333269],[147.6655599,-41.5333511],[147.6655276,-41.5332846],[147.6656043,-41.5332483]]]}},{"type":"Feature","id":"building-274726652","properties":{"kind":"building","name":"Resort building","height":7.2},"geometry":{"type":"Polygon","coordinates":[[[147.6659999,-41.5330096],[147.6661734,-41.5329945],[147.6661654,-41.532925],[147.6659958,-41.5329371],[147.6659999,-41.5330096]]]}},{"type":"Feature","id":"building-274726653","properties":{"kind":"building","name":"Resort building","height":7.2},"geometry":{"type":"Polygon","coordinates":[[[147.6651764,-41.5326047],[147.6651845,-41.5326954],[147.6652652,-41.5326954],[147.6652652,-41.5326017],[147.6651764,-41.5326047]]]}},{"type":"Feature","id":"building-274726654","properties":{"kind":"building","name":"Resort building","height":7.2},"geometry":{"type":"Polygon","coordinates":[[[147.665903,-41.5335233],[147.6659716,-41.5335565],[147.6659312,-41.533617],[147.6658586,-41.5335958],[147.665903,-41.5335233]]]}},{"type":"Feature","id":"building-274726655","properties":{"kind":"building","name":"Resort building","height":7.2},"geometry":{"type":"Polygon","coordinates":[[[147.6660133,-41.5325591],[147.6660561,-41.5326617],[147.6661418,-41.5326446],[147.6661075,-41.5325399],[147.6660133,-41.5325591]]]}},{"type":"Feature","id":"building-274726656","properties":{"kind":"building","name":"Resort building","height":7.2},"geometry":{"type":"Polygon","coordinates":[[[147.6663228,-41.5342636],[147.6663066,-41.5343935],[147.6664721,-41.5343845],[147.666565,-41.5343422],[147.666561,-41.5342878],[147.6663228,-41.5342636]]]}},{"type":"Feature","id":"building-274726657","properties":{"kind":"building","name":"Resort building","height":7.2},"geometry":{"type":"Polygon","coordinates":[[[147.6663228,-41.5330549],[147.6663753,-41.5331244],[147.6662744,-41.5331818],[147.6663026,-41.5332211],[147.666234,-41.5332574],[147.6661411,-41.5331426],[147.6663228,-41.5330549]]]}},{"type":"Feature","id":"building-274726658","properties":{"kind":"building","name":"Resort building","height":7.2},"geometry":{"type":"Polygon","coordinates":[[[147.6666175,-41.5335112],[147.6667265,-41.5336442],[147.666674,-41.5336714],[147.6666417,-41.5336411],[147.6665852,-41.5336563],[147.6665085,-41.5335565],[147.6666175,-41.5335112]]]}},{"type":"Feature","id":"building-274726659","properties":{"kind":"building","name":"Resort building","height":7.2},"geometry":{"type":"Polygon","coordinates":[[[147.66808,-41.5322737],[147.6680372,-41.5323742],[147.6680743,-41.5323849],[147.6680971,-41.5323549],[147.6681685,-41.5323614],[147.6681856,-41.5323058],[147.66808,-41.5322737]]]}},{"type":"Feature","id":"building-274726660","properties":{"kind":"building","name":"Resort building","height":7.2},"geometry":{"type":"Polygon","coordinates":[[[147.6662945,-41.5333631],[147.6664843,-41.5332997],[147.6665044,-41.5333601],[147.66646,-41.5333813],[147.6664923,-41.5334417],[147.6664116,-41.5334689],[147.6663753,-41.5334145],[147.6663349,-41.5334266],[147.6662945,-41.5333631]]]}},{"type":"Feature","id":"pylon-ben-lomond-0","properties":{"kind":"pylon","name":"Lift tower","height":13},"geometry":{"type":"Polygon","coordinates":[[[147.66253160930006,-41.532442044845084],[147.6625238767927,-41.532428070402766],[147.6625052088686,-41.53242228199923],[147.66248654094449,-41.532428070402766],[147.66247880843713,-41.532442044845084],[147.66248654094449,-41.5324560192874],[147.6625052088686,-41.532461807690936],[147.6625238767927,-41.5324560192874],[147.66253160930006,-41.532442044845084]]]}},{"type":"Feature","id":"pylon-ben-lomond-1","properties":{"kind":"pylon","name":"Lift tower","height":13},"geometry":{"type":"Polygon","coordinates":[[[147.66094401807013,-41.53220058969018],[147.66093628559162,-41.53218661524786],[147.6609176177372,-41.532180826844325],[147.66089894988278,-41.53218661524786],[147.66089121740427,-41.53220058969018],[147.66089894988278,-41.532214564132495],[147.6609176177372,-41.53222035253603],[147.66093628559162,-41.532214564132495],[147.66094401807013,-41.53220058969018]]]}},{"type":"Feature","id":"pylon-ben-lomond-2","properties":{"kind":"pylon","name":"Lift tower","height":13},"geometry":{"type":"Polygon","coordinates":[[[147.66247748019921,-41.53294567447547],[147.66246974763166,-41.53293170003315],[147.6624510795622,-41.53292591162962],[147.66243241149274,-41.53293170003315],[147.6624246789252,-41.53294567447547],[147.66243241149274,-41.53295964891779],[147.6624510795622,-41.53296543732132],[147.66246974763166,-41.53295964891779],[147.66247748019921,-41.53294567447547]]]}},{"type":"Feature","id":"pylon-ben-lomond-3","properties":{"kind":"pylon","name":"Lift tower","height":13},"geometry":{"type":"Polygon","coordinates":[[[147.6608786596816,-41.532750048950945],[147.6608709271374,-41.53273607450863],[147.66085225912443,-41.53273028610509],[147.66083359111144,-41.53273607450863],[147.66082585856725,-41.532750048950945],[147.66083359111144,-41.53276402339326],[147.66085225912443,-41.5327698117968],[147.6608709271374,-41.53276402339326],[147.6608786596816,-41.532750048950945]]]}},{"type":"Feature","id":"pylon-ben-lomond-4","properties":{"kind":"pylon","name":"Lift tower","height":13},"geometry":{"type":"Polygon","coordinates":[[[147.66068718080885,-41.53439585065467],[147.66067944806792,-41.53438187621235],[147.66066077957996,-41.534376087808816],[147.660642111092,-41.53438187621235],[147.66063437835106,-41.53439585065467],[147.660642111092,-41.534409825096986],[147.66066077957996,-41.53441561350052],[147.66067944806792,-41.534409825096986],[147.66068718080885,-41.53439585065467]]]}},{"type":"Feature","id":"pylon-ben-lomond-5","properties":{"kind":"pylon","name":"Lift tower","height":13},"geometry":{"type":"Polygon","coordinates":[[[147.6597442599863,-41.53340970130934],[147.6597365273633,-41.53339572686702],[147.6597178591599,-41.533389938463486],[147.65969919095653,-41.53339572686702],[147.65969145833353,-41.53340970130934],[147.65969919095653,-41.533423675751656],[147.6597178591599,-41.53342946415519],[147.6597365273633,-41.533423675751656],[147.6597442599863,-41.53340970130934]]]}},{"type":"Feature","id":"pylon-ben-lomond-6","properties":{"kind":"pylon","name":"Lift tower","height":13},"geometry":{"type":"Polygon","coordinates":[[[147.65928192700233,-41.535448797423435],[147.65927419413552,-41.53543482298112],[147.65925552534364,-41.53542903457758],[147.65923685655176,-41.53543482298112],[147.65922912368495,-41.535448797423435],[147.65923685655176,-41.53546277186575],[147.65925552534364,-41.53546856026929],[147.65927419413552,-41.53546277186575],[147.65928192700233,-41.535448797423435]]]}},{"type":"Feature","id":"pylon-ben-lomond-7","properties":{"kind":"pylon","name":"Lift tower","height":13},"geometry":{"type":"Polygon","coordinates":[[[147.65814615199298,-41.53458399484686],[147.65813841922957,-41.534570020404544],[147.6581197506873,-41.53456423200101],[147.658101082145,-41.534570020404544],[147.6580933493816,-41.53458399484686],[147.658101082145,-41.53459796928918],[147.6581197506873,-41.534603757692715],[147.65813841922957,-41.53459796928918],[147.65814615199298,-41.53458399484686]]]}},{"type":"Feature","id":"pylon-ben-lomond-8","properties":{"kind":"pylon","name":"Lift tower","height":13},"geometry":{"type":"Polygon","coordinates":[[[147.6632862820351,-41.53397643854883],[147.6632785493443,-41.53396246410651],[147.6632598809774,-41.533956675702974],[147.66324121261047,-41.53396246410651],[147.66323347991968,-41.53397643854883],[147.66324121261047,-41.533990412991145],[147.6632598809774,-41.53399620139468],[147.6632785493443,-41.533990412991145],[147.6632862820351,-41.53397643854883]]]}},{"type":"Feature","id":"pylon-ben-lomond-9","properties":{"kind":"pylon","name":"Lift tower","height":13},"geometry":{"type":"Polygon","coordinates":[[[147.66177746319275,-41.53441807709766],[147.66176973044918,-41.534404102655344],[147.6617510619548,-41.53439831425181],[147.6617323934604,-41.534404102655344],[147.66172466071683,-41.53441807709766],[147.6617323934604,-41.53443205153998],[147.6617510619548,-41.534437839943514],[147.66176973044918,-41.53443205153998],[147.66177746319275,-41.53441807709766]]]}},{"type":"Feature","id":"pylon-ben-lomond-10","properties":{"kind":"pylon","name":"Lift tower","height":13},"geometry":{"type":"Polygon","coordinates":[[[147.65825412574438,-41.53614450022401],[147.6582463927944,-41.536130525781694],[147.65822772380173,-41.53612473737816],[147.65820905480905,-41.536130525781694],[147.65820132185908,-41.53614450022401],[147.65820905480905,-41.53615847466633],[147.65822772380173,-41.536164263069864],[147.6582463927944,-41.53615847466633],[147.65825412574438,-41.53614450022401]]]}},{"type":"Feature","id":"marker-ben-lomond-summit zone \u00b7 1572 m","properties":{"kind":"marker","name":"Summit zone \u00b7 1572 m","height":26},"geometry":{"type":"Polygon","coordinates":[[[147.65948399469636,-41.5273],[147.65946795313678,-41.52726303901575],[147.6594259557886,-41.52724019587123],[147.6593740442114,-41.52724019587123],[147.65933204686323,-41.52726303901575],[147.65931600530365,-41.5273],[147.65933204686323,-41.52733696098424],[147.6593740442114,-41.527359804128764],[147.6594259557886,-41.527359804128764],[147.65946795313678,-41.52733696098424],[147.65948399469636,-41.5273]]]}},{"type":"Feature","id":"marker-ben-lomond-resort base \u00b7 1460 m","properties":{"kind":"marker","name":"Resort base \u00b7 1460 m","height":18},"geometry":{"type":"Polygon","coordinates":[[[147.66548400248698,-41.5333],[147.66546795943952,-41.53326303901575],[147.66542595819604,-41.53324019587123],[147.66537404180397,-41.53324019587123],[147.6653320405605,-41.53326303901575],[147.66531599751303,-41.5333],[147.6653320405605,-41.53333696098424],[147.66537404180397,-41.533359804128764],[147.66542595819604,-41.533359804128764],[147.66546795943952,-41.53333696098424],[147.66548400248698,-41.5333]]]}}]}